station,valid,tmpf,dwpf,relh,drct,sknt,p01i,alti,mslp,vsby,gust,skyc1,skyc2,skyc3,skyc4,skyl1,skyl2,skyl3,skyl4,wxcodes,ice_accretion_1hr,ice_accretion_3hr,ice_accretion_6hr,peak_wind_gust,peak_wind_drct,peak_wind_time,feel,metar
RCTP,2016-12-31 00:00,68.00,62.60,82.86,40.00,17.00,0.00,30.24,M,6.21,M,FEW,SCT,M,M,1500.00,2200.00,M,M,M,M,M,M,M,M,M,68.00,RCTP 310000Z 04017KT 9999 FEW015 SCT022 20/17 Q1024 NOSIG RMK A3024
RCTP,2016-12-31 00:30,69.80,62.60,77.90,40.00,19.00,0.00,30.24,M,6.21,M,BKN,M,M,M,1900.00,M,M,M,M,M,M,M,M,M,M,69.80,RCTP 310030Z 04019KT 9999 BKN019 21/17 Q1024 NOSIG RMK A3025
RCTP,2016-12-31 01:00,69.80,62.60,77.90,50.00,18.00,0.00,30.24,M,6.21,M,BKN,M,M,M,2200.00,M,M,M,M,M,M,M,M,M,M,69.80,RCTP 310100Z 05018KT 9999 BKN022 21/17 Q1024 NOSIG RMK A3025
RCTP,2016-12-31 01:30,69.80,62.60,77.90,40.00,16.00,0.00,30.24,M,6.21,M,FEW,BKN,M,M,2100.00,3000.00,M,M,M,M,M,M,M,M,M,69.80,RCTP 310130Z 04016KT 9999 FEW021 BKN030 21/17 Q1024 NOSIG RMK A3025
RCTP,2016-12-31 02:00,71.60,62.60,73.27,40.00,16.00,0.00,30.24,M,6.21,M,BKN,M,M,M,2300.00,M,M,M,M,M,M,M,M,M,M,71.60,RCTP 310200Z 04016KT 9999 BKN023 22/17 Q1024 NOSIG RMK A3025
RCTP,2016-12-31 03:00,73.40,64.40,73.44,40.00,17.00,0.00,30.21,M,6.21,M,SCT,M,M,M,2200.00,M,M,M,M,M,M,M,M,M,M,73.40,RCTP 310300Z 04017KT 9999 SCT022 23/18 Q1023 NOSIG RMK A3023
RCTP,2016-12-31 03:30,73.40,64.40,73.44,40.00,19.00,0.00,30.21,M,6.21,M,SCT,M,M,M,2200.00,M,M,M,M,M,M,M,M,M,M,73.40,RCTP 310330Z 04019KT 9999 SCT022 23/18 Q1023 NOSIG RMK A3022
RCTP,2016-12-31 04:00,73.40,64.40,73.44,30.00,21.00,0.00,30.18,M,6.21,M,FEW,M,M,M,2400.00,M,M,M,M,M,M,M,M,M,M,73.40,RCTP 310400Z 03021KT 9999 FEW024 23/18 Q1022 NOSIG RMK A3019
RCTP,2016-12-31 04:30,73.40,64.40,73.44,30.00,21.00,0.00,30.15,M,6.21,M,SCT,M,M,M,2700.00,M,M,M,M,M,M,M,M,M,M,73.40,RCTP 310430Z 03021KT 9999 SCT027 23/18 Q1021 NOSIG RMK A3017
RCTP,2016-12-31 05:00,73.40,64.40,73.44,40.00,24.00,0.00,30.15,M,6.21,M,FEW,M,M,M,2800.00,M,M,M,M,M,M,M,M,M,M,73.40,RCTP 310500Z 04024KT 9999 FEW028 23/18 Q1021 NOSIG RMK A3016
RCTP,2016-12-31 05:30,73.40,64.40,73.44,30.00,21.00,0.00,30.15,M,6.21,M,FEW,M,M,M,2800.00,M,M,M,M,M,M,M,M,M,M,73.40,RCTP 310530Z 03021KT 9999 FEW028 23/18 Q1021 NOSIG RMK A3015
RCTP,2016-12-31 06:00,73.40,64.40,73.44,30.00,19.00,0.00,30.15,M,6.21,M,FEW,M,M,M,2800.00,M,M,M,M,M,M,M,M,M,M,73.40,RCTP 310600Z 03019KT 9999 FEW028 23/18 Q1021 NOSIG RMK A3015
RCTP,2016-12-31 06:30,75.20,64.40,69.14,30.00,19.00,0.00,30.12,M,6.21,M,FEW,M,M,M,2500.00,M,M,M,M,M,M,M,M,M,M,75.20,RCTP 310630Z 03019KT 9999 FEW025 24/18 Q1020 NOSIG RMK A3014
RCTP,2016-12-31 07:00,73.40,64.40,73.44,30.00,18.00,0.00,30.12,M,6.21,M,FEW,M,M,M,2500.00,M,M,M,M,M,M,M,M,M,M,73.40,RCTP 310700Z 03018KT 9999 FEW025 23/18 Q1020 NOSIG RMK A3013
RCTP,2016-12-31 07:30,73.40,62.60,68.94,30.00,21.00,0.00,30.12,M,6.21,M,FEW,M,M,M,2500.00,M,M,M,M,M,M,M,M,M,M,73.40,RCTP 310730Z 03021KT 9999 FEW025 23/17 Q1020 NOSIG RMK A3013
RCTP,2016-12-31 08:00,73.40,62.60,68.94,30.00,17.00,0.00,30.12,M,6.21,M,FEW,M,M,M,2500.00,M,M,M,M,M,M,M,M,M,M,73.40,RCTP 310800Z 03017KT 9999 FEW025 23/17 Q1020 NOSIG RMK A3014
RCTP,2016-12-31 08:30,71.60,62.60,73.27,30.00,17.00,0.00,30.12,M,6.21,M,FEW,M,M,M,2500.00,M,M,M,M,M,M,M,M,M,M,71.60,RCTP 310830Z 03017KT 9999 FEW025 22/17 Q1020 NOSIG RMK A3014
RCTP,2016-12-31 09:00,69.80,62.60,77.90,30.00,17.00,0.00,30.15,M,6.21,M,FEW,M,M,M,2500.00,M,M,M,M,M,M,M,M,M,M,69.80,RCTP 310900Z 03017KT 9999 FEW025 21/17 Q1021 NOSIG RMK A3015
RCTP,2016-12-31 09:30,69.80,62.60,77.90,40.00,17.00,0.00,30.15,M,6.21,M,FEW,M,M,M,2500.00,M,M,M,M,M,M,M,M,M,M,69.80,RCTP 310930Z 04017KT 9999 FEW025 21/17 Q1021 NOSIG RMK A3017
RCTP,2016-12-31 10:00,69.80,62.60,77.90,50.00,17.00,0.00,30.18,M,6.21,M,FEW,M,M,M,2500.00,M,M,M,M,M,M,M,M,M,M,69.80,RCTP 311000Z 05017KT 9999 FEW025 21/17 Q1022 NOSIG RMK A3018
RCTP,2016-12-31 10:30,69.80,60.80,73.09,50.00,17.00,0.00,30.18,M,6.21,M,FEW,M,M,M,2500.00,M,M,M,M,M,M,M,M,M,M,69.80,RCTP 311030Z 05017KT 9999 FEW025 21/16 Q1022 NOSIG RMK A3019
RCTP,2016-12-31 11:00,69.80,60.80,73.09,50.00,18.00,0.00,30.18,M,6.21,M,FEW,M,M,M,2500.00,M,M,M,M,M,M,M,M,M,M,69.80,RCTP 311100Z 05018KT 9999 FEW025 21/16 Q1022 NOSIG RMK A3020
RCTP,2016-12-31 11:30,69.80,60.80,73.09,60.00,16.00,0.00,30.18,M,6.21,M,FEW,M,M,M,2500.00,M,M,M,M,M,M,M,M,M,M,69.80,RCTP 311130Z 06016KT 9999 FEW025 21/16 Q1022 NOSIG RMK A3020
RCTP,2016-12-31 12:00,69.80,60.80,73.09,60.00,16.00,0.00,30.21,M,6.21,M,FEW,M,M,M,2500.00,M,M,M,M,M,M,M,M,M,M,69.80,RCTP 311200Z 06016KT 9999 FEW025 21/16 Q1023 NOSIG RMK A3021
RCTP,2016-12-31 12:30,68.00,60.80,77.75,70.00,15.00,0.00,30.21,M,6.21,M,FEW,M,M,M,2500.00,M,M,M,M,M,M,M,M,M,M,68.00,RCTP 311230Z 07015KT 9999 FEW025 20/16 Q1023 NOSIG RMK A3021
RCTP,2016-12-31 13:00,68.00,60.80,77.75,70.00,16.00,0.00,30.21,M,6.21,M,FEW,M,M,M,2500.00,M,M,M,M,M,M,M,M,M,M,68.00,RCTP 311300Z 07016KT 9999 FEW025 20/16 Q1023 NOSIG RMK A3021
RCTP,2016-12-31 13:30,69.80,60.80,73.09,60.00,16.00,0.00,30.18,M,6.21,M,FEW,M,M,M,2500.00,M,M,M,M,M,M,M,M,M,M,69.80,RCTP 311330Z 06016KT 9999 FEW025 21/16 Q1022 NOSIG RMK A3020
RCTP,2016-12-31 14:00,68.00,60.80,77.75,70.00,18.00,0.00,30.18,M,6.21,M,FEW,M,M,M,2500.00,M,M,M,M,M,M,M,M,M,M,68.00,RCTP 311400Z 07018KT 9999 FEW025 20/16 Q1022 NOSIG RMK A3020
RCTP,2016-12-31 14:30,68.00,59.00,72.92,70.00,17.00,0.00,30.18,M,6.21,M,FEW,M,M,M,2500.00,M,M,M,M,M,M,M,M,M,M,68.00,RCTP 311430Z 07017KT 9999 FEW025 20/15 Q1022 NOSIG RMK A3020
RCTP,2016-12-31 15:00,69.80,59.00,68.55,70.00,16.00,0.00,30.18,M,6.21,M,FEW,M,M,M,2500.00,M,M,M,M,M,M,M,M,M,M,69.80,RCTP 311500Z 07016KT 9999 FEW025 21/15 Q1022 NOSIG RMK A3020
RCTP,2016-12-31 15:30,69.80,59.00,68.55,70.00,17.00,0.00,30.18,M,6.21,M,FEW,M,M,M,2500.00,M,M,M,M,M,M,M,M,M,M,69.80,RCTP 311530Z 07017KT 9999 FEW025 21/15 Q1022 NOSIG RMK A3019
RCTP,2016-12-31 16:00,69.80,59.00,68.55,70.00,17.00,0.00,30.18,M,6.21,M,FEW,M,M,M,2500.00,M,M,M,M,M,M,M,M,M,M,69.80,RCTP 311600Z 07017KT 9999 FEW025 21/15 Q1022 NOSIG RMK A3018
RCTP,2016-12-31 16:30,69.80,59.00,68.55,70.00,18.00,0.00,30.18,M,6.21,M,FEW,M,M,M,2500.00,M,M,M,M,M,M,M,M,M,M,69.80,RCTP 311630Z 07018KT 040V100 9999 FEW025 21/15 Q1022 NOSIG RMK A3018
RCTP,2016-12-31 17:00,69.80,59.00,68.55,70.00,15.00,0.00,30.15,M,6.21,M,FEW,M,M,M,2500.00,M,M,M,M,M,M,M,M,M,M,69.80,RCTP 311700Z 07015KT 050V110 9999 FEW025 21/15 Q1021 NOSIG RMK A3017
RCTP,2016-12-31 17:30,68.00,59.00,72.92,70.00,18.00,0.00,30.15,M,6.21,M,FEW,M,M,M,2500.00,M,M,M,M,M,M,M,M,M,M,68.00,RCTP 311730Z 07018KT 9999 FEW025 20/15 Q1021 NOSIG RMK A3017
RCTP,2016-12-31 18:00,68.00,60.80,77.75,60.00,10.00,0.00,30.15,M,6.21,M,FEW,M,M,M,3000.00,M,M,M,M,M,M,M,M,M,M,68.00,RCTP 311800Z 06010KT 9999 FEW030 20/16 Q1021 NOSIG RMK A3016
RCTP,2016-12-31 18:30,68.00,60.80,77.75,70.00,11.00,0.00,30.15,M,6.21,M,FEW,M,M,M,4000.00,M,M,M,M,M,M,M,M,M,M,68.00,RCTP 311830Z 07011KT 9999 FEW040 20/16 Q1021 NOSIG RMK A3015
RCTP,2016-12-31 19:00,69.80,59.00,68.55,70.00,10.00,0.00,30.15,M,6.21,M,M,M,M,M,M,M,M,M,M,M,M,M,M,M,M,69.80,RCTP 311900Z 07010KT CAVOK 21/15 Q1021 NOSIG RMK A3015
RCTP,2016-12-31 19:30,69.80,59.00,68.55,70.00,10.00,0.00,30.12,M,6.21,M,FEW,M,M,M,2300.00,M,M,M,M,M,M,M,M,M,M,69.80,RCTP 311930Z 07010KT 030V090 9999 FEW023 21/15 Q1020 NOSIG RMK A3014
RCTP,2016-12-31 20:00,69.80,60.80,73.09,80.00,12.00,0.00,30.12,M,6.21,M,FEW,M,M,M,2300.00,M,M,M,M,M,M,M,M,M,M,69.80,RCTP 312000Z 08012KT 050V110 9999 FEW023 21/16 Q1020 NOSIG RMK A3014
RCTP,2016-12-31 20:30,69.80,60.80,73.09,80.00,9.00,0.00,30.12,M,6.21,M,FEW,M,M,M,2300.00,M,M,M,M,M,M,M,M,M,M,69.80,RCTP 312030Z 08009KT 9999 FEW023 21/16 Q1020 NOSIG RMK A3014
RCTP,2016-12-31 21:00,68.00,60.80,77.75,80.00,10.00,0.00,30.15,M,6.21,M,FEW,M,M,M,3000.00,M,M,M,M,M,M,M,M,M,M,68.00,RCTP 312100Z 08010KT 9999 FEW030 20/16 Q1021 NOSIG RMK A3015
RCTP,2016-12-31 21:30,68.00,60.80,77.75,80.00,11.00,0.00,30.15,M,6.21,M,FEW,M,M,M,3000.00,M,M,M,M,M,M,M,M,M,M,68.00,RCTP 312130Z 08011KT 050V110 9999 FEW030 20/16 Q1021 NOSIG RMK A3015
RCTP,2016-12-31 22:00,69.80,60.80,73.09,80.00,14.00,0.00,30.15,M,6.21,M,FEW,M,M,M,3000.00,M,M,M,M,M,M,M,M,M,M,69.80,RCTP 312200Z 08014KT 9999 FEW030 21/16 Q1021 NOSIG RMK A3016
RCTP,2016-12-31 22:30,69.80,60.80,73.09,80.00,13.00,0.00,30.15,M,6.21,M,FEW,M,M,M,2600.00,M,M,M,M,M,M,M,M,M,M,69.80,RCTP 312230Z 08013KT 9999 FEW026 21/16 Q1021 NOSIG RMK A3017
RCTP,2016-12-31 23:00,69.80,60.80,73.09,80.00,15.00,0.00,30.18,M,6.21,28.00,FEW,M,M,M,2200.00,M,M,M,M,M,M,M,M,M,M,69.80,RCTP 312300Z 08015G28KT 9999 FEW022 21/16 Q1022 NOSIG RMK A3018
RCTP,2016-12-31 23:30,69.80,60.80,73.09,100.00,13.00,0.00,30.18,M,6.21,M,FEW,M,M,M,2500.00,M,M,M,M,M,M,M,M,M,M,69.80,RCTP 312330Z 10013KT 9999 FEW025 21/16 Q1022 NOSIG RMK A3019
RCTP,2017-01-01 00:00,71.60,60.80,68.75,100.00,15.00,0.00,30.18,M,6.21,M,FEW,M,M,M,2800.00,M,M,M,M,M,M,M,M,M,M,71.60,RCTP 010000Z 10015KT 9999 FEW028 22/16 Q1022 NOSIG RMK A3019
RCTP,2017-01-01 00:30,73.40,60.80,64.69,100.00,13.00,0.00,30.18,M,6.21,M,M,M,M,M,M,M,M,M,M,M,M,M,M,M,M,73.40,RCTP 010030Z 10013KT CAVOK 23/16 Q1022 NOSIG RMK A3020
RCTP,2017-01-01 01:00,73.40,60.80,64.69,100.00,15.00,0.00,30.18,M,6.21,M,M,M,M,M,M,M,M,M,M,M,M,M,M,M,M,73.40,RCTP 010100Z 10015KT CAVOK 23/16 Q1022 NOSIG RMK A3020
RCTP,2017-01-01 01:30,75.20,60.80,60.90,90.00,14.00,0.00,30.18,M,6.21,M,M,M,M,M,M,M,M,M,M,M,M,M,M,M,M,75.20,RCTP 010130Z 09014KT CAVOK 24/16 Q1022 NOSIG RMK A3020
RCTP,2017-01-01 02:00,75.20,62.60,64.91,100.00,15.00,0.00,30.18,M,6.21,M,M,M,M,M,M,M,M,M,M,M,M,M,M,M,M,75.20,RCTP 010200Z 10015KT CAVOK 24/17 Q1022 NOSIG RMK A3020
RCTP,2017-01-01 02:30,77.00,62.60,61.13,100.00,13.00,0.00,30.18,M,6.21,M,M,M,M,M,M,M,M,M,M,M,M,M,M,M,M,77.00,RCTP 010230Z 10013KT CAVOK 25/17 Q1022 NOSIG RMK A3019
RCTP,2017-01-01 03:00,78.80,60.80,54.05,90.00,11.00,0.00,30.15,M,6.21,M,M,M,M,M,M,M,M,M,M,M,M,M,M,M,M,78.80,RCTP 010300Z 09011KT CAVOK 26/16 Q1021 NOSIG RMK A3017
RCTP,2017-01-01 03:30,78.80,62.60,57.60,70.00,10.00,0.00,30.15,M,6.21,M,M,M,M,M,M,M,M,M,M,M,M,M,M,M,M,80.31,RCTP 010330Z 07010KT CAVOK 26/17 Q1021 NOSIG RMK A3016
RCTP,2017-01-01 04:00,80.60,60.80,50.95,80.00,10.00,0.00,30.12,M,6.21,M,M,M,M,M,M,M,M,M,M,M,M,M,M,M,M,81.46,RCTP 010400Z 08010KT CAVOK 27/16 Q1020 NOSIG RMK A3014
RCTP,2017-01-01 04:30,80.60,60.80,50.95,70.00,9.00,0.00,30.12,M,6.21,M,M,M,M,M,M,M,M,M,M,M,M,M,M,M,M,81.46,RCTP 010430Z 07009KT CAVOK 27/16 Q1020 NOSIG RMK A3012
RCTP,2017-01-01 05:00,80.60,60.80,50.95,80.00,9.00,0.00,30.09,M,6.21,M,M,M,M,M,M,M,M,M,M,M,M,M,M,M,M,81.46,RCTP 010500Z 08009KT 030V120 CAVOK 27/16 Q1019 NOSIG RMK A3011
RCTP,2017-01-01 05:30,80.60,60.80,50.95,10.00,12.00,0.00,30.09,M,6.21,M,M,M,M,M,M,M,M,M,M,M,M,M,M,M,M,81.46,RCTP 010530Z 01012KT CAVOK 27/16 Q1019 NOSIG RMK A3010
RCTP,2017-01-01 06:00,78.80,62.60,57.60,350.00,13.00,0.00,30.06,M,6.21,M,M,M,M,M,M,M,M,M,M,M,M,M,M,M,M,80.31,RCTP 010600Z 35013KT CAVOK 26/17 Q1018 NOSIG RMK A3008
RCTP,2017-01-01 06:30,77.00,64.40,65.12,360.00,12.00,0.00,30.06,M,6.21,M,FEW,M,M,M,2000.00,M,M,M,M,M,M,M,M,M,M,77.00,RCTP 010630Z 36012KT 9999 FEW020 25/18 Q1018 NOSIG RMK A3008
RCTP,2017-01-01 07:00,77.00,64.40,65.12,10.00,12.00,0.00,30.06,M,6.21,M,FEW,M,M,M,2000.00,M,M,M,M,M,M,M,M,M,M,77.00,RCTP 010700Z 01012KT 9999 FEW020 25/18 Q1018 NOSIG RMK A3007
RCTP,2017-01-01 07:30,77.00,64.40,65.12,10.00,11.00,0.00,30.06,M,6.21,M,FEW,M,M,M,2500.00,M,M,M,M,M,M,M,M,M,M,77.00,RCTP 010730Z 01011KT 9999 FEW025 25/18 Q1018 NOSIG RMK A3007
RCTP,2017-01-01 08:00,75.20,64.40,69.14,360.00,9.00,0.00,30.06,M,6.21,M,FEW,M,M,M,2500.00,M,M,M,M,M,M,M,M,M,M,75.20,RCTP 010800Z 36009KT 9999 FEW025 24/18 Q1018 NOSIG RMK A3007
RCTP,2017-01-01 08:30,71.60,66.20,83.09,360.00,10.00,0.00,30.06,M,6.21,M,FEW,M,M,M,2500.00,M,M,M,M,M,M,M,M,M,M,71.60,RCTP 010830Z 36010KT 9999 FEW025 22/19 Q1018 NOSIG RMK A3007
RCTP,2017-01-01 09:00,69.80,64.40,82.98,350.00,8.00,0.00,30.06,M,6.21,M,FEW,M,M,M,2500.00,M,M,M,M,M,M,M,M,M,M,69.80,RCTP 010900Z 35008KT 9999 FEW025 21/18 Q1018 NOSIG RMK A3007
RCTP,2017-01-01 09:30,69.80,64.40,82.98,360.00,7.00,0.00,30.06,M,6.21,M,FEW,M,M,M,2500.00,M,M,M,M,M,M,M,M,M,M,69.80,RCTP 010930Z 36007KT 9999 FEW025 21/18 Q1018 NOSIG RMK A3008
RCTP,2017-01-01 10:00,73.40,62.60,68.94,60.00,7.00,0.00,30.06,M,6.21,M,FEW,M,M,M,2500.00,M,M,M,M,M,M,M,M,M,M,73.40,RCTP 011000Z 06007KT 9999 FEW025 23/17 Q1018 NOSIG RMK A3008
RCTP,2017-01-01 10:30,73.40,62.60,68.94,70.00,5.00,0.00,30.09,M,6.21,M,FEW,M,M,M,2500.00,M,M,M,M,M,M,M,M,M,M,73.40,RCTP 011030Z 07005KT 9999 FEW025 23/17 Q1019 NOSIG RMK A3009
RCTP,2017-01-01 11:00,73.40,62.60,68.94,110.00,6.00,0.00,30.09,M,6.21,M,FEW,M,M,M,2500.00,M,M,M,M,M,M,M,M,M,M,73.40,RCTP 011100Z 11006KT 9999 FEW025 23/17 Q1019 NOSIG RMK A3009
RCTP,2017-01-01 11:30,73.40,62.60,68.94,80.00,3.00,0.00,30.09,M,6.21,M,FEW,M,M,M,2500.00,M,M,M,M,M,M,M,M,M,M,73.40,RCTP 011130Z 08003KT 9999 FEW025 23/17 Q1019 NOSIG RMK A3010
RCTP,2017-01-01 12:00,71.60,60.80,68.75,90.00,6.00,0.00,30.09,M,6.21,M,FEW,M,M,M,2500.00,M,M,M,M,M,M,M,M,M,M,71.60,RCTP 011200Z 09006KT 050V130 9999 FEW025 22/16 Q1019 NOSIG RMK A3010
RCTP,2017-01-01 12:30,69.80,60.80,73.09,70.00,4.00,0.00,30.09,M,6.21,M,FEW,M,M,M,2500.00,M,M,M,M,M,M,M,M,M,M,69.80,RCTP 011230Z 07004KT 020V130 9999 FEW025 21/16 Q1019 NOSIG RMK A3011
RCTP,2017-01-01 13:00,69.80,60.80,73.09,100.00,5.00,0.00,30.09,M,6.21,M,FEW,SCT,M,M,2500.00,14000.00,M,M,M,M,M,M,M,M,M,69.80,RCTP 011300Z 10005KT 050V160 9999 FEW025 SCT140 21/16 Q1019 NOSIG RMK A3011
RCTP,2017-01-01 13:30,68.00,60.80,77.75,0.00,0.00,0.00,30.09,M,6.21,M,FEW,SCT,M,M,2500.00,14000.00,M,M,M,M,M,M,M,M,M,68.00,RCTP 011330Z 00000KT 9999 FEW025 SCT140 20/16 Q1019 NOSIG RMK A3011
RCTP,2017-01-01 14:00,66.20,59.00,77.60,220.00,3.00,0.00,30.12,M,6.21,M,FEW,M,M,M,2500.00,M,M,M,M,M,M,M,M,M,M,66.20,RCTP 011400Z 22003KT 9999 FEW025 19/15 Q1020 NOSIG RMK A3012
RCTP,2017-01-01 14:30,64.40,60.80,88.09,230.00,4.00,0.00,30.12,M,6.21,M,FEW,M,M,M,2500.00,M,M,M,M,M,M,M,M,M,M,64.40,RCTP 011430Z 23004KT 9999 FEW025 18/16 Q1020 NOSIG RMK A3012
RCTP,2017-01-01 14:52,66.20,60.80,82.74,230.00,6.00,0.00,30.12,M,6.21,M,FEW,M,M,M,2500.00,M,M,M,M,M,M,M,M,M,M,66.20,RCTP 011452Z 23006KT 9999 FEW025 19/16 Q1020 NOSIG RMK R23 A3012
RCTP,2017-01-01 15:00,66.20,62.60,88.18,230.00,5.00,0.00,30.12,M,6.21,M,FEW,M,M,M,2500.00,M,M,M,M,M,M,M,M,M,M,66.20,RCTP 011500Z 23005KT 9999 FEW025 19/17 Q1020 NOSIG RMK A3012
RCTP,2017-01-01 15:30,66.20,62.60,88.18,230.00,8.00,0.00,30.12,M,6.21,M,FEW,M,M,M,2500.00,M,M,M,M,M,M,M,M,M,M,66.20,RCTP 011530Z 23008KT 9999 FEW025 19/17 Q1020 NOSIG RMK A3012
RCTP,2017-01-01 16:00,64.40,62.60,93.88,230.00,7.00,0.00,30.12,M,5.59,M,FEW,M,M,M,1000.00,M,M,M,M,M,M,M,M,M,M,64.40,RCTP 011600Z 23007KT 9000 FEW010 18/17 Q1020 NOSIG RMK A3012
RCTP,2017-01-01 16:30,64.40,62.60,93.88,240.00,7.00,0.00,30.12,M,5.59,M,FEW,M,M,M,1000.00,M,M,M,M,M,M,M,M,M,M,64.40,RCTP 011630Z 24007KT 9000 FEW010 18/17 Q1020 NOSIG RMK A3012
RCTP,2017-01-01 17:03,64.40,62.60,93.88,260.00,6.00,0.00,30.12,M,1.86,M,SCT,BKN,M,M,300.00,500.00,M,M,BR,M,M,M,M,M,M,64.40,RCTP 011703Z 26006KT 3000 BR SCT003 BKN005 18/17 Q1020 TEMPO 1500 BR RMK A3012
RCTP,2017-01-01 17:07,64.40,62.60,93.88,260.00,6.00,0.00,30.12,M,0.93,M,SCT,BKN,M,M,200.00,400.00,M,M,BR,M,M,M,M,M,M,64.40,RCTP 011707Z 26006KT 1500 BR SCT002 BKN004 18/17 Q1020 TEMPO 0800 FG RMK A3012
RCTP,2017-01-01 17:14,64.40,62.60,93.88,250.00,7.00,0.00,30.12,M,0.50,M,SCT,BKN,M,M,100.00,300.00,M,M,FG,M,M,M,M,M,M,64.40,RCTP 011714Z 25007KT 0800 R23L/1900N FG SCT001 BKN003 18/17 Q1020 TEMPO 0500 FG RMK A3012
RCTP,2017-01-01 17:30,64.40,64.40,100.00,240.00,6.00,0.00,30.12,M,0.37,M,SCT,BKN,M,M,100.00,200.00,M,M,FG,M,M,M,M,M,M,64.40,RCTP 011730Z 24006KT 0600 R23L/1400D FG SCT001 BKN002 18/18 Q1020 TEMPO 0500 FG RMK A3012
RCTP,2017-01-01 17:43,66.20,64.40,93.92,220.00,5.00,0.00,30.12,M,0.50,M,SCT,BKN,M,M,100.00,200.00,M,M,FG,M,M,M,M,M,M,66.20,RCTP 011743Z 22005KT 0800 R23L/1000U FG SCT001 BKN002 19/18 Q1020 NOSIG RMK A3012
RCTP,2017-01-01 18:00,64.40,60.80,88.09,190.00,5.00,0.00,30.12,M,0.56,M,SCT,BKN,M,M,100.00,200.00,M,M,FG,M,M,M,M,M,M,64.40,RCTP 011800Z 19005KT 0900 R23L/1500U FG SCT001 BKN002 18/16 Q1020 TEMPO 1500 BR RMK A3012
RCTP,2017-01-01 18:30,64.40,60.80,88.09,190.00,5.00,0.00,30.12,M,0.50,M,SCT,BKN,M,M,100.00,200.00,M,M,FG,M,M,M,M,M,M,64.40,RCTP 011830Z 19005KT 0800 R23L/1500N FG SCT001 BKN002 18/16 Q1020 NOSIG RMK A3012
RCTP,2017-01-01 18:56,64.40,60.80,88.09,220.00,5.00,0.00,30.12,M,0.93,M,SCT,BKN,M,M,100.00,200.00,M,M,BR,M,M,M,M,M,M,64.40,RCTP 011856Z 22005KT 1500 BR SCT001 BKN002 18/16 Q1020 NOSIG RMK A3012
RCTP,2017-01-01 19:00,64.40,60.80,88.09,220.00,5.00,0.00,30.12,M,0.93,M,SCT,BKN,M,M,100.00,200.00,M,M,BR,M,M,M,M,M,M,64.40,RCTP 011900Z 22005KT 1500 BR SCT001 BKN002 18/16 Q1020 NOSIG RMK A3012
RCTP,2017-01-01 19:30,64.40,60.80,88.09,220.00,4.00,0.00,30.12,M,1.37,M,SCT,BKN,M,M,200.00,300.00,M,M,BR,M,M,M,M,M,M,64.40,RCTP 011930Z 22004KT 2200 BR SCT002 BKN003 18/16 Q1020 NOSIG RMK A3012
RCTP,2017-01-01 20:00,64.40,60.80,88.09,220.00,5.00,0.00,30.12,M,1.37,M,SCT,SCT,M,M,300.00,500.00,M,M,BR,M,M,M,M,M,M,64.40,RCTP 012000Z 22005KT 2200 BR SCT003 SCT005 18/16 Q1020 NOSIG RMK A3012
RCTP,2017-01-01 20:30,64.40,60.80,88.09,190.00,4.00,0.00,30.12,M,1.24,M,SCT,M,M,M,500.00,M,M,M,BR,M,M,M,M,M,M,64.40,RCTP 012030Z 19004KT 2000 BR SCT005 18/16 Q1020 NOSIG RMK A3012
RCTP,2017-01-01 20:57,64.40,60.80,88.09,170.00,4.00,0.00,30.12,M,1.24,M,SCT,BKN,M,M,800.00,1400.00,M,M,BR,M,M,M,M,M,M,64.40,RCTP 012057Z 17004KT 2000 BR SCT008 BKN014 18/16 Q1020 NOSIG RMK A3013
RCTP,2017-01-01 21:00,64.40,60.80,88.09,170.00,4.00,0.00,30.12,M,1.24,M,SCT,BKN,M,M,800.00,1400.00,M,M,BR,M,M,M,M,M,M,64.40,RCTP 012100Z 17004KT 2000 BR SCT008 BKN014 18/16 Q1020 NOSIG RMK A3013
RCTP,2017-01-01 21:30,64.40,60.80,88.09,190.00,6.00,0.00,30.12,M,1.74,M,SCT,BKN,M,M,800.00,1400.00,M,M,BR,M,M,M,M,M,M,64.40,RCTP 012130Z 19006KT 2800 BR SCT008 BKN014 18/16 Q1020 NOSIG RMK A3013
RCTP,2017-01-01 22:00,66.20,62.60,88.18,190.00,5.00,0.00,30.12,M,1.74,M,SCT,BKN,M,M,800.00,1400.00,M,M,BR,M,M,M,M,M,M,66.20,RCTP 012200Z 19005KT 2800 BR SCT008 BKN014 19/17 Q1020 NOSIG RMK A3013
RCTP,2017-01-01 22:30,66.20,62.60,88.18,170.00,7.00,0.00,30.15,M,1.74,M,SCT,BKN,M,M,800.00,1200.00,M,M,BR,M,M,M,M,M,M,66.20,RCTP 012230Z 17007KT 140V220 2800 BR SCT008 BKN012 19/17 Q1021 NOSIG RMK A3015
RCTP,2017-01-01 23:00,66.20,64.40,93.92,180.00,6.00,0.00,30.15,M,1.74,M,SCT,BKN,M,M,800.00,1200.00,M,M,BR,M,M,M,M,M,M,66.20,RCTP 012300Z 18006KT 140V260 2800 BR SCT008 BKN012 19/18 Q1021 NOSIG RMK A3015
RCTP,2017-01-01 23:30,66.20,64.40,93.92,190.00,5.00,0.00,30.15,M,1.74,M,SCT,BKN,M,M,800.00,1200.00,M,M,BR,M,M,M,M,M,M,66.20,RCTP 012330Z 19005KT 160V220 2800 BR SCT008 BKN012 19/18 Q1021 NOSIG RMK A3016
RCTP,2017-01-02 00:00,68.00,64.40,88.26,180.00,6.00,0.00,30.15,M,1.74,M,SCT,BKN,M,M,800.00,1200.00,M,M,BR,M,M,M,M,M,M,68.00,RCTP 020000Z 18006KT 150V220 2800 BR SCT008 BKN012 20/18 Q1021 NOSIG RMK A3017
RCTP,2017-01-02 00:18,68.00,64.40,88.26,220.00,6.00,0.00,30.18,M,2.98,M,SCT,BKN,M,M,800.00,1200.00,M,M,BR,M,M,M,M,M,M,68.00,RCTP 020018Z 22006KT 160V320 4800 BR SCT008 BKN012 20/18 Q1022 NOSIG RMK A3018
RCTP,2017-01-02 00:30,68.00,64.40,88.26,280.00,4.00,0.00,30.18,M,2.80,M,SCT,BKN,BKN,M,700.00,1200.00,2000.00,M,BR,M,M,M,M,M,M,68.00,RCTP 020030Z 28004KT 220V330 4500 BR SCT007 BKN012 BKN020 20/18 Q1022 NOSIG RMK A3018
RCTP,2017-01-02 01:03,68.00,66.20,93.97,340.00,7.00,0.00,30.18,M,2.98,M,SCT,BKN,BKN,M,500.00,900.00,1400.00,M,BR,M,M,M,M,M,M,68.00,RCTP 020103Z 34007KT 4800 BR SCT005 BKN009 BKN014 20/19 Q1022 NOSIG RMK R05 A3019
RCTP,2017-01-02 01:30,68.00,66.20,93.97,10.00,6.00,0.00,30.18,M,4.35,M,SCT,BKN,BKN,M,600.00,1000.00,1800.00,M,M,M,M,M,M,M,M,68.00,RCTP 020130Z 01006KT 7000 SCT006 BKN010 BKN018 20/19 Q1022 NOSIG RMK A3018
RCTP,2017-01-02 02:00,68.00,66.20,93.97,10.00,4.00,0.00,30.18,M,5.59,M,SCT,BKN,M,M,900.00,1800.00,M,M,M,M,M,M,M,M,M,68.00,RCTP 020200Z 01004KT 9000 SCT009 BKN018 20/19 Q1022 NOSIG RMK A3018
RCTP,2017-01-02 02:30,69.80,64.40,82.98,M,1.00,0.00,30.15,M,6.21,M,SCT,BKN,M,M,1400.00,2000.00,M,M,M,M,M,M,M,M,M,69.80,RCTP 020230Z VRB01KT 9999 SCT014 BKN020 21/18 Q1021 NOSIG RMK A3016
RCTP,2017-01-02 03:00,69.80,66.20,88.34,330.00,7.00,0.00,30.15,M,6.21,M,SCT,BKN,M,M,1200.00,1600.00,M,M,M,M,M,M,M,M,M,69.80,RCTP 020300Z 33007KT 290V360 9999 SCT012 BKN016 21/19 Q1021 NOSIG RMK A3015
RCTP,2017-01-02 03:30,71.60,64.40,78.04,330.00,7.00,0.00,30.15,M,6.21,M,FEW,SCT,M,M,1200.00,1600.00,M,M,M,M,M,M,M,M,M,71.60,RCTP 020330Z 33007KT 9999 FEW012 SCT016 22/18 Q1021 NOSIG RMK A3015
RCTP,2017-01-02 04:00,71.60,66.20,83.09,330.00,12.00,0.00,30.12,M,6.21,M,FEW,SCT,M,M,1200.00,1600.00,M,M,M,M,M,M,M,M,M,71.60,RCTP 020400Z 33012KT 9999 FEW012 SCT016 22/19 Q1020 NOSIG RMK A3014
RCTP,2017-01-02 04:30,71.60,66.20,83.09,350.00,11.00,0.00,30.12,M,6.21,M,SCT,BKN,BKN,M,700.00,1200.00,1800.00,M,M,M,M,M,M,M,M,71.60,RCTP 020430Z 35011KT 9999 SCT007 BKN012 BKN018 22/19 Q1020 NOSIG RMK A3013
RCTP,2017-01-02 05:00,69.80,64.40,82.98,360.00,12.00,0.00,30.12,M,6.21,M,SCT,BKN,BKN,M,700.00,1200.00,1800.00,M,M,M,M,M,M,M,M,69.80,RCTP 020500Z 36012KT 9999 SCT007 BKN012 BKN018 21/18 Q1020 NOSIG RMK A3012
RCTP,2017-01-02 05:30,69.80,66.20,88.34,10.00,12.00,0.00,30.09,M,6.21,M,SCT,BKN,BKN,M,700.00,1100.00,1600.00,M,M,M,M,M,M,M,M,69.80,RCTP 020530Z 01012KT 9999 SCT007 BKN011 BKN016 21/19 Q1019 NOSIG RMK A3011
RCTP,2017-01-02 06:00,69.80,66.20,88.34,360.00,12.00,0.00,30.09,M,6.21,M,SCT,BKN,BKN,M,600.00,1100.00,1600.00,M,M,M,M,M,M,M,M,69.80,RCTP 020600Z 36012KT 9999 SCT006 BKN011 BKN016 21/19 Q1019 NOSIG RMK A3010
RCTP,2017-01-02 06:15,69.80,66.20,88.34,10.00,12.00,0.00,30.09,M,5.59,M,FEW,BKN,BKN,M,500.00,900.00,1500.00,M,M,M,M,M,M,M,M,69.80,RCTP 020615Z 01012KT 9000 FEW005 BKN009 BKN015 21/19 Q1019 TEMPO FEW005 BKN015 RMK A3010
RCTP,2017-01-02 06:30,69.80,66.20,88.34,10.00,12.00,0.00,30.09,M,5.59,M,FEW,BKN,BKN,M,500.00,900.00,1500.00,M,M,M,M,M,M,M,M,69.80,RCTP 020630Z 01012KT 9000 FEW005 BKN009 BKN015 21/19 Q1019 TEMPO FEW005 BKN015 RMK A3010
RCTP,2017-01-02 06:40,69.80,66.20,88.34,30.00,14.00,0.00,30.09,M,5.59,M,FEW,BKN,BKN,M,500.00,800.00,1500.00,M,M,M,M,M,M,M,M,69.80,RCTP 020640Z 03014KT 9000 FEW005 BKN008 BKN015 21/19 Q1019 TEMPO FEW005 BKN015 RMK A3009
RCTP,2017-01-02 06:57,69.80,66.20,88.34,30.00,11.00,0.00,30.09,M,4.97,M,FEW,BKN,BKN,M,400.00,700.00,1200.00,M,M,M,M,M,M,M,M,69.80,RCTP 020657Z 03011KT 8000 FEW004 BKN007 BKN012 21/19 Q1019 TEMPO FEW005 BKN012 RMK A3009
RCTP,2017-01-02 07:00,69.80,66.20,88.34,30.00,12.00,0.00,30.09,M,5.59,M,FEW,BKN,BKN,M,400.00,700.00,1400.00,M,M,M,M,M,M,M,M,69.80,RCTP 020700Z 03012KT 9000 FEW004 BKN007 BKN014 21/19 Q1019 TEMPO FEW005 BKN012 RMK A3009
RCTP,2017-01-02 07:22,69.80,66.20,88.34,20.00,13.00,0.00,30.09,M,5.59,M,FEW,BKN,BKN,M,500.00,800.00,1500.00,M,M,M,M,M,M,M,M,69.80,RCTP 020722Z 02013KT 9000 FEW005 BKN008 BKN015 21/19 Q1019 TEMPO FEW005 BKN012 RMK A3009
RCTP,2017-01-02 07:30,69.80,66.20,88.34,20.00,13.00,0.00,30.09,M,5.59,M,FEW,BKN,BKN,M,500.00,800.00,1500.00,M,M,M,M,M,M,M,M,69.80,RCTP 020730Z 02013KT 9000 FEW005 BKN008 BKN015 21/19 Q1019 TEMPO FEW005 BKN012 RMK A3009
RCTP,2017-01-02 08:00,69.80,66.20,88.34,30.00,14.00,0.00,30.09,M,5.59,M,FEW,BKN,M,M,600.00,900.00,M,M,M,M,M,M,M,M,M,69.80,RCTP 020800Z 03014KT 9000 FEW006 BKN009 21/19 Q1019 TEMPO FEW010 BKN015 RMK A3009
RCTP,2017-01-02 08:09,69.80,66.20,88.34,30.00,13.00,0.00,30.06,M,6.21,M,SCT,M,M,M,800.00,M,M,M,M,M,M,M,M,M,M,69.80,RCTP 020809Z 03013KT 9999 SCT008 21/19 Q1018 NOSIG RMK A3008
RCTP,2017-01-02 08:30,69.80,66.20,88.34,30.00,11.00,0.00,30.09,M,6.21,M,SCT,M,M,M,800.00,M,M,M,M,M,M,M,M,M,M,69.80,RCTP 020830Z 03011KT 9999 SCT008 21/19 Q1019 NOSIG RMK A3009
RCTP,2017-01-02 09:00,69.80,66.20,88.34,40.00,12.00,0.00,30.09,M,6.21,M,FEW,M,M,M,700.00,M,M,M,M,M,M,M,M,M,M,69.80,RCTP 020900Z 04012KT 9999 FEW007 21/19 Q1019 NOSIG RMK A3009
RCTP,2017-01-02 09:30,68.00,66.20,93.97,40.00,12.00,0.00,30.09,M,4.97,M,SCT,M,M,M,600.00,M,M,M,M,M,M,M,M,M,M,68.00,RCTP 020930Z 04012KT 8000 SCT006 20/19 Q1019 NOSIG RMK A3010
RCTP,2017-01-02 10:00,68.00,66.20,93.97,40.00,10.00,0.00,30.09,M,4.97,M,FEW,M,M,M,500.00,M,M,M,M,M,M,M,M,M,M,68.00,RCTP 021000Z 04010KT 8000 FEW005 20/19 Q1019 BECMG 5000 BR RMK A3010
RCTP,2017-01-02 10:30,68.00,66.20,93.97,40.00,9.00,0.00,30.09,M,4.35,M,FEW,M,M,M,400.00,M,M,M,M,M,M,M,M,M,M,68.00,RCTP 021030Z 04009KT 7000 FEW004 20/19 Q1019 BECMG 5000 BR RMK A3011
RCTP,2017-01-02 11:00,68.00,66.20,93.97,30.00,8.00,0.00,30.09,M,4.35,M,FEW,M,M,M,400.00,M,M,M,M,M,M,M,M,M,M,68.00,RCTP 021100Z 03008KT 7000 FEW004 20/19 Q1019 BECMG 5000 BR RMK A3011
RCTP,2017-01-02 11:30,66.20,66.20,100.00,30.00,8.00,0.00,30.12,M,4.35,M,FEW,M,M,M,500.00,M,M,M,M,M,M,M,M,M,M,66.20,RCTP 021130Z 03008KT 7000 FEW005 19/19 Q1020 NOSIG RMK A3012
RCTP,2017-01-02 12:00,68.00,66.20,93.97,40.00,8.00,0.00,30.12,M,4.35,M,FEW,M,M,M,500.00,M,M,M,M,M,M,M,M,M,M,68.00,RCTP 021200Z 04008KT 7000 FEW005 20/19 Q1020 NOSIG RMK A3012
RCTP,2017-01-02 12:30,66.20,64.40,93.92,40.00,8.00,0.00,30.12,M,4.35,M,FEW,M,M,M,500.00,M,M,M,M,M,M,M,M,M,M,66.20,RCTP 021230Z 04008KT 7000 FEW005 19/18 Q1020 NOSIG RMK A3012
RCTP,2017-01-02 13:00,66.20,64.40,93.92,40.00,6.00,0.00,30.12,M,4.35,M,FEW,M,M,M,500.00,M,M,M,M,M,M,M,M,M,M,66.20,RCTP 021300Z 04006KT 7000 FEW005 19/18 Q1020 NOSIG RMK A3013
RCTP,2017-01-02 13:30,66.20,64.40,93.92,30.00,5.00,0.00,30.12,M,4.97,M,FEW,M,M,M,500.00,M,M,M,M,M,M,M,M,M,M,66.20,RCTP 021330Z 03005KT 8000 FEW005 19/18 Q1020 NOSIG RMK A3013
RCTP,2017-01-02 14:00,64.40,62.60,93.88,40.00,7.00,0.00,30.12,M,4.97,M,FEW,M,M,M,800.00,M,M,M,M,M,M,M,M,M,M,64.40,RCTP 021400Z 04007KT 8000 FEW008 18/17 Q1020 NOSIG RMK A3012
RCTP,2017-01-02 14:30,66.20,62.60,88.18,40.00,8.00,0.00,30.12,M,4.97,M,FEW,M,M,M,800.00,M,M,M,M,M,M,M,M,M,M,66.20,RCTP 021430Z 04008KT 8000 FEW008 19/17 Q1020 NOSIG RMK A3012
RCTP,2017-01-02 15:00,64.40,62.60,93.88,40.00,8.00,0.00,30.12,M,4.97,M,FEW,M,M,M,800.00,M,M,M,M,M,M,M,M,M,M,64.40,RCTP 021500Z 04008KT 8000 FEW008 18/17 Q1020 NOSIG RMK A3012
RCTP,2017-01-02 15:30,66.20,62.60,88.18,40.00,11.00,0.00,30.12,M,6.21,M,FEW,M,M,M,800.00,M,M,M,M,M,M,M,M,M,M,66.20,RCTP 021530Z 04011KT 9999 FEW008 19/17 Q1020 NOSIG RMK A3012
RCTP,2017-01-02 16:00,68.00,62.60,82.86,40.00,11.00,0.00,30.09,M,6.21,M,FEW,M,M,M,1000.00,M,M,M,M,M,M,M,M,M,M,68.00,RCTP 021600Z 04011KT 9999 FEW010 20/17 Q1019 NOSIG RMK A3011
RCTP,2017-01-02 16:30,68.00,64.40,88.26,30.00,11.00,0.00,30.09,M,6.21,M,FEW,M,M,M,1000.00,M,M,M,M,M,M,M,M,M,M,68.00,RCTP 021630Z 03011KT 9999 FEW010 20/18 Q1019 NOSIG RMK A3011
RCTP,2017-01-02 17:00,68.00,64.40,88.26,50.00,10.00,0.00,30.09,M,6.21,M,FEW,M,M,M,1000.00,M,M,M,M,M,M,M,M,M,M,68.00,RCTP 021700Z 05010KT 9999 FEW010 20/18 Q1019 NOSIG RMK A3010
RCTP,2017-01-02 17:30,68.00,66.20,93.97,40.00,10.00,0.00,30.09,M,6.21,M,FEW,M,M,M,1000.00,M,M,M,M,M,M,M,M,M,M,68.00,RCTP 021730Z 04010KT 9999 FEW010 20/19 Q1019 NOSIG RMK A3011
RCTP,2017-01-02 18:00,68.00,62.60,82.86,50.00,10.00,0.00,30.12,M,6.21,M,FEW,M,M,M,900.00,M,M,M,M,M,M,M,M,M,M,68.00,RCTP 021800Z 05010KT 9999 FEW009 20/17 Q1020 NOSIG RMK A3012
RCTP,2017-01-02 18:30,68.00,62.60,82.86,40.00,10.00,0.00,30.12,M,6.21,M,FEW,M,M,M,1000.00,M,M,M,M,M,M,M,M,M,M,68.00,RCTP 021830Z 04010KT 9999 FEW010 20/17 Q1020 NOSIG RMK A3012
RCTP,2017-01-02 19:00,68.00,62.60,82.86,50.00,10.00,0.00,30.09,M,6.21,M,FEW,M,M,M,1000.00,M,M,M,M,M,M,M,M,M,M,68.00,RCTP 021900Z 05010KT 9999 FEW010 20/17 Q1019 NOSIG RMK A3011
RCTP,2017-01-02 19:30,68.00,62.60,82.86,40.00,11.00,0.00,30.09,M,6.21,M,FEW,M,M,M,1200.00,M,M,M,M,M,M,M,M,M,M,68.00,RCTP 021930Z 04011KT 9999 FEW012 20/17 Q1019 NOSIG RMK A3011
RCTP,2017-01-02 20:00,68.00,62.60,82.86,30.00,15.00,0.00,30.09,M,6.21,M,FEW,SCT,M,M,1200.00,3200.00,M,M,M,M,M,M,M,M,M,68.00,RCTP 022000Z 03015KT 9999 FEW012 SCT032 20/17 Q1019 NOSIG RMK A3011
RCTP,2017-01-02 20:30,68.00,62.60,82.86,40.00,13.00,0.00,30.12,M,6.21,M,SCT,M,M,M,1500.00,M,M,M,M,M,M,M,M,M,M,68.00,RCTP 022030Z 04013KT 9999 SCT015 20/17 Q1020 NOSIG RMK A3012
RCTP,2017-01-02 20:43,68.00,62.60,82.86,40.00,12.00,0.00,30.12,M,6.21,M,BKN,M,M,M,1000.00,M,M,M,M,M,M,M,M,M,M,68.00,RCTP 022043Z 04012KT 9999 BKN010 20/17 Q1020 NOSIG RMK A3012
RCTP,2017-01-02 21:00,68.00,64.40,88.26,40.00,15.00,0.00,30.12,M,6.21,M,FEW,BKN,M,M,600.00,1000.00,M,M,M,M,M,M,M,M,M,68.00,RCTP 022100Z 04015KT 9999 FEW006 BKN010 20/18 Q1020 TEMPO FEW003 BKN006 RMK A3012
RCTP,2017-01-02 21:16,68.00,62.60,82.86,40.00,14.00,0.00,30.12,M,6.21,M,FEW,BKN,M,M,500.00,800.00,M,M,M,M,M,M,M,M,M,68.00,RCTP 022116Z 04014KT 9999 FEW005 BKN008 20/17 Q1020 TEMPO FEW003 BKN006 RMK A3012
RCTP,2017-01-02 21:30,68.00,62.60,82.86,50.00,13.00,0.00,30.12,M,6.21,M,BKN,M,M,M,800.00,M,M,M,M,M,M,M,M,M,M,68.00,RCTP 022130Z 05013KT 9999 BKN008 20/17 Q1020 TEMPO FEW003 BKN006 RMK A3012
RCTP,2017-01-02 21:41,68.00,62.60,82.86,40.00,15.00,0.00,30.12,M,5.59,M,FEW,BKN,M,M,500.00,800.00,M,M,-DZ,M,M,M,M,M,M,68.00,RCTP 022141Z 04015KT 9000 -DZ FEW005 BKN008 20/17 Q1020 NOSIG RMK A3013
RCTP,2017-01-02 22:00,68.00,66.20,93.97,30.00,16.00,0.00,30.12,M,4.35,M,FEW,BKN,OVC,M,500.00,800.00,1800.00,M,-DZ,M,M,M,M,M,M,68.00,RCTP 022200Z 03016KT 7000 -DZ FEW005 BKN008 OVC018 20/19 Q1020 NOSIG RMK A3013
RCTP,2017-01-02 22:30,68.00,66.20,93.97,30.00,14.00,0.00,30.15,M,6.21,M,FEW,BKN,OVC,M,500.00,900.00,2000.00,M,-DZ,M,M,M,M,M,M,68.00,RCTP 022230Z 03014KT 9999 -DZ FEW005 BKN009 OVC020 20/19 Q1021 NOSIG RMK A3015
RCTP,2017-01-02 22:35,68.00,66.20,93.97,30.00,15.00,0.00,30.15,M,6.21,M,BKN,OVC,M,M,1000.00,2500.00,M,M,M,M,M,M,M,M,M,68.00,RCTP 022235Z 03015KT 9999 BKN010 OVC025 20/19 Q1021 NOSIG RMK A3015
RCTP,2017-01-02 22:40,68.00,64.40,88.26,30.00,16.00,0.00,30.15,M,5.59,M,FEW,BKN,OVC,M,700.00,1000.00,2500.00,M,-DZ,M,M,M,M,M,M,68.00,RCTP 022240Z 03016KT 9000 -DZ FEW007 BKN010 OVC025 20/18 Q1021 NOSIG RMK A3015
RCTP,2017-01-02 23:00,68.00,64.40,88.26,30.00,17.00,0.00,30.15,M,4.35,M,FEW,BKN,OVC,M,700.00,1000.00,2500.00,M,-DZ,M,M,M,M,M,M,68.00,RCTP 022300Z 03017KT 7000 -DZ FEW007 BKN010 OVC025 20/18 Q1021 NOSIG RMK A3015 RA AMT 0.2MM
RCTP,2017-01-02 23:30,68.00,64.40,88.26,40.00,16.00,0.00,30.15,M,5.59,M,BKN,OVC,M,M,1200.00,3000.00,M,M,M,M,M,M,M,M,M,68.00,RCTP 022330Z 04016KT 9000 BKN012 OVC030 20/18 Q1021 NOSIG RMK A3016
RCTP,2017-01-03 00:00,68.00,64.40,88.26,40.00,17.00,0.00,30.15,M,6.21,M,BKN,BKN,M,M,1300.00,3000.00,M,M,M,M,M,M,M,M,M,68.00,RCTP 030000Z 04017KT 9999 BKN013 BKN030 20/18 Q1021 NOSIG RMK A3017
RCTP,2017-01-03 00:30,68.00,64.40,88.26,40.00,19.00,0.00,30.15,M,6.21,M,SCT,BKN,M,M,1500.00,2300.00,M,M,M,M,M,M,M,M,M,68.00,RCTP 030030Z 04019KT 9999 SCT015 BKN023 20/18 Q1021 NOSIG RMK A3017
RCTP,2017-01-03 01:00,68.00,64.40,88.26,40.00,17.00,0.00,30.18,M,6.21,M,BKN,BKN,M,M,1600.00,2300.00,M,M,M,M,M,M,M,M,M,68.00,RCTP 030100Z 04017KT 9999 BKN016 BKN023 20/18 Q1022 NOSIG RMK A3018
RCTP,2017-01-03 01:30,68.00,64.40,88.26,40.00,18.00,0.00,30.18,M,6.21,M,SCT,BKN,M,M,1500.00,2500.00,M,M,M,M,M,M,M,M,M,68.00,RCTP 030130Z 04018KT 9999 SCT015 BKN025 20/18 Q1022 NOSIG RMK A3019
RCTP,2017-01-03 02:00,69.80,64.40,82.98,40.00,18.00,0.00,30.18,M,6.21,M,SCT,BKN,M,M,1500.00,2500.00,M,M,M,M,M,M,M,M,M,69.80,RCTP 030200Z 04018KT 9999 SCT015 BKN025 21/18 Q1022 NOSIG RMK A3018
RCTP,2017-01-03 02:30,69.80,64.40,82.98,40.00,18.00,0.00,30.15,M,6.21,M,SCT,BKN,M,M,1400.00,2000.00,M,M,M,M,M,M,M,M,M,69.80,RCTP 030230Z 04018KT 9999 SCT014 BKN020 21/18 Q1021 NOSIG RMK A3017
RCTP,2017-01-03 03:00,69.80,64.40,82.98,40.00,17.00,0.00,30.15,M,6.21,M,SCT,BKN,M,M,1300.00,2000.00,M,M,M,M,M,M,M,M,M,69.80,RCTP 030300Z 04017KT 9999 SCT013 BKN020 21/18 Q1021 NOSIG RMK A3017
RCTP,2017-01-03 03:30,69.80,64.40,82.98,40.00,20.00,0.00,30.15,M,6.21,M,BKN,M,M,M,2000.00,M,M,M,M,M,M,M,M,M,M,69.80,RCTP 030330Z 04020KT 9999 BKN020 21/18 Q1021 NOSIG RMK A3015
RCTP,2017-01-03 04:00,69.80,64.40,82.98,40.00,18.00,0.00,30.12,M,6.21,M,BKN,M,M,M,2000.00,M,M,M,M,M,M,M,M,M,M,69.80,RCTP 030400Z 04018KT 9999 BKN020 21/18 Q1020 NOSIG RMK A3013
RCTP,2017-01-03 04:30,69.80,64.40,82.98,40.00,19.00,0.00,30.12,M,6.21,M,BKN,M,M,M,2000.00,M,M,M,M,M,M,M,M,M,M,69.80,RCTP 030430Z 04019KT 9999 BKN020 21/18 Q1020 NOSIG RMK A3012
RCTP,2017-01-03 05:00,69.80,64.40,82.98,40.00,19.00,0.00,30.09,M,6.21,M,BKN,M,M,M,2000.00,M,M,M,M,M,M,M,M,M,M,69.80,RCTP 030500Z 04019KT 9999 BKN020 21/18 Q1019 NOSIG RMK A3010
RCTP,2017-01-03 05:30,69.80,64.40,82.98,40.00,20.00,0.00,30.09,M,6.21,M,BKN,M,M,M,2000.00,M,M,M,M,M,M,M,M,M,M,69.80,RCTP 030530Z 04020KT 9999 BKN020 21/18 Q1019 NOSIG RMK A3010
RCTP,2017-01-03 06:00,71.60,64.40,78.04,40.00,20.00,0.00,30.09,M,6.21,M,BKN,M,M,M,2000.00,M,M,M,M,M,M,M,M,M,M,71.60,RCTP 030600Z 04020KT 9999 BKN020 22/18 Q1019 NOSIG RMK A3009
RCTP,2017-01-03 06:30,69.80,62.60,77.90,40.00,21.00,0.00,30.09,M,6.21,M,FEW,BKN,BKN,M,1500.00,2000.00,3500.00,M,M,M,M,M,M,M,M,69.80,RCTP 030630Z 04021KT 9999 FEW015 BKN020 BKN035 21/17 Q1019 NOSIG RMK A3009
RCTP,2017-01-03 07:00,69.80,62.60,77.90,40.00,21.00,0.00,30.09,M,6.21,M,FEW,BKN,BKN,M,1500.00,2500.00,4000.00,M,M,M,M,M,M,M,M,69.80,RCTP 030700Z 04021KT 9999 FEW015 BKN025 BKN040 21/17 Q1019 NOSIG RMK A3009
RCTP,2017-01-03 07:30,69.80,64.40,82.98,40.00,19.00,0.00,30.06,M,6.21,M,FEW,BKN,BKN,M,1500.00,2500.00,4000.00,M,M,M,M,M,M,M,M,69.80,RCTP 030730Z 04019KT 9999 FEW015 BKN025 BKN040 21/18 Q1018 NOSIG RMK A3008
RCTP,2017-01-03 08:00,69.80,64.40,82.98,40.00,18.00,0.00,30.09,M,6.21,M,FEW,BKN,BKN,M,1500.00,2500.00,4000.00,M,M,M,M,M,M,M,M,69.80,RCTP 030800Z 04018KT 9999 FEW015 BKN025 BKN040 21/18 Q1019 NOSIG RMK A3009
RCTP,2017-01-03 08:30,69.80,64.40,82.98,30.00,16.00,0.00,30.09,M,6.21,M,FEW,BKN,BKN,M,1500.00,2500.00,4000.00,M,M,M,M,M,M,M,M,69.80,RCTP 030830Z 03016KT 9999 FEW015 BKN025 BKN040 21/18 Q1019 NOSIG RMK A3009
RCTP,2017-01-03 09:00,69.80,62.60,77.90,50.00,18.00,0.00,30.09,M,6.21,M,FEW,BKN,BKN,M,1500.00,2500.00,4000.00,M,M,M,M,M,M,M,M,69.80,RCTP 030900Z 05018KT 9999 FEW015 BKN025 BKN040 21/17 Q1019 NOSIG RMK A3010
RCTP,2017-01-03 09:30,69.80,62.60,77.90,40.00,16.00,0.00,30.09,M,6.21,M,FEW,BKN,BKN,M,1500.00,2500.00,4000.00,M,M,M,M,M,M,M,M,69.80,RCTP 030930Z 04016KT 9999 FEW015 BKN025 BKN040 21/17 Q1019 NOSIG RMK A3011
RCTP,2017-01-03 10:00,69.80,64.40,82.98,50.00,17.00,0.00,30.12,M,6.21,M,FEW,BKN,BKN,M,1500.00,2500.00,4000.00,M,M,M,M,M,M,M,M,69.80,RCTP 031000Z 05017KT 9999 FEW015 BKN025 BKN040 21/18 Q1020 NOSIG RMK A3012
RCTP,2017-01-03 10:30,69.80,64.40,82.98,50.00,15.00,0.00,30.12,M,6.21,M,FEW,BKN,BKN,M,1500.00,2500.00,4000.00,M,M,M,M,M,M,M,M,69.80,RCTP 031030Z 05015KT 9999 FEW015 BKN025 BKN040 21/18 Q1020 NOSIG RMK A3012
RCTP,2017-01-03 11:00,69.80,64.40,82.98,50.00,14.00,0.00,30.12,M,6.21,M,FEW,BKN,BKN,M,1500.00,3000.00,5000.00,M,M,M,M,M,M,M,M,69.80,RCTP 031100Z 05014KT 9999 FEW015 BKN030 BKN050 21/18 Q1020 NOSIG RMK A3012
RCTP,2017-01-03 11:30,68.00,64.40,88.26,50.00,13.00,0.00,30.12,M,6.21,M,FEW,SCT,BKN,M,1500.00,3000.00,4300.00,M,M,M,M,M,M,M,M,68.00,RCTP 031130Z 05013KT 9999 FEW015 SCT030 BKN043 20/18 Q1020 NOSIG RMK A3013
RCTP,2017-01-03 12:00,69.80,64.40,82.98,40.00,13.00,0.00,30.12,M,6.21,M,FEW,SCT,BKN,M,1500.00,3000.00,4000.00,M,M,M,M,M,M,M,M,69.80,RCTP 031200Z 04013KT 9999 FEW015 SCT030 BKN040 21/18 Q1020 NOSIG RMK A3012
RCTP,2017-01-03 12:30,69.80,64.40,82.98,60.00,10.00,0.00,30.12,M,6.21,M,FEW,SCT,BKN,M,1500.00,3000.00,4000.00,M,M,M,M,M,M,M,M,69.80,RCTP 031230Z 06010KT 9999 FEW015 SCT030 BKN040 21/18 Q1020 NOSIG RMK A3012
RCTP,2017-01-03 13:00,68.00,64.40,88.26,40.00,11.00,0.00,30.12,M,6.21,M,FEW,SCT,BKN,M,1500.00,3000.00,4000.00,M,M,M,M,M,M,M,M,68.00,RCTP 031300Z 04011KT 9999 FEW015 SCT030 BKN040 20/18 Q1020 NOSIG RMK A3012
RCTP,2017-01-03 13:30,69.80,64.40,82.98,40.00,14.00,0.00,30.12,M,6.21,M,FEW,BKN,M,M,1500.00,2700.00,M,M,M,M,M,M,M,M,M,69.80,RCTP 031330Z 04014KT 9999 FEW015 BKN027 21/18 Q1020 NOSIG RMK A3013
RCTP,2017-01-03 14:00,69.80,64.40,82.98,40.00,13.00,0.00,30.12,M,6.21,M,FEW,BKN,BKN,M,1500.00,2500.00,3500.00,M,M,M,M,M,M,M,M,69.80,RCTP 031400Z 04013KT 9999 FEW015 BKN025 BKN035 21/18 Q1020 NOSIG RMK A3013
RCTP,2017-01-03 14:30,69.80,64.40,82.98,40.00,14.00,0.00,30.12,M,6.21,M,FEW,BKN,BKN,M,1500.00,2500.00,3500.00,M,M,M,M,M,M,M,M,69.80,RCTP 031430Z 04014KT 9999 FEW015 BKN025 BKN035 21/18 Q1020 NOSIG RMK A3012
RCTP,2017-01-03 15:00,69.80,66.20,88.34,40.00,13.00,0.00,30.09,M,6.21,M,FEW,BKN,BKN,M,1500.00,2500.00,3500.00,M,M,M,M,M,M,M,M,69.80,RCTP 031500Z 04013KT 9999 FEW015 BKN025 BKN035 21/19 Q1019 NOSIG RMK A3011
RCTP,2017-01-03 15:30,69.80,64.40,82.98,40.00,12.00,0.00,30.09,M,6.21,M,FEW,BKN,BKN,M,1500.00,2500.00,3300.00,M,M,M,M,M,M,M,M,69.80,RCTP 031530Z 04012KT 9999 FEW015 BKN025 BKN033 21/18 Q1019 NOSIG RMK A3011
RCTP,2017-01-03 16:00,69.80,64.40,82.98,40.00,14.00,0.00,30.09,M,6.21,M,FEW,SCT,BKN,M,1500.00,2500.00,3700.00,M,M,M,M,M,M,M,M,69.80,RCTP 031600Z 04014KT 9999 FEW015 SCT025 BKN037 21/18 Q1019 NOSIG RMK A3010
RCTP,2017-01-03 16:30,69.80,66.20,88.34,40.00,15.00,0.00,30.09,M,6.21,M,FEW,SCT,BKN,M,1500.00,2500.00,4000.00,M,M,M,M,M,M,M,M,69.80,RCTP 031630Z 04015KT 9999 FEW015 SCT025 BKN040 21/19 Q1019 NOSIG RMK A3009
RCTP,2017-01-03 17:00,68.00,66.20,93.97,40.00,13.00,0.00,30.06,M,6.21,M,FEW,SCT,M,M,1500.00,4000.00,M,M,M,M,M,M,M,M,M,68.00,RCTP 031700Z 04013KT 9999 FEW015 SCT040 20/19 Q1018 NOSIG RMK A3008
RCTP,2017-01-03 17:30,68.00,66.20,93.97,40.00,13.00,0.00,30.06,M,6.21,M,FEW,SCT,M,M,1000.00,5000.00,M,M,M,M,M,M,M,M,M,68.00,RCTP 031730Z 04013KT 9999 FEW010 SCT050 20/19 Q1018 NOSIG RMK A3008
RCTP,2017-01-03 18:00,69.80,66.20,88.34,50.00,14.00,0.00,30.06,M,6.21,M,FEW,SCT,BKN,M,1500.00,3000.00,5000.00,M,M,M,M,M,M,M,M,69.80,RCTP 031800Z 05014KT 9999 FEW015 SCT030 BKN050 21/19 Q1018 NOSIG RMK A3007
RCTP,2017-01-03 18:30,69.80,66.20,88.34,40.00,13.00,0.00,30.06,M,6.21,M,FEW,SCT,BKN,M,1500.00,3000.00,5000.00,M,M,M,M,M,M,M,M,69.80,RCTP 031830Z 04013KT 9999 FEW015 SCT030 BKN050 21/19 Q1018 NOSIG RMK A3007
RCTP,2017-01-03 19:00,68.00,66.20,93.97,40.00,10.00,0.00,30.06,M,6.21,M,FEW,SCT,M,M,1500.00,3000.00,M,M,M,M,M,M,M,M,M,68.00,RCTP 031900Z 04010KT 9999 FEW015 SCT030 20/19 Q1018 NOSIG RMK A3007
RCTP,2017-01-03 19:30,69.80,66.20,88.34,40.00,9.00,0.00,30.06,M,6.21,M,FEW,BKN,BKN,M,1500.00,2500.00,4000.00,M,M,M,M,M,M,M,M,69.80,RCTP 031930Z 04009KT 9999 FEW015 BKN025 BKN040 21/19 Q1018 NOSIG RMK A3007
RCTP,2017-01-03 20:00,68.00,66.20,93.97,30.00,11.00,0.00,30.06,M,6.21,M,FEW,SCT,BKN,M,1500.00,2500.00,4000.00,M,M,M,M,M,M,M,M,68.00,RCTP 032000Z 03011KT 9999 FEW015 SCT025 BKN040 20/19 Q1018 NOSIG RMK A3006
RCTP,2017-01-03 20:30,69.80,66.20,88.34,20.00,12.00,0.00,30.06,M,5.59,M,FEW,BKN,M,M,1500.00,3500.00,M,M,M,M,M,M,M,M,M,69.80,RCTP 032030Z 02012KT 9000 FEW015 BKN035 21/19 Q1018 NOSIG RMK A3007
RCTP,2017-01-03 21:00,68.00,66.20,93.97,10.00,15.00,0.00,30.06,M,5.59,M,FEW,SCT,BKN,M,1200.00,2000.00,4000.00,M,M,M,M,M,M,M,M,68.00,RCTP 032100Z 01015KT 9000 FEW012 SCT020 BKN040 20/19 Q1018 NOSIG RMK A3007
RCTP,2017-01-03 21:30,68.00,66.20,93.97,20.00,17.00,0.00,30.09,M,5.59,M,FEW,BKN,BKN,M,800.00,1200.00,4000.00,M,M,M,M,M,M,M,M,68.00,RCTP 032130Z 02017KT 9000 FEW008 BKN012 BKN040 20/19 Q1019 NOSIG RMK A3009
RCTP,2017-01-03 22:00,68.00,66.20,93.97,20.00,16.00,0.00,30.09,M,5.59,M,FEW,BKN,BKN,M,800.00,1200.00,2500.00,M,M,M,M,M,M,M,M,68.00,RCTP 032200Z 02016KT 9000 FEW008 BKN012 BKN025 20/19 Q1019 NOSIG RMK A3010
RCTP,2017-01-03 22:30,68.00,66.20,93.97,20.00,16.00,0.00,30.09,M,5.59,M,SCT,BKN,BKN,M,600.00,800.00,2000.00,M,M,M,M,M,M,M,M,68.00,RCTP 032230Z 02016KT 9000 SCT006 BKN008 BKN020 20/19 Q1019 NOSIG RMK A3010
RCTP,2017-01-03 23:00,68.00,66.20,93.97,30.00,17.00,0.00,30.09,M,4.35,M,FEW,BKN,BKN,M,600.00,800.00,4000.00,M,M,M,M,M,M,M,M,68.00,RCTP 032300Z 03017KT 7000 FEW006 BKN008 BKN040 20/19 Q1019 NOSIG RMK A3010
RCTP,2017-01-03 23:30,68.00,66.20,93.97,20.00,15.00,0.00,30.09,M,4.97,M,FEW,SCT,BKN,M,600.00,800.00,2000.00,M,M,M,M,M,M,M,M,68.00,RCTP 032330Z 02015KT 8000 FEW006 SCT008 BKN020 20/19 Q1019 NOSIG RMK A3010
RCTP,2017-01-04 00:00,69.80,66.20,88.34,30.00,16.00,0.00,30.09,M,6.21,M,FEW,M,M,M,800.00,M,M,M,M,M,M,M,M,M,M,69.80,RCTP 040000Z 03016KT 9999 FEW008 21/19 Q1019 NOSIG RMK A3010
RCTP,2017-01-04 00:30,71.60,68.00,88.43,30.00,16.00,0.00,30.09,M,6.21,M,FEW,M,M,M,600.00,M,M,M,M,M,M,M,M,M,M,72.62,RCTP 040030Z 03016KT 9999 FEW006 22/20 Q1019 NOSIG RMK A3011
RCTP,2017-01-04 01:00,71.60,68.00,88.43,30.00,14.00,0.00,30.09,M,6.21,M,FEW,M,M,M,1000.00,M,M,M,M,M,M,M,M,M,M,72.62,RCTP 040100Z 03014KT 9999 FEW010 22/20 Q1019 NOSIG RMK A3011
RCTP,2017-01-04 01:30,73.40,68.00,83.21,40.00,17.00,0.00,30.09,M,6.21,M,FEW,SCT,M,M,1200.00,2000.00,M,M,M,M,M,M,M,M,M,73.40,RCTP 040130Z 04017KT 9999 FEW012 SCT020 23/20 Q1019 NOSIG RMK A3011
RCTP,2017-01-04 02:00,73.40,68.00,83.21,30.00,17.00,0.00,30.09,M,6.21,M,FEW,M,M,M,1500.00,M,M,M,M,M,M,M,M,M,M,73.40,RCTP 040200Z 03017KT 9999 FEW015 23/20 Q1019 NOSIG RMK A3010
RCTP,2017-01-04 02:30,73.40,68.00,83.21,20.00,17.00,0.00,30.09,M,6.21,M,FEW,M,M,M,1500.00,M,M,M,M,M,M,M,M,M,M,73.40,RCTP 040230Z 02017KT 9999 FEW015 23/20 Q1019 NOSIG RMK A3009
RCTP,2017-01-04 03:00,75.20,68.00,78.34,30.00,16.00,0.00,30.06,M,6.21,M,FEW,M,M,M,1800.00,M,M,M,M,M,M,M,M,M,M,75.20,RCTP 040300Z 03016KT 9999 FEW018 24/20 Q1018 NOSIG RMK A3006
RCTP,2017-01-04 03:30,78.80,68.00,69.52,30.00,14.00,0.00,30.03,M,6.21,M,FEW,M,M,M,2000.00,M,M,M,M,M,M,M,M,M,M,81.10,RCTP 040330Z 03014KT 9999 FEW020 26/20 Q1017 NOSIG RMK A3004
RCTP,2017-01-04 04:00,78.80,64.40,61.36,70.00,16.00,0.00,30.00,M,6.21,M,FEW,M,M,M,2000.00,M,M,M,M,M,M,M,M,M,M,80.56,RCTP 040400Z 07016KT 9999 FEW020 26/18 Q1016 NOSIG RMK A3003
RCTP,2017-01-04 04:30,80.60,66.20,61.58,60.00,16.00,0.00,30.00,M,6.21,M,FEW,M,M,M,2000.00,M,M,M,M,M,M,M,M,M,M,82.75,RCTP 040430Z 06016KT 9999 FEW020 27/19 Q1016 NOSIG RMK A3001
RCTP,2017-01-04 05:00,80.60,66.20,61.58,80.00,18.00,0.00,29.97,M,6.21,M,FEW,M,M,M,2000.00,M,M,M,M,M,M,M,M,M,M,82.75,RCTP 040500Z 08018KT 040V110 9999 FEW020 27/19 Q1015 NOSIG RMK A3000
RCTP,2017-01-04 05:30,80.60,64.40,57.84,80.00,16.00,0.00,29.97,M,6.21,M,FEW,M,M,M,2000.00,M,M,M,M,M,M,M,M,M,M,82.27,RCTP 040530Z 08016KT 9999 FEW020 27/18 Q1015 NOSIG RMK A2999
RCTP,2017-01-04 06:00,78.80,66.20,65.33,30.00,12.00,0.00,29.97,M,6.21,M,FEW,M,M,M,2000.00,M,M,M,M,M,M,M,M,M,M,80.82,RCTP 040600Z 03012KT 9999 FEW020 26/19 Q1015 NOSIG RMK A2999
RCTP,2017-01-04 06:30,77.00,66.20,69.33,30.00,14.00,0.00,29.97,M,6.21,M,FEW,M,M,M,2000.00,M,M,M,M,M,M,M,M,M,M,77.00,RCTP 040630Z 03014KT 9999 FEW020 25/19 Q1015 NOSIG RMK A2998
RCTP,2017-01-04 07:00,78.80,68.00,69.52,10.00,13.00,0.00,29.97,M,6.21,M,FEW,M,M,M,2000.00,M,M,M,M,M,M,M,M,M,M,81.10,RCTP 040700Z 01013KT 9999 FEW020 26/20 Q1015 NOSIG RMK A2999
RCTP,2017-01-04 07:30,75.20,66.20,73.61,20.00,16.00,0.00,29.97,M,6.21,M,FEW,M,M,M,2000.00,M,M,M,M,M,M,M,M,M,M,75.20,RCTP 040730Z 02016KT 9999 FEW020 24/19 Q1015 NOSIG RMK A2999
RCTP,2017-01-04 08:00,73.40,66.20,78.19,40.00,16.00,0.00,29.97,M,6.21,M,FEW,M,M,M,2000.00,M,M,M,M,M,M,M,M,M,M,73.40,RCTP 040800Z 04016KT 9999 FEW020 23/19 Q1015 NOSIG RMK A3000
RCTP,2017-01-04 08:30,73.40,66.20,78.19,30.00,14.00,0.00,29.97,M,6.21,M,FEW,M,M,M,2000.00,M,M,M,M,M,M,M,M,M,M,73.40,RCTP 040830Z 03014KT 9999 FEW020 23/19 Q1015 NOSIG RMK A3000
RCTP,2017-01-04 09:00,71.60,66.20,83.09,30.00,11.00,0.00,30.00,M,6.21,M,FEW,M,M,M,2000.00,M,M,M,M,M,M,M,M,M,M,71.60,RCTP 040900Z 03011KT 9999 FEW020 22/19 Q1016 NOSIG RMK A3001
RCTP,2017-01-04 09:30,71.60,66.20,83.09,30.00,10.00,0.00,30.00,M,6.21,M,FEW,M,M,M,2000.00,M,M,M,M,M,M,M,M,M,M,71.60,RCTP 040930Z 03010KT 9999 FEW020 22/19 Q1016 NOSIG RMK A3002
RCTP,2017-01-04 10:00,71.60,66.20,83.09,20.00,7.00,0.00,30.00,M,6.21,M,FEW,M,M,M,2000.00,M,M,M,M,M,M,M,M,M,M,71.60,RCTP 041000Z 02007KT 9999 FEW020 22/19 Q1016 NOSIG RMK A3002
RCTP,2017-01-04 10:30,69.80,66.20,88.34,30.00,7.00,0.00,30.00,M,6.21,M,FEW,M,M,M,2000.00,M,M,M,M,M,M,M,M,M,M,69.80,RCTP 041030Z 03007KT 9999 FEW020 21/19 Q1016 NOSIG RMK A3002
RCTP,2017-01-04 11:00,71.60,64.40,78.04,50.00,8.00,0.00,30.00,M,6.21,M,FEW,M,M,M,2000.00,M,M,M,M,M,M,M,M,M,M,71.60,RCTP 041100Z 05008KT 030V090 9999 FEW020 22/18 Q1016 NOSIG RMK A3003
RCTP,2017-01-04 11:30,73.40,62.60,68.94,70.00,11.00,0.00,30.00,M,6.21,M,FEW,M,M,M,2000.00,M,M,M,M,M,M,M,M,M,M,73.40,RCTP 041130Z 07011KT 9999 FEW020 23/17 Q1016 NOSIG RMK A3003
RCTP,2017-01-04 12:00,73.40,62.60,68.94,70.00,9.00,0.00,30.00,M,6.21,M,FEW,M,M,M,2000.00,M,M,M,M,M,M,M,M,M,M,73.40,RCTP 041200Z 07009KT 9999 FEW020 23/17 Q1016 NOSIG RMK A3003
RCTP,2017-01-04 12:30,71.60,62.60,73.27,60.00,9.00,0.00,30.03,M,6.21,M,FEW,M,M,M,2000.00,M,M,M,M,M,M,M,M,M,M,71.60,RCTP 041230Z 06009KT 9999 FEW020 22/17 Q1017 NOSIG RMK A3004
RCTP,2017-01-04 13:00,71.60,62.60,73.27,60.00,7.00,0.00,30.03,M,6.21,M,FEW,M,M,M,2000.00,M,M,M,M,M,M,M,M,M,M,71.60,RCTP 041300Z 06007KT 020V090 9999 FEW020 22/17 Q1017 NOSIG RMK A3004
RCTP,2017-01-04 13:30,71.60,62.60,73.27,60.00,6.00,0.00,30.00,M,6.21,M,FEW,M,M,M,2000.00,M,M,M,M,M,M,M,M,M,M,71.60,RCTP 041330Z 06006KT 040V100 9999 FEW020 22/17 Q1016 NOSIG RMK A3003
RCTP,2017-01-04 14:00,71.60,64.40,78.04,80.00,5.00,0.00,30.00,M,6.21,M,FEW,M,M,M,2000.00,M,M,M,M,M,M,M,M,M,M,71.60,RCTP 041400Z 08005KT 040V130 9999 FEW020 22/18 Q1016 NOSIG RMK A3003
RCTP,2017-01-04 14:30,73.40,64.40,73.44,140.00,4.00,0.00,30.00,M,6.21,M,FEW,M,M,M,2000.00,M,M,M,M,M,M,M,M,M,M,73.40,RCTP 041430Z 14004KT 100V200 9999 FEW020 23/18 Q1016 NOSIG RMK A3002
RCTP,2017-01-04 15:00,71.60,62.60,73.27,120.00,5.00,0.00,30.00,M,6.21,M,FEW,M,M,M,2000.00,M,M,M,M,M,M,M,M,M,M,71.60,RCTP 041500Z 12005KT 050V160 9999 FEW020 22/17 Q1016 NOSIG RMK A3002
RCTP,2017-01-04 15:30,68.00,62.60,82.86,M,1.00,0.00,30.00,M,6.21,M,FEW,M,M,M,2000.00,M,M,M,M,M,M,M,M,M,M,68.00,RCTP 041530Z VRB01KT 9999 FEW020 20/17 Q1016 NOSIG RMK A3002
RCTP,2017-01-04 16:00,68.00,64.40,88.26,190.00,5.00,0.00,30.00,M,6.21,M,FEW,M,M,M,1500.00,M,M,M,M,M,M,M,M,M,M,68.00,RCTP 041600Z 19005KT 120V240 9999 FEW015 20/18 Q1016 NOSIG RMK A3002
RCTP,2017-01-04 16:30,69.80,64.40,82.98,130.00,6.00,0.00,30.00,M,6.21,M,FEW,M,M,M,1500.00,M,M,M,M,M,M,M,M,M,M,69.80,RCTP 041630Z 13006KT 070V180 9999 FEW015 21/18 Q1016 NOSIG RMK A3001
RCTP,2017-01-04 17:00,69.80,64.40,82.98,170.00,5.00,0.00,30.00,M,6.21,M,FEW,BKN,M,M,1500.00,2800.00,M,M,M,M,M,M,M,M,M,69.80,RCTP 041700Z 17005KT 100V220 9999 FEW015 BKN028 21/18 Q1016 NOSIG RMK A3002
RCTP,2017-01-04 17:10,69.80,64.40,82.98,160.00,6.00,0.00,30.00,M,6.21,M,FEW,BKN,M,M,1500.00,2800.00,M,M,M,M,M,M,M,M,M,69.80,RCTP 041710Z 16006KT 9999 FEW015 BKN028 21/18 Q1016 NOSIG RMK R23 A3002
RCTP,2017-01-04 17:30,69.80,64.40,82.98,160.00,5.00,0.00,30.00,M,6.21,M,FEW,BKN,M,M,1500.00,2800.00,M,M,M,M,M,M,M,M,M,69.80,RCTP 041730Z 16005KT 9999 FEW015 BKN028 21/18 Q1016 NOSIG RMK A3001
RCTP,2017-01-04 18:00,68.00,64.40,88.26,M,2.00,0.00,30.00,M,5.59,M,FEW,BKN,M,M,1500.00,2800.00,M,M,M,M,M,M,M,M,M,68.00,RCTP 041800Z VRB02KT 9000 FEW015 BKN028 20/18 Q1016 NOSIG RMK A3001
RCTP,2017-01-04 18:30,68.00,64.40,88.26,170.00,3.00,0.00,30.00,M,3.73,M,FEW,BKN,M,M,1500.00,2800.00,M,M,M,M,M,M,M,M,M,68.00,RCTP 041830Z 17003KT 140V200 6000 FEW015 BKN028 20/18 Q1016 NOSIG RMK A3001
RCTP,2017-01-04 19:00,68.00,64.40,88.26,180.00,3.00,0.00,30.00,M,3.73,M,FEW,BKN,M,M,1500.00,2800.00,M,M,M,M,M,M,M,M,M,68.00,RCTP 041900Z 18003KT 160V230 6000 FEW015 BKN028 20/18 Q1016 NOSIG RMK A3001
RCTP,2017-01-04 19:30,69.80,64.40,82.98,180.00,3.00,0.00,30.00,M,3.73,M,FEW,BKN,M,M,1500.00,2800.00,M,M,M,M,M,M,M,M,M,69.80,RCTP 041930Z 18003KT 6000 FEW015 BKN028 21/18 Q1016 NOSIG RMK A3001
RCTP,2017-01-04 20:00,68.00,64.40,88.26,180.00,3.00,0.00,29.97,M,3.73,M,FEW,BKN,M,M,1500.00,2800.00,M,M,M,M,M,M,M,M,M,68.00,RCTP 042000Z 18003KT 6000 FEW015 BKN028 20/18 Q1015 NOSIG RMK A3000
RCTP,2017-01-04 20:30,68.00,64.40,88.26,100.00,10.00,0.00,29.97,M,3.73,M,FEW,BKN,M,M,1500.00,2800.00,M,M,M,M,M,M,M,M,M,68.00,RCTP 042030Z 10010KT 6000 FEW015 BKN028 20/18 Q1015 NOSIG RMK A3000
RCTP,2017-01-04 21:00,68.00,64.40,88.26,140.00,3.00,0.00,30.00,M,2.80,M,FEW,SCT,M,M,1500.00,2800.00,M,M,BR,M,M,M,M,M,M,68.00,RCTP 042100Z 14003KT 4500 BR FEW015 SCT028 20/18 Q1016 NOSIG RMK A3001
RCTP,2017-01-04 21:30,66.20,64.40,93.92,170.00,4.00,0.00,30.00,M,2.17,14.00,FEW,M,M,M,1500.00,M,M,M,BR,M,M,M,M,M,M,66.20,RCTP 042130Z 17004G14KT 140V300 3500 BR FEW015 19/18 Q1016 NOSIG RMK A3001
RCTP,2017-01-04 22:00,66.20,62.60,88.18,190.00,3.00,0.00,30.00,M,2.17,M,FEW,BKN,M,M,1500.00,3500.00,M,M,BR,M,M,M,M,M,M,66.20,RCTP 042200Z 19003KT 140V220 3500 BR FEW015 BKN035 19/17 Q1016 NOSIG RMK A3001
RCTP,2017-01-04 22:23,66.20,62.60,88.18,200.00,3.00,0.00,30.00,M,1.74,M,FEW,BKN,M,M,1500.00,3500.00,M,M,BR,M,M,M,M,M,M,66.20,RCTP 042223Z 20003KT 170V230 2800 BR FEW015 BKN035 19/17 Q1016 NOSIG RMK A3002
RCTP,2017-01-04 22:30,66.20,62.60,88.18,200.00,3.00,0.00,30.00,M,1.74,M,FEW,BKN,M,M,1500.00,3500.00,M,M,BR,M,M,M,M,M,M,66.20,RCTP 042230Z 20003KT 150V230 2800 BR FEW015 BKN035 19/17 Q1016 NOSIG RMK A3002
RCTP,2017-01-04 23:00,64.40,62.60,93.88,260.00,5.00,0.00,30.00,M,1.74,M,FEW,BKN,M,M,1500.00,3500.00,M,M,BR,M,M,M,M,M,M,64.40,RCTP 042300Z 26005KT 2800 BR FEW015 BKN035 18/17 Q1016 NOSIG RMK A3003
RCTP,2017-01-04 23:24,64.40,62.60,93.88,240.00,7.00,0.00,30.03,M,0.93,M,FEW,M,M,M,1500.00,M,M,M,BR,M,M,M,M,M,M,64.40,RCTP 042324Z 24007KT 1500 BR FEW015 18/17 Q1017 TEMPO 0800 FG RMK A3004
RCTP,2017-01-04 23:30,64.40,62.60,93.88,240.00,7.00,0.00,30.03,M,0.93,M,FEW,M,M,M,1500.00,M,M,M,BR,M,M,M,M,M,M,64.40,RCTP 042330Z 24007KT 1500 BR FEW015 18/17 Q1017 TEMPO 0800 FG RMK A3004
RCTP,2017-01-04 23:51,66.20,64.40,93.92,240.00,8.00,0.00,30.03,M,0.75,M,FEW,M,M,M,1500.00,M,M,M,BR,M,M,M,M,M,M,66.20,RCTP 042351Z 24008KT 1200 R23R/1800N R23L/1700N BR FEW015 19/18 Q1017 NOSIG RMK A3004
RCTP,2017-01-05 00:00,66.20,64.40,93.92,240.00,8.00,0.00,30.03,M,0.75,M,BKN,M,M,M,300.00,M,M,M,BR,M,M,M,M,M,M,66.20,RCTP 050000Z 24008KT 1200 R23R/1600D R23L/1500D BR BKN003 19/18 Q1017 NOSIG RMK A3005
RCTP,2017-01-05 00:26,68.00,64.40,88.26,240.00,7.00,0.00,30.06,M,0.99,M,BKN,M,M,M,600.00,M,M,M,BR,M,M,M,M,M,M,68.00,RCTP 050026Z 24007KT 1600 BR BKN006 20/18 Q1018 BECMG 3000 SCT005 RMK A3006
RCTP,2017-01-05 00:30,68.00,64.40,88.26,240.00,7.00,0.00,30.06,M,1.18,M,BKN,M,M,M,600.00,M,M,M,BR,M,M,M,M,M,M,68.00,RCTP 050030Z 24007KT 1900 BR BKN006 20/18 Q1018 BECMG 3000 SCT005 RMK A3006
RCTP,2017-01-05 00:49,68.00,64.40,88.26,230.00,7.00,0.00,30.06,M,1.37,M,SCT,M,M,M,600.00,M,M,M,BR,M,M,M,M,M,M,68.00,RCTP 050049Z 23007KT 2200 BR SCT006 20/18 Q1018 BECMG 3000 RMK A3007
RCTP,2017-01-05 01:00,69.80,64.40,82.98,230.00,6.00,0.00,30.06,M,1.55,M,SCT,M,M,M,600.00,M,M,M,BR,M,M,M,M,M,M,69.80,RCTP 050100Z 23006KT 190V250 2500 BR SCT006 21/18 Q1018 BECMG 5000 RMK A3007
RCTP,2017-01-05 01:30,71.60,66.20,83.09,220.00,6.00,0.00,30.06,M,1.55,M,SCT,M,M,M,600.00,M,M,M,BR,M,M,M,M,M,M,71.60,RCTP 050130Z 22006KT 2500 BR SCT006 22/19 Q1018 BECMG 5000 RMK A3008
RCTP,2017-01-05 01:45,71.60,66.20,83.09,230.00,7.00,0.00,30.06,M,1.99,M,SCT,SCT,M,M,600.00,2800.00,M,M,BR,M,M,M,M,M,M,71.60,RCTP 050145Z 23007KT 3200 BR SCT006 SCT028 22/19 Q1018 BECMG 5000 RMK A3008
RCTP,2017-01-05 02:00,73.40,66.20,78.19,240.00,8.00,0.00,30.06,M,1.99,M,FEW,BKN,M,M,600.00,2800.00,M,M,BR,M,M,M,M,M,M,73.40,RCTP 050200Z 24008KT 3200 BR FEW006 BKN028 23/19 Q1018 BECMG 5000 HZ RMK A3007
RCTP,2017-01-05 02:20,73.40,64.40,73.44,240.00,5.00,0.00,30.06,M,3.11,M,FEW,BKN,M,M,800.00,3000.00,M,M,HZ,M,M,M,M,M,M,73.40,RCTP 050220Z 24005KT 190V270 5000 HZ FEW008 BKN030 23/18 Q1018 NOSIG RMK A3007
RCTP,2017-01-05 02:30,73.40,64.40,73.44,220.00,6.00,0.00,30.06,M,3.11,M,FEW,SCT,M,M,1000.00,3000.00,M,M,HZ,M,M,M,M,M,M,73.40,RCTP 050230Z 22006KT 190V270 5000 HZ FEW010 SCT030 23/18 Q1018 NOSIG RMK A3006
RCTP,2017-01-05 03:00,75.20,64.40,69.14,240.00,5.00,0.00,30.03,M,3.73,M,SCT,BKN,M,M,2500.00,20000.00,M,M,M,M,M,M,M,M,M,75.20,RCTP 050300Z 24005KT 210V270 6000 SCT025 BKN200 24/18 Q1017 NOSIG RMK A3005
RCTP,2017-01-05 03:30,75.20,64.40,69.14,260.00,8.00,0.00,30.03,M,3.73,M,BKN,M,M,M,2300.00,M,M,M,M,M,M,M,M,M,M,75.20,RCTP 050330Z 26008KT 6000 BKN023 24/18 Q1017 NOSIG RMK A3004
RCTP,2017-01-05 04:00,75.20,66.20,73.61,290.00,8.00,0.00,30.00,M,4.35,M,BKN,M,M,M,2100.00,M,M,M,M,M,M,M,M,M,M,75.20,RCTP 050400Z 29008KT 7000 BKN021 24/19 Q1016 NOSIG RMK A3002
RCTP,2017-01-05 04:30,73.40,66.20,78.19,290.00,9.00,0.00,29.97,M,3.73,M,BKN,M,M,M,2600.00,M,M,M,M,M,M,M,M,M,M,73.40,RCTP 050430Z 29009KT 6000 BKN026 23/19 Q1015 NOSIG RMK A3000
RCTP,2017-01-05 05:00,73.40,64.40,73.44,300.00,10.00,0.00,29.97,M,3.73,M,BKN,M,M,M,2600.00,M,M,M,M,M,M,M,M,M,M,73.40,RCTP 050500Z 30010KT 6000 BKN026 23/18 Q1015 NOSIG RMK A2999
RCTP,2017-01-05 05:17,71.60,64.40,78.04,290.00,10.00,0.00,29.97,M,3.11,M,BKN,M,M,M,2600.00,M,M,M,BR,M,M,M,M,M,M,71.60,RCTP 050517Z 29010KT 5000 BR BKN026 22/18 Q1015 TEMPO 3500 RMK A2999
RCTP,2017-01-05 05:30,71.60,66.20,83.09,290.00,11.00,0.00,29.97,M,2.86,M,FEW,BKN,M,M,500.00,2600.00,M,M,BR,M,M,M,M,M,M,71.60,RCTP 050530Z 29011KT 4600 BR FEW005 BKN026 22/19 Q1015 NOSIG RMK A2998
RCTP,2017-01-05 06:00,71.60,66.20,83.09,290.00,11.00,0.00,29.97,M,2.49,M,FEW,BKN,M,M,400.00,2600.00,M,M,BR,M,M,M,M,M,M,71.60,RCTP 050600Z 29011KT 4000 BR FEW004 BKN026 22/19 Q1015 NOSIG RMK A2998
RCTP,2017-01-05 06:30,69.80,66.20,88.34,290.00,9.00,0.00,29.94,M,2.49,M,FEW,SCT,BKN,M,500.00,2600.00,3500.00,M,BR,M,M,M,M,M,M,69.80,RCTP 050630Z 29009KT 250V320 4000 BR FEW005 SCT026 BKN035 21/19 Q1014 NOSIG RMK A2997
RCTP,2017-01-05 07:00,71.60,66.20,83.09,290.00,8.00,0.00,29.94,M,2.49,M,FEW,SCT,BKN,M,500.00,2600.00,3500.00,M,BR,M,M,M,M,M,M,71.60,RCTP 050700Z 29008KT 260V330 4000 BR FEW005 SCT026 BKN035 22/19 Q1014 NOSIG RMK A2996
RCTP,2017-01-05 07:30,71.60,66.20,83.09,290.00,7.00,0.00,29.94,M,2.49,M,FEW,SCT,M,M,500.00,2500.00,M,M,BR,M,M,M,M,M,M,71.60,RCTP 050730Z 29007KT 260V330 4000 BR FEW005 SCT025 22/19 Q1014 NOSIG RMK A2997
RCTP,2017-01-05 08:00,69.80,66.20,88.34,310.00,5.00,0.00,29.94,M,2.49,M,FEW,SCT,M,M,500.00,2500.00,M,M,BR,M,M,M,M,M,M,69.80,RCTP 050800Z 31005KT 270V340 4000 BR FEW005 SCT025 21/19 Q1014 NOSIG RMK A2997
RCTP,2017-01-05 08:30,69.80,64.40,82.98,320.00,5.00,0.00,29.97,M,3.11,M,FEW,SCT,BKN,M,500.00,2500.00,4000.00,M,BR,M,M,M,M,M,M,69.80,RCTP 050830Z 32005KT 5000 BR FEW005 SCT025 BKN040 21/18 Q1015 NOSIG RMK A2998
RCTP,2017-01-05 09:00,69.80,66.20,88.34,340.00,5.00,0.00,29.97,M,2.80,M,FEW,SCT,BKN,M,500.00,2500.00,4000.00,M,BR,M,M,M,M,M,M,69.80,RCTP 050900Z 34005KT 4500 BR FEW005 SCT025 BKN040 21/19 Q1015 NOSIG RMK A2999
RCTP,2017-01-05 09:30,68.00,66.20,93.97,340.00,3.00,0.00,29.97,M,2.36,M,FEW,SCT,BKN,M,500.00,2000.00,3500.00,M,BR,M,M,M,M,M,M,68.00,RCTP 050930Z 34003KT 3800 BR FEW005 SCT020 BKN035 20/19 Q1015 NOSIG RMK A3000
RCTP,2017-01-05 10:00,68.00,66.20,93.97,340.00,5.00,0.00,30.00,M,2.49,M,FEW,SCT,BKN,M,500.00,800.00,4000.00,M,BR,M,M,M,M,M,M,68.00,RCTP 051000Z 34005KT 4000 BR FEW005 SCT008 BKN040 20/19 Q1016 NOSIG RMK A3001
RCTP,2017-01-05 10:20,68.00,66.20,93.97,350.00,5.00,0.00,30.00,M,2.49,M,SCT,BKN,BKN,M,500.00,800.00,2000.00,M,BR,M,M,M,M,M,M,68.00,RCTP 051020Z 35005KT 4000 BR SCT005 BKN008 BKN020 20/19 Q1016 NOSIG RMK A3002
RCTP,2017-01-05 10:30,68.00,66.20,93.97,350.00,4.00,0.00,30.00,M,2.49,M,SCT,BKN,BKN,M,500.00,800.00,2000.00,M,BR,M,M,M,M,M,M,68.00,RCTP 051030Z 35004KT 4000 BR SCT005 BKN008 BKN020 20/19 Q1016 NOSIG RMK A3002
RCTP,2017-01-05 11:00,68.00,66.20,93.97,340.00,4.00,0.00,30.00,M,2.49,M,SCT,BKN,BKN,M,500.00,800.00,2000.00,M,BR,M,M,M,M,M,M,68.00,RCTP 051100Z 34004KT 4000 BR SCT005 BKN008 BKN020 20/19 Q1016 NOSIG RMK A3003
RCTP,2017-01-05 11:30,68.00,66.20,93.97,M,2.00,0.00,30.00,M,2.49,M,FEW,BKN,M,M,400.00,800.00,M,M,BR,M,M,M,M,M,M,68.00,RCTP 051130Z VRB02KT 4000 BR FEW004 BKN008 20/19 Q1016 NOSIG RMK A3002
RCTP,2017-01-05 11:53,66.20,64.40,93.92,20.00,2.00,0.00,30.00,M,2.80,M,SCT,M,M,M,800.00,M,M,M,BR,M,M,M,M,M,M,66.20,RCTP 051153Z 02002KT 4500 BR SCT008 19/18 Q1016 NOSIG RMK A3003
RCTP,2017-01-05 12:00,66.20,64.40,93.92,M,2.00,0.00,30.00,M,2.80,M,SCT,M,M,M,800.00,M,M,M,BR,M,M,M,M,M,M,66.20,RCTP 051200Z VRB02KT 4500 BR SCT008 19/18 Q1016 NOSIG RMK A3003
RCTP,2017-01-05 12:30,66.20,64.40,93.92,80.00,3.00,0.00,30.00,M,2.61,M,SCT,M,M,M,800.00,M,M,M,BR,M,M,M,M,M,M,66.20,RCTP 051230Z 08003KT 040V150 4200 BR SCT008 19/18 Q1016 NOSIG RMK A3003
RCTP,2017-01-05 13:00,66.20,66.20,100.00,M,2.00,0.00,30.03,M,2.49,M,SCT,BKN,M,M,800.00,3000.00,M,M,BR,M,M,M,M,M,M,66.20,RCTP 051300Z VRB02KT 4000 BR SCT008 BKN030 19/19 Q1017 NOSIG RMK A3004
RCTP,2017-01-05 13:30,68.00,66.20,93.97,M,1.00,0.00,30.03,M,2.49,M,FEW,BKN,M,M,600.00,2800.00,M,M,BR,M,M,M,M,M,M,68.00,RCTP 051330Z VRB01KT 4000 BR FEW006 BKN028 20/19 Q1017 NOSIG RMK A3004
RCTP,2017-01-05 14:00,68.00,66.20,93.97,M,1.00,0.00,30.03,M,2.80,M,FEW,BKN,M,M,600.00,2800.00,M,M,BR,M,M,M,M,M,M,68.00,RCTP 051400Z VRB01KT 4500 BR FEW006 BKN028 20/19 Q1017 NOSIG RMK A3004
RCTP,2017-01-05 14:30,68.00,66.20,93.97,M,2.00,0.00,30.03,M,2.80,M,FEW,BKN,M,M,600.00,3000.00,M,M,BR,M,M,M,M,M,M,68.00,RCTP 051430Z VRB02KT 4500 BR FEW006 BKN030 20/19 Q1017 NOSIG RMK A3005
RCTP,2017-01-05 15:00,68.00,66.20,93.97,270.00,3.00,0.00,30.03,M,2.49,M,FEW,BKN,M,M,800.00,3500.00,M,M,BR,M,M,M,M,M,M,68.00,RCTP 051500Z 27003KT 4000 BR FEW008 BKN035 20/19 Q1017 NOSIG RMK A3004
RCTP,2017-01-05 15:30,66.20,64.40,93.92,0.00,0.00,0.00,30.03,M,2.30,M,FEW,SCT,M,M,500.00,3500.00,M,M,BR,M,M,M,M,M,M,66.20,RCTP 051530Z 00000KT 3700 BR FEW005 SCT035 19/18 Q1017 NOSIG RMK A3004
RCTP,2017-01-05 16:00,68.00,66.20,93.97,0.00,0.00,0.00,30.00,M,2.17,M,FEW,M,M,M,500.00,M,M,M,BR,M,M,M,M,M,M,68.00,RCTP 051600Z 00000KT 3500 BR FEW005 20/19 Q1016 BECMG 2000 RMK A3003
RCTP,2017-01-05 16:30,66.20,64.40,93.92,M,2.00,0.00,30.00,M,2.30,M,FEW,M,M,M,500.00,M,M,M,BR,M,M,M,M,M,M,66.20,RCTP 051630Z VRB02KT 3700 BR FEW005 19/18 Q1016 BECMG 2000 RMK A3003
RCTP,2017-01-05 17:00,66.20,64.40,93.92,220.00,3.00,0.00,30.00,M,2.30,M,FEW,M,M,M,500.00,M,M,M,BR,M,M,M,M,M,M,66.20,RCTP 051700Z 22003KT 160V250 3700 BR FEW005 19/18 Q1016 NOSIG RMK A3002
RCTP,2017-01-05 17:30,64.40,62.60,93.88,260.00,2.00,0.00,30.00,M,2.17,M,FEW,M,M,M,500.00,M,M,M,BR,M,M,M,M,M,M,64.40,RCTP 051730Z 26002KT 3500 BR FEW005 18/17 Q1016 NOSIG RMK A3002
RCTP,2017-01-05 18:00,64.40,64.40,100.00,250.00,2.00,0.00,30.00,M,1.86,M,FEW,M,M,M,500.00,M,M,M,BR,M,M,M,M,M,M,64.40,RCTP 051800Z 25002KT 3000 BR FEW005 18/18 Q1016 NOSIG RMK A3002
RCTP,2017-01-05 18:30,64.40,64.40,100.00,M,2.00,0.00,30.00,M,1.86,M,SCT,M,M,M,500.00,M,M,M,BR,M,M,M,M,M,M,64.40,RCTP 051830Z VRB02KT 3000 BR SCT005 18/18 Q1016 NOSIG RMK A3002
RCTP,2017-01-05 18:44,66.20,66.20,100.00,M,1.00,0.00,30.00,M,1.74,M,SCT,BKN,BKN,M,300.00,500.00,1000.00,M,BR,M,M,M,M,M,M,66.20,RCTP 051844Z VRB01KT 2800 BR SCT003 BKN005 BKN010 19/19 Q1016 NOSIG RMK A3002
RCTP,2017-01-05 19:00,66.20,66.20,100.00,260.00,3.00,0.00,30.00,M,1.74,M,SCT,BKN,BKN,M,300.00,500.00,1000.00,M,BR,M,M,M,M,M,M,66.20,RCTP 051900Z 26003KT 2800 BR SCT003 BKN005 BKN010 19/19 Q1016 NOSIG RMK A3002
RCTP,2017-01-05 19:30,66.20,66.20,100.00,260.00,4.00,0.00,30.00,M,2.17,M,SCT,BKN,BKN,M,300.00,500.00,1000.00,M,BR,M,M,M,M,M,M,66.20,RCTP 051930Z 26004KT 3500 BR SCT003 BKN005 BKN010 19/19 Q1016 NOSIG RMK A3002
RCTP,2017-01-05 19:50,66.20,66.20,100.00,270.00,3.00,0.00,30.00,M,2.17,M,SCT,BKN,BKN,M,400.00,800.00,1200.00,M,BR,M,M,M,M,M,M,66.20,RCTP 051950Z 27003KT 3500 BR SCT004 BKN008 BKN012 19/19 Q1016 NOSIG RMK A3002
RCTP,2017-01-05 20:00,66.20,66.20,100.00,270.00,3.00,0.00,30.00,M,2.36,M,SCT,BKN,BKN,M,400.00,800.00,1200.00,M,BR,M,M,M,M,M,M,66.20,RCTP 052000Z 27003KT 250V310 3800 BR SCT004 BKN008 BKN012 19/19 Q1016 NOSIG RMK A3002
RCTP,2017-01-05 20:30,66.20,66.20,100.00,300.00,3.00,0.00,30.00,M,2.49,M,SCT,BKN,BKN,M,500.00,800.00,1500.00,M,BR,M,M,M,M,M,M,66.20,RCTP 052030Z 30003KT 4000 BR SCT005 BKN008 BKN015 19/19 Q1016 NOSIG RMK A3002
RCTP,2017-01-05 21:00,66.20,66.20,100.00,320.00,4.00,0.00,30.00,M,2.49,M,SCT,BKN,BKN,M,500.00,800.00,1500.00,M,BR,M,M,M,M,M,M,66.20,RCTP 052100Z 32004KT 4000 BR SCT005 BKN008 BKN015 19/19 Q1016 NOSIG RMK A3003
RCTP,2017-01-05 21:30,66.20,66.20,100.00,10.00,5.00,0.00,30.00,M,2.49,M,SCT,BKN,BKN,M,400.00,600.00,1000.00,M,BR,M,M,M,M,M,M,66.20,RCTP 052130Z 01005KT 350V050 4000 BR SCT004 BKN006 BKN010 19/19 Q1016 NOSIG RMK R05 A3002
RCTP,2017-01-05 22:00,66.20,66.20,100.00,20.00,6.00,0.00,30.00,M,2.49,M,SCT,BKN,BKN,M,400.00,700.00,1500.00,M,BR,M,M,M,M,M,M,66.20,RCTP 052200Z 02006KT 340V040 4000 BR SCT004 BKN007 BKN015 19/19 Q1016 NOSIG RMK A3002
RCTP,2017-01-05 22:30,68.00,66.20,93.97,360.00,4.00,0.00,30.00,M,2.17,M,SCT,BKN,BKN,M,500.00,800.00,3000.00,M,BR,M,M,M,M,M,M,68.00,RCTP 052230Z 36004KT 3500 BR SCT005 BKN008 BKN030 20/19 Q1016 NOSIG RMK A3003
RCTP,2017-01-05 23:00,66.20,66.20,100.00,30.00,5.00,0.00,30.00,M,2.49,M,SCT,BKN,M,M,800.00,3500.00,M,M,BR,M,M,M,M,M,M,66.20,RCTP 052300Z 03005KT 4000 BR SCT008 BKN035 19/19 Q1016 NOSIG RMK A3003
RCTP,2017-01-05 23:30,68.00,66.20,93.97,40.00,4.00,0.00,30.00,M,2.49,M,SCT,BKN,M,M,800.00,3500.00,M,M,BR,M,M,M,M,M,M,68.00,RCTP 052330Z 04004KT 4000 BR SCT008 BKN035 20/19 Q1016 NOSIG RMK A3003
RCTP,2017-01-06 00:00,68.00,66.20,93.97,30.00,8.00,0.00,30.03,M,2.80,M,SCT,BKN,M,M,800.00,3500.00,M,M,BR,M,M,M,M,M,M,68.00,RCTP 060000Z 03008KT 4500 BR SCT008 BKN035 20/19 Q1017 NOSIG RMK A3004
RCTP,2017-01-06 00:10,68.00,66.20,93.97,40.00,9.00,0.00,30.03,M,1.74,M,SCT,BKN,M,M,800.00,3000.00,M,M,BR,M,M,M,M,M,M,68.00,RCTP 060010Z 04009KT 2800 BR SCT008 BKN030 20/19 Q1017 NOSIG RMK A3004
RCTP,2017-01-06 00:26,69.80,66.20,88.34,40.00,8.00,0.00,30.03,M,1.74,M,FEW,BKN,BKN,M,600.00,900.00,3000.00,M,BR,M,M,M,M,M,M,69.80,RCTP 060026Z 04008KT 2800 BR FEW006 BKN009 BKN030 21/19 Q1017 NOSIG RMK A3005
RCTP,2017-01-06 00:30,69.80,66.20,88.34,40.00,7.00,0.00,30.03,M,1.74,M,FEW,BKN,BKN,M,600.00,900.00,3000.00,M,BR,M,M,M,M,M,M,69.80,RCTP 060030Z 04007KT 2800 BR FEW006 BKN009 BKN030 21/19 Q1017 NOSIG RMK A3005
RCTP,2017-01-06 01:00,68.00,66.20,93.97,30.00,9.00,0.00,30.06,M,1.86,M,FEW,BKN,BKN,M,500.00,800.00,2000.00,M,BR,M,M,M,M,M,M,68.00,RCTP 060100Z 03009KT 3000 BR FEW005 BKN008 BKN020 20/19 Q1018 NOSIG RMK A3006
RCTP,2017-01-06 01:30,69.80,66.20,88.34,50.00,8.00,0.00,30.03,M,2.17,M,FEW,BKN,BKN,M,600.00,900.00,2000.00,M,BR,M,M,M,M,M,M,69.80,RCTP 060130Z 05008KT 020V080 3500 BR FEW006 BKN009 BKN020 21/19 Q1017 NOSIG RMK A3005
RCTP,2017-01-06 02:00,71.60,66.20,83.09,40.00,9.00,0.00,30.03,M,2.80,M,FEW,BKN,BKN,M,600.00,900.00,3500.00,M,BR,M,M,M,M,M,M,71.60,RCTP 060200Z 04009KT 4500 BR FEW006 BKN009 BKN035 22/19 Q1017 NOSIG RMK A3004
RCTP,2017-01-06 02:30,73.40,66.20,78.19,50.00,9.00,0.00,30.00,M,3.73,M,SCT,BKN,M,M,900.00,3500.00,M,M,M,M,M,M,M,M,M,73.40,RCTP 060230Z 05009KT 6000 SCT009 BKN035 23/19 Q1016 NOSIG RMK A3002
RCTP,2017-01-06 03:00,73.40,66.20,78.19,10.00,9.00,0.00,30.00,M,3.73,M,SCT,BKN,M,M,900.00,3500.00,M,M,M,M,M,M,M,M,M,73.40,RCTP 060300Z 01009KT 6000 SCT009 BKN035 23/19 Q1016 NOSIG RMK A3002
RCTP,2017-01-06 03:30,71.60,68.00,88.43,360.00,11.00,0.00,30.00,M,3.73,M,SCT,BKN,M,M,800.00,3500.00,M,M,M,M,M,M,M,M,M,72.62,RCTP 060330Z 36011KT 6000 SCT008 BKN035 22/20 Q1016 NOSIG RMK A3001
RCTP,2017-01-06 04:00,71.60,68.00,88.43,360.00,10.00,0.00,29.97,M,3.73,M,SCT,BKN,M,M,600.00,3500.00,M,M,M,M,M,M,M,M,M,72.62,RCTP 060400Z 36010KT 6000 SCT006 BKN035 22/20 Q1015 NOSIG RMK A2999
RCTP,2017-01-06 04:30,71.60,68.00,88.43,360.00,10.00,0.00,29.97,M,3.73,M,SCT,BKN,M,M,600.00,3500.00,M,M,M,M,M,M,M,M,M,72.62,RCTP 060430Z 36010KT 6000 SCT006 BKN035 22/20 Q1015 NOSIG RMK A2998
RCTP,2017-01-06 04:44,69.80,68.00,94.01,10.00,14.00,0.00,29.94,M,3.73,M,FEW,BKN,BKN,M,400.00,600.00,3500.00,M,M,M,M,M,M,M,M,69.80,RCTP 060444Z 01014KT 6000 FEW004 BKN006 BKN035 21/20 Q1014 NOSIG RMK A2997
RCTP,2017-01-06 05:00,69.80,68.00,94.01,10.00,17.00,0.00,29.94,M,3.73,M,FEW,BKN,BKN,M,400.00,600.00,3500.00,M,M,M,M,M,M,M,M,69.80,RCTP 060500Z 01017KT 6000 FEW004 BKN006 BKN035 21/20 Q1014 NOSIG RMK A2997
RCTP,2017-01-06 05:30,69.80,68.00,94.01,10.00,15.00,0.00,29.94,M,3.73,M,FEW,BKN,BKN,M,400.00,600.00,3500.00,M,M,M,M,M,M,M,M,69.80,RCTP 060530Z 01015KT 6000 FEW004 BKN006 BKN035 21/20 Q1014 NOSIG RMK A2996
RCTP,2017-01-06 06:00,69.80,66.20,88.34,10.00,18.00,0.00,29.94,M,3.73,M,FEW,BKN,BKN,M,400.00,600.00,3500.00,M,M,M,M,M,M,M,M,69.80,RCTP 060600Z 01018KT 6000 FEW004 BKN006 BKN035 21/19 Q1014 NOSIG RMK A2996
RCTP,2017-01-06 06:30,68.00,66.20,93.97,20.00,17.00,0.00,29.94,M,3.73,M,SCT,BKN,BKN,M,400.00,600.00,1200.00,M,M,M,M,M,M,M,M,68.00,RCTP 060630Z 02017KT 6000 SCT004 BKN006 BKN012 20/19 Q1014 NOSIG RMK A2996
RCTP,2017-01-06 07:00,68.00,66.20,93.97,20.00,17.00,0.00,29.94,M,3.73,M,SCT,BKN,BKN,M,400.00,600.00,1200.00,M,M,M,M,M,M,M,M,68.00,RCTP 060700Z 02017KT 6000 SCT004 BKN006 BKN012 20/19 Q1014 NOSIG RMK A2995
RCTP,2017-01-06 07:30,68.00,64.40,88.26,30.00,17.00,0.00,29.94,M,4.35,M,SCT,BKN,BKN,M,400.00,600.00,1200.00,M,M,M,M,M,M,M,M,68.00,RCTP 060730Z 03017KT 7000 SCT004 BKN006 BKN012 20/18 Q1014 NOSIG RMK A2996
RCTP,2017-01-06 08:00,68.00,64.40,88.26,30.00,15.00,0.00,29.94,M,4.97,M,SCT,BKN,BKN,M,500.00,700.00,1200.00,M,M,M,M,M,M,M,M,68.00,RCTP 060800Z 03015KT 8000 SCT005 BKN007 BKN012 20/18 Q1014 NOSIG RMK A2996
RCTP,2017-01-06 08:30,68.00,64.40,88.26,30.00,15.00,0.00,29.94,M,4.97,M,SCT,BKN,BKN,M,500.00,700.00,1200.00,M,M,M,M,M,M,M,M,68.00,RCTP 060830Z 03015KT 8000 SCT005 BKN007 BKN012 20/18 Q1014 NOSIG RMK A2996
RCTP,2017-01-06 09:00,68.00,66.20,93.97,20.00,14.00,0.00,29.94,M,4.97,M,SCT,BKN,BKN,M,500.00,700.00,1500.00,M,M,M,M,M,M,M,M,68.00,RCTP 060900Z 02014KT 8000 SCT005 BKN007 BKN015 20/19 Q1014 NOSIG RMK A2997
RCTP,2017-01-06 09:30,68.00,66.20,93.97,20.00,12.00,0.00,29.97,M,4.35,M,SCT,BKN,BKN,M,500.00,700.00,1200.00,M,M,M,M,M,M,M,M,68.00,RCTP 060930Z 02012KT 7000 SCT005 BKN007 BKN012 20/19 Q1015 NOSIG RMK A2998
RCTP,2017-01-06 10:00,68.00,66.20,93.97,20.00,11.00,0.00,29.97,M,4.35,M,SCT,BKN,BKN,M,400.00,600.00,1200.00,M,M,M,M,M,M,M,M,68.00,RCTP 061000Z 02011KT 7000 SCT004 BKN006 BKN012 20/19 Q1015 NOSIG RMK A2999
RCTP,2017-01-06 10:30,68.00,66.20,93.97,10.00,12.00,0.00,29.97,M,4.97,M,SCT,BKN,BKN,M,500.00,700.00,1200.00,M,M,M,M,M,M,M,M,68.00,RCTP 061030Z 01012KT 8000 SCT005 BKN007 BKN012 20/19 Q1015 NOSIG RMK A2999
RCTP,2017-01-06 11:00,68.00,66.20,93.97,20.00,11.00,0.00,29.97,M,4.97,M,SCT,BKN,BKN,M,500.00,700.00,1500.00,M,M,M,M,M,M,M,M,68.00,RCTP 061100Z 02011KT 8000 SCT005 BKN007 BKN015 20/19 Q1015 NOSIG RMK A2999
RCTP,2017-01-06 11:30,68.00,66.20,93.97,20.00,12.00,0.00,29.97,M,4.97,M,SCT,BKN,BKN,M,500.00,700.00,1500.00,M,M,M,M,M,M,M,M,68.00,RCTP 061130Z 02012KT 8000 SCT005 BKN007 BKN015 20/19 Q1015 NOSIG RMK A2999
RCTP,2017-01-06 12:00,68.00,66.20,93.97,10.00,9.00,0.00,29.97,M,4.97,M,SCT,BKN,BKN,M,400.00,600.00,1500.00,M,M,M,M,M,M,M,M,68.00,RCTP 061200Z 01009KT 8000 SCT004 BKN006 BKN015 20/19 Q1015 NOSIG RMK A2998
RCTP,2017-01-06 12:30,68.00,66.20,93.97,20.00,12.00,0.00,29.97,M,4.35,M,SCT,BKN,BKN,M,400.00,600.00,2000.00,M,M,M,M,M,M,M,M,68.00,RCTP 061230Z 02012KT 7000 SCT004 BKN006 BKN020 20/19 Q1015 NOSIG RMK A2998
RCTP,2017-01-06 13:00,69.80,68.00,94.01,10.00,8.00,0.00,29.97,M,4.35,M,SCT,BKN,BKN,M,500.00,800.00,2000.00,M,M,M,M,M,M,M,M,69.80,RCTP 061300Z 01008KT 7000 SCT005 BKN008 BKN020 21/20 Q1015 NOSIG RMK A2998
RCTP,2017-01-06 13:30,69.80,68.00,94.01,10.00,10.00,0.00,29.97,M,4.35,M,SCT,BKN,BKN,M,500.00,800.00,2000.00,M,M,M,M,M,M,M,M,69.80,RCTP 061330Z 01010KT 7000 SCT005 BKN008 BKN020 21/20 Q1015 NOSIG RMK A2998
RCTP,2017-01-06 14:00,69.80,68.00,94.01,20.00,8.00,0.00,29.97,M,4.35,M,SCT,BKN,BKN,M,500.00,800.00,2500.00,M,-DZ,M,M,M,M,M,M,69.80,RCTP 061400Z 02008KT 7000 -DZ SCT005 BKN008 BKN025 21/20 Q1015 NOSIG RMK A2999
RCTP,2017-01-06 14:30,68.00,68.00,100.00,20.00,8.00,0.00,29.97,M,4.35,M,SCT,BKN,BKN,M,500.00,800.00,2500.00,M,-DZ,M,M,M,M,M,M,68.00,RCTP 061430Z 02008KT 7000 -DZ SCT005 BKN008 BKN025 20/20 Q1015 NOSIG RMK A2998
RCTP,2017-01-06 15:00,68.00,68.00,100.00,20.00,9.00,0.00,29.97,M,4.35,M,SCT,BKN,M,M,800.00,2500.00,M,M,M,M,M,M,M,M,M,68.00,RCTP 061500Z 02009KT 7000 SCT008 BKN025 20/20 Q1015 NOSIG RMK A2998
RCTP,2017-01-06 15:30,69.80,68.00,94.01,20.00,7.00,0.00,29.94,M,4.35,M,SCT,BKN,M,M,700.00,4000.00,M,M,M,M,M,M,M,M,M,69.80,RCTP 061530Z 02007KT 7000 SCT007 BKN040 21/20 Q1014 NOSIG RMK A2997
RCTP,2017-01-06 16:00,69.80,68.00,94.01,30.00,8.00,0.00,29.94,M,4.35,M,FEW,SCT,BKN,M,800.00,2500.00,4500.00,M,M,M,M,M,M,M,M,69.80,RCTP 061600Z 03008KT 7000 FEW008 SCT025 BKN045 21/20 Q1014 NOSIG RMK A2997
RCTP,2017-01-06 16:30,69.80,68.00,94.01,30.00,8.00,0.00,29.94,M,4.97,M,FEW,BKN,BKN,M,800.00,1800.00,2500.00,M,M,M,M,M,M,M,M,69.80,RCTP 061630Z 03008KT 8000 FEW008 BKN018 BKN025 21/20 Q1014 NOSIG RMK A2996
RCTP,2017-01-06 17:00,69.80,68.00,94.01,20.00,7.00,0.00,29.94,M,4.97,M,FEW,BKN,BKN,M,600.00,1600.00,2500.00,M,M,M,M,M,M,M,M,69.80,RCTP 061700Z 02007KT 8000 FEW006 BKN016 BKN025 21/20 Q1014 NOSIG RMK A2996
RCTP,2017-01-06 17:30,69.80,68.00,94.01,30.00,8.00,0.00,29.94,M,4.97,M,SCT,BKN,BKN,M,600.00,1600.00,2500.00,M,M,M,M,M,M,M,M,69.80,RCTP 061730Z 03008KT 8000 SCT006 BKN016 BKN025 21/20 Q1014 NOSIG RMK A2996
RCTP,2017-01-06 18:00,69.80,68.00,94.01,30.00,7.00,0.00,29.94,M,4.97,M,SCT,BKN,BKN,M,600.00,1400.00,2000.00,M,M,M,M,M,M,M,M,69.80,RCTP 061800Z 03007KT 8000 SCT006 BKN014 BKN020 21/20 Q1014 NOSIG RMK A2995
RCTP,2017-01-06 18:30,69.80,68.00,94.01,360.00,5.00,0.00,29.94,M,4.35,M,SCT,BKN,BKN,M,600.00,1400.00,2000.00,M,M,M,M,M,M,M,M,69.80,RCTP 061830Z 36005KT 7000 SCT006 BKN014 BKN020 21/20 Q1014 NOSIG RMK A2995
RCTP,2017-01-06 19:00,68.00,68.00,100.00,0.00,0.00,0.00,29.94,M,3.11,M,SCT,BKN,BKN,M,600.00,1700.00,7000.00,M,BR,M,M,M,M,M,M,68.00,RCTP 061900Z 00000KT 5000 BR SCT006 BKN017 BKN070 20/20 Q1014 NOSIG RMK A2995
RCTP,2017-01-06 19:30,69.80,68.00,94.01,30.00,4.00,0.00,29.94,M,3.11,M,SCT,BKN,BKN,M,600.00,1600.00,3000.00,M,BR,M,M,M,M,M,M,69.80,RCTP 061930Z 03004KT 5000 BR SCT006 BKN016 BKN030 21/20 Q1014 NOSIG RMK A2995
RCTP,2017-01-06 19:46,69.80,68.00,94.01,30.00,2.00,0.00,29.94,M,3.11,M,SCT,BKN,BKN,M,600.00,1200.00,3000.00,M,BR,M,M,M,M,M,M,69.80,RCTP 061946Z 03002KT 5000 BR SCT006 BKN012 BKN030 21/20 Q1014 NOSIG RMK A2995
RCTP,2017-01-06 20:00,69.80,68.00,94.01,M,1.00,0.00,29.94,M,3.11,M,SCT,BKN,M,M,600.00,1300.00,M,M,BR,M,M,M,M,M,M,69.80,RCTP 062000Z VRB01KT 5000 BR SCT006 BKN013 21/20 Q1014 NOSIG RMK A2995
RCTP,2017-01-06 20:16,69.80,68.00,94.01,230.00,3.00,0.00,29.94,M,2.61,M,SCT,OVC,M,M,600.00,1200.00,M,M,BR,M,M,M,M,M,M,69.80,RCTP 062016Z 23003KT 4200 BR SCT006 OVC012 21/20 Q1014 NOSIG RMK A2995
RCTP,2017-01-06 20:26,69.80,68.00,94.01,280.00,2.00,0.00,29.94,M,2.61,M,BKN,OVC,M,M,600.00,1200.00,M,M,BR,M,M,M,M,M,M,69.80,RCTP 062026Z 28002KT 4200 BR BKN006 OVC012 21/20 Q1014 NOSIG RMK A2995
RCTP,2017-01-06 20:30,69.80,68.00,94.01,280.00,2.00,0.00,29.94,M,2.61,M,BKN,OVC,M,M,600.00,1200.00,M,M,BR,M,M,M,M,M,M,69.80,RCTP 062030Z 28002KT 4200 BR BKN006 OVC012 21/20 Q1014 NOSIG RMK R23 A2995
RCTP,2017-01-06 21:00,69.80,68.00,94.01,M,3.00,0.00,29.94,M,2.49,M,BKN,BKN,M,M,600.00,1800.00,M,M,BR,M,M,M,M,M,M,69.80,RCTP 062100Z VRB03KT 4000 BR BKN006 BKN018 21/20 Q1014 NOSIG RMK A2995
RCTP,2017-01-06 21:34,69.80,68.00,94.01,180.00,3.00,0.00,29.94,M,2.17,M,FEW,SCT,M,M,600.00,2000.00,M,M,BR,M,M,M,M,M,M,69.80,RCTP 062134Z 18003KT 130V240 3500 BR FEW006 SCT020 21/20 Q1014 NOSIG RMK A2995
RCTP,2017-01-06 22:00,68.00,66.20,93.97,180.00,5.00,0.00,29.91,M,2.17,M,FEW,SCT,M,M,600.00,2000.00,M,M,BR,M,M,M,M,M,M,68.00,RCTP 062200Z 18005KT 140V240 3500 BR FEW006 SCT020 20/19 Q1013 NOSIG RMK A2994
RCTP,2017-01-06 22:09,68.00,66.20,93.97,170.00,3.00,0.00,29.91,M,1.86,M,FEW,SCT,M,M,600.00,2000.00,M,M,BR,M,M,M,M,M,M,68.00,RCTP 062209Z 17003KT 130V230 3000 BR FEW006 SCT020 20/19 Q1013 NOSIG RMK A2994
RCTP,2017-01-06 22:30,68.00,66.20,93.97,M,2.00,0.00,29.91,M,1.55,M,FEW,SCT,M,M,600.00,2000.00,M,M,BR,M,M,M,M,M,M,68.00,RCTP 062230Z VRB02KT 2500 BR FEW006 SCT020 20/19 Q1013 NOSIG RMK A2994
RCTP,2017-01-06 23:00,68.00,66.20,93.97,M,1.00,0.00,29.91,M,1.86,M,FEW,SCT,M,M,600.00,2000.00,M,M,BR,M,M,M,M,M,M,68.00,RCTP 062300Z VRB01KT 3000 BR FEW006 SCT020 20/19 Q1013 NOSIG RMK A2994
RCTP,2017-01-06 23:30,69.80,68.00,94.01,130.00,3.00,0.00,29.91,M,1.86,M,FEW,BKN,M,M,1000.00,15000.00,M,M,BR,M,M,M,M,M,M,69.80,RCTP 062330Z 13003KT 080V200 3000 BR FEW010 BKN150 21/20 Q1013 NOSIG RMK A2994
RCTP,2017-01-07 00:00,69.80,68.00,94.01,M,2.00,0.00,29.91,M,1.86,M,FEW,BKN,M,M,1000.00,15000.00,M,M,BR,M,M,M,M,M,M,69.80,RCTP 070000Z VRB02KT 3000 BR FEW010 BKN150 21/20 Q1013 NOSIG RMK A2994
RCTP,2017-01-07 00:30,69.80,68.00,94.01,310.00,5.00,0.00,29.94,M,1.99,M,SCT,BKN,M,M,1200.00,15000.00,M,M,BR,M,M,M,M,M,M,69.80,RCTP 070030Z 31005KT 3200 BR SCT012 BKN150 21/20 Q1014 NOSIG RMK R05 A2996
RCTP,2017-01-07 00:40,69.80,68.00,94.01,320.00,5.00,0.00,29.94,M,2.17,M,FEW,BKN,BKN,M,1000.00,1300.00,15000.00,M,BR,M,M,M,M,M,M,69.80,RCTP 070040Z 32005KT 3500 BR FEW010 BKN013 BKN150 21/20 Q1014 NOSIG RMK A2996
RCTP,2017-01-07 01:00,69.80,68.00,94.01,290.00,7.00,0.00,29.94,M,2.49,M,FEW,BKN,BKN,M,1000.00,1300.00,15000.00,M,BR,M,M,M,M,M,M,69.80,RCTP 070100Z 29007KT 4000 BR FEW010 BKN013 BKN150 21/20 Q1014 NOSIG RMK A2997
RCTP,2017-01-07 01:30,71.60,68.00,88.43,280.00,5.00,0.00,29.97,M,2.80,M,FEW,BKN,BKN,M,1000.00,1300.00,15000.00,M,BR,M,M,M,M,M,M,72.62,RCTP 070130Z 28005KT 250V310 4500 BR FEW010 BKN013 BKN150 22/20 Q1015 NOSIG RMK A2998
RCTP,2017-01-07 02:00,71.60,68.00,88.43,300.00,6.00,0.00,29.97,M,3.11,M,FEW,BKN,BKN,M,900.00,1200.00,1800.00,M,BR,M,M,M,M,M,M,72.62,RCTP 070200Z 30006KT 5000 BR FEW009 BKN012 BKN018 22/20 Q1015 NOSIG RMK A2998
RCTP,2017-01-07 02:30,71.60,68.00,88.43,310.00,5.00,0.00,29.94,M,3.73,M,SCT,BKN,BKN,M,700.00,1200.00,1800.00,M,M,M,M,M,M,M,M,72.62,RCTP 070230Z 31005KT 280V360 6000 SCT007 BKN012 BKN018 22/20 Q1014 NOSIG RMK A2997
RCTP,2017-01-07 03:00,71.60,68.00,88.43,320.00,4.00,0.00,29.94,M,4.35,M,SCT,BKN,BKN,M,700.00,1100.00,1800.00,M,M,M,M,M,M,M,M,72.62,RCTP 070300Z 32004KT 290V350 7000 SCT007 BKN011 BKN018 22/20 Q1014 NOSIG RMK A2996
RCTP,2017-01-07 03:30,73.40,68.00,83.21,320.00,4.00,0.00,29.91,M,4.97,M,SCT,BKN,BKN,M,800.00,1200.00,12000.00,M,M,M,M,M,M,M,M,73.40,RCTP 070330Z 32004KT 290V040 8000 SCT008 BKN012 BKN120 23/20 Q1013 NOSIG RMK A2994
RCTP,2017-01-07 03:53,73.40,68.00,83.21,300.00,4.00,0.00,29.91,M,4.97,M,FEW,SCT,BKN,M,800.00,1200.00,12000.00,M,M,M,M,M,M,M,M,73.40,RCTP 070353Z 30004KT 230V360 8000 FEW008 SCT012 BKN120 23/20 Q1013 NOSIG RMK A2993
RCTP,2017-01-07 04:00,73.40,68.00,83.21,340.00,5.00,0.00,29.91,M,4.97,M,FEW,SCT,BKN,M,900.00,1400.00,12000.00,M,M,M,M,M,M,M,M,73.40,RCTP 070400Z 34005KT 310V010 8000 FEW009 SCT014 BKN120 23/20 Q1013 NOSIG RMK A2992
RCTP,2017-01-07 04:30,71.60,68.00,88.43,330.00,4.00,0.00,29.88,M,4.97,M,FEW,SCT,BKN,M,900.00,1400.00,12000.00,M,M,M,M,M,M,M,M,72.62,RCTP 070430Z 33004KT 280V360 8000 FEW009 SCT014 BKN120 22/20 Q1012 NOSIG RMK A2990
RCTP,2017-01-07 05:00,73.40,68.00,83.21,310.00,4.00,0.00,29.88,M,4.97,M,SCT,BKN,M,M,1400.00,12000.00,M,M,M,M,M,M,M,M,M,73.40,RCTP 070500Z 31004KT 270V010 8000 SCT014 BKN120 23/20 Q1012 NOSIG RMK A2989
RCTP,2017-01-07 05:30,75.20,66.20,73.61,250.00,6.00,0.00,29.85,M,4.97,M,SCT,BKN,M,M,1400.00,12000.00,M,M,M,M,M,M,M,M,M,75.20,RCTP 070530Z 25006KT 170V310 8000 SCT014 BKN120 24/19 Q1011 NOSIG RMK A2987
RCTP,2017-01-07 05:45,71.60,68.00,88.43,320.00,8.00,0.00,29.85,M,4.97,M,SCT,BKN,M,M,1400.00,12000.00,M,M,M,M,M,M,M,M,M,72.62,RCTP 070545Z 32008KT 8000 SCT014 BKN120 22/20 Q1011 NOSIG RMK R23 A2987
RCTP,2017-01-07 06:03,69.80,66.20,88.34,320.00,8.00,0.00,29.85,M,4.97,M,SCT,BKN,BKN,M,300.00,500.00,12000.00,M,M,M,M,M,M,M,M,69.80,RCTP 070603Z 32008KT 8000 SCT003 BKN005 BKN120 21/19 Q1011 NOSIG RMK A2987
RCTP,2017-01-07 06:30,69.80,66.20,88.34,310.00,6.00,0.00,29.85,M,4.35,M,SCT,BKN,BKN,M,300.00,500.00,10000.00,M,M,M,M,M,M,M,M,69.80,RCTP 070630Z 31006KT 7000 SCT003 BKN005 BKN100 21/19 Q1011 NOSIG RMK A2987
RCTP,2017-01-07 07:00,69.80,66.20,88.34,330.00,5.00,0.00,29.85,M,3.73,M,SCT,BKN,BKN,M,300.00,500.00,1000.00,M,M,M,M,M,M,M,M,69.80,RCTP 070700Z 33005KT 6000 SCT003 BKN005 BKN010 21/19 Q1011 TEMPO 5000 BR RMK A2987
RCTP,2017-01-07 07:30,69.80,66.20,88.34,320.00,5.00,0.00,29.85,M,3.73,M,SCT,BKN,BKN,M,400.00,600.00,1000.00,M,M,M,M,M,M,M,M,69.80,RCTP 070730Z 32005KT 6000 SCT004 BKN006 BKN010 21/19 Q1011 TEMPO 5000 BR RMK A2988
RCTP,2017-01-07 08:00,69.80,66.20,88.34,320.00,5.00,0.00,29.88,M,3.73,M,SCT,BKN,BKN,M,400.00,600.00,1200.00,M,M,M,M,M,M,M,M,69.80,RCTP 070800Z 32005KT 6000 SCT004 BKN006 BKN012 21/19 Q1012 TEMPO 5000 BR RMK A2989
RCTP,2017-01-07 08:19,68.00,66.20,93.97,320.00,6.00,0.00,29.88,M,3.11,M,SCT,BKN,BKN,M,400.00,600.00,1200.00,M,BR,M,M,M,M,M,M,68.00,RCTP 070819Z 32006KT 5000 BR SCT004 BKN006 BKN012 20/19 Q1012 NOSIG RMK A2989
RCTP,2017-01-07 08:30,68.00,66.20,93.97,310.00,5.00,0.00,29.88,M,3.11,M,SCT,BKN,BKN,M,500.00,700.00,1200.00,M,BR,M,M,M,M,M,M,68.00,RCTP 070830Z 31005KT 5000 BR SCT005 BKN007 BKN012 20/19 Q1012 NOSIG RMK A2990
RCTP,2017-01-07 09:00,68.00,66.20,93.97,310.00,5.00,0.00,29.88,M,3.11,M,SCT,BKN,BKN,M,500.00,700.00,1200.00,M,BR,M,M,M,M,M,M,68.00,RCTP 070900Z 31005KT 5000 BR SCT005 BKN007 BKN012 20/19 Q1012 NOSIG RMK A2991
RCTP,2017-01-07 09:30,68.00,66.20,93.97,320.00,4.00,0.00,29.88,M,3.11,M,SCT,BKN,BKN,M,500.00,700.00,1200.00,M,BR,M,M,M,M,M,M,68.00,RCTP 070930Z 32004KT 5000 BR SCT005 BKN007 BKN012 20/19 Q1012 TEMPO 4500 BR RMK A2991
RCTP,2017-01-07 10:00,68.00,66.20,93.97,330.00,4.00,0.00,29.91,M,2.98,M,SCT,BKN,BKN,M,500.00,700.00,1200.00,M,BR,M,M,M,M,M,M,68.00,RCTP 071000Z 33004KT 4800 BR SCT005 BKN007 BKN012 20/19 Q1013 NOSIG RMK A2992
RCTP,2017-01-07 10:30,68.00,66.20,93.97,340.00,4.00,0.00,29.91,M,3.11,M,SCT,BKN,BKN,M,500.00,700.00,1400.00,M,BR,M,M,M,M,M,M,68.00,RCTP 071030Z 34004KT 5000 BR SCT005 BKN007 BKN014 20/19 Q1013 NOSIG RMK A2992
RCTP,2017-01-07 11:00,68.00,66.20,93.97,310.00,3.00,0.00,29.91,M,3.11,M,SCT,BKN,BKN,M,500.00,700.00,1400.00,M,BR,M,M,M,M,M,M,68.00,RCTP 071100Z 31003KT 5000 BR SCT005 BKN007 BKN014 20/19 Q1013 NOSIG RMK A2992
RCTP,2017-01-07 11:30,68.00,66.20,93.97,M,2.00,0.00,29.91,M,3.11,M,SCT,BKN,BKN,M,500.00,700.00,1300.00,M,BR,M,M,M,M,M,M,68.00,RCTP 071130Z VRB02KT 5000 BR SCT005 BKN007 BKN013 20/19 Q1013 NOSIG RMK A2992
RCTP,2017-01-07 11:35,68.00,66.20,93.97,0.00,0.00,0.00,29.91,M,2.80,M,SCT,BKN,BKN,M,600.00,800.00,1300.00,M,BR,M,M,M,M,M,M,68.00,RCTP 071135Z 00000KT 4500 BR SCT006 BKN008 BKN013 20/19 Q1013 NOSIG RMK A2992
RCTP,2017-01-07 12:00,66.20,64.40,93.92,0.00,0.00,0.00,29.91,M,2.49,M,FEW,SCT,BKN,M,600.00,800.00,1300.00,M,BR,M,M,M,M,M,M,66.20,RCTP 071200Z 00000KT 4000 BR FEW006 SCT008 BKN013 19/18 Q1013 NOSIG RMK A2992
RCTP,2017-01-07 12:30,68.00,66.20,93.97,220.00,3.00,0.00,29.91,M,2.49,M,SCT,BKN,BKN,M,800.00,1400.00,15000.00,M,BR,M,M,M,M,M,M,68.00,RCTP 071230Z 22003KT 170V260 4000 BR SCT008 BKN014 BKN150 20/19 Q1013 NOSIG RMK A2992
RCTP,2017-01-07 13:00,66.20,64.40,93.92,170.00,4.00,0.00,29.91,M,2.17,M,SCT,BKN,BKN,M,800.00,1400.00,15000.00,M,BR,M,M,M,M,M,M,66.20,RCTP 071300Z 17004KT 120V230 3500 BR SCT008 BKN014 BKN150 19/18 Q1013 NOSIG RMK A2992
RCTP,2017-01-07 13:26,68.00,66.20,93.97,170.00,4.00,0.00,29.91,M,1.86,M,SCT,SCT,BKN,M,800.00,1400.00,15000.00,M,BR,M,M,M,M,M,M,68.00,RCTP 071326Z 17004KT 130V230 3000 BR SCT008 SCT014 BKN150 20/19 Q1013 NOSIG RMK A2992
RCTP,2017-01-07 13:30,68.00,64.40,88.26,170.00,4.00,0.00,29.91,M,1.86,M,SCT,SCT,BKN,M,800.00,1400.00,15000.00,M,BR,M,M,M,M,M,M,68.00,RCTP 071330Z 17004KT 130V230 3000 BR SCT008 SCT014 BKN150 20/18 Q1013 NOSIG RMK A2992
RCTP,2017-01-07 14:00,68.00,66.20,93.97,190.00,4.00,0.00,29.91,M,1.86,M,SCT,SCT,BKN,M,800.00,1400.00,15000.00,M,BR,M,M,M,M,M,M,68.00,RCTP 071400Z 19004KT 150V230 3000 BR SCT008 SCT014 BKN150 20/19 Q1013 NOSIG RMK A2993
RCTP,2017-01-07 14:30,68.00,66.20,93.97,180.00,5.00,0.00,29.91,M,1.86,M,SCT,BKN,M,M,800.00,15000.00,M,M,BR,M,M,M,M,M,M,68.00,RCTP 071430Z 18005KT 090V240 3000 BR SCT008 BKN150 20/19 Q1013 NOSIG RMK A2992
RCTP,2017-01-07 15:00,66.20,64.40,93.92,180.00,4.00,0.00,29.91,M,1.86,M,SCT,BKN,M,M,800.00,13000.00,M,M,BR,M,M,M,M,M,M,66.20,RCTP 071500Z 18004KT 140V260 3000 BR SCT008 BKN130 19/18 Q1013 NOSIG RMK A2992
RCTP,2017-01-07 15:30,68.00,66.20,93.97,190.00,5.00,0.00,29.91,M,2.49,M,SCT,BKN,M,M,800.00,13000.00,M,M,BR,M,M,M,M,M,M,68.00,RCTP 071530Z 19005KT 160V230 4000 BR SCT008 BKN130 20/19 Q1013 NOSIG RMK A2992
RCTP,2017-01-07 15:54,69.80,66.20,88.34,180.00,5.00,0.00,29.91,M,3.73,M,SCT,BKN,M,M,800.00,10000.00,M,M,M,M,M,M,M,M,M,69.80,RCTP 071554Z 18005KT 130V220 6000 SCT008 BKN100 21/19 Q1013 NOSIG RMK A2992
RCTP,2017-01-07 16:00,69.80,64.40,82.98,180.00,5.00,0.00,29.91,M,3.73,M,SCT,BKN,M,M,800.00,10000.00,M,M,M,M,M,M,M,M,M,69.80,RCTP 071600Z 18005KT 130V220 6000 SCT008 BKN100 21/18 Q1013 NOSIG RMK A2992
RCTP,2017-01-07 16:30,71.60,62.60,73.27,200.00,6.00,0.00,29.88,M,3.73,M,SCT,BKN,M,M,800.00,10000.00,M,M,M,M,M,M,M,M,M,71.60,RCTP 071630Z 20006KT 160V250 6000 SCT008 BKN100 22/17 Q1012 NOSIG RMK A2991
RCTP,2017-01-07 17:00,69.80,64.40,82.98,200.00,3.00,0.00,29.91,M,3.73,M,SCT,BKN,M,M,800.00,10000.00,M,M,M,M,M,M,M,M,M,69.80,RCTP 071700Z 20003KT 150V260 6000 SCT008 BKN100 21/18 Q1013 NOSIG RMK A2992
RCTP,2017-01-07 17:30,68.00,64.40,88.26,310.00,1.00,0.00,29.88,M,3.73,M,SCT,BKN,M,M,800.00,10000.00,M,M,M,M,M,M,M,M,M,68.00,RCTP 071730Z 31001KT 6000 SCT008 BKN100 20/18 Q1012 NOSIG RMK A2991
RCTP,2017-01-07 18:04,68.00,64.40,88.26,340.00,3.00,0.00,29.88,M,3.11,M,SCT,BKN,M,M,800.00,10000.00,M,M,BR,M,M,M,M,M,M,68.00,RCTP 071804Z 34003KT 5000 BR SCT008 BKN100 20/18 Q1012 TEMPO 4000 BR RMK A2991
RCTP,2017-01-07 18:10,68.00,64.40,88.26,330.00,2.00,0.00,29.88,M,2.17,M,SCT,BKN,M,M,800.00,10000.00,M,M,BR,M,M,M,M,M,M,68.00,RCTP 071810Z 33002KT 3500 BR SCT008 BKN100 20/18 Q1012 TEMPO 3000 BR RMK A2991
RCTP,2017-01-07 18:25,68.00,66.20,93.97,350.00,3.00,0.00,29.88,M,1.37,M,SCT,BKN,M,M,800.00,10000.00,M,M,BR,M,M,M,M,M,M,68.00,RCTP 071825Z 35003KT 2200 BR SCT008 BKN100 20/19 Q1012 NOSIG RMK A2991
RCTP,2017-01-07 18:30,68.00,66.20,93.97,350.00,4.00,0.00,29.88,M,1.24,M,SCT,BKN,M,M,800.00,10000.00,M,M,BR,M,M,M,M,M,M,68.00,RCTP 071830Z 35004KT 2000 BR SCT008 BKN100 20/19 Q1012 TEMPO 1500 BR RMK A2991
RCTP,2017-01-07 18:54,68.00,66.20,93.97,340.00,3.00,0.00,29.88,M,1.24,M,SCT,BKN,BKN,M,300.00,400.00,10000.00,M,BR,M,M,M,M,M,M,68.00,RCTP 071854Z 34003KT 2000 BR SCT003 BKN004 BKN100 20/19 Q1012 TEMPO 1500 BR RMK A2991
RCTP,2017-01-07 19:00,68.00,66.20,93.97,340.00,3.00,0.00,29.88,M,1.24,M,SCT,BKN,BKN,M,300.00,400.00,10000.00,M,BR,M,M,M,M,M,M,68.00,RCTP 071900Z 34003KT 2000 BR SCT003 BKN004 BKN100 20/19 Q1012 TEMPO 1500 BR RMK A2991
RCTP,2017-01-07 19:30,68.00,66.20,93.97,360.00,3.00,0.00,29.88,M,1.24,M,SCT,BKN,M,M,300.00,400.00,M,M,BR,M,M,M,M,M,M,68.00,RCTP 071930Z 36003KT 2000 BR SCT003 BKN004 20/19 Q1012 NOSIG RMK A2991
RCTP,2017-01-07 20:00,68.00,66.20,93.97,10.00,1.00,0.00,29.88,M,1.55,M,SCT,BKN,M,M,300.00,400.00,M,M,BR,M,M,M,M,M,M,68.00,RCTP 072000Z 01001KT 2500 BR SCT003 BKN004 20/19 Q1012 NOSIG RMK A2991
RCTP,2017-01-07 20:32,66.20,66.20,100.00,340.00,4.00,0.00,29.88,M,1.55,M,FEW,SCT,M,M,300.00,400.00,M,M,-RA BR,M,M,M,M,M,M,66.20,RCTP 072032Z 34004KT 2500 -RA BR FEW003 SCT004 19/19 Q1012 NOSIG RMK A2991
RCTP,2017-01-07 20:40,66.20,66.20,100.00,340.00,3.00,0.00,29.88,M,1.49,M,FEW,BKN,M,M,300.00,400.00,M,M,-DZ BR,M,M,M,M,M,M,66.20,RCTP 072040Z 34003KT 2400 -DZ BR FEW003 BKN004 19/19 Q1012 NOSIG RMK A2991
RCTP,2017-01-07 21:00,66.20,66.20,100.00,10.00,3.00,0.00,29.91,M,1.37,M,FEW,BKN,M,M,300.00,400.00,M,M,BR,M,M,M,M,M,M,66.20,RCTP 072100Z 01003KT 2200 BR FEW003 BKN004 19/19 Q1013 NOSIG RMK A2992
RCTP,2017-01-07 21:09,66.20,66.20,100.00,0.00,0.00,0.00,29.91,M,1.37,M,FEW,BKN,M,M,300.00,400.00,M,M,BR,M,M,M,M,M,M,66.20,RCTP 072109Z 00000KT 2200 BR FEW003 BKN004 19/19 Q1013 NOSIG RMK R05 A2992
RCTP,2017-01-07 21:30,66.20,66.20,100.00,0.00,0.00,0.00,29.91,M,1.55,M,FEW,BKN,M,M,300.00,500.00,M,M,BR,M,M,M,M,M,M,66.20,RCTP 072130Z 00000KT 2500 BR FEW003 BKN005 19/19 Q1013 NOSIG RMK A2993
RCTP,2017-01-07 22:00,68.00,66.20,93.97,360.00,5.00,0.00,29.91,M,1.74,M,SCT,BKN,BKN,M,500.00,700.00,1200.00,M,BR,M,M,M,M,M,M,68.00,RCTP 072200Z 36005KT 2800 BR SCT005 BKN007 BKN012 20/19 Q1013 NOSIG RMK A2994
RCTP,2017-01-07 22:30,68.00,66.20,93.97,10.00,6.00,0.00,29.94,M,1.86,M,SCT,BKN,BKN,M,500.00,600.00,1200.00,M,BR,M,M,M,M,M,M,68.00,RCTP 072230Z 01006KT 3000 BR SCT005 BKN006 BKN012 20/19 Q1014 NOSIG RMK A2995
RCTP,2017-01-07 23:00,68.00,66.20,93.97,10.00,6.00,0.00,29.94,M,2.80,M,SCT,BKN,BKN,M,600.00,800.00,1400.00,M,BR,M,M,M,M,M,M,68.00,RCTP 072300Z 01006KT 4500 BR SCT006 BKN008 BKN014 20/19 Q1014 NOSIG RMK A2997
RCTP,2017-01-07 23:11,68.00,66.20,93.97,20.00,6.00,0.00,29.94,M,2.80,M,SCT,BKN,BKN,M,800.00,1200.00,2000.00,M,BR,M,M,M,M,M,M,68.00,RCTP 072311Z 02006KT 4500 BR SCT008 BKN012 BKN020 20/19 Q1014 NOSIG RMK A2997
RCTP,2017-01-07 23:30,68.00,66.20,93.97,40.00,6.00,0.00,29.94,M,3.11,M,SCT,BKN,BKN,M,800.00,1500.00,2400.00,M,BR,M,M,M,M,M,M,68.00,RCTP 072330Z 04006KT 5000 BR SCT008 BKN015 BKN024 20/19 Q1014 NOSIG RMK A2997
RCTP,2017-01-07 23:36,68.00,66.20,93.97,30.00,6.00,0.00,29.97,M,3.11,M,FEW,BKN,BKN,M,700.00,900.00,2000.00,M,BR,M,M,M,M,M,M,68.00,RCTP 072336Z 03006KT 5000 BR FEW007 BKN009 BKN020 20/19 Q1015 NOSIG RMK A2998
RCTP,2017-01-08 00:00,68.00,66.20,93.97,20.00,8.00,0.00,29.97,M,3.11,M,FEW,BKN,BKN,M,700.00,900.00,2000.00,M,BR,M,M,M,M,M,M,68.00,RCTP 080000Z 02008KT 5000 BR FEW007 BKN009 BKN020 20/19 Q1015 NOSIG RMK A2998
RCTP,2017-01-08 00:30,68.00,66.20,93.97,20.00,9.00,0.00,29.97,M,3.11,M,FEW,BKN,BKN,M,700.00,900.00,2000.00,M,BR,M,M,M,M,M,M,68.00,RCTP 080030Z 02009KT 350V050 5000 BR FEW007 BKN009 BKN020 20/19 Q1015 NOSIG RMK A2999
RCTP,2017-01-08 01:00,69.80,66.20,88.34,30.00,10.00,0.00,29.97,M,4.97,M,SCT,BKN,BKN,M,700.00,900.00,2000.00,M,BR,M,M,M,M,M,M,69.80,RCTP 080100Z 03010KT 8000 BR SCT007 BKN009 BKN020 21/19 Q1015 NOSIG RMK A3000
RCTP,2017-01-08 01:30,68.00,64.40,88.26,30.00,11.00,0.00,30.00,M,6.21,M,SCT,BKN,BKN,M,700.00,900.00,2000.00,M,M,M,M,M,M,M,M,68.00,RCTP 080130Z 03011KT 9999 SCT007 BKN009 BKN020 20/18 Q1016 NOSIG RMK A3001
RCTP,2017-01-08 02:00,69.80,66.20,88.34,30.00,11.00,0.00,30.00,M,6.21,M,SCT,BKN,BKN,M,800.00,1000.00,3000.00,M,M,M,M,M,M,M,M,69.80,RCTP 080200Z 03011KT 9999 SCT008 BKN010 BKN030 21/19 Q1016 NOSIG RMK A3001
RCTP,2017-01-08 02:30,69.80,64.40,82.98,20.00,13.00,0.00,29.97,M,6.21,M,SCT,BKN,BKN,M,800.00,1000.00,3000.00,M,M,M,M,M,M,M,M,69.80,RCTP 080230Z 02013KT 9999 SCT008 BKN010 BKN030 21/18 Q1015 NOSIG RMK A3000
RCTP,2017-01-08 03:00,69.80,62.60,77.90,30.00,16.00,0.00,29.97,M,6.21,M,SCT,BKN,BKN,M,800.00,1000.00,3000.00,M,M,M,M,M,M,M,M,69.80,RCTP 080300Z 03016KT 360V060 9999 SCT008 BKN010 BKN030 21/17 Q1015 NOSIG RMK A2999
RCTP,2017-01-08 03:30,69.80,62.60,77.90,20.00,16.00,0.00,29.97,M,6.21,M,FEW,BKN,BKN,M,1200.00,1500.00,3000.00,M,M,M,M,M,M,M,M,69.80,RCTP 080330Z 02016KT 9999 FEW012 BKN015 BKN030 21/17 Q1015 NOSIG RMK A2998
RCTP,2017-01-08 04:00,69.80,60.80,73.09,30.00,16.00,0.00,29.94,M,6.21,M,FEW,BKN,BKN,M,1200.00,1500.00,3000.00,M,M,M,M,M,M,M,M,69.80,RCTP 080400Z 03016KT 9999 FEW012 BKN015 BKN030 21/16 Q1014 NOSIG RMK A2996
RCTP,2017-01-08 04:30,71.60,62.60,73.27,20.00,18.00,0.00,29.91,M,6.21,M,FEW,BKN,BKN,M,1200.00,1800.00,3000.00,M,M,M,M,M,M,M,M,71.60,RCTP 080430Z 02018KT 9999 FEW012 BKN018 BKN030 22/17 Q1013 NOSIG RMK A2994
RCTP,2017-01-08 05:00,69.80,62.60,77.90,30.00,18.00,0.00,29.91,M,6.21,M,FEW,SCT,BKN,M,1200.00,1800.00,6000.00,M,M,M,M,M,M,M,M,69.80,RCTP 080500Z 03018KT 9999 FEW012 SCT018 BKN060 21/17 Q1013 NOSIG RMK A2992
RCTP,2017-01-08 05:30,68.00,60.80,77.75,40.00,20.00,0.00,29.88,M,6.21,M,FEW,BKN,BKN,M,1200.00,1800.00,3000.00,M,M,M,M,M,M,M,M,68.00,RCTP 080530Z 04020KT 9999 FEW012 BKN018 BKN030 20/16 Q1012 NOSIG RMK A2991
RCTP,2017-01-08 06:00,69.80,60.80,73.09,30.00,20.00,0.00,29.88,M,6.21,M,FEW,BKN,BKN,M,1200.00,1800.00,6000.00,M,M,M,M,M,M,M,M,69.80,RCTP 080600Z 03020KT 9999 FEW012 BKN018 BKN060 21/16 Q1012 NOSIG RMK A2990
RCTP,2017-01-08 06:30,68.00,60.80,77.75,30.00,19.00,0.00,29.88,M,6.21,M,BKN,M,M,M,1900.00,M,M,M,M,M,M,M,M,M,M,68.00,RCTP 080630Z 03019KT 9999 BKN019 20/16 Q1012 NOSIG RMK A2990
RCTP,2017-01-08 07:00,68.00,60.80,77.75,30.00,19.00,0.00,29.88,M,6.21,M,FEW,OVC,M,M,1500.00,2100.00,M,M,M,M,M,M,M,M,M,68.00,RCTP 080700Z 03019KT 9999 FEW015 OVC021 20/16 Q1012 NOSIG RMK A2991
RCTP,2017-01-08 07:30,68.00,60.80,77.75,30.00,19.00,0.00,29.88,M,6.21,M,FEW,OVC,M,M,1400.00,2100.00,M,M,M,M,M,M,M,M,M,68.00,RCTP 080730Z 03019KT 9999 FEW014 OVC021 20/16 Q1012 NOSIG RMK A2991
RCTP,2017-01-08 08:00,68.00,60.80,77.75,30.00,18.00,0.00,29.91,M,6.21,M,FEW,OVC,M,M,1400.00,2000.00,M,M,M,M,M,M,M,M,M,68.00,RCTP 080800Z 03018KT 9999 FEW014 OVC020 20/16 Q1013 NOSIG RMK A2992
RCTP,2017-01-08 08:30,66.20,60.80,82.74,40.00,18.00,0.00,29.91,M,6.21,M,FEW,OVC,M,M,1400.00,2000.00,M,M,M,M,M,M,M,M,M,66.20,RCTP 080830Z 04018KT 9999 FEW014 OVC020 19/16 Q1013 NOSIG RMK A2993
RCTP,2017-01-08 09:00,66.20,60.80,82.74,40.00,18.00,0.00,29.91,M,6.21,M,FEW,OVC,M,M,1300.00,1700.00,M,M,M,M,M,M,M,M,M,66.20,RCTP 080900Z 04018KT 9999 FEW013 OVC017 19/16 Q1013 NOSIG RMK A2994
RCTP,2017-01-08 09:30,66.20,60.80,82.74,40.00,17.00,0.00,29.94,M,6.21,M,BKN,OVC,M,M,1600.00,2200.00,M,M,M,M,M,M,M,M,M,66.20,RCTP 080930Z 04017KT 9999 BKN016 OVC022 19/16 Q1014 NOSIG RMK A2995
RCTP,2017-01-08 10:00,66.20,60.80,82.74,40.00,17.00,0.00,29.94,M,6.21,M,FEW,OVC,M,M,1400.00,2000.00,M,M,M,M,M,M,M,M,M,66.20,RCTP 081000Z 04017KT 9999 FEW014 OVC020 19/16 Q1014 NOSIG RMK A2996
RCTP,2017-01-08 10:30,66.20,60.80,82.74,50.00,17.00,0.00,29.94,M,6.21,M,FEW,OVC,M,M,1400.00,2000.00,M,M,M,M,M,M,M,M,M,66.20,RCTP 081030Z 05017KT 9999 FEW014 OVC020 19/16 Q1014 NOSIG RMK A2997
RCTP,2017-01-08 11:00,66.20,60.80,82.74,60.00,14.00,0.00,29.97,M,6.21,M,FEW,OVC,M,M,1400.00,2000.00,M,M,M,M,M,M,M,M,M,66.20,RCTP 081100Z 06014KT 9999 FEW014 OVC020 19/16 Q1015 NOSIG RMK A2998
RCTP,2017-01-08 11:30,66.20,60.80,82.74,50.00,16.00,0.00,29.97,M,6.21,M,FEW,OVC,M,M,1400.00,2000.00,M,M,M,M,M,M,M,M,M,66.20,RCTP 081130Z 05016KT 9999 FEW014 OVC020 19/16 Q1015 NOSIG RMK A2999
RCTP,2017-01-08 12:00,68.00,60.80,77.75,50.00,16.00,0.00,29.97,M,6.21,M,FEW,BKN,M,M,1200.00,1800.00,M,M,M,M,M,M,M,M,M,68.00,RCTP 081200Z 05016KT 9999 FEW012 BKN018 20/16 Q1015 NOSIG RMK A3000
RCTP,2017-01-08 12:30,68.00,59.00,72.92,70.00,15.00,0.00,29.97,M,6.21,M,FEW,BKN,M,M,1200.00,1800.00,M,M,M,M,M,M,M,M,M,68.00,RCTP 081230Z 07015KT 9999 FEW012 BKN018 20/15 Q1015 NOSIG RMK A3000
RCTP,2017-01-08 13:00,68.00,60.80,77.75,70.00,10.00,0.00,29.97,M,6.21,M,FEW,BKN,M,M,1400.00,2000.00,M,M,M,M,M,M,M,M,M,68.00,RCTP 081300Z 07010KT 9999 FEW014 BKN020 20/16 Q1015 NOSIG RMK A3000
RCTP,2017-01-08 13:30,66.20,60.80,82.74,70.00,9.00,0.00,30.00,M,6.21,M,FEW,BKN,M,M,1400.00,2000.00,M,M,M,M,M,M,M,M,M,66.20,RCTP 081330Z 07009KT 040V120 9999 FEW014 BKN020 19/16 Q1016 NOSIG RMK A3001
RCTP,2017-01-08 14:00,66.20,60.80,82.74,70.00,11.00,0.00,30.00,M,6.21,M,FEW,BKN,M,M,1400.00,2000.00,M,M,M,M,M,M,M,M,M,66.20,RCTP 081400Z 07011KT 040V100 9999 FEW014 BKN020 19/16 Q1016 NOSIG RMK A3002
RCTP,2017-01-08 14:30,66.20,59.00,77.60,40.00,17.00,0.00,30.00,M,6.21,M,FEW,BKN,M,M,1400.00,2000.00,M,M,M,M,M,M,M,M,M,66.20,RCTP 081430Z 04017KT 9999 FEW014 BKN020 19/15 Q1016 NOSIG RMK A3002
RCTP,2017-01-08 15:00,66.20,59.00,77.60,50.00,18.00,0.00,30.00,M,6.21,M,FEW,BKN,M,M,1600.00,2500.00,M,M,M,M,M,M,M,M,M,66.20,RCTP 081500Z 05018KT 9999 FEW016 BKN025 19/15 Q1016 NOSIG RMK A3002
RCTP,2017-01-08 15:30,66.20,59.00,77.60,60.00,15.00,0.00,30.00,M,6.21,M,FEW,BKN,M,M,1600.00,2500.00,M,M,M,M,M,M,M,M,M,66.20,RCTP 081530Z 06015KT 9999 FEW016 BKN025 19/15 Q1016 NOSIG RMK A3001
RCTP,2017-01-08 16:00,66.20,59.00,77.60,50.00,17.00,0.00,30.00,M,6.21,M,FEW,BKN,M,M,1600.00,2500.00,M,M,M,M,M,M,M,M,M,66.20,RCTP 081600Z 05017KT 9999 FEW016 BKN025 19/15 Q1016 NOSIG RMK A3001
RCTP,2017-01-08 16:30,66.20,57.20,72.74,50.00,19.00,0.00,30.00,M,6.21,M,FEW,BKN,M,M,1600.00,2500.00,M,M,M,M,M,M,M,M,M,66.20,RCTP 081630Z 05019KT 9999 FEW016 BKN025 19/14 Q1016 NOSIG RMK A3002
RCTP,2017-01-08 17:00,66.20,57.20,72.74,50.00,17.00,0.00,30.00,M,6.21,M,FEW,OVC,M,M,1500.00,2400.00,M,M,M,M,M,M,M,M,M,66.20,RCTP 081700Z 05017KT 9999 FEW015 OVC024 19/14 Q1016 NOSIG RMK A3002
RCTP,2017-01-08 17:30,66.20,57.20,72.74,60.00,16.00,0.00,30.00,M,6.21,M,FEW,OVC,M,M,1500.00,2500.00,M,M,M,M,M,M,M,M,M,66.20,RCTP 081730Z 06016KT 9999 FEW015 OVC025 19/14 Q1016 NOSIG RMK A3002
RCTP,2017-01-08 18:00,64.40,57.20,77.45,50.00,15.00,0.00,30.00,M,6.21,M,FEW,BKN,M,M,2500.00,3800.00,M,M,M,M,M,M,M,M,M,64.40,RCTP 081800Z 05015KT 9999 FEW025 BKN038 18/14 Q1016 NOSIG RMK A3002
RCTP,2017-01-08 18:30,64.40,57.20,77.45,50.00,17.00,0.00,30.00,M,6.21,M,BKN,M,M,M,2600.00,M,M,M,M,M,M,M,M,M,M,64.40,RCTP 081830Z 05017KT 9999 BKN026 18/14 Q1016 NOSIG RMK A3002
RCTP,2017-01-08 19:00,64.40,57.20,77.45,50.00,16.00,0.00,30.00,M,6.21,M,BKN,M,M,M,2800.00,M,M,M,M,M,M,M,M,M,M,64.40,RCTP 081900Z 05016KT 9999 BKN028 18/14 Q1016 NOSIG RMK A3003
RCTP,2017-01-08 19:30,64.40,57.20,77.45,50.00,18.00,0.00,30.00,M,6.21,M,FEW,BKN,M,M,2300.00,3200.00,M,M,M,M,M,M,M,M,M,64.40,RCTP 081930Z 05018KT 9999 FEW023 BKN032 18/14 Q1016 NOSIG RMK A3003
RCTP,2017-01-08 20:00,64.40,55.40,72.56,40.00,19.00,0.00,30.00,M,6.21,M,FEW,BKN,M,M,2200.00,2800.00,M,M,M,M,M,M,M,M,M,64.40,RCTP 082000Z 04019KT 9999 FEW022 BKN028 18/13 Q1016 NOSIG RMK A3003
RCTP,2017-01-08 20:30,64.40,55.40,72.56,50.00,21.00,0.00,30.00,M,6.21,M,FEW,OVC,M,M,2100.00,2600.00,M,M,M,M,M,M,M,M,M,64.40,RCTP 082030Z 05021KT 9999 FEW021 OVC026 18/13 Q1016 NOSIG RMK A3003
RCTP,2017-01-08 21:00,64.40,55.40,72.56,40.00,20.00,0.00,30.03,M,6.21,M,FEW,OVC,M,M,2000.00,2400.00,M,M,M,M,M,M,M,M,M,64.40,RCTP 082100Z 04020KT 9999 FEW020 OVC024 18/13 Q1017 NOSIG RMK A3004
RCTP,2017-01-08 21:30,64.40,55.40,72.56,40.00,20.00,0.00,30.03,M,6.21,M,FEW,OVC,M,M,2000.00,2500.00,M,M,M,M,M,M,M,M,M,64.40,RCTP 082130Z 04020KT 9999 FEW020 OVC025 18/13 Q1017 NOSIG RMK A3005
RCTP,2017-01-08 22:00,64.40,55.40,72.56,40.00,20.00,0.00,30.06,M,6.21,M,FEW,OVC,M,M,2000.00,2500.00,M,M,M,M,M,M,M,M,M,64.40,RCTP 082200Z 04020KT 9999 FEW020 OVC025 18/13 Q1018 NOSIG RMK A3007
RCTP,2017-01-08 22:30,64.40,55.40,72.56,50.00,20.00,0.00,30.06,M,6.21,M,FEW,OVC,M,M,2000.00,2500.00,M,M,M,M,M,M,M,M,M,64.40,RCTP 082230Z 05020KT 9999 FEW020 OVC025 18/13 Q1018 NOSIG RMK A3007
RCTP,2017-01-08 23:00,64.40,55.40,72.56,40.00,21.00,0.00,30.09,M,6.21,M,FEW,OVC,M,M,2000.00,2400.00,M,M,M,M,M,M,M,M,M,64.40,RCTP 082300Z 04021KT 9999 FEW020 OVC024 18/13 Q1019 NOSIG RMK A3009
RCTP,2017-01-08 23:30,64.40,55.40,72.56,40.00,21.00,0.00,30.09,M,6.21,M,FEW,OVC,M,M,2000.00,2500.00,M,M,M,M,M,M,M,M,M,64.40,RCTP 082330Z 04021KT 9999 FEW020 OVC025 18/13 Q1019 NOSIG RMK A3010
RCTP,2017-01-09 00:00,64.40,55.40,72.56,40.00,21.00,0.00,30.09,M,6.21,M,FEW,BKN,M,M,1500.00,2300.00,M,M,M,M,M,M,M,M,M,64.40,RCTP 090000Z 04021KT 9999 FEW015 BKN023 18/13 Q1019 NOSIG RMK A3011
RCTP,2017-01-09 00:30,64.40,55.40,72.56,40.00,20.00,0.00,30.12,M,6.21,M,FEW,BKN,M,M,1500.00,2500.00,M,M,M,M,M,M,M,M,M,64.40,RCTP 090030Z 04020KT 9999 FEW015 BKN025 18/13 Q1020 NOSIG RMK A3012
RCTP,2017-01-09 01:00,64.40,55.40,72.56,40.00,22.00,0.00,30.12,M,6.21,M,FEW,BKN,M,M,1500.00,2500.00,M,M,M,M,M,M,M,M,M,64.40,RCTP 090100Z 04022KT 9999 FEW015 BKN025 18/13 Q1020 NOSIG RMK A3013
RCTP,2017-01-09 01:30,64.40,55.40,72.56,50.00,22.00,0.00,30.12,M,6.21,M,FEW,BKN,M,M,1500.00,2500.00,M,M,M,M,M,M,M,M,M,64.40,RCTP 090130Z 05022KT 9999 FEW015 BKN025 18/13 Q1020 NOSIG RMK A3013
RCTP,2017-01-09 02:00,64.40,55.40,72.56,50.00,20.00,0.00,30.12,M,6.21,M,FEW,BKN,M,M,1500.00,2500.00,M,M,M,M,M,M,M,M,M,64.40,RCTP 090200Z 05020KT 9999 FEW015 BKN025 18/13 Q1020 NOSIG RMK A3013
RCTP,2017-01-09 02:30,64.40,53.60,67.95,50.00,20.00,0.00,30.12,M,6.21,M,FEW,BKN,M,M,1500.00,2500.00,M,M,M,M,M,M,M,M,M,64.40,RCTP 090230Z 05020KT 9999 FEW015 BKN025 18/12 Q1020 NOSIG RMK A3013
RCTP,2017-01-09 03:00,64.40,55.40,72.56,50.00,22.00,0.00,30.09,M,6.21,M,FEW,BKN,M,M,1500.00,2500.00,M,M,M,M,M,M,M,M,M,64.40,RCTP 090300Z 05022KT 9999 FEW015 BKN025 18/13 Q1019 NOSIG RMK A3011
RCTP,2017-01-09 03:30,64.40,55.40,72.56,50.00,21.00,0.00,30.09,M,6.21,M,FEW,BKN,M,M,1500.00,2500.00,M,M,M,M,M,M,M,M,M,64.40,RCTP 090330Z 05021KT 9999 FEW015 BKN025 18/13 Q1019 NOSIG RMK A3010
RCTP,2017-01-09 04:00,64.40,55.40,72.56,50.00,22.00,0.00,30.06,M,6.21,M,FEW,BKN,M,M,1500.00,2500.00,M,M,M,M,M,M,M,M,M,64.40,RCTP 090400Z 05022KT 9999 FEW015 BKN025 18/13 Q1018 NOSIG RMK A3008
RCTP,2017-01-09 04:30,64.40,53.60,67.95,40.00,21.00,0.00,30.06,M,6.21,M,FEW,BKN,M,M,1500.00,2500.00,M,M,M,M,M,M,M,M,M,64.40,RCTP 090430Z 04021KT 9999 FEW015 BKN025 18/12 Q1018 NOSIG RMK A3007
RCTP,2017-01-09 05:00,62.60,53.60,72.38,40.00,22.00,0.00,30.06,M,6.21,M,FEW,BKN,M,M,1500.00,2500.00,M,M,M,M,M,M,M,M,M,62.60,RCTP 090500Z 04022KT 9999 FEW015 BKN025 17/12 Q1018 NOSIG RMK A3006
RCTP,2017-01-09 05:30,62.60,55.40,77.29,50.00,22.00,0.00,30.03,M,6.21,M,FEW,BKN,M,M,1500.00,2500.00,M,M,M,M,M,M,M,M,M,62.60,RCTP 090530Z 05022KT 9999 FEW015 BKN025 17/13 Q1017 NOSIG RMK A3005
RCTP,2017-01-09 06:00,62.60,55.40,77.29,40.00,21.00,0.00,30.03,M,6.21,M,FEW,BKN,OVC,M,1500.00,2500.00,4000.00,M,M,M,M,M,M,M,M,62.60,RCTP 090600Z 04021KT 9999 FEW015 BKN025 OVC040 17/13 Q1017 NOSIG RMK A3005
RCTP,2017-01-09 06:30,62.60,53.60,72.38,40.00,21.00,0.00,30.03,M,6.21,M,FEW,BKN,BKN,M,1500.00,2500.00,4000.00,M,M,M,M,M,M,M,M,62.60,RCTP 090630Z 04021KT 9999 FEW015 BKN025 BKN040 17/12 Q1017 NOSIG RMK A3005
RCTP,2017-01-09 07:00,62.60,53.60,72.38,50.00,20.00,0.00,30.03,M,6.21,M,FEW,BKN,BKN,M,1500.00,2500.00,4000.00,M,M,M,M,M,M,M,M,62.60,RCTP 090700Z 05020KT 9999 FEW015 BKN025 BKN040 17/12 Q1017 NOSIG RMK A3004
RCTP,2017-01-09 07:30,62.60,53.60,72.38,50.00,21.00,0.00,30.03,M,6.21,M,FEW,BKN,BKN,M,1500.00,2500.00,4000.00,M,M,M,M,M,M,M,M,62.60,RCTP 090730Z 05021KT 9999 FEW015 BKN025 BKN040 17/12 Q1017 NOSIG RMK A3005
RCTP,2017-01-09 08:00,62.60,53.60,72.38,40.00,21.00,0.00,30.03,M,6.21,M,FEW,BKN,BKN,M,1500.00,2500.00,4000.00,M,M,M,M,M,M,M,M,62.60,RCTP 090800Z 04021KT 9999 FEW015 BKN025 BKN040 17/12 Q1017 NOSIG RMK A3005
RCTP,2017-01-09 08:30,62.60,53.60,72.38,50.00,20.00,0.00,30.06,M,6.21,M,FEW,BKN,BKN,M,1500.00,2500.00,4000.00,M,M,M,M,M,M,M,M,62.60,RCTP 090830Z 05020KT 9999 FEW015 BKN025 BKN040 17/12 Q1018 NOSIG RMK A3006
RCTP,2017-01-09 09:00,62.60,53.60,72.38,50.00,21.00,0.00,30.06,M,6.21,M,FEW,BKN,BKN,M,1500.00,2500.00,4000.00,M,M,M,M,M,M,M,M,62.60,RCTP 090900Z 05021KT 9999 FEW015 BKN025 BKN040 17/12 Q1018 NOSIG RMK A3007
RCTP,2017-01-09 09:30,62.60,53.60,72.38,50.00,19.00,0.00,30.06,M,6.21,M,FEW,BKN,BKN,M,1500.00,2500.00,5000.00,M,M,M,M,M,M,M,M,62.60,RCTP 090930Z 05019KT 9999 FEW015 BKN025 BKN050 17/12 Q1018 NOSIG RMK A3008
RCTP,2017-01-09 10:00,62.60,53.60,72.38,50.00,17.00,0.00,30.06,M,6.21,M,FEW,BKN,M,M,1500.00,2500.00,M,M,M,M,M,M,M,M,M,62.60,RCTP 091000Z 05017KT 9999 FEW015 BKN025 17/12 Q1018 NOSIG RMK A3008
RCTP,2017-01-09 10:30,60.80,53.60,77.14,50.00,14.00,0.00,30.09,M,6.21,M,FEW,SCT,M,M,1500.00,2500.00,M,M,M,M,M,M,M,M,M,60.80,RCTP 091030Z 05014KT 9999 FEW015 SCT025 16/12 Q1019 NOSIG RMK A3009
RCTP,2017-01-09 11:00,62.60,53.60,72.38,50.00,14.00,0.00,30.09,M,6.21,M,FEW,SCT,M,M,1500.00,2500.00,M,M,M,M,M,M,M,M,M,62.60,RCTP 091100Z 05014KT 9999 FEW015 SCT025 17/12 Q1019 NOSIG RMK A3010
RCTP,2017-01-09 11:30,62.60,51.80,67.75,60.00,14.00,0.00,30.09,M,6.21,M,FEW,SCT,M,M,1500.00,2500.00,M,M,M,M,M,M,M,M,M,62.60,RCTP 091130Z 06014KT 9999 FEW015 SCT025 17/11 Q1019 NOSIG RMK A3011
RCTP,2017-01-09 12:00,60.80,51.80,72.20,60.00,16.00,0.00,30.09,M,6.21,M,FEW,SCT,M,M,1500.00,2500.00,M,M,M,M,M,M,M,M,M,60.80,RCTP 091200Z 06016KT 9999 FEW015 SCT025 16/11 Q1019 NOSIG RMK A3011
RCTP,2017-01-09 12:30,60.80,51.80,72.20,60.00,17.00,0.00,30.09,M,6.21,M,FEW,SCT,M,M,1500.00,2500.00,M,M,M,M,M,M,M,M,M,60.80,RCTP 091230Z 06017KT 9999 FEW015 SCT025 16/11 Q1019 NOSIG RMK A3011
RCTP,2017-01-09 13:00,62.60,51.80,67.75,60.00,18.00,0.00,30.09,M,6.21,M,FEW,BKN,M,M,2000.00,6000.00,M,M,M,M,M,M,M,M,M,62.60,RCTP 091300Z 06018KT 9999 FEW020 BKN060 17/11 Q1019 NOSIG RMK A3011
RCTP,2017-01-09 13:30,60.80,51.80,72.20,50.00,18.00,0.00,30.09,M,6.21,M,FEW,BKN,M,M,2000.00,5000.00,M,M,M,M,M,M,M,M,M,60.80,RCTP 091330Z 05018KT 9999 FEW020 BKN050 16/11 Q1019 NOSIG RMK A3011
RCTP,2017-01-09 14:00,60.80,51.80,72.20,50.00,19.00,0.00,30.09,M,6.21,M,FEW,SCT,M,M,2000.00,8000.00,M,M,M,M,M,M,M,M,M,60.80,RCTP 091400Z 05019KT 9999 FEW020 SCT080 16/11 Q1019 NOSIG RMK A3011
RCTP,2017-01-09 14:30,60.80,51.80,72.20,50.00,20.00,0.00,30.12,M,6.21,M,FEW,M,M,M,2000.00,M,M,M,M,M,M,M,M,M,M,60.80,RCTP 091430Z 05020KT 9999 FEW020 16/11 Q1020 NOSIG RMK A3012
RCTP,2017-01-09 15:00,60.80,51.80,72.20,50.00,19.00,0.00,30.12,M,6.21,M,FEW,M,M,M,2000.00,M,M,M,M,M,M,M,M,M,M,60.80,RCTP 091500Z 05019KT 9999 FEW020 16/11 Q1020 NOSIG RMK A3012
RCTP,2017-01-09 15:30,60.80,51.80,72.20,40.00,18.00,0.00,30.12,M,6.21,M,FEW,M,M,M,2000.00,M,M,M,M,M,M,M,M,M,M,60.80,RCTP 091530Z 04018KT 9999 FEW020 16/11 Q1020 NOSIG RMK A3012
RCTP,2017-01-09 16:00,60.80,51.80,72.20,60.00,16.00,0.00,30.09,M,6.21,M,FEW,BKN,M,M,2000.00,5000.00,M,M,M,M,M,M,M,M,M,60.80,RCTP 091600Z 06016KT 9999 FEW020 BKN050 16/11 Q1019 NOSIG RMK A3011
RCTP,2017-01-09 16:30,62.60,51.80,67.75,60.00,17.00,0.00,30.09,M,6.21,M,FEW,BKN,M,M,2000.00,5000.00,M,M,M,M,M,M,M,M,M,62.60,RCTP 091630Z 06017KT 9999 FEW020 BKN050 17/11 Q1019 NOSIG RMK A3011
RCTP,2017-01-09 17:00,60.80,51.80,72.20,60.00,16.00,0.00,30.09,M,6.21,M,FEW,M,M,M,2000.00,M,M,M,M,M,M,M,M,M,M,60.80,RCTP 091700Z 06016KT 9999 FEW020 16/11 Q1019 NOSIG RMK A3010
RCTP,2017-01-09 17:30,60.80,51.80,72.20,60.00,13.00,0.00,30.09,M,6.21,M,FEW,SCT,M,M,2000.00,14000.00,M,M,M,M,M,M,M,M,M,60.80,RCTP 091730Z 06013KT 9999 FEW020 SCT140 16/11 Q1019 NOSIG RMK A3010
RCTP,2017-01-09 18:00,60.80,51.80,72.20,60.00,12.00,0.00,30.09,M,6.21,M,FEW,SCT,M,M,1600.00,3500.00,M,M,M,M,M,M,M,M,M,60.80,RCTP 091800Z 06012KT 9999 FEW016 SCT035 16/11 Q1019 NOSIG RMK A3009
RCTP,2017-01-09 18:30,60.80,51.80,72.20,70.00,12.00,0.00,30.09,M,6.21,M,FEW,SCT,M,M,1600.00,3500.00,M,M,M,M,M,M,M,M,M,60.80,RCTP 091830Z 07012KT 9999 FEW016 SCT035 16/11 Q1019 NOSIG RMK A3009
RCTP,2017-01-09 19:00,60.80,51.80,72.20,60.00,13.00,0.00,30.09,M,6.21,M,FEW,SCT,M,M,1600.00,10000.00,M,M,M,M,M,M,M,M,M,60.80,RCTP 091900Z 06013KT 9999 FEW016 SCT100 16/11 Q1019 NOSIG RMK A3009
RCTP,2017-01-09 19:30,62.60,51.80,67.75,60.00,13.00,0.00,30.09,M,6.21,M,FEW,SCT,BKN,M,1600.00,3500.00,10000.00,M,M,M,M,M,M,M,M,62.60,RCTP 091930Z 06013KT 9999 FEW016 SCT035 BKN100 17/11 Q1019 NOSIG RMK A3009
RCTP,2017-01-09 20:00,60.80,51.80,72.20,60.00,13.00,0.00,30.09,M,6.21,M,FEW,BKN,M,M,1600.00,3500.00,M,M,M,M,M,M,M,M,M,60.80,RCTP 092000Z 06013KT 9999 FEW016 BKN035 16/11 Q1019 NOSIG RMK A3009
RCTP,2017-01-09 20:30,62.60,51.80,67.75,60.00,12.00,0.00,30.09,M,6.21,M,FEW,SCT,BKN,M,1600.00,3500.00,10000.00,M,M,M,M,M,M,M,M,62.60,RCTP 092030Z 06012KT 9999 FEW016 SCT035 BKN100 17/11 Q1019 NOSIG RMK A3010
RCTP,2017-01-09 21:00,60.80,51.80,72.20,70.00,12.00,0.00,30.09,M,6.21,M,FEW,SCT,BKN,M,1600.00,3500.00,10000.00,M,M,M,M,M,M,M,M,60.80,RCTP 092100Z 07012KT 9999 FEW016 SCT035 BKN100 16/11 Q1019 NOSIG RMK A3010
RCTP,2017-01-09 21:30,60.80,51.80,72.20,80.00,10.00,0.00,30.09,M,6.21,23.00,FEW,SCT,BKN,M,1600.00,3500.00,10000.00,M,M,M,M,M,M,M,M,60.80,RCTP 092130Z 08010G23KT 050V110 9999 FEW016 SCT035 BKN100 16/11 Q1019 NOSIG RMK A3011
RCTP,2017-01-09 22:00,62.60,51.80,67.75,70.00,10.00,0.00,30.12,M,6.21,M,FEW,SCT,BKN,M,1600.00,6000.00,10000.00,M,M,M,M,M,M,M,M,62.60,RCTP 092200Z 07010KT 050V110 9999 FEW016 SCT060 BKN100 17/11 Q1020 NOSIG RMK A3012
RCTP,2017-01-09 22:30,62.60,53.60,72.38,60.00,12.00,0.00,30.12,M,6.21,M,FEW,SCT,BKN,M,1600.00,6000.00,10000.00,M,M,M,M,M,M,M,M,62.60,RCTP 092230Z 06012KT 9999 FEW016 SCT060 BKN100 17/12 Q1020 NOSIG RMK A3013
RCTP,2017-01-09 23:00,62.60,51.80,67.75,60.00,10.00,0.00,30.12,M,6.21,M,FEW,SCT,BKN,M,1600.00,4000.00,10000.00,M,M,M,M,M,M,M,M,62.60,RCTP 092300Z 06010KT 9999 FEW016 SCT040 BKN100 17/11 Q1020 NOSIG RMK A3014
RCTP,2017-01-09 23:30,62.60,53.60,72.38,60.00,12.00,0.00,30.15,M,6.21,M,FEW,SCT,BKN,M,1600.00,4000.00,10000.00,M,M,M,M,M,M,M,M,62.60,RCTP 092330Z 06012KT 9999 FEW016 SCT040 BKN100 17/12 Q1021 NOSIG RMK A3015
RCTP,2017-01-10 00:00,64.40,55.40,72.56,50.00,12.00,0.00,30.15,M,6.21,M,FEW,SCT,BKN,M,1600.00,4000.00,9000.00,M,M,M,M,M,M,M,M,64.40,RCTP 100000Z 05012KT 9999 FEW016 SCT040 BKN090 18/13 Q1021 NOSIG RMK A3016
RCTP,2017-01-10 00:30,64.40,55.40,72.56,50.00,16.00,0.00,30.15,M,6.21,M,FEW,BKN,M,M,2000.00,10000.00,M,M,M,M,M,M,M,M,M,64.40,RCTP 100030Z 05016KT 9999 FEW020 BKN100 18/13 Q1021 NOSIG RMK A3017
RCTP,2017-01-10 01:00,66.20,55.40,68.15,50.00,15.00,0.00,30.18,M,6.21,M,FEW,BKN,M,M,2000.00,10000.00,M,M,M,M,M,M,M,M,M,66.20,RCTP 100100Z 05015KT 9999 FEW020 BKN100 19/13 Q1022 NOSIG RMK A3018
RCTP,2017-01-10 01:30,68.00,55.40,64.04,40.00,16.00,0.00,30.18,M,6.21,M,FEW,SCT,BKN,M,1500.00,3000.00,10000.00,M,M,M,M,M,M,M,M,68.00,RCTP 100130Z 04016KT 9999 FEW015 SCT030 BKN100 20/13 Q1022 NOSIG RMK A3018
RCTP,2017-01-10 02:00,68.00,55.40,64.04,40.00,16.00,0.00,30.18,M,6.21,M,FEW,SCT,BKN,M,1500.00,3000.00,10000.00,M,M,M,M,M,M,M,M,68.00,RCTP 100200Z 04016KT 9999 FEW015 SCT030 BKN100 20/13 Q1022 NOSIG RMK A3018
RCTP,2017-01-10 02:30,68.00,55.40,64.04,40.00,17.00,0.00,30.15,M,6.21,M,FEW,SCT,BKN,M,1500.00,3000.00,10000.00,M,M,M,M,M,M,M,M,68.00,RCTP 100230Z 04017KT 9999 FEW015 SCT030 BKN100 20/13 Q1021 NOSIG RMK A3017
RCTP,2017-01-10 03:00,68.00,55.40,64.04,30.00,16.00,0.00,30.15,M,6.21,M,FEW,SCT,BKN,M,1500.00,3000.00,10000.00,M,M,M,M,M,M,M,M,68.00,RCTP 100300Z 03016KT 9999 FEW015 SCT030 BKN100 20/13 Q1021 NOSIG RMK A3016
RCTP,2017-01-10 03:30,68.00,55.40,64.04,30.00,20.00,0.00,30.15,M,6.21,M,FEW,SCT,BKN,M,1500.00,3000.00,10000.00,M,M,M,M,M,M,M,M,68.00,RCTP 100330Z 03020KT 9999 FEW015 SCT030 BKN100 20/13 Q1021 NOSIG RMK A3015
RCTP,2017-01-10 04:00,68.00,55.40,64.04,40.00,20.00,0.00,30.12,M,6.21,M,FEW,SCT,BKN,M,1500.00,3000.00,10000.00,M,M,M,M,M,M,M,M,68.00,RCTP 100400Z 04020KT 9999 FEW015 SCT030 BKN100 20/13 Q1020 NOSIG RMK A3012
RCTP,2017-01-10 04:30,69.80,55.40,60.21,30.00,18.00,0.00,30.09,M,6.21,M,FEW,SCT,M,M,1500.00,10000.00,M,M,M,M,M,M,M,M,M,69.80,RCTP 100430Z 03018KT 9999 FEW015 SCT100 21/13 Q1019 NOSIG RMK A3011
RCTP,2017-01-10 05:00,69.80,55.40,60.21,30.00,20.00,0.00,30.09,M,6.21,M,FEW,SCT,M,M,1500.00,10000.00,M,M,M,M,M,M,M,M,M,69.80,RCTP 100500Z 03020KT 9999 FEW015 SCT100 21/13 Q1019 NOSIG RMK A3009
RCTP,2017-01-10 05:30,69.80,55.40,60.21,30.00,20.00,0.00,30.06,M,6.21,M,FEW,SCT,M,M,1500.00,10000.00,M,M,M,M,M,M,M,M,M,69.80,RCTP 100530Z 03020KT 9999 FEW015 SCT100 21/13 Q1018 NOSIG RMK A3007
RCTP,2017-01-10 06:00,69.80,55.40,60.21,30.00,18.00,0.00,30.06,M,6.21,M,FEW,SCT,M,M,1500.00,10000.00,M,M,M,M,M,M,M,M,M,69.80,RCTP 100600Z 03018KT 9999 FEW015 SCT100 21/13 Q1018 NOSIG RMK A3006
RCTP,2017-01-10 06:30,71.60,55.40,56.63,80.00,13.00,0.00,30.03,M,6.21,M,FEW,M,M,M,1500.00,M,M,M,M,M,M,M,M,M,M,71.60,RCTP 100630Z 08013KT 040V110 9999 FEW015 22/13 Q1017 NOSIG RMK A3005
RCTP,2017-01-10 07:00,71.60,55.40,56.63,90.00,14.00,0.00,30.03,M,6.21,M,M,M,M,M,M,M,M,M,M,M,M,M,M,M,M,71.60,RCTP 100700Z 09014KT CAVOK 22/13 Q1017 NOSIG RMK A3004
RCTP,2017-01-10 07:30,71.60,55.40,56.63,80.00,13.00,0.00,30.03,M,6.21,M,M,M,M,M,M,M,M,M,M,M,M,M,M,M,M,71.60,RCTP 100730Z 08013KT CAVOK 22/13 Q1017 NOSIG RMK A3005
RCTP,2017-01-10 08:00,69.80,55.40,60.21,40.00,14.00,0.00,30.06,M,6.21,M,M,M,M,M,M,M,M,M,M,M,M,M,M,M,M,69.80,RCTP 100800Z 04014KT 010V080 CAVOK 21/13 Q1018 NOSIG RMK A3007
RCTP,2017-01-10 08:30,66.20,55.40,68.15,30.00,18.00,0.00,30.06,M,6.21,M,M,M,M,M,M,M,M,M,M,M,M,M,M,M,M,66.20,RCTP 100830Z 03018KT CAVOK 19/13 Q1018 NOSIG RMK A3008
RCTP,2017-01-10 09:00,66.20,55.40,68.15,40.00,19.00,0.00,30.06,M,5.59,M,NSC,M,M,M,M,M,M,M,M,M,M,M,M,M,M,66.20,RCTP 100900Z 04019KT 9000 NSC 19/13 Q1018 NOSIG RMK A3008
RCTP,2017-01-10 09:30,64.40,55.40,72.56,40.00,18.00,0.00,30.09,M,5.59,M,FEW,M,M,M,1500.00,M,M,M,M,M,M,M,M,M,M,64.40,RCTP 100930Z 04018KT 9000 FEW015 18/13 Q1019 NOSIG RMK A3010
RCTP,2017-01-10 10:00,64.40,55.40,72.56,40.00,15.00,0.00,30.09,M,4.97,M,FEW,M,M,M,1500.00,M,M,M,M,M,M,M,M,M,M,64.40,RCTP 101000Z 04015KT 8000 FEW015 18/13 Q1019 NOSIG RMK A3010
RCTP,2017-01-10 10:30,64.40,55.40,72.56,40.00,14.00,0.00,30.09,M,5.59,M,FEW,M,M,M,1500.00,M,M,M,M,M,M,M,M,M,M,64.40,RCTP 101030Z 04014KT 9000 FEW015 18/13 Q1019 NOSIG RMK A3011
RCTP,2017-01-10 11:00,64.40,55.40,72.56,40.00,14.00,0.00,30.12,M,4.97,M,FEW,M,M,M,1500.00,M,M,M,M,M,M,M,M,M,M,64.40,RCTP 101100Z 04014KT 8000 FEW015 18/13 Q1020 NOSIG RMK A3012
RCTP,2017-01-10 11:30,64.40,55.40,72.56,40.00,13.00,0.00,30.12,M,4.97,M,FEW,M,M,M,1500.00,M,M,M,M,M,M,M,M,M,M,64.40,RCTP 101130Z 04013KT 8000 FEW015 18/13 Q1020 NOSIG RMK A3013
RCTP,2017-01-10 12:00,64.40,57.20,77.45,60.00,15.00,0.00,30.12,M,4.97,M,FEW,M,M,M,1500.00,M,M,M,M,M,M,M,M,M,M,64.40,RCTP 101200Z 06015KT 8000 FEW015 18/14 Q1020 NOSIG RMK A3013
RCTP,2017-01-10 12:30,64.40,55.40,72.56,60.00,14.00,0.00,30.12,M,4.97,M,FEW,M,M,M,1500.00,M,M,M,M,M,M,M,M,M,M,64.40,RCTP 101230Z 06014KT 8000 FEW015 18/13 Q1020 NOSIG RMK A3014
RCTP,2017-01-10 13:00,64.40,55.40,72.56,60.00,13.00,0.00,30.15,M,6.21,M,FEW,M,M,M,1500.00,M,M,M,M,M,M,M,M,M,M,64.40,RCTP 101300Z 06013KT 9999 FEW015 18/13 Q1021 NOSIG RMK A3015
RCTP,2017-01-10 13:30,64.40,55.40,72.56,60.00,12.00,0.00,30.15,M,6.21,M,FEW,M,M,M,1500.00,M,M,M,M,M,M,M,M,M,M,64.40,RCTP 101330Z 06012KT 9999 FEW015 18/13 Q1021 NOSIG RMK A3015
RCTP,2017-01-10 14:00,64.40,55.40,72.56,50.00,14.00,0.00,30.15,M,6.21,M,FEW,SCT,M,M,1500.00,3500.00,M,M,M,M,M,M,M,M,M,64.40,RCTP 101400Z 05014KT 9999 FEW015 SCT035 18/13 Q1021 NOSIG RMK A3016
RCTP,2017-01-10 14:30,64.40,57.20,77.45,70.00,16.00,0.00,30.15,M,5.59,26.00,FEW,M,M,M,1500.00,M,M,M,M,M,M,M,M,M,M,64.40,RCTP 101430Z 07016G26KT 9000 FEW015 18/14 Q1021 NOSIG RMK A3015
RCTP,2017-01-10 15:00,64.40,57.20,77.45,60.00,17.00,0.00,30.15,M,5.59,M,FEW,M,M,M,1500.00,M,M,M,M,M,M,M,M,M,M,64.40,RCTP 101500Z 06017KT 9000 FEW015 18/14 Q1021 NOSIG RMK A3015
RCTP,2017-01-10 15:30,64.40,57.20,77.45,60.00,17.00,0.00,30.12,M,5.59,M,FEW,M,M,M,1500.00,M,M,M,M,M,M,M,M,M,M,64.40,RCTP 101530Z 06017KT 9000 FEW015 18/14 Q1020 NOSIG RMK A3014
RCTP,2017-01-10 16:00,64.40,57.20,77.45,50.00,15.00,0.00,30.12,M,5.59,M,FEW,M,M,M,1500.00,M,M,M,M,M,M,M,M,M,M,64.40,RCTP 101600Z 05015KT 9000 FEW015 18/14 Q1020 NOSIG RMK A3014
RCTP,2017-01-10 16:30,64.40,57.20,77.45,50.00,15.00,0.00,30.12,M,5.59,M,FEW,SCT,M,M,1500.00,3000.00,M,M,M,M,M,M,M,M,M,64.40,RCTP 101630Z 05015KT 9000 FEW015 SCT030 18/14 Q1020 NOSIG RMK A3013
RCTP,2017-01-10 17:00,64.40,57.20,77.45,60.00,18.00,0.00,30.12,M,6.21,M,FEW,SCT,M,M,1500.00,3500.00,M,M,M,M,M,M,M,M,M,64.40,RCTP 101700Z 06018KT 9999 FEW015 SCT035 18/14 Q1020 NOSIG RMK A3012
RCTP,2017-01-10 17:30,64.40,57.20,77.45,60.00,17.00,0.00,30.09,M,6.21,M,FEW,SCT,BKN,M,1500.00,3500.00,12000.00,M,M,M,M,M,M,M,M,64.40,RCTP 101730Z 06017KT 9999 FEW015 SCT035 BKN120 18/14 Q1019 NOSIG RMK A3010
RCTP,2017-01-10 18:00,64.40,57.20,77.45,50.00,15.00,0.00,30.09,M,5.59,M,FEW,BKN,M,M,1500.00,12000.00,M,M,M,M,M,M,M,M,M,64.40,RCTP 101800Z 05015KT 9000 FEW015 BKN120 18/14 Q1019 NOSIG RMK A3010
RCTP,2017-01-10 18:30,64.40,57.20,77.45,50.00,14.00,0.00,30.09,M,5.59,M,FEW,BKN,M,M,1500.00,12000.00,M,M,M,M,M,M,M,M,M,64.40,RCTP 101830Z 05014KT 9000 FEW015 BKN120 18/14 Q1019 NOSIG RMK A3011
RCTP,2017-01-10 19:00,66.20,57.20,72.74,50.00,17.00,0.00,30.09,M,5.59,M,FEW,SCT,BKN,M,1500.00,2500.00,12000.00,M,M,M,M,M,M,M,M,66.20,RCTP 101900Z 05017KT 9000 FEW015 SCT025 BKN120 19/14 Q1019 NOSIG RMK A3011
RCTP,2017-01-10 19:30,66.20,57.20,72.74,50.00,16.00,0.00,30.09,M,5.59,M,FEW,SCT,BKN,M,1500.00,2500.00,12000.00,M,M,M,M,M,M,M,M,66.20,RCTP 101930Z 05016KT 9000 FEW015 SCT025 BKN120 19/14 Q1019 NOSIG RMK A3011
RCTP,2017-01-10 20:00,66.20,57.20,72.74,50.00,17.00,0.00,30.09,M,5.59,M,FEW,BKN,BKN,M,1500.00,2500.00,12000.00,M,M,M,M,M,M,M,M,66.20,RCTP 102000Z 05017KT 9000 FEW015 BKN025 BKN120 19/14 Q1019 NOSIG RMK A3010
RCTP,2017-01-10 20:30,64.40,57.20,77.45,60.00,17.00,0.00,30.09,M,5.59,M,FEW,BKN,BKN,M,1500.00,2800.00,12000.00,M,M,M,M,M,M,M,M,64.40,RCTP 102030Z 06017KT 9000 FEW015 BKN028 BKN120 18/14 Q1019 NOSIG RMK A3010
RCTP,2017-01-10 21:00,66.20,57.20,72.74,50.00,18.00,0.00,30.09,M,5.59,M,FEW,BKN,BKN,M,1500.00,2800.00,12000.00,M,M,M,M,M,M,M,M,66.20,RCTP 102100Z 05018KT 9000 FEW015 BKN028 BKN120 19/14 Q1019 NOSIG RMK A3011
RCTP,2017-01-10 21:30,66.20,57.20,72.74,50.00,17.00,0.00,30.12,M,5.59,M,FEW,BKN,BKN,M,1500.00,2800.00,12000.00,M,M,M,M,M,M,M,M,66.20,RCTP 102130Z 05017KT 9000 FEW015 BKN028 BKN120 19/14 Q1020 NOSIG RMK A3012
RCTP,2017-01-10 22:00,66.20,57.20,72.74,50.00,20.00,0.00,30.12,M,6.21,M,FEW,BKN,BKN,M,1500.00,2800.00,12000.00,M,M,M,M,M,M,M,M,66.20,RCTP 102200Z 05020KT 9999 FEW015 BKN028 BKN120 19/14 Q1020 NOSIG RMK A3013
RCTP,2017-01-10 22:30,66.20,57.20,72.74,50.00,20.00,0.00,30.12,M,6.21,M,FEW,BKN,BKN,M,1500.00,2800.00,12000.00,M,M,M,M,M,M,M,M,66.20,RCTP 102230Z 05020KT 9999 FEW015 BKN028 BKN120 19/14 Q1020 NOSIG RMK A3013
RCTP,2017-01-10 23:00,64.40,57.20,77.45,50.00,18.00,0.00,30.15,M,6.21,M,FEW,BKN,BKN,M,1500.00,2800.00,12000.00,M,M,M,M,M,M,M,M,64.40,RCTP 102300Z 05018KT 9999 FEW015 BKN028 BKN120 18/14 Q1021 NOSIG RMK A3015
RCTP,2017-01-10 23:30,66.20,57.20,72.74,60.00,18.00,0.00,30.15,M,6.21,M,FEW,BKN,BKN,M,1500.00,3000.00,12000.00,M,M,M,M,M,M,M,M,66.20,RCTP 102330Z 06018KT 9999 FEW015 BKN030 BKN120 19/14 Q1021 NOSIG RMK A3015
RCTP,2017-01-11 00:00,66.20,57.20,72.74,50.00,16.00,0.00,30.15,M,6.21,M,FEW,BKN,BKN,M,1500.00,2800.00,12000.00,M,M,M,M,M,M,M,M,66.20,RCTP 110000Z 05016KT 9999 FEW015 BKN028 BKN120 19/14 Q1021 NOSIG RMK A3015
RCTP,2017-01-11 00:30,66.20,57.20,72.74,50.00,16.00,0.00,30.15,M,5.59,M,FEW,BKN,M,M,1500.00,2800.00,M,M,M,M,M,M,M,M,M,66.20,RCTP 110030Z 05016KT 9000 FEW015 BKN028 19/14 Q1021 NOSIG RMK A3015
RCTP,2017-01-11 01:00,68.00,59.00,72.92,50.00,17.00,0.00,30.15,M,5.59,M,FEW,BKN,M,M,1500.00,2800.00,M,M,M,M,M,M,M,M,M,68.00,RCTP 110100Z 05017KT 9000 FEW015 BKN028 20/15 Q1021 NOSIG RMK A3015
RCTP,2017-01-11 01:30,68.00,59.00,72.92,40.00,20.00,0.00,30.15,M,5.59,M,FEW,BKN,M,M,1500.00,3000.00,M,M,M,M,M,M,M,M,M,68.00,RCTP 110130Z 04020KT 9000 FEW015 BKN030 20/15 Q1021 NOSIG RMK A3016
RCTP,2017-01-11 02:00,69.80,60.80,73.09,50.00,21.00,0.00,30.15,M,6.21,M,FEW,BKN,M,M,1500.00,3000.00,M,M,M,M,M,M,M,M,M,69.80,RCTP 110200Z 05021KT 9999 FEW015 BKN030 21/16 Q1021 NOSIG RMK A3016
RCTP,2017-01-11 02:30,69.80,60.80,73.09,40.00,20.00,0.00,30.12,M,6.21,M,FEW,BKN,M,M,1500.00,3000.00,M,M,M,M,M,M,M,M,M,69.80,RCTP 110230Z 04020KT 9999 FEW015 BKN030 21/16 Q1020 NOSIG RMK A3014
RCTP,2017-01-11 03:00,71.60,59.00,64.48,70.00,20.00,0.00,30.12,M,6.21,M,FEW,BKN,M,M,1500.00,3000.00,M,M,M,M,M,M,M,M,M,71.60,RCTP 110300Z 07020KT 9999 FEW015 BKN030 22/15 Q1020 NOSIG RMK A3012
RCTP,2017-01-11 03:30,69.80,60.80,73.09,40.00,19.00,0.00,30.12,M,6.21,M,FEW,BKN,M,M,1500.00,2800.00,M,M,M,M,M,M,M,M,M,69.80,RCTP 110330Z 04019KT 9999 FEW015 BKN028 21/16 Q1020 NOSIG RMK A3012
RCTP,2017-01-11 04:00,71.60,59.00,64.48,50.00,19.00,0.00,30.09,M,6.21,29.00,FEW,SCT,M,M,1500.00,2800.00,M,M,M,M,M,M,M,M,M,71.60,RCTP 110400Z 05019G29KT 9999 FEW015 SCT028 22/15 Q1019 NOSIG RMK A3009
RCTP,2017-01-11 04:30,71.60,60.80,68.75,50.00,21.00,0.00,30.06,M,6.21,M,FEW,SCT,M,M,1500.00,2700.00,M,M,M,M,M,M,M,M,M,71.60,RCTP 110430Z 05021KT 9999 FEW015 SCT027 22/16 Q1018 NOSIG RMK A3006
RCTP,2017-01-11 05:00,71.60,60.80,68.75,30.00,22.00,0.00,30.03,M,6.21,M,FEW,SCT,M,M,1500.00,2800.00,M,M,M,M,M,M,M,M,M,71.60,RCTP 110500Z 03022KT 9999 FEW015 SCT028 22/16 Q1017 NOSIG RMK A3004
RCTP,2017-01-11 05:30,71.60,60.80,68.75,30.00,22.00,0.00,30.00,M,6.21,M,FEW,M,M,M,2000.00,M,M,M,M,M,M,M,M,M,M,71.60,RCTP 110530Z 03022KT 9999 FEW020 22/16 Q1016 NOSIG RMK A3003
RCTP,2017-01-11 06:00,71.60,60.80,68.75,30.00,24.00,0.00,30.00,M,6.21,M,FEW,M,M,M,2500.00,M,M,M,M,M,M,M,M,M,M,71.60,RCTP 110600Z 03024KT 9999 FEW025 22/16 Q1016 NOSIG RMK A3002
RCTP,2017-01-11 06:30,69.80,60.80,73.09,40.00,26.00,0.00,30.00,M,6.21,M,FEW,M,M,M,2500.00,M,M,M,M,M,M,M,M,M,M,69.80,RCTP 110630Z 04026KT 9999 FEW025 21/16 Q1016 NOSIG RMK A3002
RCTP,2017-01-11 07:00,69.80,59.00,68.55,40.00,24.00,0.00,30.00,M,6.21,M,FEW,M,M,M,2500.00,M,M,M,M,M,M,M,M,M,M,69.80,RCTP 110700Z 04024KT 9999 FEW025 21/15 Q1016 NOSIG RMK A3002
RCTP,2017-01-11 07:30,68.00,59.00,72.92,40.00,22.00,0.00,30.00,M,6.21,M,FEW,M,M,M,2500.00,M,M,M,M,M,M,M,M,M,M,68.00,RCTP 110730Z 04022KT 9999 FEW025 20/15 Q1016 NOSIG RMK A3002
RCTP,2017-01-11 08:00,68.00,59.00,72.92,40.00,23.00,0.00,30.00,M,6.21,33.00,FEW,M,M,M,2500.00,M,M,M,M,M,M,M,M,M,M,68.00,RCTP 110800Z 04023G33KT 9999 FEW025 20/15 Q1016 NOSIG RMK A3003
RCTP,2017-01-11 08:30,68.00,59.00,72.92,40.00,24.00,0.00,30.00,M,6.21,M,FEW,SCT,BKN,M,1500.00,2500.00,18000.00,M,M,M,M,M,M,M,M,68.00,RCTP 110830Z 04024KT 9999 FEW015 SCT025 BKN180 20/15 Q1016 NOSIG RMK A3003
RCTP,2017-01-11 09:00,66.20,60.80,82.74,40.00,20.00,0.00,30.00,M,6.21,M,FEW,SCT,BKN,M,1500.00,2500.00,18000.00,M,M,M,M,M,M,M,M,66.20,RCTP 110900Z 04020KT 9999 FEW015 SCT025 BKN180 19/16 Q1016 NOSIG RMK A3003
RCTP,2017-01-11 09:30,66.20,60.80,82.74,40.00,20.00,0.00,30.03,M,4.35,M,FEW,SCT,BKN,M,1500.00,2500.00,18000.00,M,M,M,M,M,M,M,M,66.20,RCTP 110930Z 04020KT 7000 FEW015 SCT025 BKN180 19/16 Q1017 NOSIG RMK A3004
RCTP,2017-01-11 10:00,66.20,60.80,82.74,40.00,21.00,0.00,30.03,M,4.35,M,FEW,SCT,BKN,M,1500.00,2500.00,18000.00,M,M,M,M,M,M,M,M,66.20,RCTP 111000Z 04021KT 7000 FEW015 SCT025 BKN180 19/16 Q1017 NOSIG RMK A3005
RCTP,2017-01-11 10:30,66.20,60.80,82.74,40.00,20.00,0.00,30.03,M,4.35,M,FEW,SCT,BKN,M,1500.00,2500.00,18000.00,M,M,M,M,M,M,M,M,66.20,RCTP 111030Z 04020KT 7000 FEW015 SCT025 BKN180 19/16 Q1017 NOSIG RMK A3005
RCTP,2017-01-11 11:00,66.20,60.80,82.74,40.00,18.00,0.00,30.03,M,4.35,M,FEW,SCT,BKN,M,1500.00,2500.00,18000.00,M,M,M,M,M,M,M,M,66.20,RCTP 111100Z 04018KT 7000 3000N FEW015 SCT025 BKN180 19/16 Q1017 NOSIG RMK A3005
RCTP,2017-01-11 11:30,66.20,60.80,82.74,40.00,18.00,0.00,30.06,M,5.59,M,FEW,SCT,BKN,M,1500.00,2500.00,18000.00,M,M,M,M,M,M,M,M,66.20,RCTP 111130Z 04018KT 9000 FEW015 SCT025 BKN180 19/16 Q1018 NOSIG RMK A3006
RCTP,2017-01-11 12:00,66.20,60.80,82.74,40.00,20.00,0.00,30.06,M,5.59,M,FEW,SCT,BKN,M,1500.00,2300.00,18000.00,M,M,M,M,M,M,M,M,66.20,RCTP 111200Z 04020KT 9000 FEW015 SCT023 BKN180 19/16 Q1018 NOSIG RMK A3007
RCTP,2017-01-11 12:30,66.20,60.80,82.74,30.00,22.00,0.00,30.06,M,5.59,M,FEW,SCT,BKN,M,1500.00,2300.00,17000.00,M,M,M,M,M,M,M,M,66.20,RCTP 111230Z 03022KT 9000 FEW015 SCT023 BKN170 19/16 Q1018 NOSIG RMK A3007
RCTP,2017-01-11 13:00,66.20,60.80,82.74,30.00,22.00,0.00,30.06,M,5.59,M,FEW,SCT,BKN,M,1500.00,2300.00,17000.00,M,M,M,M,M,M,M,M,66.20,RCTP 111300Z 03022KT 9000 FEW015 SCT023 BKN170 19/16 Q1018 NOSIG RMK A3007
RCTP,2017-01-11 13:30,66.20,60.80,82.74,40.00,24.00,0.00,30.06,M,5.59,M,FEW,SCT,BKN,M,1500.00,2300.00,17000.00,M,M,M,M,M,M,M,M,66.20,RCTP 111330Z 04024KT 9000 FEW015 SCT023 BKN170 19/16 Q1018 NOSIG RMK A3008
RCTP,2017-01-11 14:00,66.20,60.80,82.74,40.00,24.00,0.00,30.06,M,4.97,M,FEW,BKN,M,M,2000.00,17000.00,M,M,M,M,M,M,M,M,M,66.20,RCTP 111400Z 04024KT 8000 FEW020 BKN170 19/16 Q1018 NOSIG RMK A3008
RCTP,2017-01-11 14:30,66.20,60.80,82.74,40.00,24.00,0.00,30.09,M,4.97,M,FEW,BKN,M,M,2000.00,17000.00,M,M,M,M,M,M,M,M,M,66.20,RCTP 111430Z 04024KT 8000 FEW020 BKN170 19/16 Q1019 NOSIG RMK A3009
RCTP,2017-01-11 15:00,64.40,60.80,88.09,40.00,23.00,0.00,30.06,M,4.35,M,FEW,SCT,M,M,2000.00,10000.00,M,M,M,M,M,M,M,M,M,64.40,RCTP 111500Z 04023KT 7000 FEW020 SCT100 18/16 Q1018 NOSIG RMK A3008
RCTP,2017-01-11 15:30,66.20,60.80,82.74,40.00,22.00,0.00,30.09,M,4.35,M,FEW,SCT,M,M,2000.00,10000.00,M,M,M,M,M,M,M,M,M,66.20,RCTP 111530Z 04022KT 7000 FEW020 SCT100 19/16 Q1019 NOSIG RMK A3009
RCTP,2017-01-11 16:00,66.20,60.80,82.74,40.00,20.00,0.00,30.06,M,4.97,M,FEW,SCT,M,M,2000.00,19000.00,M,M,M,M,M,M,M,M,M,66.20,RCTP 111600Z 04020KT 8000 FEW020 SCT190 19/16 Q1018 NOSIG RMK A3006
RCTP,2017-01-11 16:30,64.40,60.80,88.09,50.00,21.00,0.00,30.06,M,4.35,M,FEW,SCT,M,M,2000.00,19000.00,M,M,M,M,M,M,M,M,M,64.40,RCTP 111630Z 05021KT 7000 FEW020 SCT190 18/16 Q1018 NOSIG RMK A3006
RCTP,2017-01-11 17:00,64.40,60.80,88.09,40.00,13.00,0.00,30.06,M,4.35,M,FEW,BKN,M,M,1000.00,1800.00,M,M,M,M,M,M,M,M,M,64.40,RCTP 111700Z 04013KT 7000 FEW010 BKN018 18/16 Q1018 NOSIG RMK A3006
RCTP,2017-01-11 17:30,64.40,60.80,88.09,40.00,16.00,0.00,30.06,M,4.35,M,FEW,BKN,M,M,1000.00,1800.00,M,M,M,M,M,M,M,M,M,64.40,RCTP 111730Z 04016KT 7000 FEW010 BKN018 18/16 Q1018 NOSIG RMK A3006
RCTP,2017-01-11 18:00,66.20,60.80,82.74,40.00,14.00,0.00,30.03,M,4.35,M,FEW,SCT,M,M,1000.00,1800.00,M,M,M,M,M,M,M,M,M,66.20,RCTP 111800Z 04014KT 7000 FEW010 SCT018 19/16 Q1017 NOSIG RMK A3005
RCTP,2017-01-11 18:30,66.20,60.80,82.74,50.00,14.00,0.00,30.03,M,4.35,M,FEW,SCT,BKN,M,1000.00,1800.00,8000.00,M,M,M,M,M,M,M,M,66.20,RCTP 111830Z 05014KT 7000 FEW010 SCT018 BKN080 19/16 Q1017 NOSIG RMK A3004
RCTP,2017-01-11 19:00,66.20,62.60,88.18,50.00,14.00,0.00,30.00,M,4.35,M,FEW,SCT,M,M,2000.00,8000.00,M,M,M,M,M,M,M,M,M,66.20,RCTP 111900Z 05014KT 7000 FEW020 SCT080 19/17 Q1016 NOSIG RMK A3003
RCTP,2017-01-11 19:30,64.40,62.60,93.88,30.00,9.00,0.00,30.00,M,3.73,M,FEW,SCT,BKN,M,1200.00,1800.00,2500.00,M,M,M,M,M,M,M,M,64.40,RCTP 111930Z 03009KT 6000 FEW012 SCT018 BKN025 18/17 Q1016 NOSIG RMK A3003
RCTP,2017-01-11 19:53,66.20,62.60,88.18,30.00,13.00,0.00,30.03,M,3.73,M,FEW,BKN,BKN,M,600.00,1000.00,1800.00,M,M,M,M,M,M,M,M,66.20,RCTP 111953Z 03013KT 6000 FEW006 BKN010 BKN018 19/17 Q1017 NOSIG RMK A3004
RCTP,2017-01-11 20:00,66.20,62.60,88.18,30.00,12.00,0.00,30.03,M,3.73,M,FEW,BKN,BKN,M,500.00,800.00,1600.00,M,M,M,M,M,M,M,M,66.20,RCTP 112000Z 03012KT 6000 FEW005 BKN008 BKN016 19/17 Q1017 NOSIG RMK A3004
RCTP,2017-01-11 20:30,66.20,62.60,88.18,30.00,15.00,0.00,30.03,M,4.97,M,FEW,BKN,BKN,M,500.00,800.00,1600.00,M,M,M,M,M,M,M,M,66.20,RCTP 112030Z 03015KT 8000 FEW005 BKN008 BKN016 19/17 Q1017 NOSIG RMK A3004
RCTP,2017-01-11 20:50,66.20,62.60,88.18,30.00,16.00,0.00,30.03,M,4.97,M,FEW,BKN,BKN,M,600.00,1000.00,1600.00,M,M,M,M,M,M,M,M,66.20,RCTP 112050Z 03016KT 8000 FEW006 BKN010 BKN016 19/17 Q1017 NOSIG RMK A3004
RCTP,2017-01-11 21:00,66.20,62.60,88.18,30.00,17.00,0.00,30.03,M,4.97,M,FEW,BKN,BKN,M,600.00,1000.00,1600.00,M,M,M,M,M,M,M,M,66.20,RCTP 112100Z 03017KT 8000 FEW006 BKN010 BKN016 19/17 Q1017 NOSIG RMK A3004
RCTP,2017-01-11 21:30,66.20,62.60,88.18,30.00,16.00,0.00,30.03,M,4.97,M,FEW,BKN,BKN,M,600.00,1000.00,1600.00,M,M,M,M,M,M,M,M,66.20,RCTP 112130Z 03016KT 8000 FEW006 BKN010 BKN016 19/17 Q1017 NOSIG RMK A3004
RCTP,2017-01-11 22:00,66.20,62.60,88.18,40.00,16.00,0.00,30.03,M,4.97,M,FEW,BKN,BKN,M,600.00,800.00,1600.00,M,M,M,M,M,M,M,M,66.20,RCTP 112200Z 04016KT 8000 FEW006 BKN008 BKN016 19/17 Q1017 NOSIG RMK A3004
RCTP,2017-01-11 22:30,64.40,62.60,93.88,40.00,15.00,0.00,30.03,M,4.97,M,FEW,BKN,BKN,M,600.00,800.00,1600.00,M,M,M,M,M,M,M,M,64.40,RCTP 112230Z 04015KT 8000 FEW006 BKN008 BKN016 18/17 Q1017 NOSIG RMK A3004
RCTP,2017-01-11 23:00,66.20,62.60,88.18,40.00,15.00,0.00,30.03,M,4.97,M,FEW,BKN,BKN,M,600.00,800.00,1600.00,M,M,M,M,M,M,M,M,66.20,RCTP 112300Z 04015KT 8000 FEW006 BKN008 BKN016 19/17 Q1017 NOSIG RMK A3004
RCTP,2017-01-11 23:30,66.20,62.60,88.18,40.00,15.00,0.00,30.03,M,4.97,M,FEW,BKN,OVC,M,600.00,800.00,2000.00,M,M,M,M,M,M,M,M,66.20,RCTP 112330Z 04015KT 8000 FEW006 BKN008 OVC020 19/17 Q1017 NOSIG RMK A3004
RCTP,2017-01-12 00:00,66.20,62.60,88.18,40.00,14.00,0.00,30.03,M,4.97,M,FEW,BKN,BKN,M,800.00,1400.00,2000.00,M,M,M,M,M,M,M,M,66.20,RCTP 120000Z 04014KT 8000 FEW008 BKN014 BKN020 19/17 Q1017 NOSIG RMK A3004
RCTP,2017-01-12 00:30,66.20,62.60,88.18,40.00,14.00,0.00,30.00,M,6.21,M,FEW,BKN,BKN,M,800.00,1500.00,2200.00,M,M,M,M,M,M,M,M,66.20,RCTP 120030Z 04014KT 9999 FEW008 BKN015 BKN022 19/17 Q1016 NOSIG RMK A3003
RCTP,2017-01-12 01:00,66.20,62.60,88.18,20.00,13.00,0.00,30.03,M,6.21,M,FEW,BKN,BKN,M,800.00,1500.00,2200.00,M,M,M,M,M,M,M,M,66.20,RCTP 120100Z 02013KT 9999 FEW008 BKN015 BKN022 19/17 Q1017 NOSIG RMK A3004
RCTP,2017-01-12 01:30,68.00,62.60,82.86,30.00,14.00,0.00,30.03,M,6.21,M,FEW,OVC,M,M,1000.00,1800.00,M,M,M,M,M,M,M,M,M,68.00,RCTP 120130Z 03014KT 9999 FEW010 OVC018 20/17 Q1017 NOSIG RMK A3005
RCTP,2017-01-12 01:51,68.00,64.40,88.26,30.00,16.00,0.00,30.03,M,6.21,M,FEW,BKN,OVC,M,600.00,900.00,2200.00,M,M,M,M,M,M,M,M,68.00,RCTP 120151Z 03016KT 9999 FEW006 BKN009 OVC022 20/18 Q1017 NOSIG RMK A3004
RCTP,2017-01-12 02:00,68.00,64.40,88.26,40.00,17.00,0.00,30.03,M,6.21,M,FEW,BKN,OVC,M,600.00,900.00,2200.00,M,M,M,M,M,M,M,M,68.00,RCTP 120200Z 04017KT 9999 FEW006 BKN009 OVC022 20/18 Q1017 NOSIG RMK A3004
RCTP,2017-01-12 02:30,68.00,64.40,88.26,40.00,18.00,0.00,30.00,M,6.21,M,FEW,BKN,BKN,M,600.00,900.00,2600.00,M,M,M,M,M,M,M,M,68.00,RCTP 120230Z 04018KT 9999 FEW006 BKN009 BKN026 20/18 Q1016 NOSIG RMK A3003
RCTP,2017-01-12 03:00,68.00,64.40,88.26,30.00,16.00,0.00,30.00,M,6.21,M,SCT,BKN,BKN,M,700.00,800.00,2000.00,M,M,M,M,M,M,M,M,68.00,RCTP 120300Z 03016KT 9999 SCT007 BKN008 BKN020 20/18 Q1016 NOSIG RMK A3002
RCTP,2017-01-12 03:30,68.00,64.40,88.26,30.00,18.00,0.00,29.97,M,6.21,M,SCT,BKN,BKN,M,600.00,800.00,2000.00,M,M,M,M,M,M,M,M,68.00,RCTP 120330Z 03018KT 9999 SCT006 BKN008 BKN020 20/18 Q1015 NOSIG RMK A3000
RCTP,2017-01-12 04:00,68.00,64.40,88.26,30.00,15.00,0.00,29.97,M,6.21,M,SCT,BKN,BKN,M,800.00,1200.00,2000.00,M,M,M,M,M,M,M,M,68.00,RCTP 120400Z 03015KT 9999 SCT008 BKN012 BKN020 20/18 Q1015 NOSIG RMK A2998
RCTP,2017-01-12 04:30,68.00,64.40,88.26,30.00,16.00,0.00,29.97,M,6.21,M,FEW,BKN,BKN,M,600.00,800.00,2000.00,M,M,M,M,M,M,M,M,68.00,RCTP 120430Z 03016KT 9999 FEW006 BKN008 BKN020 20/18 Q1015 NOSIG RMK A2998
RCTP,2017-01-12 05:00,69.80,64.40,82.98,30.00,16.00,0.00,29.94,M,6.21,M,FEW,OVC,M,M,600.00,900.00,M,M,M,M,M,M,M,M,M,69.80,RCTP 120500Z 03016KT 9999 FEW006 OVC009 21/18 Q1014 NOSIG RMK A2996
RCTP,2017-01-12 05:30,69.80,64.40,82.98,30.00,15.00,0.00,29.94,M,6.21,M,FEW,OVC,M,M,600.00,900.00,M,M,M,M,M,M,M,M,M,69.80,RCTP 120530Z 03015KT 9999 FEW006 OVC009 21/18 Q1014 NOSIG RMK A2995
RCTP,2017-01-12 06:00,68.00,64.40,88.26,20.00,15.00,0.00,29.94,M,6.21,M,FEW,OVC,M,M,600.00,900.00,M,M,M,M,M,M,M,M,M,68.00,RCTP 120600Z 02015KT 9999 FEW006 OVC009 20/18 Q1014 NOSIG RMK A2995
RCTP,2017-01-12 06:30,68.00,64.40,88.26,30.00,15.00,0.00,29.91,M,6.21,M,FEW,BKN,OVC,M,600.00,900.00,2000.00,M,M,M,M,M,M,M,M,68.00,RCTP 120630Z 03015KT 9999 FEW006 BKN009 OVC020 20/18 Q1013 NOSIG RMK A2994
RCTP,2017-01-12 07:00,68.00,62.60,82.86,20.00,16.00,0.00,29.91,M,6.21,M,FEW,BKN,OVC,M,600.00,900.00,2000.00,M,M,M,M,M,M,M,M,68.00,RCTP 120700Z 02016KT 9999 FEW006 BKN009 OVC020 20/17 Q1013 NOSIG RMK A2994
RCTP,2017-01-12 07:30,68.00,62.60,82.86,20.00,15.00,0.00,29.91,M,6.21,M,SCT,BKN,OVC,M,500.00,800.00,2000.00,M,M,M,M,M,M,M,M,68.00,RCTP 120730Z 02015KT 9999 SCT005 BKN008 OVC020 20/17 Q1013 NOSIG RMK A2994
RCTP,2017-01-12 08:00,68.00,62.60,82.86,20.00,13.00,0.00,29.94,M,6.21,M,SCT,BKN,OVC,M,500.00,800.00,2000.00,M,M,M,M,M,M,M,M,68.00,RCTP 120800Z 02013KT 9999 SCT005 BKN008 OVC020 20/17 Q1014 NOSIG RMK A2995
RCTP,2017-01-12 08:30,68.00,62.60,82.86,20.00,13.00,0.00,29.94,M,6.21,M,SCT,BKN,OVC,M,500.00,800.00,2000.00,M,M,M,M,M,M,M,M,68.00,RCTP 120830Z 02013KT 9999 SCT005 BKN008 OVC020 20/17 Q1014 NOSIG RMK A2996
RCTP,2017-01-12 09:00,66.20,64.40,93.92,30.00,14.00,0.00,29.94,M,6.21,M,SCT,BKN,OVC,M,500.00,800.00,2000.00,M,M,M,M,M,M,M,M,66.20,RCTP 120900Z 03014KT 9999 SCT005 BKN008 OVC020 19/18 Q1014 NOSIG RMK A2996
RCTP,2017-01-12 09:30,66.20,62.60,88.18,40.00,15.00,0.00,29.94,M,6.21,M,SCT,BKN,OVC,M,500.00,800.00,2000.00,M,M,M,M,M,M,M,M,66.20,RCTP 120930Z 04015KT 9999 SCT005 BKN008 OVC020 19/17 Q1014 NOSIG RMK A2995
RCTP,2017-01-12 10:00,66.20,62.60,88.18,30.00,15.00,0.00,29.94,M,6.21,M,SCT,BKN,OVC,M,500.00,800.00,2000.00,M,M,M,M,M,M,M,M,66.20,RCTP 121000Z 03015KT 9999 SCT005 BKN008 OVC020 19/17 Q1014 NOSIG RMK A2997
RCTP,2017-01-12 10:30,66.20,62.60,88.18,30.00,18.00,0.00,29.94,M,6.21,M,SCT,BKN,BKN,M,600.00,1000.00,5000.00,M,M,M,M,M,M,M,M,66.20,RCTP 121030Z 03018KT 9999 SCT006 BKN010 BKN050 19/17 Q1014 NOSIG RMK A2996
RCTP,2017-01-12 11:05,66.20,62.60,88.18,40.00,18.00,0.00,29.97,M,6.21,M,FEW,BKN,BKN,M,600.00,900.00,2000.00,M,M,M,M,M,M,M,M,66.20,RCTP 121105Z 04018KT 9999 FEW006 BKN009 BKN020 19/17 Q1015 NOSIG RMK A2998
RCTP,2017-01-12 11:30,66.20,62.60,88.18,30.00,17.00,0.00,29.97,M,6.21,M,FEW,BKN,BKN,M,600.00,900.00,1800.00,M,M,M,M,M,M,M,M,66.20,RCTP 121130Z 03017KT 9999 FEW006 BKN009 BKN018 19/17 Q1015 NOSIG RMK A2999
RCTP,2017-01-12 12:00,66.20,62.60,88.18,30.00,17.00,0.00,29.97,M,6.21,M,FEW,BKN,BKN,M,600.00,900.00,1800.00,M,M,M,M,M,M,M,M,66.20,RCTP 121200Z 03017KT 9999 FEW006 BKN009 BKN018 19/17 Q1015 NOSIG RMK A2999
RCTP,2017-01-12 12:30,66.20,62.60,88.18,40.00,19.00,0.00,29.97,M,6.21,M,FEW,BKN,BKN,M,600.00,900.00,1800.00,M,M,M,M,M,M,M,M,66.20,RCTP 121230Z 04019KT 9999 FEW006 BKN009 BKN018 19/17 Q1015 NOSIG RMK A3000
RCTP,2017-01-12 13:00,64.40,62.60,93.88,30.00,16.00,0.00,29.97,M,6.21,M,FEW,BKN,BKN,M,700.00,900.00,1800.00,M,M,M,M,M,M,M,M,64.40,RCTP 121300Z 03016KT 9999 FEW007 BKN009 BKN018 18/17 Q1015 NOSIG RMK A3000
RCTP,2017-01-12 13:16,64.40,62.60,93.88,40.00,17.00,0.00,29.97,M,6.21,M,SCT,BKN,BKN,M,600.00,900.00,1800.00,M,-DZ,M,M,M,M,M,M,64.40,RCTP 121316Z 04017KT 9999 -DZ SCT006 BKN009 BKN018 18/17 Q1015 NOSIG RMK A3000
RCTP,2017-01-12 13:30,64.40,62.60,93.88,40.00,17.00,0.00,29.97,M,6.21,M,SCT,BKN,BKN,M,600.00,800.00,1500.00,M,-DZ,M,M,M,M,M,M,64.40,RCTP 121330Z 04017KT 9999 -DZ SCT006 BKN008 BKN015 18/17 Q1015 NOSIG RMK A3000
RCTP,2017-01-12 14:00,64.40,60.80,88.09,40.00,16.00,0.00,29.97,M,6.21,M,SCT,BKN,BKN,M,600.00,800.00,1500.00,M,M,M,M,M,M,M,M,64.40,RCTP 121400Z 04016KT 9999 SCT006 BKN008 BKN015 18/16 Q1015 NOSIG RMK A3000
RCTP,2017-01-12 14:30,64.40,60.80,88.09,40.00,18.00,0.00,29.97,M,6.21,M,SCT,BKN,BKN,M,600.00,800.00,1500.00,M,M,M,M,M,M,M,M,64.40,RCTP 121430Z 04018KT 9999 SCT006 BKN008 BKN015 18/16 Q1015 NOSIG RMK A2999
RCTP,2017-01-12 15:00,64.40,60.80,88.09,40.00,17.00,0.00,29.97,M,6.21,M,SCT,BKN,BKN,M,800.00,1000.00,1500.00,M,M,M,M,M,M,M,M,64.40,RCTP 121500Z 04017KT 9999 SCT008 BKN010 BKN015 18/16 Q1015 NOSIG RMK A2999
RCTP,2017-01-12 15:30,64.40,60.80,88.09,40.00,18.00,0.00,29.97,M,6.21,M,SCT,BKN,BKN,M,800.00,1000.00,1500.00,M,M,M,M,M,M,M,M,64.40,RCTP 121530Z 04018KT 9999 SCT008 BKN010 BKN015 18/16 Q1015 NOSIG RMK A2999
RCTP,2017-01-12 16:00,64.40,60.80,88.09,40.00,15.00,0.00,29.97,M,6.21,M,SCT,BKN,BKN,M,700.00,900.00,1500.00,M,M,M,M,M,M,M,M,64.40,RCTP 121600Z 04015KT 9999 SCT007 BKN009 BKN015 18/16 Q1015 NOSIG RMK A2999
RCTP,2017-01-12 16:30,64.40,60.80,88.09,30.00,16.00,0.00,29.97,M,6.21,M,SCT,BKN,BKN,M,700.00,900.00,1500.00,M,M,M,M,M,M,M,M,64.40,RCTP 121630Z 03016KT 9999 SCT007 BKN009 BKN015 18/16 Q1015 NOSIG RMK A3000
RCTP,2017-01-12 16:55,64.40,59.00,82.62,30.00,15.00,0.00,29.97,M,6.21,M,SCT,BKN,BKN,M,700.00,900.00,1600.00,M,-RA,M,M,M,M,M,M,64.40,RCTP 121655Z 03015KT 9999 -RA SCT007 BKN009 BKN016 18/15 Q1015 NOSIG RMK A3000
RCTP,2017-01-12 17:00,64.40,60.80,88.09,30.00,16.00,0.00,29.97,M,6.21,M,SCT,BKN,BKN,M,600.00,900.00,1600.00,M,-RA,M,M,M,M,M,M,64.40,RCTP 121700Z 03016KT 9999 -RA SCT006 BKN009 BKN016 18/16 Q1015 NOSIG RMK A3000
RCTP,2017-01-12 17:30,62.60,60.80,93.83,40.00,16.00,0.00,29.97,M,6.21,M,SCT,BKN,BKN,M,500.00,800.00,1600.00,M,-RA,M,M,M,M,M,M,62.60,RCTP 121730Z 04016KT 9999 -RA SCT005 BKN008 BKN016 17/16 Q1015 NOSIG RMK A2999
RCTP,2017-01-12 18:00,62.60,59.00,88.00,40.00,13.00,0.00,29.97,M,6.21,M,SCT,BKN,BKN,M,500.00,800.00,2000.00,M,-RA,M,M,M,M,M,M,62.60,RCTP 121800Z 04013KT 9999 -RA SCT005 BKN008 BKN020 17/15 Q1015 NOSIG RMK A3000
RCTP,2017-01-12 18:30,62.60,59.00,88.00,50.00,14.00,0.00,29.97,M,2.49,M,SCT,BKN,BKN,M,500.00,800.00,2000.00,M,-RA,M,M,M,M,M,M,62.60,RCTP 121830Z 05014KT 4000 -RA SCT005 BKN008 BKN020 17/15 Q1015 TEMPO 3000 RA RMK A3000
RCTP,2017-01-12 19:00,62.60,59.00,88.00,40.00,15.00,0.00,29.97,M,2.17,M,SCT,BKN,BKN,M,600.00,1000.00,3000.00,M,-RA,M,M,M,M,M,M,62.60,RCTP 121900Z 04015KT 3500 -RA SCT006 BKN010 BKN030 17/15 Q1015 TEMPO 3000 RA RMK A3000 RA AMT 0.2MM
RCTP,2017-01-12 19:30,60.80,59.00,93.79,30.00,16.00,0.00,29.97,M,2.49,27.00,SCT,BKN,BKN,M,500.00,800.00,2000.00,M,-RA,M,M,M,M,M,M,60.80,RCTP 121930Z 03016G27KT 4000 -RA SCT005 BKN008 BKN020 16/15 Q1015 TEMPO 3000 RA RMK A3000
RCTP,2017-01-12 20:00,60.80,59.00,93.79,40.00,15.00,0.00,29.97,M,2.49,M,SCT,BKN,BKN,M,500.00,800.00,2000.00,M,-RA,M,M,M,M,M,M,60.80,RCTP 122000Z 04015KT 4000 -RA SCT005 BKN008 BKN020 16/15 Q1015 TEMPO 3000 RA RMK A3000 RA AMT 1.2MM
RCTP,2017-01-12 20:30,60.80,59.00,93.79,40.00,14.00,0.00,30.00,M,2.49,M,SCT,BKN,BKN,M,400.00,700.00,2000.00,M,-RA,M,M,M,M,M,M,60.80,RCTP 122030Z 04014KT 4000 -RA SCT004 BKN007 BKN020 16/15 Q1016 TEMPO 3000 RA RMK A3001
RCTP,2017-01-12 21:00,59.00,59.00,100.00,30.00,16.00,0.00,30.00,M,2.49,29.00,SCT,BKN,BKN,M,500.00,800.00,2000.00,M,-RA,M,M,M,M,M,M,59.00,RCTP 122100Z 03016G29KT 4000 -RA SCT005 BKN008 BKN020 15/15 Q1016 TEMPO 3000 RA RMK A3001 RA AMT 1.0MM
RCTP,2017-01-12 21:30,60.80,59.00,93.79,40.00,16.00,0.00,30.00,M,2.49,M,SCT,BKN,BKN,M,500.00,800.00,2000.00,M,-RA,M,M,M,M,M,M,60.80,RCTP 122130Z 04016KT 4000 -RA SCT005 BKN008 BKN020 16/15 Q1016 TEMPO 3000 RA RMK A3001
RCTP,2017-01-12 22:00,59.00,57.20,93.74,30.00,19.00,0.00,30.00,M,2.80,M,SCT,BKN,BKN,M,500.00,800.00,4000.00,M,-RA,M,M,M,M,M,M,59.00,RCTP 122200Z 03019KT 4500 -RA SCT005 BKN008 BKN040 15/14 Q1016 TEMPO 3000 RA RMK A3002 RA AMT 0.4MM
RCTP,2017-01-12 22:30,59.00,57.20,93.74,30.00,18.00,0.00,30.00,M,4.97,M,SCT,BKN,BKN,M,500.00,800.00,4000.00,M,-RA,M,M,M,M,M,M,59.00,RCTP 122230Z 03018KT 8000 -RA SCT005 BKN008 BKN040 15/14 Q1016 NOSIG RMK A3002
RCTP,2017-01-12 22:52,59.00,57.20,93.74,30.00,20.00,0.00,30.00,M,2.49,M,SCT,BKN,BKN,M,500.00,800.00,2000.00,M,-RA,M,M,M,M,M,M,59.00,RCTP 122252Z 03020KT 4000 -RA SCT005 BKN008 BKN020 15/14 Q1016 TEMPO 3000 RA RMK A3003
RCTP,2017-01-12 23:00,59.00,57.20,93.74,30.00,21.00,0.00,30.00,M,2.49,M,SCT,BKN,BKN,M,500.00,800.00,2000.00,M,-RA,M,M,M,M,M,M,59.00,RCTP 122300Z 03021KT 4000 -RA SCT005 BKN008 BKN020 15/14 Q1016 TEMPO 3000 RA RMK A3003 RA AMT 0.2MM
RCTP,2017-01-12 23:30,59.00,55.40,87.83,30.00,17.00,0.00,30.03,M,2.80,M,SCT,BKN,BKN,M,600.00,900.00,2000.00,M,-RA,M,M,M,M,M,M,59.00,RCTP 122330Z 03017KT 4500 -RA SCT006 BKN009 BKN020 15/13 Q1017 TEMPO 3000 RA RMK A3005
RCTP,2017-01-13 00:00,59.00,57.20,93.74,30.00,19.00,0.00,30.06,M,1.86,M,SCT,BKN,BKN,M,600.00,1000.00,2200.00,M,-RA,M,M,M,M,M,M,59.00,RCTP 130000Z 03019KT 3000 -RA SCT006 BKN010 BKN022 15/14 Q1018 NOSIG RMK A3007 RA AMT 0.6MM
RCTP,2017-01-13 00:13,59.00,57.20,93.74,30.00,19.00,0.00,30.06,M,2.49,M,SCT,BKN,OVC,M,500.00,800.00,1800.00,M,-RA,M,M,M,M,M,M,59.00,RCTP 130013Z 03019KT 4000 -RA SCT005 BKN008 OVC018 15/14 Q1018 NOSIG RMK A3007
RCTP,2017-01-13 00:30,59.00,57.20,93.74,20.00,19.00,0.00,30.06,M,2.80,M,SCT,BKN,OVC,M,500.00,700.00,1600.00,M,-RA,M,M,M,M,M,M,59.00,RCTP 130030Z 02019KT 4500 -RA SCT005 BKN007 OVC016 15/14 Q1018 NOSIG RMK A3007
RCTP,2017-01-13 01:00,59.00,55.40,87.83,40.00,19.00,0.00,30.06,M,2.36,M,SCT,BKN,OVC,M,400.00,700.00,1600.00,M,-RA,M,M,M,M,M,M,59.00,RCTP 130100Z 04019KT 3800 -RA SCT004 BKN007 OVC016 15/13 Q1018 NOSIG RMK A3008 RA AMT 1.2MM
RCTP,2017-01-13 01:22,57.20,55.40,93.69,30.00,17.00,0.00,30.09,M,3.73,M,SCT,BKN,OVC,M,400.00,700.00,1600.00,M,-RA,M,M,M,M,M,M,57.20,RCTP 130122Z 03017KT 6000 -RA SCT004 BKN007 OVC016 14/13 Q1019 NOSIG RMK A3009
RCTP,2017-01-13 01:56,57.20,55.40,93.69,30.00,17.00,0.00,30.09,M,2.49,M,SCT,BKN,OVC,M,400.00,600.00,1600.00,M,-RA,M,M,M,M,M,M,57.20,RCTP 130156Z 03017KT 4000 -RA SCT004 BKN006 OVC016 14/13 Q1019 NOSIG RMK A3010
RCTP,2017-01-13 02:00,57.20,55.40,93.69,30.00,17.00,0.00,30.09,M,2.36,M,SCT,BKN,OVC,M,400.00,600.00,1600.00,M,-RA,M,M,M,M,M,M,57.20,RCTP 130200Z 03017KT 3800 -RA SCT004 BKN006 OVC016 14/13 Q1019 NOSIG RMK A3010 RA AMT 1.6MM
RCTP,2017-01-13 02:13,57.20,55.40,93.69,30.00,19.00,0.00,30.09,M,1.86,M,SCT,BKN,OVC,M,300.00,500.00,1200.00,M,-RA,M,M,M,M,M,M,57.20,RCTP 130213Z 03019KT 3000 -RA SCT003 BKN005 OVC012 14/13 Q1019 NOSIG RMK A3009
RCTP,2017-01-13 02:30,57.20,55.40,93.69,30.00,19.00,0.00,30.06,M,2.17,M,SCT,BKN,OVC,M,400.00,600.00,1200.00,M,-RA,M,M,M,M,M,M,57.20,RCTP 130230Z 03019KT 3500 -RA SCT004 BKN006 OVC012 14/13 Q1018 NOSIG RMK A3008
RCTP,2017-01-13 03:00,57.20,55.40,93.69,30.00,17.00,0.00,30.06,M,2.49,M,SCT,BKN,OVC,M,400.00,600.00,1200.00,M,-RA,M,M,M,M,M,M,57.20,RCTP 130300Z 03017KT 4000 -RA SCT004 BKN006 OVC012 14/13 Q1018 NOSIG RMK A3007 RA AMT 2.2MM
RCTP,2017-01-13 03:30,57.20,57.20,100.00,30.00,17.00,0.00,30.06,M,2.49,M,SCT,BKN,OVC,M,400.00,600.00,1200.00,M,-RA,M,M,M,M,M,M,57.20,RCTP 130330Z 03017KT 4000 -RA SCT004 BKN006 OVC012 14/14 Q1018 NOSIG RMK A3006
RCTP,2017-01-13 04:00,59.00,57.20,93.74,40.00,16.00,0.00,30.03,M,2.49,M,SCT,BKN,OVC,M,400.00,600.00,1200.00,M,-RA,M,M,M,M,M,M,59.00,RCTP 130400Z 04016KT 4000 -RA SCT004 BKN006 OVC012 15/14 Q1017 NOSIG RMK A3004 RA AMT 1.6MM
RCTP,2017-01-13 04:30,57.20,57.20,100.00,30.00,16.00,0.00,30.00,M,2.49,M,SCT,BKN,OVC,M,300.00,500.00,1200.00,M,-RA,M,M,M,M,M,M,57.20,RCTP 130430Z 03016KT 4000 -RA SCT003 BKN005 OVC012 14/14 Q1016 NOSIG RMK A3003
RCTP,2017-01-13 04:48,57.20,57.20,100.00,30.00,16.00,0.00,30.00,M,1.86,M,SCT,BKN,OVC,M,300.00,500.00,1200.00,M,-RA,M,M,M,M,M,M,57.20,RCTP 130448Z 03016KT 3000 -RA SCT003 BKN005 OVC012 14/14 Q1016 NOSIG RMK A3002
RCTP,2017-01-13 05:00,59.00,57.20,93.74,30.00,16.00,0.00,30.00,M,1.86,M,SCT,BKN,OVC,M,300.00,500.00,1000.00,M,-RA,M,M,M,M,M,M,59.00,RCTP 130500Z 03016KT 3000 -RA SCT003 BKN005 OVC010 15/14 Q1016 NOSIG RMK A3002 RA AMT 1.2MM
RCTP,2017-01-13 05:30,57.20,57.20,100.00,30.00,17.00,0.00,30.00,M,1.86,M,SCT,BKN,OVC,M,300.00,500.00,1000.00,M,-RA,M,M,M,M,M,M,57.20,RCTP 130530Z 03017KT 3000 -RA SCT003 BKN005 OVC010 14/14 Q1016 NOSIG RMK A3002
RCTP,2017-01-13 05:42,59.00,57.20,93.74,30.00,17.00,0.00,30.00,M,1.55,M,SCT,BKN,OVC,M,300.00,500.00,1000.00,M,-RA,M,M,M,M,M,M,59.00,RCTP 130542Z 03017KT 2500 -RA SCT003 BKN005 OVC010 15/14 Q1016 NOSIG RMK A3002
RCTP,2017-01-13 06:00,59.00,57.20,93.74,30.00,19.00,0.00,30.00,M,1.55,M,SCT,BKN,OVC,M,300.00,500.00,1000.00,M,-RA,M,M,M,M,M,M,59.00,RCTP 130600Z 03019KT 2500 -RA SCT003 BKN005 OVC010 15/14 Q1016 NOSIG RMK A3001 RA AMT 1.2MM
RCTP,2017-01-13 06:05,57.20,57.20,100.00,30.00,18.00,0.00,30.00,M,1.12,M,SCT,BKN,OVC,M,200.00,300.00,800.00,M,-RA,M,M,M,M,M,M,57.20,RCTP 130605Z 03018KT 1800 -RA SCT002 BKN003 OVC008 14/14 Q1016 NOSIG RMK A3001
RCTP,2017-01-13 06:55,57.20,57.20,100.00,20.00,20.00,0.00,30.00,M,0.99,M,SCT,BKN,OVC,M,300.00,400.00,900.00,M,-RA BR,M,M,M,M,M,M,57.20,RCTP 130655Z 02020KT 1600 -RA BR SCT003 BKN004 OVC009 14/14 Q1016 NOSIG RMK A3002
RCTP,2017-01-13 07:00,57.20,57.20,100.00,20.00,20.00,0.00,30.00,M,0.99,M,SCT,BKN,OVC,M,300.00,400.00,900.00,M,-RA BR,M,M,M,M,M,M,57.20,RCTP 130700Z 02020KT 1600 -RA BR SCT003 BKN004 OVC009 14/14 Q1016 NOSIG RMK A3002 RA AMT 0.8MM
RCTP,2017-01-13 07:30,57.20,55.40,93.69,30.00,20.00,0.00,30.00,M,0.99,M,SCT,BKN,OVC,M,300.00,400.00,900.00,M,-RA BR,M,M,M,M,M,M,57.20,RCTP 130730Z 03020KT 1600 -RA BR SCT003 BKN004 OVC009 14/13 Q1016 NOSIG RMK A3002
RCTP,2017-01-13 08:00,57.20,55.40,93.69,30.00,20.00,0.00,30.00,M,1.12,M,SCT,BKN,OVC,M,200.00,300.00,900.00,M,-RA BR,M,M,M,M,M,M,57.20,RCTP 130800Z 03020KT 1800 -RA BR SCT002 BKN003 OVC009 14/13 Q1016 NOSIG RMK A3003 RA AMT 0.8MM
RCTP,2017-01-13 08:26,57.20,55.40,93.69,30.00,19.00,0.00,30.03,M,1.37,M,SCT,BKN,OVC,M,400.00,500.00,1200.00,M,-RA BR,M,M,M,M,M,M,57.20,RCTP 130826Z 03019KT 2200 -RA BR SCT004 BKN005 OVC012 14/13 Q1017 NOSIG RMK A3004
RCTP,2017-01-13 08:30,57.20,55.40,93.69,30.00,19.00,0.00,30.03,M,1.37,M,SCT,BKN,OVC,M,400.00,500.00,1200.00,M,-RA BR,M,M,M,M,M,M,57.20,RCTP 130830Z 03019KT 2200 -RA BR SCT004 BKN005 OVC012 14/13 Q1017 NOSIG RMK A3004
RCTP,2017-01-13 09:00,57.20,55.40,93.69,30.00,20.00,0.00,30.03,M,1.12,M,SCT,BKN,OVC,M,400.00,500.00,1200.00,M,-RA BR,M,M,M,M,M,M,57.20,RCTP 130900Z 03020KT 1800 -RA BR SCT004 BKN005 OVC012 14/13 Q1017 NOSIG RMK A3004 RA AMT 0.6MM
RCTP,2017-01-13 09:30,57.20,55.40,93.69,30.00,19.00,0.00,30.03,M,1.12,M,SCT,BKN,OVC,M,300.00,400.00,900.00,M,-RA BR,M,M,M,M,M,M,57.20,RCTP 130930Z 03019KT 1800 -RA BR SCT003 BKN004 OVC009 14/13 Q1017 NOSIG RMK A3005
RCTP,2017-01-13 09:52,57.20,55.40,93.69,30.00,20.00,0.00,30.03,M,1.37,M,SCT,BKN,OVC,M,400.00,600.00,1200.00,M,-RA BR,M,M,M,M,M,M,57.20,RCTP 130952Z 03020KT 2200 -RA BR SCT004 BKN006 OVC012 14/13 Q1017 NOSIG RMK A3005
RCTP,2017-01-13 10:00,57.20,55.40,93.69,30.00,19.00,0.00,30.06,M,1.37,M,SCT,BKN,OVC,M,400.00,600.00,1200.00,M,-RA BR,M,M,M,M,M,M,57.20,RCTP 131000Z 03019KT 2200 -RA BR SCT004 BKN006 OVC012 14/13 Q1018 NOSIG RMK A3006 RA AMT 0.4MM
RCTP,2017-01-13 10:30,57.20,55.40,93.69,40.00,19.00,0.00,30.06,M,1.37,M,SCT,BKN,OVC,M,400.00,600.00,1200.00,M,-RA BR,M,M,M,M,M,M,57.20,RCTP 131030Z 04019KT 2200 -RA BR SCT004 BKN006 OVC012 14/13 Q1018 NOSIG RMK A3006
RCTP,2017-01-13 11:00,57.20,55.40,93.69,50.00,19.00,0.00,30.06,M,1.37,M,SCT,BKN,OVC,M,400.00,600.00,1200.00,M,-RA BR,M,M,M,M,M,M,57.20,RCTP 131100Z 05019KT 2200 -RA BR SCT004 BKN006 OVC012 14/13 Q1018 NOSIG RMK A3007 RA AMT 1.0MM
RCTP,2017-01-13 11:30,57.20,55.40,93.69,50.00,18.00,0.00,30.06,M,1.74,M,SCT,BKN,OVC,M,400.00,600.00,1200.00,M,-RA BR,M,M,M,M,M,M,57.20,RCTP 131130Z 05018KT 2800 -RA BR SCT004 BKN006 OVC012 14/13 Q1018 NOSIG RMK A3006
RCTP,2017-01-13 12:00,57.20,55.40,93.69,50.00,19.00,0.00,30.06,M,1.37,M,SCT,BKN,OVC,M,400.00,600.00,1200.00,M,-RA BR,M,M,M,M,M,M,57.20,RCTP 131200Z 05019KT 2200 -RA BR SCT004 BKN006 OVC012 14/13 Q1018 NOSIG RMK A3007 RA AMT 0.8MM
RCTP,2017-01-13 12:30,57.20,55.40,93.69,50.00,20.00,0.00,30.06,M,1.37,M,SCT,BKN,OVC,M,400.00,600.00,1200.00,M,-RA BR,M,M,M,M,M,M,57.20,RCTP 131230Z 05020KT 2200 -RA BR SCT004 BKN006 OVC012 14/13 Q1018 NOSIG RMK A3007
RCTP,2017-01-13 13:00,57.20,55.40,93.69,50.00,19.00,0.00,30.06,M,1.55,M,SCT,BKN,OVC,M,400.00,700.00,1200.00,M,-RA BR,M,M,M,M,M,M,57.20,RCTP 131300Z 05019KT 2500 -RA BR SCT004 BKN007 OVC012 14/13 Q1018 NOSIG RMK A3007 RA AMT 0.4MM
RCTP,2017-01-13 13:30,57.20,57.20,100.00,40.00,21.00,0.00,30.09,M,1.55,M,SCT,BKN,OVC,M,400.00,700.00,1200.00,M,-RA BR,M,M,M,M,M,M,57.20,RCTP 131330Z 04021KT 2500 -RA BR SCT004 BKN007 OVC012 14/14 Q1019 NOSIG RMK A3009
RCTP,2017-01-13 14:00,57.20,55.40,93.69,40.00,21.00,0.00,30.09,M,1.37,M,SCT,BKN,OVC,M,400.00,600.00,1200.00,M,-RA BR,M,M,M,M,M,M,57.20,RCTP 131400Z 04021KT 2200 -RA BR SCT004 BKN006 OVC012 14/13 Q1019 NOSIG RMK A3009 RA AMT 0.2MM
RCTP,2017-01-13 14:30,57.20,55.40,93.69,40.00,22.00,0.00,30.09,M,1.86,M,SCT,BKN,OVC,M,400.00,700.00,1200.00,M,-RA BR,M,M,M,M,M,M,57.20,RCTP 131430Z 04022KT 3000 -RA BR SCT004 BKN007 OVC012 14/13 Q1019 NOSIG RMK A3009
RCTP,2017-01-13 15:00,57.20,55.40,93.69,50.00,22.00,0.00,30.09,M,1.86,M,SCT,BKN,OVC,M,400.00,800.00,1600.00,M,-RA,M,M,M,M,M,M,57.20,RCTP 131500Z 05022KT 3000 -RA SCT004 BKN008 OVC016 14/13 Q1019 TEMPO 5000 -RA SCT008 BKN012 BKN020 RMK A3009
RCTP,2017-01-13 15:25,57.20,55.40,93.69,50.00,22.00,0.00,30.09,M,2.49,M,SCT,BKN,OVC,M,600.00,1000.00,3000.00,M,-RA,M,M,M,M,M,M,57.20,RCTP 131525Z 05022KT 4000 -RA SCT006 BKN010 OVC030 14/13 Q1019 TEMPO 6000 -RA RMK A3009
RCTP,2017-01-13 15:30,57.20,55.40,93.69,40.00,22.00,0.00,30.09,M,2.80,M,SCT,BKN,OVC,M,600.00,1000.00,3000.00,M,-RA,M,M,M,M,M,M,57.20,RCTP 131530Z 04022KT 4500 -RA SCT006 BKN010 OVC030 14/13 Q1019 TEMPO 6000 -RA RMK A3009
RCTP,2017-01-13 16:00,59.00,55.40,87.83,50.00,21.00,0.00,30.06,M,2.17,M,SCT,BKN,OVC,M,600.00,1200.00,3000.00,M,-RA,M,M,M,M,M,M,59.00,RCTP 131600Z 05021KT 3500 -RA SCT006 BKN012 OVC030 15/13 Q1018 NOSIG RMK A3008 RA AMT 0.2MM
RCTP,2017-01-13 16:30,57.20,53.60,87.74,60.00,19.00,0.00,30.06,M,2.17,M,SCT,BKN,OVC,M,600.00,1200.00,3000.00,M,-RA,M,M,M,M,M,M,57.20,RCTP 131630Z 06019KT 3500 -RA SCT006 BKN012 OVC030 14/12 Q1018 NOSIG RMK A3008
RCTP,2017-01-13 17:00,57.20,53.60,87.74,60.00,18.00,0.00,30.06,M,2.49,M,SCT,SCT,BKN,M,600.00,1200.00,3000.00,M,-RA,M,M,M,M,M,M,57.20,RCTP 131700Z 06018KT 4000 -RA SCT006 SCT012 BKN030 14/12 Q1018 NOSIG RMK A3007 RA AMT 0.6MM
RCTP,2017-01-13 17:30,57.20,53.60,87.74,60.00,18.00,0.00,30.06,M,2.17,M,SCT,SCT,BKN,M,600.00,1200.00,3500.00,M,-RA,M,M,M,M,M,M,57.20,RCTP 131730Z 06018KT 3500 -RA SCT006 SCT012 BKN035 14/12 Q1018 NOSIG RMK A3007
RCTP,2017-01-13 18:00,57.20,53.60,87.74,60.00,19.00,0.00,30.06,M,2.17,M,SCT,SCT,BKN,M,600.00,1200.00,3500.00,M,-RA,M,M,M,M,M,M,57.20,RCTP 131800Z 06019KT 3500 -RA SCT006 SCT012 BKN035 14/12 Q1018 NOSIG RMK A3007 RA AMT 0.8MM
RCTP,2017-01-13 18:43,57.20,53.60,87.74,50.00,23.00,0.00,30.09,M,1.55,M,SCT,SCT,BKN,M,600.00,1200.00,3500.00,M,-RA,M,M,M,M,M,M,57.20,RCTP 131843Z 05023KT 2500 -RA SCT006 SCT012 BKN035 14/12 Q1019 WS ALL RWY NOSIG RMK A3009
RCTP,2017-01-13 19:00,55.40,53.60,93.65,40.00,23.00,0.00,30.09,M,1.55,M,SCT,SCT,BKN,M,800.00,1200.00,3500.00,M,-RA,M,M,M,M,M,M,55.40,RCTP 131900Z 04023KT 2500 -RA SCT008 SCT012 BKN035 13/12 Q1019 WS ALL RWY NOSIG RMK A3009 RA AMT 1.4MM
RCTP,2017-01-13 19:30,55.40,53.60,93.65,40.00,22.00,0.00,30.09,M,1.99,M,SCT,SCT,BKN,M,800.00,1200.00,3500.00,M,-RA,M,M,M,M,M,M,55.40,RCTP 131930Z 04022KT 3200 -RA SCT008 SCT012 BKN035 13/12 Q1019 NOSIG RMK A3009
RCTP,2017-01-13 20:00,55.40,51.80,87.65,50.00,25.00,0.00,30.09,M,1.55,M,SCT,SCT,BKN,M,800.00,1200.00,3500.00,M,-RA,M,M,M,M,M,M,55.40,RCTP 132000Z 05025KT 2500 -RA SCT008 SCT012 BKN035 13/11 Q1019 NOSIG RMK A3010 RA AMT 0.6MM
RCTP,2017-01-13 20:30,55.40,51.80,87.65,50.00,21.00,0.00,30.09,M,1.55,M,SCT,SCT,BKN,M,800.00,1200.00,3500.00,M,-RA,M,M,M,M,M,M,55.40,RCTP 132030Z 05021KT 2500 -RA SCT008 SCT012 BKN035 13/11 Q1019 NOSIG RMK A3011
RCTP,2017-01-13 21:00,55.40,51.80,87.65,50.00,22.00,0.00,30.09,M,1.55,M,SCT,SCT,BKN,M,800.00,1200.00,3500.00,M,-RA,M,M,M,M,M,M,55.40,RCTP 132100Z 05022KT 2500 -RA SCT008 SCT012 BKN035 13/11 Q1019 NOSIG RMK A3011 RA AMT 1.8MM
RCTP,2017-01-13 21:30,55.40,51.80,87.65,50.00,23.00,0.00,30.12,M,2.17,39.00,FEW,SCT,OVC,M,800.00,1200.00,3500.00,M,-RA,M,M,M,M,M,M,55.40,RCTP 132130Z 05023G39KT 3500 -RA FEW008 SCT012 OVC035 13/11 Q1020 NOSIG RMK A3012
RCTP,2017-01-13 22:00,53.60,51.80,93.60,50.00,23.00,0.00,30.12,M,1.55,M,FEW,BKN,OVC,M,800.00,1200.00,3500.00,M,-RA,M,M,M,M,M,M,53.60,RCTP 132200Z 05023KT 2500 -RA FEW008 BKN012 OVC035 12/11 Q1020 NOSIG RMK A3012 RA AMT 0.4MM
RCTP,2017-01-13 22:30,55.40,51.80,87.65,50.00,23.00,0.00,30.12,M,1.55,M,FEW,BKN,OVC,M,800.00,1200.00,3500.00,M,-RA,M,M,M,M,M,M,55.40,RCTP 132230Z 05023KT 2500 -RA FEW008 BKN012 OVC035 13/11 Q1020 NOSIG RMK A3012
RCTP,2017-01-13 22:46,53.60,51.80,93.60,50.00,23.00,0.00,30.12,M,2.80,M,FEW,BKN,OVC,M,1200.00,1500.00,2500.00,M,-RA,M,M,M,M,M,M,53.60,RCTP 132246Z 05023KT 4500 -RA FEW012 BKN015 OVC025 12/11 Q1020 NOSIG RMK A3013
RCTP,2017-01-13 23:00,55.40,51.80,87.65,40.00,21.00,0.00,30.12,M,2.80,M,SCT,BKN,OVC,M,1000.00,1500.00,2500.00,M,-RA,M,M,M,M,M,M,55.40,RCTP 132300Z 04021KT 4500 -RA SCT010 BKN015 OVC025 13/11 Q1020 NOSIG RMK A3014 RA AMT 0.2MM
RCTP,2017-01-13 23:06,55.40,51.80,87.65,40.00,24.00,0.00,30.15,M,3.11,M,SCT,BKN,OVC,M,900.00,1200.00,2000.00,M,-RA,M,M,M,M,M,M,55.40,RCTP 132306Z 04024KT 5000 -RA SCT009 BKN012 OVC020 13/11 Q1021 NOSIG RMK A3015
RCTP,2017-01-13 23:30,53.60,51.80,93.60,50.00,23.00,0.00,30.15,M,2.17,M,SCT,BKN,OVC,M,900.00,1200.00,2000.00,M,-RA BR,M,M,M,M,M,M,53.60,RCTP 132330Z 05023KT 3500 -RA BR SCT009 BKN012 OVC020 12/11 Q1021 NOSIG RMK A3015
RCTP,2017-01-14 00:00,55.40,51.80,87.65,50.00,23.00,0.00,30.15,M,2.80,M,SCT,BKN,OVC,M,1000.00,1500.00,3500.00,M,-RA BR,M,M,M,M,M,M,55.40,RCTP 140000Z 05023KT 4500 -RA BR SCT010 BKN015 OVC035 13/11 Q1021 NOSIG RMK A3016 RA AMT 0.8MM
RCTP,2017-01-14 00:30,55.40,53.60,93.65,60.00,19.00,0.00,30.15,M,2.80,M,SCT,BKN,BKN,M,700.00,900.00,2500.00,M,-RA BR,M,M,M,M,M,M,55.40,RCTP 140030Z 06019KT 4500 -RA BR SCT007 BKN009 BKN025 13/12 Q1021 NOSIG RMK A3017
RCTP,2017-01-14 01:00,55.40,51.80,87.65,60.00,18.00,0.00,30.18,M,2.80,28.00,SCT,BKN,BKN,M,900.00,1300.00,2500.00,M,-RA BR,M,M,M,M,M,M,55.40,RCTP 140100Z 06018G28KT 4500 -RA BR SCT009 BKN013 BKN025 13/11 Q1022 NOSIG RMK A3019 RA AMT 0.8MM
RCTP,2017-01-14 01:26,55.40,51.80,87.65,70.00,16.00,0.00,30.18,M,4.97,M,SCT,BKN,BKN,M,1200.00,3000.00,5000.00,M,-RA,M,M,M,M,M,M,55.40,RCTP 140126Z 07016KT 8000 -RA SCT012 BKN030 BKN050 13/11 Q1022 NOSIG RMK A3019
RCTP,2017-01-14 01:30,55.40,51.80,87.65,70.00,16.00,0.00,30.18,M,4.97,M,SCT,BKN,BKN,M,1200.00,3000.00,5000.00,M,-RA,M,M,M,M,M,M,55.40,RCTP 140130Z 07016KT 8000 -RA SCT012 BKN030 BKN050 13/11 Q1022 NOSIG RMK A3019
RCTP,2017-01-14 02:00,57.20,51.80,82.12,70.00,16.00,0.00,30.18,M,4.97,M,SCT,SCT,BKN,M,1200.00,3500.00,5000.00,M,-RA,M,M,M,M,M,M,57.20,RCTP 140200Z 07016KT 8000 -RA SCT012 SCT035 BKN050 14/11 Q1022 NOSIG RMK A3018 RA AMT 0.2MM
RCTP,2017-01-14 02:30,57.20,51.80,82.12,70.00,13.00,0.00,30.15,M,6.21,M,SCT,BKN,BKN,M,1200.00,2200.00,5000.00,M,-RA,M,M,M,M,M,M,57.20,RCTP 140230Z 07013KT 9999 -RA SCT012 BKN022 BKN050 14/11 Q1021 NOSIG RMK A3017
RCTP,2017-01-14 02:34,57.20,51.80,82.12,60.00,14.00,0.00,30.15,M,6.21,M,SCT,BKN,BKN,M,1200.00,1800.00,2500.00,M,-RA,M,M,M,M,M,M,57.20,RCTP 140234Z 06014KT 9999 -RA SCT012 BKN018 BKN025 14/11 Q1021 WS ALL RWY NOSIG RMK A3017
RCTP,2017-01-14 02:53,57.20,53.60,87.74,60.00,20.00,0.00,30.15,M,4.97,M,SCT,BKN,BKN,M,1000.00,1400.00,2500.00,M,-RA,M,M,M,M,M,M,57.20,RCTP 140253Z 06020KT 8000 -RA SCT010 BKN014 BKN025 14/12 Q1021 WS ALL RWY NOSIG RMK A3017
RCTP,2017-01-14 03:00,57.20,53.60,87.74,60.00,21.00,0.00,30.15,M,4.97,M,SCT,BKN,BKN,M,1000.00,1400.00,2500.00,M,-RA,M,M,M,M,M,M,57.20,RCTP 140300Z 06021KT 8000 -RA SCT010 BKN014 BKN025 14/12 Q1021 WS ALL RWY NOSIG RMK A3017
RCTP,2017-01-14 03:30,57.20,53.60,87.74,50.00,18.00,0.00,30.15,M,4.97,30.00,SCT,BKN,BKN,M,1000.00,1400.00,2500.00,M,-RA,M,M,M,M,M,M,57.20,RCTP 140330Z 05018G30KT 8000 -RA SCT010 BKN014 BKN025 14/12 Q1021 WS ALL RWY NOSIG RMK A3015
RCTP,2017-01-14 04:00,57.20,53.60,87.74,50.00,23.00,0.00,30.12,M,4.97,M,SCT,BKN,BKN,M,1000.00,1500.00,2500.00,M,-RA,M,M,M,M,M,M,57.20,RCTP 140400Z 05023KT 8000 -RA SCT010 BKN015 BKN025 14/12 Q1020 NOSIG RMK A3014
RCTP,2017-01-14 04:30,59.00,51.80,76.98,60.00,21.00,0.00,30.12,M,4.97,M,FEW,BKN,BKN,M,1200.00,2500.00,3500.00,M,M,M,M,M,M,M,M,59.00,RCTP 140430Z 06021KT 8000 FEW012 BKN025 BKN035 15/11 Q1020 NOSIG RMK A3012
RCTP,2017-01-14 05:00,59.00,51.80,76.98,60.00,22.00,0.00,30.09,M,4.35,M,FEW,BKN,BKN,M,1200.00,2200.00,3500.00,M,M,M,M,M,M,M,M,59.00,RCTP 140500Z 06022KT 7000 FEW012 BKN022 BKN035 15/11 Q1019 NOSIG RMK A3011
RCTP,2017-01-14 06:00,59.00,51.80,76.98,50.00,21.00,0.00,30.09,M,4.97,M,FEW,BKN,BKN,M,1200.00,2300.00,3000.00,M,M,M,M,M,M,M,M,59.00,RCTP 140600Z 05021KT 8000 FEW012 BKN023 BKN030 15/11 Q1019 NOSIG RMK A3010
RCTP,2017-01-14 06:30,59.00,51.80,76.98,60.00,20.00,0.00,30.09,M,5.59,M,FEW,OVC,M,M,1200.00,2600.00,M,M,M,M,M,M,M,M,M,59.00,RCTP 140630Z 06020KT 9000 FEW012 OVC026 15/11 Q1019 NOSIG RMK A3009
RCTP,2017-01-14 07:00,60.80,50.00,67.54,60.00,19.00,0.00,30.09,M,5.59,M,FEW,OVC,M,M,1200.00,3000.00,M,M,M,M,M,M,M,M,M,60.80,RCTP 140700Z 06019KT 9000 FEW012 OVC030 16/10 Q1019 NOSIG RMK A3010
RCTP,2017-01-14 07:30,60.80,50.00,67.54,60.00,19.00,0.00,30.09,M,5.59,M,FEW,BKN,M,M,1200.00,3000.00,M,M,M,M,M,M,M,M,M,60.80,RCTP 140730Z 06019KT 9000 FEW012 BKN030 16/10 Q1019 NOSIG RMK A3010
RCTP,2017-01-14 08:00,60.80,51.80,72.20,50.00,23.00,0.00,30.09,M,4.35,M,FEW,BKN,M,M,1200.00,3200.00,M,M,M,M,M,M,M,M,M,60.80,RCTP 140800Z 05023KT 7000 FEW012 BKN032 16/11 Q1019 NOSIG RMK A3010
RCTP,2017-01-14 08:30,60.80,50.00,67.54,50.00,23.00,0.00,30.09,M,4.97,M,FEW,BKN,M,M,1500.00,3200.00,M,M,M,M,M,M,M,M,M,60.80,RCTP 140830Z 05023KT 8000 FEW015 BKN032 16/10 Q1019 NOSIG RMK A3011
RCTP,2017-01-14 09:00,59.00,50.00,72.01,60.00,22.00,0.00,30.12,M,4.97,M,FEW,BKN,M,M,1500.00,3400.00,M,M,M,M,M,M,M,M,M,59.00,RCTP 140900Z 06022KT 8000 FEW015 BKN034 15/10 Q1020 NOSIG RMK A3012
RCTP,2017-01-14 09:30,59.00,50.00,72.01,60.00,22.00,0.00,30.12,M,4.97,34.00,FEW,BKN,M,M,1500.00,3400.00,M,M,M,M,M,M,M,M,M,59.00,RCTP 140930Z 06022G34KT 8000 FEW015 BKN034 15/10 Q1020 NOSIG RMK A3012
RCTP,2017-01-14 10:00,59.00,50.00,72.01,60.00,21.00,0.00,30.12,M,5.59,M,FEW,BKN,M,M,1500.00,3600.00,M,M,M,M,M,M,M,M,M,59.00,RCTP 141000Z 06021KT 9000 FEW015 BKN036 15/10 Q1020 NOSIG RMK A3013
RCTP,2017-01-14 10:30,59.00,50.00,72.01,60.00,18.00,0.00,30.12,M,5.59,M,FEW,BKN,M,M,1500.00,4000.00,M,M,M,M,M,M,M,M,M,59.00,RCTP 141030Z 06018KT 9000 FEW015 BKN040 15/10 Q1020 NOSIG RMK A3014
RCTP,2017-01-14 11:00,60.80,50.00,67.54,60.00,20.00,0.00,30.15,M,5.59,M,FEW,BKN,M,M,1500.00,3500.00,M,M,M,M,M,M,M,M,M,60.80,RCTP 141100Z 06020KT 9000 FEW015 BKN035 16/10 Q1021 NOSIG RMK A3015
RCTP,2017-01-14 11:30,59.00,51.80,76.98,60.00,21.00,0.00,30.15,M,5.59,31.00,FEW,BKN,M,M,1500.00,3500.00,M,M,M,M,M,M,M,M,M,59.00,RCTP 141130Z 06021G31KT 9000 FEW015 BKN035 15/11 Q1021 NOSIG RMK A3016
RCTP,2017-01-14 11:47,59.00,51.80,76.98,50.00,21.00,0.00,30.15,M,5.59,31.00,FEW,BKN,BKN,M,1500.00,2500.00,3500.00,M,M,M,M,M,M,M,M,59.00,RCTP 141147Z 05021G31KT 9000 FEW015 BKN025 BKN035 15/11 Q1021 WS ALL RWY NOSIG RMK A3017
RCTP,2017-01-14 12:00,59.00,51.80,76.98,50.00,20.00,0.00,30.15,M,5.59,M,FEW,BKN,BKN,M,1500.00,2500.00,3500.00,M,M,M,M,M,M,M,M,59.00,RCTP 141200Z 05020KT 9000 FEW015 BKN025 BKN035 15/11 Q1021 WS ALL RWY NOSIG RMK A3017
RCTP,2017-01-14 12:30,59.00,50.00,72.01,50.00,23.00,0.00,30.18,M,5.59,M,FEW,BKN,BKN,M,1500.00,2500.00,3500.00,M,M,M,M,M,M,M,M,59.00,RCTP 141230Z 05023KT 9000 FEW015 BKN025 BKN035 15/10 Q1022 NOSIG RMK A3018
RCTP,2017-01-14 12:51,59.00,51.80,76.98,60.00,21.00,0.00,30.18,M,5.59,M,FEW,BKN,BKN,M,1500.00,2500.00,3500.00,M,M,M,M,M,M,M,M,59.00,RCTP 141251Z 06021KT 9000 FEW015 BKN025 BKN035 15/11 Q1022 WS ALL RWY NOSIG RMK A3019
RCTP,2017-01-14 13:00,59.00,51.80,76.98,60.00,21.00,0.00,30.18,M,5.59,M,FEW,BKN,BKN,M,1500.00,2500.00,3500.00,M,M,M,M,M,M,M,M,59.00,RCTP 141300Z 06021KT 9000 FEW015 BKN025 BKN035 15/11 Q1022 WS ALL RWY NOSIG RMK A3019
RCTP,2017-01-14 13:30,59.00,51.80,76.98,60.00,21.00,0.00,30.18,M,5.59,M,FEW,BKN,BKN,M,1500.00,2200.00,3500.00,M,M,M,M,M,M,M,M,59.00,RCTP 141330Z 06021KT 9000 FEW015 BKN022 BKN035 15/11 Q1022 WS ALL RWY NOSIG RMK A3019
RCTP,2017-01-14 14:00,57.20,51.80,82.12,60.00,22.00,0.00,30.18,M,5.59,33.00,FEW,BKN,BKN,M,1500.00,2200.00,3000.00,M,M,M,M,M,M,M,M,57.20,RCTP 141400Z 06022G33KT 9000 FEW015 BKN022 BKN030 14/11 Q1022 NOSIG RMK A3019
RCTP,2017-01-14 14:30,57.20,51.80,82.12,50.00,25.00,0.00,30.18,M,6.21,35.00,FEW,BKN,BKN,M,1500.00,2500.00,3500.00,M,M,M,M,M,M,M,M,57.20,RCTP 141430Z 05025G35KT 9999 FEW015 BKN025 BKN035 14/11 Q1022 NOSIG RMK A3019
RCTP,2017-01-14 15:00,57.20,51.80,82.12,60.00,22.00,0.00,30.18,M,6.21,M,FEW,BKN,BKN,M,1500.00,2800.00,5000.00,M,M,M,M,M,M,M,M,57.20,RCTP 141500Z 06022KT 9999 FEW015 BKN028 BKN050 14/11 Q1022 NOSIG RMK A3018
RCTP,2017-01-14 15:26,57.20,51.80,82.12,60.00,20.00,0.00,30.18,M,5.59,M,FEW,BKN,BKN,M,1500.00,2500.00,4500.00,M,-RA,M,M,M,M,M,M,57.20,RCTP 141526Z 06020KT 9000 -RA FEW015 BKN025 BKN045 14/11 Q1022 NOSIG RMK A3019
RCTP,2017-01-14 15:30,57.20,51.80,82.12,60.00,21.00,0.00,30.18,M,5.59,M,FEW,FEW,BKN,BKN,1200.00,1500.00,2500.00,3500.00,-RA,M,M,M,M,M,M,57.20,RCTP 141530Z 06021KT 9000 -RA FEW012 FEW015TCU BKN025 BKN035 14/11 Q1022 NOSIG RMK TCU SE A3019
RCTP,2017-01-14 16:30,57.20,50.00,76.82,60.00,15.00,0.00,30.18,M,5.59,M,FEW,BKN,BKN,M,1200.00,3000.00,6000.00,M,M,M,M,M,M,M,M,57.20,RCTP 141630Z 06015KT 9000 FEW012 BKN030 BKN060 14/10 Q1022 NOSIG RMK A3018
RCTP,2017-01-14 17:00,57.20,50.00,76.82,70.00,12.00,0.00,30.15,M,6.21,M,FEW,SCT,BKN,M,1200.00,3500.00,6000.00,M,M,M,M,M,M,M,M,57.20,RCTP 141700Z 07012KT 9999 FEW012 SCT035 BKN060 14/10 Q1021 NOSIG RMK A3017
RCTP,2017-01-14 17:30,57.20,50.00,76.82,70.00,10.00,0.00,30.18,M,6.21,M,FEW,SCT,BKN,M,1200.00,3500.00,6000.00,M,M,M,M,M,M,M,M,57.20,RCTP 141730Z 07010KT 9999 FEW012 SCT035 BKN060 14/10 Q1022 NOSIG RMK A3018
RCTP,2017-01-14 18:00,57.20,50.00,76.82,70.00,11.00,0.00,30.18,M,6.21,M,FEW,SCT,BKN,M,1200.00,4000.00,7000.00,M,M,M,M,M,M,M,M,57.20,RCTP 141800Z 07011KT 9999 FEW012 SCT040 BKN070 14/10 Q1022 NOSIG RMK A3018
RCTP,2017-01-14 18:30,59.00,50.00,72.01,80.00,11.00,0.00,30.18,M,6.21,M,FEW,BKN,BKN,M,1500.00,4000.00,7000.00,M,M,M,M,M,M,M,M,59.00,RCTP 141830Z 08011KT 9999 FEW015 BKN040 BKN070 15/10 Q1022 NOSIG RMK A3018
RCTP,2017-01-14 19:00,59.00,50.00,72.01,80.00,11.00,0.00,30.15,M,6.21,M,FEW,BKN,M,M,1500.00,4000.00,M,M,M,M,M,M,M,M,M,59.00,RCTP 141900Z 08011KT 050V110 9999 FEW015 BKN040 15/10 Q1021 NOSIG RMK A3017
RCTP,2017-01-14 19:30,59.00,50.00,72.01,70.00,13.00,0.00,30.18,M,6.21,M,FEW,BKN,M,M,1500.00,4000.00,M,M,M,M,M,M,M,M,M,59.00,RCTP 141930Z 07013KT 9999 FEW015 BKN040 15/10 Q1022 NOSIG RMK A3018
RCTP,2017-01-14 20:00,59.00,50.00,72.01,70.00,12.00,0.00,30.15,M,6.21,M,FEW,BKN,BKN,M,1500.00,4000.00,6000.00,M,M,M,M,M,M,M,M,59.00,RCTP 142000Z 07012KT 9999 FEW015 BKN040 BKN060 15/10 Q1021 NOSIG RMK A3017
RCTP,2017-01-14 20:20,59.00,50.00,72.01,60.00,19.00,0.00,30.15,M,6.21,31.00,FEW,SCT,BKN,M,1500.00,3000.00,4000.00,M,M,M,M,M,M,M,M,59.00,RCTP 142020Z 06019G31KT 9999 FEW015 SCT030 BKN040 15/10 Q1021 WS ALL RWY NOSIG RMK A3017
RCTP,2017-01-14 20:30,59.00,50.00,72.01,60.00,21.00,0.00,30.15,M,6.21,31.00,FEW,SCT,BKN,M,1500.00,3000.00,4000.00,M,M,M,M,M,M,M,M,59.00,RCTP 142030Z 06021G31KT 9999 FEW015 SCT030 BKN040 15/10 Q1021 WS ALL RWY NOSIG RMK A3017
RCTP,2017-01-14 20:55,57.20,50.00,76.82,60.00,24.00,0.00,30.15,M,6.21,M,FEW,BKN,BKN,M,1500.00,2400.00,3800.00,M,-DZ,M,M,M,M,M,M,57.20,RCTP 142055Z 06024KT 9999 -DZ FEW015 BKN024 BKN038 14/10 Q1021 WS ALL RWY NOSIG RMK A3017
RCTP,2017-01-14 21:00,57.20,50.00,76.82,70.00,23.00,0.00,30.15,M,6.21,33.00,FEW,BKN,BKN,M,1500.00,2400.00,3800.00,M,-DZ,M,M,M,M,M,M,57.20,RCTP 142100Z 07023G33KT 9999 -DZ FEW015 BKN024 BKN038 14/10 Q1021 WS ALL RWY NOSIG RMK A3017
RCTP,2017-01-14 21:30,57.20,48.20,71.83,60.00,19.00,0.00,30.18,M,6.21,M,FEW,BKN,BKN,M,1500.00,3000.00,5000.00,M,M,M,M,M,M,M,M,57.20,RCTP 142130Z 06019KT 9999 FEW015 BKN030 BKN050 14/09 Q1022 NOSIG RMK A3019
RCTP,2017-01-14 22:00,57.20,50.00,76.82,50.00,23.00,0.00,30.18,M,6.21,M,FEW,SCT,BKN,M,1500.00,3000.00,4500.00,M,M,M,M,M,M,M,M,57.20,RCTP 142200Z 05023KT 9999 FEW015 SCT030 BKN045 14/10 Q1022 NOSIG RMK A3018
RCTP,2017-01-14 22:30,57.20,51.80,82.12,70.00,21.00,0.00,30.15,M,6.21,M,FEW,SCT,BKN,M,1500.00,3000.00,5000.00,M,M,M,M,M,M,M,M,57.20,RCTP 142230Z 07021KT 9999 FEW015 SCT030 BKN050 14/11 Q1021 NOSIG RMK A3016
RCTP,2017-01-14 22:57,57.20,51.80,82.12,70.00,11.00,0.00,30.18,M,6.21,M,FEW,BKN,BKN,M,1500.00,2500.00,5000.00,M,M,M,M,M,M,M,M,57.20,RCTP 142257Z 07011KT 9999 FEW015 BKN025 BKN050 14/11 Q1022 WS ALL RWY NOSIG RMK A3019
RCTP,2017-01-14 23:00,57.20,51.80,82.12,70.00,11.00,0.00,30.18,M,6.21,M,FEW,BKN,BKN,M,1500.00,2500.00,5000.00,M,M,M,M,M,M,M,M,57.20,RCTP 142300Z 07011KT 9999 FEW015 BKN025 BKN050 14/11 Q1022 WS ALL RWY NOSIG RMK A3019
RCTP,2017-01-14 23:30,57.20,51.80,82.12,50.00,16.00,0.00,30.21,M,6.21,M,FEW,BKN,M,M,1500.00,2500.00,M,M,M,M,M,M,M,M,M,57.20,RCTP 142330Z 05016KT 030V090 9999 FEW015 BKN025 14/11 Q1023 WS ALL RWY NOSIG RMK A3021
RCTP,2017-01-15 00:00,59.00,51.80,76.98,60.00,21.00,0.00,30.18,M,6.21,M,FEW,BKN,BKN,M,1500.00,2000.00,2600.00,M,M,M,M,M,M,M,M,59.00,RCTP 150000Z 06021KT 9999 FEW015 BKN020 BKN026 15/11 Q1022 NOSIG RMK A3020
RCTP,2017-01-15 00:30,59.00,51.80,76.98,50.00,22.00,0.00,30.21,M,6.21,M,FEW,BKN,BKN,M,1500.00,2500.00,3500.00,M,M,M,M,M,M,M,M,59.00,RCTP 150030Z 05022KT 9999 FEW015 BKN025 BKN035 15/11 Q1023 NOSIG RMK A3022
RCTP,2017-01-15 01:00,59.00,50.00,72.01,60.00,20.00,0.00,30.21,M,6.21,M,FEW,BKN,BKN,M,1500.00,2500.00,3500.00,M,M,M,M,M,M,M,M,59.00,RCTP 150100Z 06020KT 9999 FEW015 BKN025 BKN035 15/10 Q1023 NOSIG RMK A3023
RCTP,2017-01-15 02:00,59.00,50.00,72.01,60.00,16.00,0.00,30.21,M,6.21,M,FEW,BKN,BKN,M,1500.00,3000.00,4000.00,M,M,M,M,M,M,M,M,59.00,RCTP 150200Z 06016KT 9999 FEW015 BKN030 BKN040 15/10 Q1023 NOSIG RMK A3022
RCTP,2017-01-15 02:30,59.00,50.00,72.01,60.00,19.00,0.00,30.21,M,6.21,M,FEW,BKN,BKN,M,1500.00,3000.00,4000.00,M,M,M,M,M,M,M,M,59.00,RCTP 150230Z 06019KT 9999 FEW015 BKN030 BKN040 15/10 Q1023 NOSIG RMK A3022
RCTP,2017-01-15 03:00,60.80,51.80,72.20,50.00,22.00,0.00,30.21,M,6.21,M,FEW,BKN,BKN,M,1500.00,3000.00,4000.00,M,M,M,M,M,M,M,M,60.80,RCTP 150300Z 05022KT 9999 FEW015 BKN030 BKN040 16/11 Q1023 NOSIG RMK A3021
RCTP,2017-01-15 03:30,59.00,51.80,76.98,50.00,24.00,0.00,30.18,M,6.21,M,FEW,BKN,BKN,M,1500.00,2500.00,3500.00,M,M,M,M,M,M,M,M,59.00,RCTP 150330Z 05024KT 9999 FEW015 BKN025 BKN035 15/11 Q1022 NOSIG RMK A3020
RCTP,2017-01-15 04:00,59.00,53.60,82.25,50.00,23.00,0.00,30.18,M,6.21,M,FEW,BKN,BKN,M,1500.00,2500.00,4000.00,M,M,M,M,M,M,M,M,59.00,RCTP 150400Z 05023KT 9999 FEW015 BKN025 BKN040 15/12 Q1022 NOSIG RMK A3019
RCTP,2017-01-15 04:30,59.00,51.80,76.98,50.00,23.00,0.00,30.15,M,6.21,M,FEW,BKN,BKN,M,1500.00,2500.00,4000.00,M,M,M,M,M,M,M,M,59.00,RCTP 150430Z 05023KT 9999 FEW015 BKN025 BKN040 15/11 Q1021 NOSIG RMK A3017
RCTP,2017-01-15 05:00,59.00,51.80,76.98,50.00,23.00,0.00,30.15,M,6.21,M,FEW,BKN,BKN,M,1500.00,2500.00,3500.00,M,M,M,M,M,M,M,M,59.00,RCTP 150500Z 05023KT 9999 FEW015 BKN025 BKN035 15/11 Q1021 NOSIG RMK A3016
RCTP,2017-01-15 05:30,59.00,51.80,76.98,50.00,22.00,0.00,30.12,M,6.21,M,FEW,BKN,BKN,M,1500.00,2500.00,3500.00,M,M,M,M,M,M,M,M,59.00,RCTP 150530Z 05022KT 9999 FEW015 BKN025 BKN035 15/11 Q1020 NOSIG RMK A3014
RCTP,2017-01-15 06:00,59.00,51.80,76.98,40.00,23.00,0.00,30.15,M,6.21,M,FEW,BKN,BKN,M,1500.00,2500.00,3500.00,M,M,M,M,M,M,M,M,59.00,RCTP 150600Z 04023KT 9999 FEW015 BKN025 BKN035 15/11 Q1021 NOSIG RMK A3015
RCTP,2017-01-15 06:30,57.20,53.60,87.74,50.00,22.00,0.00,30.15,M,6.21,M,FEW,BKN,BKN,M,1200.00,2500.00,3500.00,M,M,M,M,M,M,M,M,57.20,RCTP 150630Z 05022KT 9999 FEW012 BKN025 BKN035 14/12 Q1021 NOSIG RMK A3015
RCTP,2017-01-15 07:00,57.20,51.80,82.12,50.00,23.00,0.00,30.15,M,6.21,M,FEW,BKN,BKN,M,1400.00,2500.00,3500.00,M,M,M,M,M,M,M,M,57.20,RCTP 150700Z 05023KT 9999 FEW014 BKN025 BKN035 14/11 Q1021 NOSIG RMK A3015
RCTP,2017-01-15 07:30,57.20,51.80,82.12,50.00,20.00,0.00,30.15,M,6.21,M,FEW,BKN,BKN,M,1400.00,2500.00,3500.00,M,M,M,M,M,M,M,M,57.20,RCTP 150730Z 05020KT 9999 FEW014 BKN025 BKN035 14/11 Q1021 NOSIG RMK A3016
RCTP,2017-01-15 08:00,57.20,51.80,82.12,50.00,22.00,0.00,30.15,M,6.21,M,SCT,BKN,BKN,M,1400.00,2500.00,3500.00,M,M,M,M,M,M,M,M,57.20,RCTP 150800Z 05022KT 9999 SCT014 BKN025 BKN035 14/11 Q1021 NOSIG RMK A3016
RCTP,2017-01-15 08:30,57.20,53.60,87.74,50.00,20.00,0.00,30.15,M,6.21,M,FEW,BKN,BKN,M,1400.00,2500.00,3500.00,M,M,M,M,M,M,M,M,57.20,RCTP 150830Z 05020KT 9999 FEW014 BKN025 BKN035 14/12 Q1021 NOSIG RMK A3016
RCTP,2017-01-15 09:00,59.00,51.80,76.98,60.00,19.00,0.00,30.15,M,6.21,M,FEW,BKN,BKN,M,1400.00,2200.00,3200.00,M,M,M,M,M,M,M,M,59.00,RCTP 150900Z 06019KT 9999 FEW014 BKN022 BKN032 15/11 Q1021 NOSIG RMK A3016
RCTP,2017-01-15 09:30,57.20,51.80,82.12,50.00,18.00,0.00,30.15,M,6.21,M,FEW,BKN,BKN,M,1500.00,2800.00,5000.00,M,M,M,M,M,M,M,M,57.20,RCTP 150930Z 05018KT 9999 FEW015 BKN028 BKN050 14/11 Q1021 NOSIG RMK A3017
RCTP,2017-01-15 10:00,57.20,51.80,82.12,50.00,17.00,0.00,30.15,M,6.21,M,FEW,SCT,BKN,M,1500.00,2800.00,5000.00,M,M,M,M,M,M,M,M,57.20,RCTP 151000Z 05017KT 9999 FEW015 SCT028 BKN050 14/11 Q1021 NOSIG RMK A3017
RCTP,2017-01-15 10:30,57.20,51.80,82.12,50.00,19.00,0.00,30.18,M,6.21,M,FEW,BKN,BKN,M,1500.00,2800.00,5000.00,M,M,M,M,M,M,M,M,57.20,RCTP 151030Z 05019KT 9999 FEW015 BKN028 BKN050 14/11 Q1022 NOSIG RMK A3018
RCTP,2017-01-15 11:00,59.00,51.80,76.98,60.00,15.00,0.00,30.18,M,6.21,M,FEW,BKN,BKN,M,1500.00,2400.00,4000.00,M,M,M,M,M,M,M,M,59.00,RCTP 151100Z 06015KT 9999 FEW015 BKN024 BKN040 15/11 Q1022 NOSIG RMK A3018
RCTP,2017-01-15 11:30,59.00,51.80,76.98,50.00,15.00,0.00,30.18,M,6.21,M,FEW,BKN,BKN,M,1500.00,2500.00,4000.00,M,M,M,M,M,M,M,M,59.00,RCTP 151130Z 05015KT 9999 FEW015 BKN025 BKN040 15/11 Q1022 NOSIG RMK A3018
RCTP,2017-01-15 12:00,59.00,53.60,82.25,50.00,21.00,0.00,30.18,M,6.21,M,FEW,SCT,BKN,M,1500.00,2500.00,5000.00,M,M,M,M,M,M,M,M,59.00,RCTP 151200Z 05021KT 9999 FEW015 SCT025 BKN050 15/12 Q1022 NOSIG RMK A3018
RCTP,2017-01-15 12:30,57.20,51.80,82.12,50.00,19.00,0.00,30.18,M,6.21,M,FEW,SCT,BKN,M,1500.00,3000.00,5000.00,M,M,M,M,M,M,M,M,57.20,RCTP 151230Z 05019KT 9999 FEW015 SCT030 BKN050 14/11 Q1022 NOSIG RMK A3019
RCTP,2017-01-15 13:00,57.20,51.80,82.12,60.00,15.00,0.00,30.18,M,6.21,M,FEW,BKN,BKN,M,1500.00,3500.00,5000.00,M,M,M,M,M,M,M,M,57.20,RCTP 151300Z 06015KT 9999 FEW015 BKN035 BKN050 14/11 Q1022 NOSIG RMK A3019
RCTP,2017-01-15 13:30,59.00,51.80,76.98,70.00,14.00,0.00,30.18,M,6.21,M,FEW,SCT,BKN,M,1500.00,3500.00,5000.00,M,M,M,M,M,M,M,M,59.00,RCTP 151330Z 07014KT 040V100 9999 FEW015 SCT035 BKN050 15/11 Q1022 NOSIG RMK A3019
RCTP,2017-01-15 14:00,59.00,51.80,76.98,60.00,15.00,0.00,30.18,M,6.21,M,FEW,SCT,BKN,M,1500.00,3000.00,5000.00,M,M,M,M,M,M,M,M,59.00,RCTP 151400Z 06015KT 9999 FEW015 SCT030 BKN050 15/11 Q1022 NOSIG RMK A3019
RCTP,2017-01-15 14:30,57.20,51.80,82.12,70.00,13.00,0.00,30.15,M,6.21,M,FEW,BKN,BKN,M,1500.00,3000.00,5000.00,M,M,M,M,M,M,M,M,57.20,RCTP 151430Z 07013KT 9999 FEW015 BKN030 BKN050 14/11 Q1021 NOSIG RMK A3017
RCTP,2017-01-15 15:00,57.20,51.80,82.12,60.00,12.00,0.00,30.15,M,6.21,M,FEW,BKN,BKN,M,1500.00,3000.00,5000.00,M,M,M,M,M,M,M,M,57.20,RCTP 151500Z 06012KT 9999 FEW015 BKN030 BKN050 14/11 Q1021 NOSIG RMK A3017
RCTP,2017-01-15 15:30,57.20,53.60,87.74,60.00,14.00,0.00,30.15,M,6.21,M,FEW,BKN,BKN,M,1500.00,3000.00,5000.00,M,M,M,M,M,M,M,M,57.20,RCTP 151530Z 06014KT 9999 FEW015 BKN030 BKN050 14/12 Q1021 NOSIG RMK A3017
RCTP,2017-01-15 16:00,59.00,53.60,82.25,50.00,18.00,0.00,30.18,M,6.21,M,FEW,BKN,BKN,M,1500.00,2500.00,3500.00,M,M,M,M,M,M,M,M,59.00,RCTP 151600Z 05018KT 9999 FEW015 BKN025 BKN035 15/12 Q1022 NOSIG RMK A3018
RCTP,2017-01-15 16:08,57.20,53.60,87.74,40.00,18.00,0.00,30.18,M,6.21,M,FEW,BKN,BKN,M,1500.00,2500.00,3500.00,M,-RA,M,M,M,M,M,M,57.20,RCTP 151608Z 04018KT 9999 -RA FEW015 BKN025 BKN035 14/12 Q1022 NOSIG RMK A3018
RCTP,2017-01-15 16:22,57.20,53.60,87.74,40.00,18.00,0.00,30.18,M,6.21,M,FEW,BKN,BKN,M,1500.00,2500.00,3500.00,M,-RA,M,M,M,M,M,M,57.20,RCTP 151622Z 04018KT 9999 -RA FEW015 BKN025 BKN035 14/12 Q1022 WS ALL RWY NOSIG RMK A3018
RCTP,2017-01-15 16:30,57.20,53.60,87.74,40.00,21.00,0.00,30.18,M,6.21,M,FEW,BKN,BKN,M,1200.00,2500.00,3500.00,M,-RA,M,M,M,M,M,M,57.20,RCTP 151630Z 04021KT 9999 -RA FEW012 BKN025 BKN035 14/12 Q1022 WS ALL RWY NOSIG RMK A3018
RCTP,2017-01-15 16:48,59.00,53.60,82.25,50.00,20.00,0.00,30.18,M,6.21,M,FEW,BKN,BKN,M,1200.00,2500.00,3500.00,M,M,M,M,M,M,M,M,59.00,RCTP 151648Z 05020KT 9999 FEW012 BKN025 BKN035 15/12 Q1022 WS ALL RWY NOSIG RMK A3019
RCTP,2017-01-15 17:00,59.00,51.80,76.98,50.00,19.00,0.00,30.18,M,6.21,M,FEW,BKN,BKN,M,1200.00,2500.00,3500.00,M,M,M,M,M,M,M,M,59.00,RCTP 151700Z 05019KT 9999 FEW012 BKN025 BKN035 15/11 Q1022 NOSIG RMK A3019
RCTP,2017-01-15 17:30,57.20,53.60,87.74,50.00,21.00,0.00,30.18,M,6.21,M,FEW,BKN,BKN,M,1200.00,2500.00,3500.00,M,M,M,M,M,M,M,M,57.20,RCTP 151730Z 05021KT 9999 FEW012 BKN025 BKN035 14/12 Q1022 NOSIG RMK A3019
RCTP,2017-01-15 18:00,57.20,50.00,76.82,60.00,15.00,0.00,30.18,M,6.21,M,FEW,BKN,BKN,M,1200.00,2200.00,3500.00,M,M,M,M,M,M,M,M,57.20,RCTP 151800Z 06015KT 9999 FEW012 BKN022 BKN035 14/10 Q1022 NOSIG RMK A3018
RCTP,2017-01-15 18:30,57.20,51.80,82.12,50.00,17.00,0.00,30.18,M,6.21,M,SCT,BKN,BKN,M,1200.00,1800.00,3000.00,M,M,M,M,M,M,M,M,57.20,RCTP 151830Z 05017KT 9999 SCT012 BKN018 BKN030 14/11 Q1022 NOSIG RMK A3018
RCTP,2017-01-15 19:00,57.20,50.00,76.82,60.00,14.00,0.00,30.18,M,6.21,M,FEW,BKN,BKN,M,1200.00,2400.00,3500.00,M,M,M,M,M,M,M,M,57.20,RCTP 151900Z 06014KT 9999 FEW012 BKN024 BKN035 14/10 Q1022 NOSIG RMK A3018
RCTP,2017-01-15 19:30,57.20,50.00,76.82,50.00,15.00,0.00,30.18,M,6.21,M,FEW,BKN,BKN,M,1200.00,2400.00,3500.00,M,M,M,M,M,M,M,M,57.20,RCTP 151930Z 05015KT 9999 FEW012 BKN024 BKN035 14/10 Q1022 NOSIG RMK A3018
RCTP,2017-01-15 20:00,57.20,50.00,76.82,60.00,16.00,0.00,30.18,M,6.21,M,SCT,BKN,BKN,M,1400.00,2400.00,3500.00,M,M,M,M,M,M,M,M,57.20,RCTP 152000Z 06016KT 9999 SCT014 BKN024 BKN035 14/10 Q1022 NOSIG RMK A3019
RCTP,2017-01-15 20:30,57.20,50.00,76.82,60.00,15.00,0.00,30.18,M,6.21,M,SCT,BKN,BKN,M,1400.00,2400.00,3500.00,M,M,M,M,M,M,M,M,57.20,RCTP 152030Z 06015KT 9999 SCT014 BKN024 BKN035 14/10 Q1022 NOSIG RMK A3019
RCTP,2017-01-15 21:00,57.20,50.00,76.82,50.00,16.00,0.00,30.18,M,6.21,26.00,SCT,BKN,BKN,M,1400.00,2400.00,3500.00,M,M,M,M,M,M,M,M,57.20,RCTP 152100Z 05016G26KT 9999 SCT014 BKN024 BKN035 14/10 Q1022 NOSIG RMK A3019
RCTP,2017-01-15 21:30,57.20,50.00,76.82,60.00,16.00,0.00,30.18,M,6.21,M,SCT,BKN,BKN,M,1400.00,2400.00,3500.00,M,-DZ,M,M,M,M,M,M,57.20,RCTP 152130Z 06016KT 9999 -DZ SCT014 BKN024 BKN035 14/10 Q1022 NOSIG RMK A3020
RCTP,2017-01-15 22:00,57.20,51.80,82.12,50.00,19.00,0.00,30.18,M,6.21,M,SCT,BKN,BKN,M,1400.00,3000.00,4000.00,M,M,M,M,M,M,M,M,57.20,RCTP 152200Z 05019KT 9999 SCT014 BKN030 BKN040 14/11 Q1022 NOSIG RMK A3020
RCTP,2017-01-15 22:30,57.20,51.80,82.12,50.00,18.00,0.00,30.21,M,6.21,M,FEW,BKN,BKN,M,1500.00,3000.00,4500.00,M,M,M,M,M,M,M,M,57.20,RCTP 152230Z 05018KT 9999 FEW015 BKN030 BKN045 14/11 Q1023 NOSIG RMK A3021
RCTP,2017-01-15 23:00,57.20,51.80,82.12,60.00,17.00,0.00,30.21,M,6.21,M,FEW,BKN,BKN,M,1500.00,3000.00,5000.00,M,M,M,M,M,M,M,M,57.20,RCTP 152300Z 06017KT 9999 FEW015 BKN030 BKN050 14/11 Q1023 NOSIG RMK A3021
RCTP,2017-01-15 23:30,59.00,51.80,76.98,70.00,16.00,0.00,30.21,M,6.21,M,FEW,SCT,BKN,M,1500.00,3000.00,5000.00,M,M,M,M,M,M,M,M,59.00,RCTP 152330Z 07016KT 9999 FEW015 SCT030 BKN050 15/11 Q1023 NOSIG RMK A3021
RCTP,2017-01-16 00:00,59.00,51.80,76.98,80.00,11.00,0.00,30.21,M,6.21,M,FEW,SCT,BKN,M,1500.00,3000.00,5000.00,M,M,M,M,M,M,M,M,59.00,RCTP 160000Z 08011KT 9999 FEW015 SCT030 BKN050 15/11 Q1023 NOSIG RMK A3022
RCTP,2017-01-16 00:30,59.00,51.80,76.98,70.00,12.00,0.00,30.21,M,6.21,M,FEW,BKN,M,M,2000.00,6000.00,M,M,M,M,M,M,M,M,M,59.00,RCTP 160030Z 07012KT 9999 FEW020 BKN060 15/11 Q1023 NOSIG RMK A3022
RCTP,2017-01-16 01:00,59.00,51.80,76.98,70.00,12.00,0.00,30.21,M,6.21,M,FEW,SCT,BKN,M,1600.00,2500.00,6000.00,M,M,M,M,M,M,M,M,59.00,RCTP 160100Z 07012KT 9999 FEW016 SCT025 BKN060 15/11 Q1023 NOSIG RMK A3023
RCTP,2017-01-16 01:30,62.60,51.80,67.75,60.00,14.00,0.00,30.21,M,6.21,M,FEW,SCT,BKN,M,1600.00,2500.00,6000.00,M,M,M,M,M,M,M,M,62.60,RCTP 160130Z 06014KT 9999 FEW016 SCT025 BKN060 17/11 Q1023 NOSIG RMK A3023
RCTP,2017-01-16 02:00,62.60,51.80,67.75,50.00,20.00,0.00,30.21,M,6.21,M,FEW,SCT,BKN,M,1600.00,2500.00,6000.00,M,M,M,M,M,M,M,M,62.60,RCTP 160200Z 05020KT 9999 FEW016 SCT025 BKN060 17/11 Q1023 NOSIG RMK A3023
RCTP,2017-01-16 02:30,62.60,51.80,67.75,50.00,24.00,0.00,30.21,M,6.21,M,FEW,BKN,BKN,M,1600.00,2500.00,6000.00,M,M,M,M,M,M,M,M,62.60,RCTP 160230Z 05024KT 9999 FEW016 BKN025 BKN060 17/11 Q1023 NOSIG RMK A3022
RCTP,2017-01-16 03:00,62.60,51.80,67.75,50.00,21.00,0.00,30.21,M,6.21,M,FEW,BKN,BKN,M,1600.00,2500.00,6000.00,M,M,M,M,M,M,M,M,62.60,RCTP 160300Z 05021KT 9999 FEW016 BKN025 BKN060 17/11 Q1023 NOSIG RMK A3022
RCTP,2017-01-16 03:27,62.60,51.80,67.75,50.00,22.00,0.00,30.18,M,6.21,M,FEW,BKN,BKN,M,1600.00,2500.00,6000.00,M,M,M,M,M,M,M,M,62.60,RCTP 160327Z 05022KT 9999 FEW016 BKN025 BKN060 17/11 Q1022 WS ALL RWY NOSIG RMK A3020
RCTP,2017-01-16 03:30,60.80,51.80,72.20,50.00,24.00,0.00,30.18,M,6.21,M,FEW,BKN,BKN,M,1600.00,2500.00,6000.00,M,M,M,M,M,M,M,M,60.80,RCTP 160330Z 05024KT 9999 FEW016 BKN025 BKN060 16/11 Q1022 WS ALL RWY NOSIG RMK A3020
RCTP,2017-01-16 04:00,60.80,51.80,72.20,50.00,24.00,0.00,30.18,M,6.21,M,FEW,BKN,BKN,M,1600.00,2500.00,6000.00,M,M,M,M,M,M,M,M,60.80,RCTP 160400Z 05024KT 9999 FEW016 BKN025 BKN060 16/11 Q1022 NOSIG RMK A3019
RCTP,2017-01-16 04:30,60.80,51.80,72.20,50.00,24.00,0.00,30.18,M,6.21,M,FEW,BKN,M,M,1600.00,3000.00,M,M,M,M,M,M,M,M,M,60.80,RCTP 160430Z 05024KT 9999 FEW016 BKN030 16/11 Q1022 NOSIG RMK A3018
RCTP,2017-01-16 05:00,62.60,51.80,67.75,50.00,22.00,0.00,30.15,M,6.21,M,FEW,BKN,M,M,1600.00,3000.00,M,M,M,M,M,M,M,M,M,62.60,RCTP 160500Z 05022KT 9999 FEW016 BKN030 17/11 Q1021 NOSIG RMK A3016
RCTP,2017-01-16 05:30,60.80,51.80,72.20,50.00,23.00,0.00,30.15,M,6.21,M,FEW,BKN,M,M,1600.00,3000.00,M,M,M,M,M,M,M,M,M,60.80,RCTP 160530Z 05023KT 9999 FEW016 BKN030 16/11 Q1021 NOSIG RMK A3015
RCTP,2017-01-16 06:00,60.80,51.80,72.20,50.00,24.00,0.00,30.15,M,6.21,M,FEW,BKN,M,M,1600.00,3000.00,M,M,M,M,M,M,M,M,M,60.80,RCTP 160600Z 05024KT 9999 FEW016 BKN030 16/11 Q1021 NOSIG RMK A3015
RCTP,2017-01-16 06:30,60.80,51.80,72.20,50.00,22.00,0.00,30.12,M,6.21,M,FEW,BKN,M,M,1500.00,2500.00,M,M,M,M,M,M,M,M,M,60.80,RCTP 160630Z 05022KT 9999 FEW015 BKN025 16/11 Q1020 NOSIG RMK A3014
RCTP,2017-01-16 07:00,60.80,51.80,72.20,50.00,22.00,0.00,30.12,M,6.21,M,FEW,BKN,M,M,1500.00,2500.00,M,M,M,M,M,M,M,M,M,60.80,RCTP 160700Z 05022KT 9999 FEW015 BKN025 16/11 Q1020 NOSIG RMK A3014
RCTP,2017-01-16 07:30,62.60,51.80,67.75,50.00,21.00,0.00,30.12,M,6.21,M,FEW,BKN,BKN,M,1500.00,2500.00,4000.00,M,M,M,M,M,M,M,M,62.60,RCTP 160730Z 05021KT 9999 FEW015 BKN025 BKN040 17/11 Q1020 NOSIG RMK A3014
RCTP,2017-01-16 08:00,62.60,51.80,67.75,50.00,19.00,0.00,30.12,M,6.21,M,FEW,BKN,BKN,M,1500.00,2500.00,4000.00,M,M,M,M,M,M,M,M,62.60,RCTP 160800Z 05019KT 9999 FEW015 BKN025 BKN040 17/11 Q1020 NOSIG RMK A3014
RCTP,2017-01-16 08:30,62.60,51.80,67.75,60.00,18.00,0.00,30.12,M,6.21,M,FEW,BKN,BKN,M,1500.00,2800.00,4000.00,M,M,M,M,M,M,M,M,62.60,RCTP 160830Z 06018KT 9999 FEW015 BKN028 BKN040 17/11 Q1020 NOSIG RMK A3014
RCTP,2017-01-16 09:00,60.80,51.80,72.20,60.00,19.00,0.00,30.15,M,6.21,M,FEW,BKN,BKN,M,1500.00,2800.00,4000.00,M,M,M,M,M,M,M,M,60.80,RCTP 160900Z 06019KT 9999 FEW015 BKN028 BKN040 16/11 Q1021 NOSIG RMK A3015
RCTP,2017-01-16 09:30,60.80,51.80,72.20,50.00,17.00,0.00,30.15,M,6.21,M,FEW,BKN,BKN,M,1500.00,3000.00,4000.00,M,M,M,M,M,M,M,M,60.80,RCTP 160930Z 05017KT 9999 FEW015 BKN030 BKN040 16/11 Q1021 NOSIG RMK A3016
RCTP,2017-01-16 10:00,60.80,51.80,72.20,60.00,16.00,0.00,30.15,M,6.21,M,FEW,BKN,BKN,M,1500.00,2800.00,4000.00,M,M,M,M,M,M,M,M,60.80,RCTP 161000Z 06016KT 9999 FEW015 BKN028 BKN040 16/11 Q1021 NOSIG RMK A3017
RCTP,2017-01-16 10:30,60.80,51.80,72.20,60.00,16.00,0.00,30.15,M,6.21,M,FEW,SCT,BKN,M,1500.00,2800.00,4000.00,M,M,M,M,M,M,M,M,60.80,RCTP 161030Z 06016KT 9999 FEW015 SCT028 BKN040 16/11 Q1021 NOSIG RMK A3017
RCTP,2017-01-16 11:00,60.80,51.80,72.20,60.00,15.00,0.00,30.15,M,6.21,M,FEW,SCT,BKN,M,1500.00,2500.00,4000.00,M,M,M,M,M,M,M,M,60.80,RCTP 161100Z 06015KT 9999 FEW015 SCT025 BKN040 16/11 Q1021 NOSIG RMK A3017
RCTP,2017-01-16 11:30,60.80,51.80,72.20,70.00,12.00,0.00,30.18,M,6.21,M,FEW,BKN,BKN,M,1500.00,4000.00,8000.00,M,M,M,M,M,M,M,M,60.80,RCTP 161130Z 07012KT 9999 FEW015 BKN040 BKN080 16/11 Q1022 NOSIG RMK A3018
RCTP,2017-01-16 12:00,60.80,50.00,67.54,70.00,15.00,0.00,30.18,M,6.21,M,FEW,BKN,BKN,M,1500.00,4000.00,8000.00,M,M,M,M,M,M,M,M,60.80,RCTP 161200Z 07015KT 9999 FEW015 BKN040 BKN080 16/10 Q1022 NOSIG RMK A3018
RCTP,2017-01-16 12:30,60.80,51.80,72.20,60.00,16.00,0.00,30.18,M,6.21,M,FEW,BKN,BKN,M,1500.00,4000.00,8000.00,M,M,M,M,M,M,M,M,60.80,RCTP 161230Z 06016KT 9999 FEW015 BKN040 BKN080 16/11 Q1022 NOSIG RMK A3019
RCTP,2017-01-16 13:00,60.80,51.80,72.20,70.00,18.00,0.00,30.18,M,6.21,M,FEW,BKN,BKN,M,1500.00,4000.00,8000.00,M,M,M,M,M,M,M,M,60.80,RCTP 161300Z 07018KT 9999 FEW015 BKN040 BKN080 16/11 Q1022 NOSIG RMK A3019
RCTP,2017-01-16 13:30,60.80,51.80,72.20,70.00,17.00,0.00,30.18,M,6.21,27.00,FEW,SCT,BKN,M,1500.00,6000.00,8000.00,M,M,M,M,M,M,M,M,60.80,RCTP 161330Z 07017G27KT 9999 FEW015 SCT060 BKN080 16/11 Q1022 NOSIG RMK A3019
RCTP,2017-01-16 14:00,60.80,51.80,72.20,60.00,16.00,0.00,30.18,M,6.21,M,FEW,SCT,BKN,M,1500.00,6000.00,8000.00,M,M,M,M,M,M,M,M,60.80,RCTP 161400Z 06016KT 9999 FEW015 SCT060 BKN080 16/11 Q1022 NOSIG RMK A3019
RCTP,2017-01-16 15:00,60.80,51.80,72.20,60.00,17.00,0.00,30.18,M,6.21,M,FEW,SCT,BKN,M,1500.00,6000.00,8000.00,M,M,M,M,M,M,M,M,60.80,RCTP 161500Z 06017KT 040V100 9999 FEW015 SCT060 BKN080 16/11 Q1022 NOSIG RMK A3020
RCTP,2017-01-16 15:30,60.80,51.80,72.20,70.00,17.00,0.00,30.18,M,6.21,M,FEW,SCT,BKN,M,1500.00,6000.00,8000.00,M,M,M,M,M,M,M,M,60.80,RCTP 161530Z 07017KT 9999 FEW015 SCT060 BKN080 16/11 Q1022 NOSIG RMK A3020
RCTP,2017-01-16 16:00,60.80,53.60,77.14,60.00,16.00,0.00,30.18,M,6.21,M,FEW,SCT,BKN,M,1500.00,3500.00,6000.00,M,M,M,M,M,M,M,M,60.80,RCTP 161600Z 06016KT 9999 FEW015 SCT035 BKN060 16/12 Q1022 NOSIG RMK A3020
RCTP,2017-01-16 16:30,62.60,53.60,72.38,60.00,16.00,0.00,30.18,M,6.21,M,FEW,SCT,BKN,M,1500.00,3500.00,6000.00,M,M,M,M,M,M,M,M,62.60,RCTP 161630Z 06016KT 9999 FEW015 SCT035 BKN060 17/12 Q1022 NOSIG RMK A3020
RCTP,2017-01-16 17:00,62.60,53.60,72.38,60.00,16.00,0.00,30.18,M,6.21,M,FEW,BKN,BKN,M,1500.00,2500.00,6000.00,M,M,M,M,M,M,M,M,62.60,RCTP 161700Z 06016KT 9999 FEW015 BKN025 BKN060 17/12 Q1022 NOSIG RMK A3019
RCTP,2017-01-16 17:30,62.60,53.60,72.38,60.00,16.00,0.00,30.18,M,6.21,M,FEW,BKN,M,M,1500.00,2500.00,M,M,M,M,M,M,M,M,M,62.60,RCTP 161730Z 06016KT 9999 FEW015 BKN025 17/12 Q1022 NOSIG RMK A3018
RCTP,2017-01-16 18:00,60.80,53.60,77.14,70.00,16.00,0.00,30.15,M,6.21,M,FEW,BKN,BKN,M,1500.00,2500.00,5000.00,M,M,M,M,M,M,M,M,60.80,RCTP 161800Z 07016KT 9999 FEW015 BKN025 BKN050 16/12 Q1021 NOSIG RMK A3015
RCTP,2017-01-16 18:30,60.80,53.60,77.14,70.00,13.00,0.00,30.15,M,6.21,M,FEW,SCT,BKN,M,1500.00,3000.00,5000.00,M,M,M,M,M,M,M,M,60.80,RCTP 161830Z 07013KT 030V090 9999 FEW015 SCT030 BKN050 16/12 Q1021 NOSIG RMK A3017
RCTP,2017-01-16 19:00,62.60,53.60,72.38,50.00,12.00,0.00,30.15,M,6.21,M,FEW,SCT,BKN,M,1500.00,3000.00,5000.00,M,M,M,M,M,M,M,M,62.60,RCTP 161900Z 05012KT 020V080 9999 FEW015 SCT030 BKN050 17/12 Q1021 NOSIG RMK A3017
RCTP,2017-01-16 19:30,62.60,53.60,72.38,60.00,14.00,0.00,30.15,M,6.21,M,FEW,SCT,BKN,M,1500.00,3000.00,5000.00,M,M,M,M,M,M,M,M,62.60,RCTP 161930Z 06014KT 9999 FEW015 SCT030 BKN050 17/12 Q1021 NOSIG RMK A3017
RCTP,2017-01-16 20:00,62.60,53.60,72.38,70.00,13.00,0.00,30.15,M,6.21,M,FEW,SCT,BKN,M,1500.00,3000.00,6000.00,M,M,M,M,M,M,M,M,62.60,RCTP 162000Z 07013KT 9999 FEW015 SCT030 BKN060 17/12 Q1021 NOSIG RMK A3017
RCTP,2017-01-16 20:30,62.60,53.60,72.38,70.00,12.00,0.00,30.15,M,6.21,M,FEW,SCT,BKN,M,1500.00,3000.00,6000.00,M,M,M,M,M,M,M,M,62.60,RCTP 162030Z 07012KT 9999 FEW015 SCT030 BKN060 17/12 Q1021 NOSIG RMK A3017
RCTP,2017-01-16 21:00,62.60,53.60,72.38,40.00,12.00,0.00,30.18,M,6.21,M,FEW,SCT,BKN,M,1500.00,3000.00,5000.00,M,M,M,M,M,M,M,M,62.60,RCTP 162100Z 04012KT 9999 FEW015 SCT030 BKN050 17/12 Q1022 NOSIG RMK A3019
RCTP,2017-01-16 21:30,62.60,53.60,72.38,40.00,11.00,0.00,30.18,M,6.21,M,FEW,SCT,BKN,M,1500.00,3000.00,5000.00,M,M,M,M,M,M,M,M,62.60,RCTP 162130Z 04011KT 9999 FEW015 SCT030 BKN050 17/12 Q1022 NOSIG RMK A3019
RCTP,2017-01-16 22:00,62.60,53.60,72.38,60.00,12.00,0.00,30.18,M,6.21,M,FEW,SCT,BKN,M,1500.00,5000.00,12000.00,M,M,M,M,M,M,M,M,62.60,RCTP 162200Z 06012KT 9999 FEW015 SCT050 BKN120 17/12 Q1022 NOSIG RMK A3018
RCTP,2017-01-16 22:30,62.60,53.60,72.38,50.00,11.00,0.00,30.18,M,6.21,M,FEW,SCT,BKN,M,1500.00,5000.00,12000.00,M,M,M,M,M,M,M,M,62.60,RCTP 162230Z 05011KT 9999 FEW015 SCT050 BKN120 17/12 Q1022 NOSIG RMK A3019
RCTP,2017-01-16 23:00,62.60,55.40,77.29,40.00,10.00,0.00,30.21,M,6.21,M,FEW,BKN,BKN,M,1500.00,5000.00,12000.00,M,M,M,M,M,M,M,M,62.60,RCTP 162300Z 04010KT 9999 FEW015 BKN050 BKN120 17/13 Q1023 NOSIG RMK A3021
RCTP,2017-01-16 23:30,62.60,55.40,77.29,40.00,15.00,0.00,30.21,M,6.21,M,FEW,SCT,BKN,M,1500.00,5000.00,12000.00,M,M,M,M,M,M,M,M,62.60,RCTP 162330Z 04015KT 9999 FEW015 SCT050 BKN120 17/13 Q1023 NOSIG RMK A3021
RCTP,2017-01-17 00:00,64.40,55.40,72.56,50.00,14.00,0.00,30.21,M,6.21,M,FEW,SCT,BKN,M,1500.00,5000.00,15000.00,M,M,M,M,M,M,M,M,64.40,RCTP 170000Z 05014KT 9999 FEW015 SCT050 BKN150 18/13 Q1023 NOSIG RMK A3022
RCTP,2017-01-17 00:30,64.40,57.20,77.45,40.00,17.00,0.00,30.21,M,6.21,M,FEW,SCT,BKN,M,1500.00,5000.00,13000.00,M,M,M,M,M,M,M,M,64.40,RCTP 170030Z 04017KT 9999 FEW015 SCT050 BKN130 18/14 Q1023 NOSIG RMK A3022
RCTP,2017-01-17 01:00,64.40,57.20,77.45,40.00,19.00,0.00,30.21,M,6.21,M,FEW,BKN,M,M,2000.00,12000.00,M,M,M,M,M,M,M,M,M,64.40,RCTP 170100Z 04019KT 9999 FEW020 BKN120 18/14 Q1023 NOSIG RMK A3022
RCTP,2017-01-17 01:30,66.20,57.20,72.74,40.00,21.00,0.00,30.21,M,6.21,M,FEW,BKN,M,M,2000.00,12000.00,M,M,M,M,M,M,M,M,M,66.20,RCTP 170130Z 04021KT 9999 FEW020 BKN120 19/14 Q1023 NOSIG RMK A3022
RCTP,2017-01-17 02:00,66.20,59.00,77.60,40.00,20.00,0.00,30.21,M,6.21,M,FEW,BKN,M,M,2000.00,12000.00,M,M,M,M,M,M,M,M,M,66.20,RCTP 170200Z 04020KT 9999 FEW020 BKN120 19/15 Q1023 NOSIG RMK A3021
RCTP,2017-01-17 02:30,68.00,57.20,68.35,40.00,17.00,0.00,30.18,M,6.21,M,FEW,BKN,M,M,2000.00,12000.00,M,M,M,M,M,M,M,M,M,68.00,RCTP 170230Z 04017KT 9999 FEW020 BKN120 20/14 Q1022 NOSIG RMK A3020
RCTP,2017-01-17 03:00,69.80,57.20,64.26,70.00,16.00,0.00,30.15,M,6.21,M,FEW,BKN,M,M,2000.00,13000.00,M,M,M,M,M,M,M,M,M,69.80,RCTP 170300Z 07016KT 9999 FEW020 BKN130 21/14 Q1021 NOSIG RMK A3017
RCTP,2017-01-17 03:30,71.60,57.20,60.44,80.00,14.00,0.00,30.15,M,6.21,M,FEW,BKN,M,M,2000.00,13000.00,M,M,M,M,M,M,M,M,M,71.60,RCTP 170330Z 08014KT 9999 FEW020 BKN130 22/14 Q1021 NOSIG RMK A3016
RCTP,2017-01-17 04:00,73.40,59.00,60.67,70.00,13.00,0.00,30.12,M,6.21,M,FEW,SCT,M,M,2000.00,12000.00,M,M,M,M,M,M,M,M,M,73.40,RCTP 170400Z 07013KT 9999 FEW020 SCT120 23/15 Q1020 NOSIG RMK A3014
RCTP,2017-01-17 04:30,73.40,59.00,60.67,70.00,12.00,0.00,30.12,M,6.21,M,FEW,SCT,M,M,2000.00,14000.00,M,M,M,M,M,M,M,M,M,73.40,RCTP 170430Z 07012KT 9999 FEW020 SCT140 23/15 Q1020 NOSIG RMK A3012
RCTP,2017-01-17 05:00,73.40,60.80,64.69,20.00,14.00,0.00,30.09,M,6.21,M,FEW,SCT,M,M,2000.00,14000.00,M,M,M,M,M,M,M,M,M,73.40,RCTP 170500Z 02014KT 9999 FEW020 SCT140 23/16 Q1019 NOSIG RMK A3011
RCTP,2017-01-17 05:30,71.60,59.00,64.48,10.00,17.00,0.00,30.09,M,6.21,M,FEW,SCT,M,M,2000.00,14000.00,M,M,M,M,M,M,M,M,M,71.60,RCTP 170530Z 01017KT 9999 FEW020 SCT140 22/15 Q1019 NOSIG RMK A3010
RCTP,2017-01-17 06:00,71.60,59.00,64.48,10.00,16.00,0.00,30.09,M,6.21,M,FEW,SCT,M,M,2000.00,14000.00,M,M,M,M,M,M,M,M,M,71.60,RCTP 170600Z 01016KT 9999 FEW020 SCT140 22/15 Q1019 NOSIG RMK A3010
RCTP,2017-01-17 06:30,71.60,60.80,68.75,20.00,15.00,0.00,30.09,M,6.21,M,FEW,BKN,M,M,2000.00,11000.00,M,M,M,M,M,M,M,M,M,71.60,RCTP 170630Z 02015KT 9999 FEW020 BKN110 22/16 Q1019 NOSIG RMK A3009
RCTP,2017-01-17 07:00,73.40,60.80,64.69,30.00,11.00,0.00,30.09,M,6.21,M,FEW,BKN,M,M,2000.00,11000.00,M,M,M,M,M,M,M,M,M,73.40,RCTP 170700Z 03011KT 9999 FEW020 BKN110 23/16 Q1019 NOSIG RMK A3009
RCTP,2017-01-17 07:30,73.40,59.00,60.67,80.00,11.00,0.00,30.09,M,6.21,M,FEW,BKN,M,M,2000.00,12000.00,M,M,M,M,M,M,M,M,M,73.40,RCTP 170730Z 08011KT 9999 FEW020 BKN120 23/15 Q1019 NOSIG RMK A3009
RCTP,2017-01-17 08:00,73.40,59.00,60.67,70.00,12.00,0.00,30.09,M,6.21,M,FEW,SCT,M,M,2000.00,12000.00,M,M,M,M,M,M,M,M,M,73.40,RCTP 170800Z 07012KT 9999 FEW020 SCT120 23/15 Q1019 NOSIG RMK A3010
RCTP,2017-01-17 08:30,69.80,60.80,73.09,20.00,13.00,0.00,30.09,M,6.21,M,FEW,SCT,M,M,2000.00,11000.00,M,M,M,M,M,M,M,M,M,69.80,RCTP 170830Z 02013KT 9999 FEW020 SCT110 21/16 Q1019 NOSIG RMK A3011
RCTP,2017-01-17 09:00,68.00,60.80,77.75,20.00,12.00,0.00,30.12,M,6.21,M,FEW,BKN,M,M,2000.00,11000.00,M,M,M,M,M,M,M,M,M,68.00,RCTP 170900Z 02012KT 9999 FEW020 BKN110 20/16 Q1020 NOSIG RMK A3012
RCTP,2017-01-17 09:30,68.00,60.80,77.75,30.00,10.00,0.00,30.12,M,6.21,M,FEW,BKN,M,M,2000.00,11000.00,M,M,M,M,M,M,M,M,M,68.00,RCTP 170930Z 03010KT 9999 FEW020 BKN110 20/16 Q1020 NOSIG RMK A3012
RCTP,2017-01-17 10:00,68.00,59.00,72.92,40.00,6.00,0.00,30.12,M,6.21,M,FEW,BKN,M,M,2000.00,11000.00,M,M,M,M,M,M,M,M,M,68.00,RCTP 171000Z 04006KT 9999 FEW020 BKN110 20/15 Q1020 NOSIG RMK A3013
RCTP,2017-01-17 10:30,69.80,59.00,68.55,80.00,7.00,0.00,30.12,M,6.21,M,FEW,BKN,M,M,2000.00,7000.00,M,M,M,M,M,M,M,M,M,69.80,RCTP 171030Z 08007KT 9999 FEW020 BKN070 21/15 Q1020 NOSIG RMK A3013
RCTP,2017-01-17 11:00,68.00,59.00,72.92,40.00,5.00,0.00,30.15,M,6.21,M,FEW,BKN,M,M,2000.00,7000.00,M,M,M,M,M,M,M,M,M,68.00,RCTP 171100Z 04005KT 9999 FEW020 BKN070 20/15 Q1021 NOSIG RMK A3015
RCTP,2017-01-17 11:30,68.00,59.00,72.92,10.00,4.00,0.00,30.15,M,6.21,M,FEW,BKN,M,M,2000.00,7000.00,M,M,M,M,M,M,M,M,M,68.00,RCTP 171130Z 01004KT 9999 FEW020 BKN070 20/15 Q1021 NOSIG RMK A3015
RCTP,2017-01-17 12:00,66.20,60.80,82.74,360.00,4.00,0.00,30.15,M,6.21,M,FEW,BKN,M,M,2000.00,10000.00,M,M,M,M,M,M,M,M,M,66.20,RCTP 171200Z 36004KT 9999 FEW020 BKN100 19/16 Q1021 NOSIG RMK A3016
RCTP,2017-01-17 12:30,66.20,60.80,82.74,10.00,4.00,0.00,30.15,M,6.21,M,FEW,BKN,M,M,2000.00,11000.00,M,M,M,M,M,M,M,M,M,66.20,RCTP 171230Z 01004KT 9999 FEW020 BKN110 19/16 Q1021 NOSIG RMK A3016
RCTP,2017-01-17 13:00,66.20,59.00,77.60,100.00,3.00,0.00,30.15,M,6.21,M,FEW,BKN,M,M,2000.00,11000.00,M,M,M,M,M,M,M,M,M,66.20,RCTP 171300Z 10003KT 030V150 9999 FEW020 BKN110 19/15 Q1021 NOSIG RMK A3016
RCTP,2017-01-17 13:30,64.40,60.80,88.09,40.00,3.00,0.00,30.15,M,6.21,M,FEW,BKN,M,M,2000.00,11000.00,M,M,M,M,M,M,M,M,M,64.40,RCTP 171330Z 04003KT 9999 FEW020 BKN110 18/16 Q1021 NOSIG RMK A3017
RCTP,2017-01-17 14:00,64.40,60.80,88.09,280.00,3.00,0.00,30.18,M,6.21,M,FEW,BKN,M,M,2000.00,12000.00,M,M,M,M,M,M,M,M,M,64.40,RCTP 171400Z 28003KT 9999 FEW020 BKN120 18/16 Q1022 NOSIG RMK A3018
RCTP,2017-01-17 14:30,64.40,62.60,93.88,350.00,3.00,0.00,30.18,M,6.21,M,FEW,BKN,M,M,2000.00,12000.00,M,M,M,M,M,M,M,M,M,64.40,RCTP 171430Z 35003KT 9999 FEW020 BKN120 18/17 Q1022 NOSIG RMK A3018
RCTP,2017-01-17 15:00,64.40,62.60,93.88,320.00,3.00,0.00,30.18,M,6.21,M,FEW,BKN,M,M,2000.00,12000.00,M,M,M,M,M,M,M,M,M,64.40,RCTP 171500Z 32003KT 9999 FEW020 BKN120 18/17 Q1022 NOSIG RMK A3018
RCTP,2017-01-17 15:30,64.40,62.60,93.88,M,2.00,0.00,30.18,M,6.21,M,FEW,BKN,M,M,2000.00,11000.00,M,M,M,M,M,M,M,M,M,64.40,RCTP 171530Z VRB02KT 9999 FEW020 BKN110 18/17 Q1022 NOSIG RMK A3018
RCTP,2017-01-17 16:00,64.40,62.60,93.88,260.00,3.00,0.00,30.18,M,6.21,M,FEW,BKN,M,M,2000.00,11000.00,M,M,M,M,M,M,M,M,M,64.40,RCTP 171600Z 26003KT 9999 FEW020 BKN110 18/17 Q1022 NOSIG RMK A3018
RCTP,2017-01-17 16:30,64.40,62.60,93.88,170.00,3.00,0.00,30.15,M,6.21,M,FEW,BKN,M,M,2000.00,11000.00,M,M,M,M,M,M,M,M,M,64.40,RCTP 171630Z 17003KT 9999 FEW020 BKN110 18/17 Q1021 NOSIG RMK A3017
RCTP,2017-01-17 17:00,64.40,62.60,93.88,210.00,6.00,0.00,30.15,M,6.21,M,FEW,BKN,M,M,2000.00,10000.00,M,M,M,M,M,M,M,M,M,64.40,RCTP 171700Z 21006KT 120V260 9999 FEW020 BKN100 18/17 Q1021 NOSIG RMK A3017
RCTP,2017-01-17 17:30,64.40,62.60,93.88,220.00,5.00,0.00,30.18,M,6.21,M,FEW,BKN,M,M,2000.00,12000.00,M,M,M,M,M,M,M,M,M,64.40,RCTP 171730Z 22005KT 9999 FEW020 BKN120 18/17 Q1022 NOSIG RMK A3018
RCTP,2017-01-17 18:00,62.60,59.00,88.00,230.00,6.00,0.00,30.18,M,6.21,M,FEW,SCT,M,M,2000.00,12000.00,M,M,M,M,M,M,M,M,M,62.60,RCTP 171800Z 23006KT 9999 FEW020 SCT120 17/15 Q1022 NOSIG RMK R23 A3018
RCTP,2017-01-17 18:30,62.60,60.80,93.83,240.00,6.00,0.00,30.18,M,4.35,M,FEW,SCT,M,M,2000.00,12000.00,M,M,M,M,M,M,M,M,M,62.60,RCTP 171830Z 24006KT 7000 FEW020 SCT120 17/16 Q1022 NOSIG RMK A3018
RCTP,2017-01-17 19:00,62.60,59.00,88.00,230.00,5.00,0.00,30.18,M,3.73,M,FEW,BKN,M,M,1200.00,1800.00,M,M,M,M,M,M,M,M,M,62.60,RCTP 171900Z 23005KT 6000 FEW012 BKN018 17/15 Q1022 NOSIG RMK A3019
RCTP,2017-01-17 19:30,62.60,59.00,88.00,220.00,6.00,0.00,30.18,M,3.73,M,SCT,BKN,M,M,700.00,1800.00,M,M,M,M,M,M,M,M,M,62.60,RCTP 171930Z 22006KT 6000 SCT007 BKN018 17/15 Q1022 NOSIG RMK A3020
RCTP,2017-01-17 19:56,64.40,60.80,88.09,230.00,4.00,0.00,30.18,M,3.73,M,SCT,BKN,M,M,400.00,800.00,M,M,M,M,M,M,M,M,M,64.40,RCTP 171956Z 23004KT 6000 SCT004 BKN008 18/16 Q1022 NOSIG RMK A3020
RCTP,2017-01-17 20:00,64.40,60.80,88.09,230.00,4.00,0.00,30.18,M,3.73,M,SCT,BKN,BKN,M,400.00,800.00,2000.00,M,M,M,M,M,M,M,M,64.40,RCTP 172000Z 23004KT 6000 SCT004 BKN008 BKN020 18/16 Q1022 NOSIG RMK A3020
RCTP,2017-01-17 20:10,64.40,60.80,88.09,250.00,2.00,0.00,30.18,M,3.73,M,SCT,BKN,BKN,M,300.00,500.00,2000.00,M,M,M,M,M,M,M,M,64.40,RCTP 172010Z 25002KT 6000 SCT003 BKN005 BKN020 18/16 Q1022 NOSIG RMK A3020
RCTP,2017-01-17 20:30,64.40,60.80,88.09,10.00,6.00,0.00,30.18,M,3.73,M,FEW,BKN,BKN,M,400.00,600.00,2000.00,M,M,M,M,M,M,M,M,64.40,RCTP 172030Z 01006KT 6000 FEW004 BKN006 BKN020 18/16 Q1022 NOSIG RMK R05 A3019
RCTP,2017-01-17 21:00,64.40,60.80,88.09,350.00,6.00,0.00,30.18,M,3.73,M,FEW,BKN,BKN,M,400.00,600.00,2000.00,M,M,M,M,M,M,M,M,64.40,RCTP 172100Z 35006KT 6000 FEW004 BKN006 BKN020 18/16 Q1022 NOSIG RMK A3020
RCTP,2017-01-17 21:30,64.40,60.80,88.09,340.00,4.00,0.00,30.18,M,3.73,M,SCT,BKN,BKN,M,400.00,600.00,2500.00,M,M,M,M,M,M,M,M,64.40,RCTP 172130Z 34004KT 6000 SCT004 BKN006 BKN025 18/16 Q1022 NOSIG RMK A3020
RCTP,2017-01-17 22:00,64.40,60.80,88.09,350.00,5.00,0.00,30.21,M,3.73,M,SCT,BKN,BKN,M,400.00,600.00,2500.00,M,M,M,M,M,M,M,M,64.40,RCTP 172200Z 35005KT 6000 SCT004 BKN006 BKN025 18/16 Q1023 NOSIG RMK A3021
RCTP,2017-01-17 22:30,64.40,64.40,100.00,10.00,6.00,0.00,30.21,M,4.35,M,SCT,BKN,BKN,M,400.00,600.00,2500.00,M,M,M,M,M,M,M,M,64.40,RCTP 172230Z 01006KT 7000 SCT004 BKN006 BKN025 18/18 Q1023 NOSIG RMK A3021
RCTP,2017-01-17 22:56,64.40,64.40,100.00,350.00,5.00,0.00,30.21,M,2.49,M,SCT,BKN,BKN,M,300.00,500.00,1500.00,M,-RA,M,M,M,M,M,M,64.40,RCTP 172256Z 35005KT 4000 -RA SCT003 BKN005 BKN015 18/18 Q1023 NOSIG RMK A3022
RCTP,2017-01-17 23:00,64.40,64.40,100.00,350.00,5.00,0.00,30.21,M,2.49,M,SCT,BKN,BKN,M,300.00,500.00,1500.00,M,-RA,M,M,M,M,M,M,64.40,RCTP 172300Z 35005KT 4000 -RA SCT003 BKN005 BKN015 18/18 Q1023 NOSIG RMK A3022
RCTP,2017-01-17 23:30,64.40,62.60,93.88,10.00,7.00,0.00,30.21,M,3.11,M,SCT,BKN,BKN,M,300.00,400.00,1500.00,M,-RA,M,M,M,M,M,M,64.40,RCTP 172330Z 01007KT 5000 -RA SCT003 BKN004 BKN015 18/17 Q1023 NOSIG RMK A3022
RCTP,2017-01-18 00:00,64.40,64.40,100.00,360.00,8.00,0.00,30.21,M,3.73,M,FEW,BKN,BKN,M,300.00,400.00,3500.00,M,-RA,M,M,M,M,M,M,64.40,RCTP 180000Z 36008KT 6000 -RA FEW003 BKN004 BKN035 18/18 Q1023 NOSIG RMK A3022
RCTP,2017-01-18 00:19,64.40,64.40,100.00,10.00,6.00,0.00,30.21,M,5.59,M,FEW,BKN,BKN,M,400.00,600.00,3500.00,M,M,M,M,M,M,M,M,64.40,RCTP 180019Z 01006KT 9000 FEW004 BKN006 BKN035 18/18 Q1023 NOSIG RMK A3023
RCTP,2017-01-18 00:30,66.20,64.40,93.92,10.00,6.00,0.00,30.21,M,5.59,M,FEW,BKN,BKN,M,400.00,600.00,3500.00,M,M,M,M,M,M,M,M,66.20,RCTP 180030Z 01006KT 9000 FEW004 BKN006 BKN035 19/18 Q1023 NOSIG RMK A3023
RCTP,2017-01-18 01:00,68.00,66.20,93.97,360.00,8.00,0.00,30.24,M,5.59,M,FEW,BKN,BKN,M,400.00,600.00,4000.00,M,M,M,M,M,M,M,M,68.00,RCTP 180100Z 36008KT 9000 FEW004 BKN006 BKN040 20/19 Q1024 NOSIG RMK A3024
RCTP,2017-01-18 01:30,66.20,64.40,93.92,350.00,9.00,0.00,30.24,M,5.59,M,FEW,BKN,BKN,M,500.00,700.00,2500.00,M,M,M,M,M,M,M,M,66.20,RCTP 180130Z 35009KT 9000 FEW005 BKN007 BKN025 19/18 Q1024 NOSIG RMK A3025
RCTP,2017-01-18 02:00,66.20,64.40,93.92,360.00,10.00,0.00,30.24,M,5.59,M,SCT,BKN,BKN,M,500.00,700.00,2500.00,M,M,M,M,M,M,M,M,66.20,RCTP 180200Z 36010KT 9000 SCT005 BKN007 BKN025 19/18 Q1024 NOSIG RMK A3024
RCTP,2017-01-18 02:30,66.20,62.60,88.18,360.00,11.00,0.00,30.21,M,5.59,M,SCT,BKN,BKN,M,500.00,700.00,2000.00,M,M,M,M,M,M,M,M,66.20,RCTP 180230Z 36011KT 9000 SCT005 BKN007 BKN020 19/17 Q1023 NOSIG RMK A3023
RCTP,2017-01-18 03:00,66.20,64.40,93.92,30.00,12.00,0.00,30.21,M,5.59,M,SCT,BKN,BKN,M,500.00,700.00,2000.00,M,M,M,M,M,M,M,M,66.20,RCTP 180300Z 03012KT 9000 SCT005 BKN007 BKN020 19/18 Q1023 NOSIG RMK A3021
RCTP,2017-01-18 03:30,68.00,64.40,88.26,20.00,10.00,0.00,30.18,M,6.21,M,FEW,BKN,BKN,M,500.00,700.00,2000.00,M,M,M,M,M,M,M,M,68.00,RCTP 180330Z 02010KT 9999 FEW005 BKN007 BKN020 20/18 Q1022 NOSIG RMK A3020
RCTP,2017-01-18 04:00,68.00,64.40,88.26,20.00,12.00,0.00,30.18,M,6.21,M,FEW,BKN,BKN,M,500.00,700.00,2000.00,M,M,M,M,M,M,M,M,68.00,RCTP 180400Z 02012KT 9999 FEW005 BKN007 BKN020 20/18 Q1022 NOSIG RMK A3018
RCTP,2017-01-18 04:13,68.00,64.40,88.26,20.00,10.00,0.00,30.15,M,6.21,M,SCT,BKN,BKN,M,700.00,1000.00,3500.00,M,M,M,M,M,M,M,M,68.00,RCTP 180413Z 02010KT 9999 SCT007 BKN010 BKN035 20/18 Q1021 NOSIG RMK A3017
RCTP,2017-01-18 04:30,68.00,64.40,88.26,10.00,11.00,0.00,30.15,M,6.21,M,SCT,BKN,BKN,M,700.00,1000.00,3500.00,M,M,M,M,M,M,M,M,68.00,RCTP 180430Z 01011KT 9999 SCT007 BKN010 BKN035 20/18 Q1021 NOSIG RMK A3016
RCTP,2017-01-18 05:00,69.80,64.40,82.98,20.00,11.00,0.00,30.15,M,6.21,M,SCT,BKN,BKN,M,600.00,1000.00,3500.00,M,M,M,M,M,M,M,M,69.80,RCTP 180500Z 02011KT 9999 SCT006 BKN010 BKN035 21/18 Q1021 TEMPO SCT006 BKN008 BKN030 RMK A3015
RCTP,2017-01-18 05:30,69.80,64.40,82.98,20.00,10.00,0.00,30.12,M,6.21,M,FEW,BKN,BKN,M,600.00,1000.00,3500.00,M,M,M,M,M,M,M,M,69.80,RCTP 180530Z 02010KT 360V070 9999 FEW006 BKN010 BKN035 21/18 Q1020 NOSIG RMK A3014
RCTP,2017-01-18 05:51,68.00,64.40,88.26,360.00,10.00,0.00,30.12,M,6.21,M,SCT,BKN,BKN,M,600.00,800.00,2000.00,M,M,M,M,M,M,M,M,68.00,RCTP 180551Z 36010KT 320V020 9999 SCT006 BKN008 BKN020 20/18 Q1020 NOSIG RMK A3014
RCTP,2017-01-18 06:00,68.00,64.40,88.26,360.00,11.00,0.00,30.12,M,6.21,M,SCT,BKN,BKN,M,600.00,800.00,2000.00,M,M,M,M,M,M,M,M,68.00,RCTP 180600Z 36011KT 9999 SCT006 BKN008 BKN020 20/18 Q1020 TEMPO SCT004 BKN006 BKN020 RMK A3014
RCTP,2017-01-18 06:30,68.00,64.40,88.26,350.00,10.00,0.00,30.12,M,6.21,M,SCT,BKN,BKN,M,500.00,700.00,2000.00,M,M,M,M,M,M,M,M,68.00,RCTP 180630Z 35010KT 9999 SCT005 BKN007 BKN020 20/18 Q1020 NOSIG RMK A3014
RCTP,2017-01-18 07:00,66.20,64.40,93.92,350.00,11.00,0.00,30.12,M,6.21,M,SCT,BKN,BKN,M,500.00,700.00,2000.00,M,M,M,M,M,M,M,M,66.20,RCTP 180700Z 35011KT 9999 SCT005 BKN007 BKN020 19/18 Q1020 NOSIG RMK A3014
RCTP,2017-01-18 07:30,66.20,62.60,88.18,360.00,9.00,0.00,30.15,M,6.21,M,SCT,BKN,BKN,M,500.00,700.00,2000.00,M,M,M,M,M,M,M,M,66.20,RCTP 180730Z 36009KT 9999 SCT005 BKN007 BKN020 19/17 Q1021 NOSIG RMK A3015
RCTP,2017-01-18 08:00,66.20,62.60,88.18,350.00,8.00,0.00,30.15,M,6.21,M,SCT,BKN,BKN,M,400.00,600.00,2000.00,M,M,M,M,M,M,M,M,66.20,RCTP 180800Z 35008KT 9999 SCT004 BKN006 BKN020 19/17 Q1021 NOSIG RMK A3015
RCTP,2017-01-18 08:30,64.40,62.60,93.88,350.00,12.00,0.00,30.15,M,4.97,M,SCT,BKN,BKN,M,300.00,500.00,1500.00,M,M,M,M,M,M,M,M,64.40,RCTP 180830Z 35012KT 8000 SCT003 BKN005 BKN015 18/17 Q1021 NOSIG RMK A3015
RCTP,2017-01-18 09:00,64.40,62.60,93.88,360.00,9.00,0.00,30.15,M,4.97,M,SCT,BKN,BKN,M,300.00,500.00,1500.00,M,M,M,M,M,M,M,M,64.40,RCTP 180900Z 36009KT 8000 SCT003 BKN005 BKN015 18/17 Q1021 NOSIG RMK A3015
RCTP,2017-01-18 09:30,64.40,62.60,93.88,10.00,8.00,0.00,30.15,M,5.59,M,SCT,BKN,BKN,M,400.00,600.00,1500.00,M,M,M,M,M,M,M,M,64.40,RCTP 180930Z 01008KT 9000 SCT004 BKN006 BKN015 18/17 Q1021 NOSIG RMK A3015
RCTP,2017-01-18 10:00,64.40,62.60,93.88,10.00,8.00,0.00,30.15,M,5.59,M,SCT,BKN,BKN,M,400.00,600.00,1500.00,M,M,M,M,M,M,M,M,64.40,RCTP 181000Z 01008KT 9000 SCT004 BKN006 BKN015 18/17 Q1021 NOSIG RMK A3016
RCTP,2017-01-18 10:30,64.40,62.60,93.88,10.00,8.00,0.00,30.15,M,5.59,M,SCT,BKN,BKN,M,400.00,600.00,1500.00,M,M,M,M,M,M,M,M,64.40,RCTP 181030Z 01008KT 9000 SCT004 BKN006 BKN015 18/17 Q1021 NOSIG RMK A3016
RCTP,2017-01-18 11:00,64.40,62.60,93.88,20.00,8.00,0.00,30.15,M,5.59,M,SCT,BKN,BKN,M,400.00,600.00,1500.00,M,M,M,M,M,M,M,M,64.40,RCTP 181100Z 02008KT 9000 SCT004 BKN006 BKN015 18/17 Q1021 NOSIG RMK A3017
RCTP,2017-01-18 11:30,64.40,62.60,93.88,10.00,9.00,0.00,30.15,M,5.59,M,SCT,BKN,BKN,M,400.00,600.00,1500.00,M,M,M,M,M,M,M,M,64.40,RCTP 181130Z 01009KT 9000 SCT004 BKN006 BKN015 18/17 Q1021 NOSIG RMK A3017
RCTP,2017-01-18 12:00,64.40,62.60,93.88,10.00,8.00,0.00,30.18,M,6.21,M,SCT,BKN,BKN,M,500.00,700.00,1500.00,M,M,M,M,M,M,M,M,64.40,RCTP 181200Z 01008KT 9999 SCT005 BKN007 BKN015 18/17 Q1022 NOSIG RMK A3018
RCTP,2017-01-18 12:30,64.40,62.60,93.88,20.00,8.00,0.00,30.15,M,6.21,M,SCT,BKN,BKN,M,500.00,700.00,1500.00,M,M,M,M,M,M,M,M,64.40,RCTP 181230Z 02008KT 9999 SCT005 BKN007 BKN015 18/17 Q1021 NOSIG RMK A3017
RCTP,2017-01-18 13:00,64.40,62.60,93.88,30.00,8.00,0.00,30.15,M,6.21,M,SCT,BKN,BKN,M,500.00,700.00,1500.00,M,M,M,M,M,M,M,M,64.40,RCTP 181300Z 03008KT 9999 SCT005 BKN007 BKN015 18/17 Q1021 NOSIG RMK A3017
RCTP,2017-01-18 13:30,64.40,62.60,93.88,30.00,8.00,0.00,30.15,M,6.21,M,SCT,BKN,BKN,M,400.00,600.00,1500.00,M,M,M,M,M,M,M,M,64.40,RCTP 181330Z 03008KT 9999 SCT004 BKN006 BKN015 18/17 Q1021 NOSIG RMK A3017
RCTP,2017-01-18 14:00,64.40,62.60,93.88,10.00,8.00,0.00,30.15,M,6.21,M,SCT,BKN,BKN,M,400.00,600.00,1500.00,M,M,M,M,M,M,M,M,64.40,RCTP 181400Z 01008KT 9999 SCT004 BKN006 BKN015 18/17 Q1021 NOSIG RMK A3017
RCTP,2017-01-18 14:30,64.40,62.60,93.88,20.00,6.00,0.00,30.15,M,6.21,M,SCT,BKN,BKN,M,500.00,700.00,1500.00,M,M,M,M,M,M,M,M,64.40,RCTP 181430Z 02006KT 9999 SCT005 BKN007 BKN015 18/17 Q1021 NOSIG RMK A3017
RCTP,2017-01-18 15:00,64.40,62.60,93.88,30.00,5.00,0.00,30.15,M,6.21,M,SCT,BKN,BKN,M,500.00,700.00,1500.00,M,M,M,M,M,M,M,M,64.40,RCTP 181500Z 03005KT 9999 SCT005 BKN007 BKN015 18/17 Q1021 NOSIG RMK A3017
RCTP,2017-01-18 15:30,64.40,62.60,93.88,10.00,5.00,0.00,30.15,M,6.21,M,SCT,BKN,BKN,M,500.00,700.00,1500.00,M,M,M,M,M,M,M,M,64.40,RCTP 181530Z 01005KT 9999 SCT005 BKN007 BKN015 18/17 Q1021 TEMPO SCT006 BKN008 BKN015 RMK A3017
RCTP,2017-01-18 15:40,64.40,62.60,93.88,10.00,4.00,0.00,30.15,M,6.21,M,SCT,BKN,BKN,M,600.00,800.00,1500.00,M,M,M,M,M,M,M,M,64.40,RCTP 181540Z 01004KT 9999 SCT006 BKN008 BKN015 18/17 Q1021 NOSIG RMK A3017
RCTP,2017-01-18 16:00,64.40,62.60,93.88,360.00,6.00,0.00,30.15,M,6.21,M,SCT,BKN,BKN,M,600.00,800.00,1500.00,M,M,M,M,M,M,M,M,64.40,RCTP 181600Z 36006KT 9999 SCT006 BKN008 BKN015 18/17 Q1021 TEMPO SCT004 BKN006 BKN012 RMK A3017
RCTP,2017-01-18 16:30,64.40,62.60,93.88,350.00,6.00,0.00,30.18,M,6.21,M,SCT,BKN,BKN,M,400.00,600.00,1500.00,M,M,M,M,M,M,M,M,64.40,RCTP 181630Z 35006KT 9999 SCT004 BKN006 BKN015 18/17 Q1022 NOSIG RMK A3018
RCTP,2017-01-18 17:00,64.40,62.60,93.88,360.00,5.00,0.00,30.18,M,6.21,M,SCT,BKN,BKN,M,500.00,700.00,1500.00,M,M,M,M,M,M,M,M,64.40,RCTP 181700Z 36005KT 9999 SCT005 BKN007 BKN015 18/17 Q1022 NOSIG RMK A3018
RCTP,2017-01-18 17:30,64.40,62.60,93.88,360.00,6.00,0.00,30.15,M,6.21,M,SCT,BKN,BKN,M,500.00,700.00,1500.00,M,M,M,M,M,M,M,M,64.40,RCTP 181730Z 36006KT 9999 SCT005 BKN007 BKN015 18/17 Q1021 NOSIG RMK A3017
RCTP,2017-01-18 18:00,64.40,62.60,93.88,350.00,4.00,0.00,30.15,M,6.21,M,SCT,BKN,BKN,M,500.00,700.00,1500.00,M,M,M,M,M,M,M,M,64.40,RCTP 181800Z 35004KT 9999 SCT005 BKN007 BKN015 18/17 Q1021 NOSIG RMK A3017
RCTP,2017-01-18 18:30,64.40,62.60,93.88,M,2.00,0.00,30.15,M,6.21,M,SCT,BKN,BKN,M,500.00,700.00,1500.00,M,M,M,M,M,M,M,M,64.40,RCTP 181830Z VRB02KT 9999 SCT005 BKN007 BKN015 18/17 Q1021 NOSIG RMK A3017
RCTP,2017-01-18 19:00,64.40,62.60,93.88,350.00,3.00,0.00,30.15,M,6.21,M,SCT,BKN,BKN,M,500.00,700.00,1500.00,M,M,M,M,M,M,M,M,64.40,RCTP 181900Z 35003KT 9999 SCT005 BKN007 BKN015 18/17 Q1021 NOSIG RMK A3017
RCTP,2017-01-18 19:30,64.40,62.60,93.88,340.00,5.00,0.00,30.15,M,6.21,M,SCT,BKN,BKN,M,500.00,700.00,1500.00,M,M,M,M,M,M,M,M,64.40,RCTP 181930Z 34005KT 9999 SCT005 BKN007 BKN015 18/17 Q1021 NOSIG RMK A3017
RCTP,2017-01-18 20:00,64.40,62.60,93.88,350.00,6.00,0.00,30.15,M,6.21,M,SCT,BKN,BKN,M,500.00,700.00,1500.00,M,M,M,M,M,M,M,M,64.40,RCTP 182000Z 35006KT 9999 SCT005 BKN007 BKN015 18/17 Q1021 NOSIG RMK A3016
RCTP,2017-01-18 20:30,64.40,62.60,93.88,350.00,9.00,0.00,30.15,M,6.21,M,SCT,BKN,BKN,M,300.00,500.00,1500.00,M,-DZ,M,M,M,M,M,M,64.40,RCTP 182030Z 35009KT 9999 -DZ SCT003 BKN005 BKN015 18/17 Q1021 NOSIG RMK A3017
RCTP,2017-01-18 21:00,64.40,62.60,93.88,350.00,8.00,0.00,30.15,M,4.97,M,SCT,BKN,BKN,M,300.00,500.00,1500.00,M,M,M,M,M,M,M,M,64.40,RCTP 182100Z 35008KT 8000 SCT003 BKN005 BKN015 18/17 Q1021 NOSIG RMK A3017
RCTP,2017-01-18 21:30,64.40,62.60,93.88,350.00,7.00,0.00,30.18,M,5.59,M,SCT,BKN,BKN,M,400.00,600.00,1500.00,M,M,M,M,M,M,M,M,64.40,RCTP 182130Z 35007KT 9000 SCT004 BKN006 BKN015 18/17 Q1022 NOSIG RMK A3018
RCTP,2017-01-18 22:00,64.40,62.60,93.88,360.00,6.00,0.00,30.18,M,6.21,M,SCT,BKN,BKN,M,400.00,700.00,1500.00,M,M,M,M,M,M,M,M,64.40,RCTP 182200Z 36006KT 9999 SCT004 BKN007 BKN015 18/17 Q1022 NOSIG RMK A3018
RCTP,2017-01-18 22:30,64.40,62.60,93.88,360.00,8.00,0.00,30.18,M,6.21,M,SCT,BKN,BKN,M,300.00,600.00,1500.00,M,M,M,M,M,M,M,M,64.40,RCTP 182230Z 36008KT 9999 SCT003 BKN006 BKN015 18/17 Q1022 NOSIG RMK A3019
RCTP,2017-01-18 22:56,62.60,62.60,100.00,360.00,9.00,0.00,30.18,M,6.21,M,SCT,BKN,BKN,M,300.00,600.00,1500.00,M,-RA,M,M,M,M,M,M,62.60,RCTP 182256Z 36009KT 9999 -RA SCT003 BKN006 BKN015 17/17 Q1022 NOSIG RMK A3019
RCTP,2017-01-18 23:00,62.60,62.60,100.00,360.00,9.00,0.00,30.18,M,6.21,M,SCT,BKN,BKN,M,300.00,600.00,1500.00,M,-RA,M,M,M,M,M,M,62.60,RCTP 182300Z 36009KT 9999 -RA SCT003 BKN006 BKN015 17/17 Q1022 NOSIG RMK A3020
RCTP,2017-01-18 23:30,62.60,62.60,100.00,360.00,9.00,0.00,30.18,M,6.21,M,SCT,BKN,BKN,M,300.00,600.00,1500.00,M,-RA,M,M,M,M,M,M,62.60,RCTP 182330Z 36009KT 9999 -RA SCT003 BKN006 BKN015 17/17 Q1022 NOSIG RMK A3020
RCTP,2017-01-19 00:01,62.60,62.60,100.00,360.00,10.00,0.00,30.21,M,2.49,M,SCT,BKN,BKN,M,200.00,400.00,1500.00,M,-RA,M,M,M,M,M,M,62.60,RCTP 190001Z 36010KT 4000 -RA SCT002 BKN004 BKN015 17/17 Q1023 TEMPO 3000 RA RMK A3022
RCTP,2017-01-19 00:09,62.60,62.60,100.00,360.00,10.00,0.00,30.21,M,1.86,M,SCT,BKN,OVC,M,200.00,400.00,1200.00,M,RA,M,M,M,M,M,M,62.60,RCTP 190009Z 36010KT 3000 RA SCT002 BKN004 OVC012 17/17 Q1023 NOSIG RMK A3021
RCTP,2017-01-19 00:19,62.60,62.60,100.00,360.00,10.00,0.00,30.21,M,0.93,M,SCT,BKN,OVC,M,200.00,400.00,1200.00,M,RA,M,M,M,M,M,M,62.60,RCTP 190019Z 36010KT 1500 RA SCT002 BKN004 OVC012 17/17 Q1023 NOSIG RMK A3022
RCTP,2017-01-19 00:23,62.60,62.60,100.00,30.00,6.00,0.00,30.21,M,1.86,M,SCT,BKN,OVC,M,200.00,400.00,1200.00,M,RA,M,M,M,M,M,M,62.60,RCTP 190023Z 03006KT 3000 RA SCT002 BKN004 OVC012 17/17 Q1023 NOSIG RMK A3022
RCTP,2017-01-19 00:37,62.60,62.60,100.00,20.00,6.00,0.00,30.21,M,3.73,M,SCT,BKN,OVC,M,300.00,600.00,1500.00,M,-RA,M,M,M,M,M,M,62.60,RCTP 190037Z 02006KT 6000 -RA SCT003 BKN006 OVC015 17/17 Q1023 RERA NOSIG RMK A3022
RCTP,2017-01-19 01:00,62.60,62.60,100.00,350.00,3.00,0.00,30.21,M,4.97,M,SCT,BKN,M,M,300.00,400.00,M,M,-RA,M,M,M,M,M,M,62.60,RCTP 190100Z 35003KT 8000 -RA SCT003 BKN004 17/17 Q1023 RERA NOSIG RMK A3023 RA AMT 4.0MM
RCTP,2017-01-19 01:23,64.40,62.60,93.88,20.00,7.00,0.00,30.21,M,6.21,M,SCT,BKN,BKN,M,300.00,600.00,1000.00,M,M,M,M,M,M,M,M,64.40,RCTP 190123Z 02007KT 9999 SCT003 BKN006 BKN010 18/17 Q1023 NOSIG RMK A3023
RCTP,2017-01-19 01:30,64.40,62.60,93.88,20.00,7.00,0.00,30.21,M,6.21,M,SCT,BKN,BKN,M,300.00,600.00,1000.00,M,M,M,M,M,M,M,M,64.40,RCTP 190130Z 02007KT 9999 SCT003 BKN006 BKN010 18/17 Q1023 NOSIG RMK A3023
RCTP,2017-01-19 01:48,64.40,62.60,93.88,20.00,9.00,0.00,30.21,M,6.21,M,SCT,BKN,BKN,M,300.00,800.00,1200.00,M,M,M,M,M,M,M,M,64.40,RCTP 190148Z 02009KT 9999 SCT003 BKN008 BKN012 18/17 Q1023 NOSIG RMK A3022
RCTP,2017-01-19 02:00,64.40,62.60,93.88,10.00,7.00,0.00,30.21,M,6.21,M,SCT,BKN,BKN,M,300.00,900.00,1400.00,M,M,M,M,M,M,M,M,64.40,RCTP 190200Z 01007KT 9999 SCT003 BKN009 BKN014 18/17 Q1023 NOSIG RMK A3022
RCTP,2017-01-19 02:30,64.40,62.60,93.88,10.00,11.00,0.00,30.21,M,6.21,M,SCT,BKN,BKN,M,700.00,1000.00,1400.00,M,M,M,M,M,M,M,M,64.40,RCTP 190230Z 01011KT 9999 SCT007 BKN010 BKN014 18/17 Q1023 NOSIG RMK A3021
RCTP,2017-01-19 03:00,64.40,62.60,93.88,20.00,13.00,0.00,30.18,M,6.21,M,SCT,BKN,BKN,M,700.00,1200.00,1500.00,M,M,M,M,M,M,M,M,64.40,RCTP 190300Z 02013KT 9999 SCT007 BKN012 BKN015 18/17 Q1022 NOSIG RMK A3020
RCTP,2017-01-19 03:30,64.40,62.60,93.88,20.00,11.00,0.00,30.18,M,6.21,M,SCT,BKN,BKN,M,600.00,900.00,1500.00,M,M,M,M,M,M,M,M,64.40,RCTP 190330Z 02011KT 9999 SCT006 BKN009 BKN015 18/17 Q1022 NOSIG RMK A3018
RCTP,2017-01-19 04:00,64.40,62.60,93.88,30.00,10.00,0.00,30.15,M,6.21,M,SCT,BKN,BKN,M,600.00,800.00,1500.00,M,M,M,M,M,M,M,M,64.40,RCTP 190400Z 03010KT 9999 SCT006 BKN008 BKN015 18/17 Q1021 NOSIG RMK A3017
RCTP,2017-01-19 04:30,64.40,62.60,93.88,20.00,10.00,0.00,30.15,M,6.21,M,SCT,BKN,BKN,M,600.00,800.00,1200.00,M,M,M,M,M,M,M,M,64.40,RCTP 190430Z 02010KT 9999 SCT006 BKN008 BKN012 18/17 Q1021 NOSIG RMK A3015
RCTP,2017-01-19 05:00,64.40,60.80,88.09,30.00,12.00,0.00,30.12,M,6.21,M,SCT,BKN,BKN,M,600.00,1000.00,1500.00,M,M,M,M,M,M,M,M,64.40,RCTP 190500Z 03012KT 9999 SCT006 BKN010 BKN015 18/16 Q1020 NOSIG RMK A3013
RCTP,2017-01-19 05:30,66.20,60.80,82.74,40.00,10.00,0.00,30.09,M,6.21,M,SCT,BKN,BKN,M,800.00,1200.00,1500.00,M,M,M,M,M,M,M,M,66.20,RCTP 190530Z 04010KT 9999 SCT008 BKN012 BKN015 19/16 Q1019 NOSIG RMK A3010
RCTP,2017-01-19 06:00,66.20,60.80,82.74,30.00,10.00,0.00,30.09,M,6.21,M,SCT,BKN,BKN,M,800.00,1200.00,1500.00,M,M,M,M,M,M,M,M,66.20,RCTP 190600Z 03010KT 9999 SCT008 BKN012 BKN015 19/16 Q1019 NOSIG RMK A3009
RCTP,2017-01-19 06:30,64.40,60.80,88.09,10.00,11.00,0.00,30.09,M,6.21,M,BKN,OVC,M,M,1100.00,1800.00,M,M,M,M,M,M,M,M,M,64.40,RCTP 190630Z 01011KT 9999 BKN011 OVC018 18/16 Q1019 NOSIG RMK A3010
RCTP,2017-01-19 07:00,66.20,60.80,82.74,10.00,11.00,0.00,30.09,M,6.21,M,BKN,OVC,M,M,1100.00,1800.00,M,M,M,M,M,M,M,M,M,66.20,RCTP 190700Z 01011KT 9999 BKN011 OVC018 19/16 Q1019 NOSIG RMK A3010
RCTP,2017-01-19 07:30,64.40,60.80,88.09,10.00,12.00,0.00,30.09,M,6.21,M,BKN,OVC,M,M,1100.00,1800.00,M,M,M,M,M,M,M,M,M,64.40,RCTP 190730Z 01012KT 9999 BKN011 OVC018 18/16 Q1019 NOSIG RMK A3010
RCTP,2017-01-19 08:00,64.40,60.80,88.09,10.00,11.00,0.00,30.09,M,6.21,M,BKN,OVC,M,M,1100.00,2000.00,M,M,M,M,M,M,M,M,M,64.40,RCTP 190800Z 01011KT 9999 BKN011 OVC020 18/16 Q1019 NOSIG RMK A3010
RCTP,2017-01-19 08:30,64.40,60.80,88.09,30.00,11.00,0.00,30.09,M,6.21,M,BKN,OVC,M,M,1100.00,1800.00,M,M,M,M,M,M,M,M,M,64.40,RCTP 190830Z 03011KT 9999 BKN011 OVC018 18/16 Q1019 NOSIG RMK A3011
RCTP,2017-01-19 09:00,64.40,60.80,88.09,30.00,10.00,0.00,30.12,M,6.21,M,BKN,OVC,M,M,1100.00,2000.00,M,M,M,M,M,M,M,M,M,64.40,RCTP 190900Z 03010KT 9999 BKN011 OVC020 18/16 Q1020 NOSIG RMK A3012
RCTP,2017-01-19 09:30,64.40,60.80,88.09,20.00,12.00,0.00,30.12,M,6.21,M,BKN,OVC,M,M,1100.00,2000.00,M,M,VCSH,M,M,M,M,M,M,64.40,RCTP 190930Z 02012KT 9999 VCSH BKN011 OVC020 18/16 Q1020 NOSIG RMK A3012
RCTP,2017-01-19 10:00,64.40,60.80,88.09,10.00,10.00,0.00,30.12,M,6.21,M,FEW,BKN,OVC,M,700.00,1100.00,2000.00,M,M,M,M,M,M,M,M,64.40,RCTP 191000Z 01010KT 9999 FEW007 BKN011 OVC020 18/16 Q1020 NOSIG RMK A3013
RCTP,2017-01-19 10:30,64.40,60.80,88.09,30.00,12.00,0.00,30.12,M,6.21,M,BKN,OVC,M,M,1100.00,2000.00,M,M,M,M,M,M,M,M,M,64.40,RCTP 191030Z 03012KT 9999 BKN011 OVC020 18/16 Q1020 NOSIG RMK A3014
RCTP,2017-01-19 11:00,64.40,60.80,88.09,30.00,12.00,0.00,30.12,M,6.21,M,FEW,BKN,OVC,M,900.00,1200.00,2200.00,M,M,M,M,M,M,M,M,64.40,RCTP 191100Z 03012KT 9999 FEW009 BKN012 OVC022 18/16 Q1020 NOSIG RMK A3014
RCTP,2017-01-19 11:30,64.40,60.80,88.09,30.00,11.00,0.00,30.15,M,6.21,M,FEW,BKN,OVC,M,800.00,1200.00,1700.00,M,M,M,M,M,M,M,M,64.40,RCTP 191130Z 03011KT 9999 FEW008 BKN012 OVC017 18/16 Q1021 NOSIG RMK A3015
RCTP,2017-01-19 11:36,64.40,60.80,88.09,30.00,12.00,0.00,30.15,M,6.21,M,BKN,BKN,OVC,M,800.00,1300.00,1700.00,M,M,M,M,M,M,M,M,64.40,RCTP 191136Z 03012KT 9999 BKN008 BKN013 OVC017 18/16 Q1021 NOSIG RMK A3015
RCTP,2017-01-19 12:00,64.40,60.80,88.09,30.00,12.00,0.00,30.15,M,6.21,M,BKN,BKN,M,M,800.00,1300.00,M,M,M,M,M,M,M,M,M,64.40,RCTP 191200Z 03012KT 9999 BKN008 BKN013 18/16 Q1021 NOSIG RMK A3015
RCTP,2017-01-19 12:16,64.40,60.80,88.09,30.00,14.00,0.00,30.15,M,6.21,M,SCT,BKN,M,M,800.00,1100.00,M,M,M,M,M,M,M,M,M,64.40,RCTP 191216Z 03014KT 9999 SCT008 BKN011 18/16 Q1021 NOSIG RMK A3015
RCTP,2017-01-19 12:30,64.40,60.80,88.09,30.00,14.00,0.00,30.15,M,4.97,M,SCT,BKN,BKN,M,800.00,1100.00,1700.00,M,M,M,M,M,M,M,M,64.40,RCTP 191230Z 03014KT 8000 SCT008 BKN011 BKN017 18/16 Q1021 NOSIG RMK A3016
RCTP,2017-01-19 13:00,64.40,60.80,88.09,30.00,14.00,0.00,30.15,M,4.97,M,FEW,BKN,BKN,M,700.00,1100.00,1500.00,M,M,M,M,M,M,M,M,64.40,RCTP 191300Z 03014KT 8000 FEW007 BKN011 BKN015 18/16 Q1021 NOSIG RMK A3016
RCTP,2017-01-19 13:30,62.60,60.80,93.83,40.00,14.00,0.00,30.15,M,4.97,M,FEW,BKN,BKN,M,800.00,1100.00,1500.00,M,M,M,M,M,M,M,M,62.60,RCTP 191330Z 04014KT 8000 FEW008 BKN011 BKN015 17/16 Q1021 NOSIG RMK A3016
RCTP,2017-01-19 14:00,64.40,60.80,88.09,40.00,13.00,0.00,30.15,M,4.97,M,FEW,BKN,BKN,M,800.00,1100.00,1500.00,M,M,M,M,M,M,M,M,64.40,RCTP 191400Z 04013KT 8000 FEW008 BKN011 BKN015 18/16 Q1021 NOSIG RMK A3016
RCTP,2017-01-19 14:17,62.60,60.80,93.83,40.00,13.00,0.00,30.15,M,3.73,M,FEW,BKN,M,M,600.00,1000.00,M,M,-DZ,M,M,M,M,M,M,62.60,RCTP 191417Z 04013KT 6000 -DZ FEW006 BKN010 17/16 Q1021 NOSIG RMK A3017
RCTP,2017-01-19 14:30,62.60,60.80,93.83,30.00,14.00,0.00,30.15,M,3.73,M,FEW,BKN,M,M,600.00,1000.00,M,M,-DZ,M,M,M,M,M,M,62.60,RCTP 191430Z 03014KT 6000 -DZ FEW006 BKN010 17/16 Q1021 NOSIG RMK A3017
RCTP,2017-01-19 14:40,62.60,60.80,93.83,30.00,14.00,0.00,30.15,M,4.35,M,FEW,BKN,M,M,600.00,800.00,M,M,-DZ,M,M,M,M,M,M,62.60,RCTP 191440Z 03014KT 7000 3000N -DZ FEW006 BKN008 17/16 Q1021 NOSIG RMK A3017
RCTP,2017-01-19 14:55,62.60,60.80,93.83,30.00,15.00,0.00,30.15,M,2.49,M,BKN,BKN,M,M,600.00,800.00,M,M,-DZ,M,M,M,M,M,M,62.60,RCTP 191455Z 03015KT 4000 -DZ BKN006 BKN008 17/16 Q1021 TEMPO 3000 -RA RMK A3017
RCTP,2017-01-19 15:00,62.60,60.80,93.83,20.00,15.00,0.00,30.15,M,2.49,M,BKN,BKN,OVC,M,600.00,800.00,1200.00,M,-DZ,M,M,M,M,M,M,62.60,RCTP 191500Z 02015KT 4000 -DZ BKN006 BKN008 OVC012 17/16 Q1021 TEMPO 3000 -RA RMK A3017
RCTP,2017-01-19 15:13,62.60,60.80,93.83,20.00,15.00,0.00,30.15,M,2.61,M,BKN,BKN,OVC,M,600.00,1000.00,1500.00,M,-RA BR,M,M,M,M,M,M,62.60,RCTP 191513Z 02015KT 4200 2000N -RA BR BKN006 BKN010 OVC015 17/16 Q1021 TEMPO 3000 -RA RMK A3017
RCTP,2017-01-19 15:26,60.80,60.80,100.00,30.00,16.00,0.00,30.15,M,1.86,M,BKN,BKN,OVC,M,400.00,600.00,1000.00,M,-RA BR,M,M,M,M,M,M,60.80,RCTP 191526Z 03016KT 3000 -RA BR BKN004 BKN006 OVC010 16/16 Q1021 NOSIG RMK A3017
RCTP,2017-01-19 15:30,60.80,60.80,100.00,20.00,16.00,0.00,30.18,M,1.86,M,BKN,BKN,OVC,M,400.00,600.00,1000.00,M,-RA BR,M,M,M,M,M,M,60.80,RCTP 191530Z 02016KT 3000 -RA BR BKN004 BKN006 OVC010 16/16 Q1022 NOSIG RMK A3018
RCTP,2017-01-19 16:00,60.80,60.80,100.00,20.00,17.00,0.00,30.18,M,1.55,M,BKN,BKN,OVC,M,300.00,600.00,1000.00,M,-RA BR,M,M,M,M,M,M,60.80,RCTP 191600Z 02017KT 2500 -RA BR BKN003 BKN006 OVC010 16/16 Q1022 NOSIG RMK A3018
RCTP,2017-01-19 16:30,60.80,59.00,93.79,30.00,16.00,0.00,30.18,M,1.55,M,BKN,BKN,OVC,M,300.00,600.00,1000.00,M,-RA BR,M,M,M,M,M,M,60.80,RCTP 191630Z 03016KT 2500 -RA BR BKN003 BKN006 OVC010 16/15 Q1022 NOSIG RMK A3018
RCTP,2017-01-19 16:46,59.00,59.00,100.00,30.00,19.00,0.00,30.18,M,2.49,M,BKN,BKN,OVC,M,300.00,600.00,1000.00,M,-RA BR,M,M,M,M,M,M,59.00,RCTP 191646Z 03019KT 4000 -RA BR BKN003 BKN006 OVC010 15/15 Q1022 NOSIG RMK A3019
RCTP,2017-01-19 17:00,60.80,59.00,93.79,30.00,20.00,0.00,30.18,M,3.73,M,BKN,BKN,OVC,M,400.00,600.00,1000.00,M,-RA,M,M,M,M,M,M,60.80,RCTP 191700Z 03020KT 6000 -RA BKN004 BKN006 OVC010 16/15 Q1022 NOSIG RMK A3019 RA AMT 0.2MM
RCTP,2017-01-19 17:15,59.00,59.00,100.00,30.00,18.00,0.00,30.18,M,4.35,M,BKN,BKN,OVC,M,500.00,800.00,1200.00,M,-RA,M,M,M,M,M,M,59.00,RCTP 191715Z 03018KT 7000 -RA BKN005 BKN008 OVC012 15/15 Q1022 TEMPO SCT005 BKN008 BKN015 RMK A3019
RCTP,2017-01-19 17:30,59.00,57.20,93.74,30.00,18.00,0.00,30.18,M,4.97,M,BKN,BKN,M,M,600.00,1300.00,M,M,-RA,M,M,M,M,M,M,59.00,RCTP 191730Z 03018KT 8000 -RA BKN006 BKN013 15/14 Q1022 NOSIG RMK A3020
RCTP,2017-01-19 17:42,59.00,57.20,93.74,30.00,17.00,0.00,30.21,M,3.73,28.00,FEW,BKN,OVC,M,500.00,800.00,2000.00,M,-DZ,M,M,M,M,M,M,59.00,RCTP 191742Z 03017G28KT 6000 -DZ FEW005 BKN008 OVC020 15/14 Q1023 NOSIG RMK A3021
RCTP,2017-01-19 17:55,59.00,57.20,93.74,30.00,17.00,0.00,30.21,M,2.49,28.00,FEW,BKN,OVC,M,500.00,800.00,2000.00,M,-DZ,M,M,M,M,M,M,59.00,RCTP 191755Z 03017G28KT 4000 -DZ FEW005 BKN008 OVC020 15/14 Q1023 TEMPO 2500 RMK A3021
RCTP,2017-01-19 18:00,59.00,57.20,93.74,30.00,17.00,0.00,30.21,M,2.17,M,FEW,BKN,OVC,M,500.00,800.00,2000.00,M,-DZ,M,M,M,M,M,M,59.00,RCTP 191800Z 03017KT 3500 -DZ FEW005 BKN008 OVC020 15/14 Q1023 TEMPO 2500 RMK A3021 RA AMT 0.2MM
RCTP,2017-01-19 18:14,59.00,55.40,87.83,30.00,20.00,0.00,30.21,M,1.86,M,FEW,BKN,OVC,M,400.00,700.00,2000.00,M,-DZ,M,M,M,M,M,M,59.00,RCTP 191814Z 03020KT 3000 -DZ FEW004 BKN007 OVC020 15/13 Q1023 TEMPO 2500 FEW003 BKN005 RMK A3021
RCTP,2017-01-19 18:30,59.00,55.40,87.83,30.00,18.00,0.00,30.21,M,1.86,M,FEW,BKN,OVC,M,300.00,600.00,2000.00,M,-DZ,M,M,M,M,M,M,59.00,RCTP 191830Z 03018KT 3000 -DZ FEW003 BKN006 OVC020 15/13 Q1023 TEMPO 2500 FEW003 BKN005 RMK A3021
RCTP,2017-01-19 18:41,59.00,55.40,87.83,30.00,20.00,0.00,30.21,M,1.74,M,FEW,BKN,OVC,M,300.00,500.00,2000.00,M,-DZ,M,M,M,M,M,M,59.00,RCTP 191841Z 03020KT 2800 -DZ FEW003 BKN005 OVC020 15/13 Q1023 NOSIG RMK A3021
RCTP,2017-01-19 19:00,57.20,53.60,87.74,30.00,21.00,0.00,30.21,M,1.74,31.00,FEW,BKN,OVC,M,300.00,500.00,2000.00,M,-DZ,M,M,M,M,M,M,57.20,RCTP 191900Z 03021G31KT 2800 -DZ FEW003 BKN005 OVC020 14/12 Q1023 NOSIG RMK A3021 RA AMT 0.4MM
RCTP,2017-01-19 20:00,57.20,53.60,87.74,30.00,18.00,0.00,30.21,M,1.86,M,FEW,BKN,OVC,M,300.00,600.00,2000.00,M,-DZ,M,M,M,M,M,M,57.20,RCTP 192000Z 03018KT 3000 -DZ FEW003 BKN006 OVC020 14/12 Q1023 NOSIG RMK A3022 RA AMT 0.4MM
RCTP,2017-01-19 20:17,57.20,51.80,82.12,40.00,19.00,0.00,30.21,M,3.11,29.00,FEW,BKN,OVC,M,500.00,800.00,2000.00,M,-DZ,M,M,M,M,M,M,57.20,RCTP 192017Z 04019G29KT 5000 -DZ FEW005 BKN008 OVC020 14/11 Q1023 NOSIG RMK A3022
RCTP,2017-01-19 20:30,57.20,51.80,82.12,30.00,19.00,0.00,30.21,M,2.80,31.00,FEW,BKN,OVC,M,500.00,800.00,2500.00,M,-DZ,M,M,M,M,M,M,57.20,RCTP 192030Z 03019G31KT 4500 -DZ FEW005 BKN008 OVC025 14/11 Q1023 NOSIG RMK A3023
RCTP,2017-01-19 20:52,55.40,51.80,87.65,30.00,18.00,0.00,30.24,M,3.11,M,FEW,BKN,OVC,M,500.00,1200.00,2500.00,M,-DZ,M,M,M,M,M,M,55.40,RCTP 192052Z 03018KT 5000 -DZ FEW005 BKN012 OVC025 13/11 Q1024 NOSIG RMK A3024
RCTP,2017-01-19 21:00,55.40,51.80,87.65,30.00,18.00,0.00,30.24,M,3.11,29.00,FEW,BKN,OVC,M,600.00,1300.00,2500.00,M,-DZ,M,M,M,M,M,M,55.40,RCTP 192100Z 03018G29KT 5000 -DZ FEW006 BKN013 OVC025 13/11 Q1024 NOSIG RMK A3024
RCTP,2017-01-19 21:30,55.40,51.80,87.65,40.00,15.00,0.00,30.24,M,2.80,M,FEW,BKN,OVC,M,500.00,1100.00,2000.00,M,-DZ,M,M,M,M,M,M,55.40,RCTP 192130Z 04015KT 4500 -DZ FEW005 BKN011 OVC020 13/11 Q1024 NOSIG RMK A3025
RCTP,2017-01-19 22:00,57.20,53.60,87.74,30.00,19.00,0.00,30.24,M,2.80,M,FEW,BKN,OVC,M,500.00,1100.00,2000.00,M,-DZ,M,M,M,M,M,M,57.20,RCTP 192200Z 03019KT 4500 -DZ FEW005 BKN011 OVC020 14/12 Q1024 NOSIG RMK A3026 RA AMT 0.2MM
RCTP,2017-01-19 22:30,57.20,53.60,87.74,30.00,19.00,0.00,30.27,M,2.80,M,FEW,BKN,OVC,M,800.00,1300.00,2500.00,M,-DZ,M,M,M,M,M,M,57.20,RCTP 192230Z 03019KT 4500 -DZ FEW008 BKN013 OVC025 14/12 Q1025 NOSIG RMK A3028
RCTP,2017-01-19 23:00,57.20,53.60,87.74,30.00,18.00,0.00,30.27,M,2.49,M,FEW,BKN,OVC,M,600.00,1200.00,2500.00,M,-RA,M,M,M,M,M,M,57.20,RCTP 192300Z 03018KT 4000 -RA FEW006 BKN012 OVC025 14/12 Q1025 NOSIG RMK A3028 RA AMT 0.4MM
RCTP,2017-01-19 23:12,57.20,53.60,87.74,30.00,20.00,0.00,30.27,M,3.73,M,FEW,BKN,OVC,M,600.00,1200.00,2500.00,M,-DZ,M,M,M,M,M,M,57.20,RCTP 192312Z 03020KT 6000 -DZ FEW006 BKN012 OVC025 14/12 Q1025 NOSIG RMK A3028
RCTP,2017-01-19 23:30,57.20,53.60,87.74,30.00,16.00,0.00,30.27,M,5.59,M,SCT,BKN,M,M,1400.00,2500.00,M,M,-DZ,M,M,M,M,M,M,57.20,RCTP 192330Z 03016KT 9000 -DZ SCT014 BKN025 14/12 Q1025 NOSIG RMK A3029
RCTP,2017-01-19 23:39,57.20,53.60,87.74,40.00,15.00,0.00,30.27,M,6.21,M,BKN,OVC,M,M,1600.00,2500.00,M,M,M,M,M,M,M,M,M,57.20,RCTP 192339Z 04015KT 9999 BKN016 OVC025 14/12 Q1025 NOSIG RMK A3029
RCTP,2017-01-20 00:03,57.20,53.60,87.74,30.00,19.00,0.00,30.30,M,5.59,M,FEW,BKN,BKN,M,800.00,1400.00,2000.00,M,-RA,M,M,M,M,M,M,57.20,RCTP 200003Z 03019KT 9000 -RA FEW008 BKN014 BKN020 14/12 Q1026 NOSIG RMK A3030
RCTP,2017-01-20 00:30,57.20,53.60,87.74,30.00,20.00,0.00,30.30,M,4.97,M,FEW,BKN,BKN,M,800.00,1200.00,2000.00,M,-RA,M,M,M,M,M,M,57.20,RCTP 200030Z 03020KT 8000 -RA FEW008 BKN012 BKN020 14/12 Q1026 NOSIG RMK A3031
RCTP,2017-01-20 01:00,55.40,51.80,87.65,30.00,20.00,0.00,30.33,M,5.59,M,FEW,BKN,BKN,M,800.00,1500.00,2000.00,M,-RA,M,M,M,M,M,M,55.40,RCTP 200100Z 03020KT 9000 -RA FEW008 BKN015 BKN020 13/11 Q1027 NOSIG RMK A3033
RCTP,2017-01-20 01:30,55.40,51.80,87.65,40.00,22.00,0.00,30.33,M,6.21,M,FEW,BKN,BKN,M,1000.00,1500.00,2400.00,M,-RA,M,M,M,M,M,M,55.40,RCTP 200130Z 04022KT 9999 -RA FEW010 BKN015 BKN024 13/11 Q1027 NOSIG RMK A3033
RCTP,2017-01-20 02:00,55.40,51.80,87.65,30.00,21.00,0.00,30.33,M,6.21,M,FEW,BKN,BKN,M,1000.00,1500.00,2400.00,M,-DZ,M,M,M,M,M,M,55.40,RCTP 200200Z 03021KT 9999 -DZ FEW010 BKN015 BKN024 13/11 Q1027 NOSIG RMK A3033
RCTP,2017-01-20 02:30,55.40,51.80,87.65,30.00,20.00,0.00,30.33,M,6.21,M,FEW,BKN,BKN,M,1000.00,1500.00,2400.00,M,M,M,M,M,M,M,M,55.40,RCTP 200230Z 03020KT 9999 FEW010 BKN015 BKN024 13/11 Q1027 NOSIG RMK A3033
RCTP,2017-01-20 03:00,55.40,51.80,87.65,30.00,23.00,0.00,30.33,M,5.59,M,FEW,BKN,BKN,M,800.00,1500.00,2400.00,M,-DZ,M,M,M,M,M,M,55.40,RCTP 200300Z 03023KT 9000 -DZ FEW008 BKN015 BKN024 13/11 Q1027 NOSIG RMK A3033
RCTP,2017-01-20 03:30,55.40,50.00,81.99,40.00,21.00,0.00,30.33,M,5.59,M,FEW,BKN,BKN,M,1000.00,1800.00,2800.00,M,-DZ,M,M,M,M,M,M,55.40,RCTP 200330Z 04021KT 9000 -DZ FEW010 BKN018 BKN028 13/10 Q1027 NOSIG RMK A3033
RCTP,2017-01-20 04:30,55.40,50.00,81.99,40.00,25.00,0.00,30.30,M,3.73,M,FEW,BKN,BKN,M,900.00,1500.00,2500.00,M,-DZ,M,M,M,M,M,M,55.40,RCTP 200430Z 04025KT 6000 -DZ FEW009 BKN015 BKN025 13/10 Q1026 NOSIG RMK A3030
RCTP,2017-01-20 05:00,53.60,48.20,81.87,40.00,24.00,0.00,30.30,M,3.73,M,FEW,BKN,BKN,M,900.00,1500.00,2500.00,M,-DZ,M,M,M,M,M,M,53.60,RCTP 200500Z 04024KT 6000 -DZ FEW009 BKN015 BKN025 12/09 Q1026 NOSIG RMK A3030
RCTP,2017-01-20 05:30,53.60,48.20,81.87,40.00,24.00,0.00,30.27,M,3.73,M,FEW,BKN,BKN,M,900.00,2000.00,2500.00,M,-DZ,M,M,M,M,M,M,53.60,RCTP 200530Z 04024KT 6000 -DZ FEW009 BKN020 BKN025 12/09 Q1025 NOSIG RMK A3029
RCTP,2017-01-20 05:47,55.40,48.20,76.66,50.00,24.00,0.00,30.27,M,3.11,M,FEW,BKN,BKN,M,900.00,1600.00,2500.00,M,-DZ BR,M,M,M,M,M,M,55.40,RCTP 200547Z 05024KT 5000 -DZ BR FEW009 BKN016 BKN025 13/09 Q1025 NOSIG RMK A3028
RCTP,2017-01-20 06:00,53.60,48.20,81.87,40.00,23.00,0.00,30.27,M,2.80,M,FEW,BKN,BKN,M,900.00,1600.00,2500.00,M,-DZ BR,M,M,M,M,M,M,53.60,RCTP 200600Z 04023KT 4500 -DZ BR FEW009 BKN016 BKN025 12/09 Q1025 NOSIG RMK A3028
RCTP,2017-01-20 06:30,53.60,46.40,76.50,40.00,26.00,0.00,30.27,M,2.80,M,FEW,BKN,OVC,M,1000.00,2000.00,5000.00,M,-DZ,M,M,M,M,M,M,53.60,RCTP 200630Z 04026KT 4500 -DZ FEW010 BKN020 OVC050 12/08 Q1025 NOSIG RMK A3028
RCTP,2017-01-20 07:30,53.60,44.60,71.45,40.00,24.00,0.00,30.27,M,3.11,M,FEW,BKN,OVC,M,1200.00,2200.00,5000.00,M,HZ,M,M,M,M,M,M,53.60,RCTP 200730Z 04024KT 5000 HZ FEW012 BKN022 OVC050 12/07 Q1025 NOSIG RMK A3029
RCTP,2017-01-20 08:03,53.60,42.80,66.70,50.00,24.00,0.00,30.30,M,3.11,M,FEW,BKN,OVC,M,1200.00,2500.00,4000.00,M,HZ,M,M,M,M,M,M,53.60,RCTP 200803Z 05024KT 5000 HZ FEW012 BKN025 OVC040 12/06 Q1026 WS ALL RWY NOSIG RMK A3030
RCTP,2017-01-20 08:30,53.60,42.80,66.70,50.00,26.00,0.00,30.30,M,3.73,M,FEW,BKN,OVC,M,1200.00,2500.00,4000.00,M,M,M,M,M,M,M,M,53.60,RCTP 200830Z 05026KT 6000 FEW012 BKN025 OVC040 12/06 Q1026 WS ALL RWY NOSIG RMK A3030
RCTP,2017-01-20 09:00,53.60,42.80,66.70,50.00,24.00,0.00,30.30,M,4.97,34.00,FEW,BKN,BKN,M,1200.00,3000.00,5000.00,M,M,M,M,M,M,M,M,53.60,RCTP 200900Z 05024G34KT 8000 FEW012 BKN030 BKN050 12/06 Q1026 WS ALL RWY NOSIG RMK A3031
RCTP,2017-01-20 09:30,53.60,42.80,66.70,50.00,22.00,0.00,30.30,M,5.59,32.00,FEW,BKN,BKN,M,1200.00,3000.00,5000.00,M,M,M,M,M,M,M,M,53.60,RCTP 200930Z 05022G32KT 9000 FEW012 BKN030 BKN050 12/06 Q1026 WS ALL RWY NOSIG RMK A3031
RCTP,2017-01-20 10:00,53.60,42.80,66.70,60.00,26.00,0.00,30.33,M,6.21,36.00,FEW,BKN,BKN,M,1200.00,3000.00,5000.00,M,M,M,M,M,M,M,M,53.60,RCTP 201000Z 06026G36KT 9999 FEW012 BKN030 BKN050 12/06 Q1027 WS ALL RWY NOSIG RMK A3033
RCTP,2017-01-20 10:30,53.60,42.80,66.70,60.00,25.00,0.00,30.33,M,6.21,M,FEW,BKN,BKN,M,1200.00,3500.00,6000.00,M,M,M,M,M,M,M,M,53.60,RCTP 201030Z 06025KT 9999 FEW012 BKN035 BKN060 12/06 Q1027 WS ALL RWY NOSIG RMK A3033
RCTP,2017-01-20 11:00,55.40,42.80,62.46,60.00,22.00,0.00,30.33,M,6.21,M,FEW,BKN,BKN,M,1200.00,3500.00,6000.00,M,M,M,M,M,M,M,M,55.40,RCTP 201100Z 06022KT 9999 FEW012 BKN035 BKN060 13/06 Q1027 WS ALL RWY NOSIG RMK A3033
RCTP,2017-01-20 11:30,55.40,42.80,62.46,60.00,25.00,0.00,30.33,M,6.21,M,FEW,BKN,BKN,M,1200.00,3500.00,6000.00,M,M,M,M,M,M,M,M,55.40,RCTP 201130Z 06025KT 9999 FEW012 BKN035 BKN060 13/06 Q1027 WS ALL RWY NOSIG RMK A3034
RCTP,2017-01-20 12:00,53.60,42.80,66.70,60.00,25.00,0.00,30.33,M,5.59,36.00,FEW,BKN,BKN,M,1200.00,3500.00,6000.00,M,M,M,M,M,M,M,M,53.60,RCTP 201200Z 06025G36KT 9000 FEW012 BKN035 BKN060 12/06 Q1027 WS ALL RWY NOSIG RMK A3035
RCTP,2017-01-20 12:30,53.60,41.00,62.23,60.00,27.00,0.00,30.33,M,6.21,M,FEW,BKN,M,M,1200.00,3500.00,M,M,M,M,M,M,M,M,M,53.60,RCTP 201230Z 06027KT 9999 FEW012 BKN035 12/05 Q1027 NOSIG RMK A3035
RCTP,2017-01-20 13:00,55.40,42.80,62.46,60.00,21.00,0.00,30.36,M,6.21,M,FEW,BKN,M,M,1200.00,3500.00,M,M,M,M,M,M,M,M,M,55.40,RCTP 201300Z 06021KT 9999 FEW012 BKN035 13/06 Q1028 NOSIG RMK A3036
RCTP,2017-01-20 14:00,55.40,42.80,62.46,60.00,22.00,0.00,30.33,M,5.59,M,FEW,BKN,M,M,1200.00,3500.00,M,M,M,M,M,M,M,M,M,55.40,RCTP 201400Z 06022KT 9000 FEW012 BKN035 13/06 Q1027 NOSIG RMK A3035
RCTP,2017-01-20 15:30,55.40,44.60,66.91,60.00,18.00,0.00,30.33,M,5.59,28.00,FEW,BKN,M,M,1200.00,3500.00,M,M,M,M,M,M,M,M,M,55.40,RCTP 201530Z 06018G28KT 9000 FEW012 BKN035 13/07 Q1027 NOSIG RMK A3034
RCTP,2017-01-20 16:00,55.40,42.80,62.46,60.00,21.00,0.00,30.33,M,5.59,32.00,FEW,BKN,M,M,1200.00,3500.00,M,M,M,M,M,M,M,M,M,55.40,RCTP 201600Z 06021G32KT 9000 FEW012 BKN035 13/06 Q1027 NOSIG RMK A3033
RCTP,2017-01-20 17:00,55.40,42.80,62.46,60.00,21.00,0.00,30.33,M,6.21,M,FEW,BKN,M,M,1200.00,3500.00,M,M,M,M,M,M,M,M,M,55.40,RCTP 201700Z 06021KT 9999 FEW012 BKN035 13/06 Q1027 NOSIG RMK A3033
RCTP,2017-01-20 17:30,55.40,42.80,62.46,60.00,22.00,0.00,30.33,M,6.21,M,FEW,BKN,M,M,1200.00,3500.00,M,M,M,M,M,M,M,M,M,55.40,RCTP 201730Z 06022KT 9999 FEW012 BKN035 13/06 Q1027 NOSIG RMK A3033
RCTP,2017-01-20 18:00,55.40,42.80,62.46,70.00,22.00,0.00,30.30,M,6.21,M,FEW,BKN,M,M,1200.00,4000.00,M,M,M,M,M,M,M,M,M,55.40,RCTP 201800Z 07022KT 9999 FEW012 BKN040 13/06 Q1026 NOSIG RMK A3032
RCTP,2017-01-20 18:30,55.40,44.60,66.91,60.00,20.00,0.00,30.33,M,6.21,M,FEW,BKN,M,M,1200.00,4000.00,M,M,M,M,M,M,M,M,M,55.40,RCTP 201830Z 06020KT 9999 FEW012 BKN040 13/07 Q1027 NOSIG RMK A3033
RCTP,2017-01-20 19:30,53.60,44.60,71.45,60.00,21.00,0.00,30.33,M,6.21,M,FEW,BKN,M,M,1200.00,3000.00,M,M,M,M,M,M,M,M,M,53.60,RCTP 201930Z 06021KT 9999 FEW012 BKN030 12/07 Q1027 NOSIG RMK A3033
RCTP,2017-01-20 20:00,55.40,44.60,66.91,60.00,20.00,0.00,30.30,M,6.21,M,FEW,BKN,M,M,1200.00,3500.00,M,M,M,M,M,M,M,M,M,55.40,RCTP 202000Z 06020KT 9999 FEW012 BKN035 13/07 Q1026 NOSIG RMK A3032
RCTP,2017-01-20 20:30,55.40,44.60,66.91,60.00,22.00,0.00,30.30,M,6.21,M,FEW,BKN,M,M,1200.00,3500.00,M,M,M,M,M,M,M,M,M,55.40,RCTP 202030Z 06022KT 9999 FEW012 BKN035 13/07 Q1026 NOSIG RMK A3031
RCTP,2017-01-20 21:00,55.40,44.60,66.91,60.00,20.00,0.00,30.30,M,6.21,M,FEW,BKN,M,M,1200.00,3500.00,M,M,M,M,M,M,M,M,M,55.40,RCTP 202100Z 06020KT 9999 FEW012 BKN035 13/07 Q1026 NOSIG RMK A3032
RCTP,2017-01-20 21:30,55.40,44.60,66.91,60.00,19.00,0.00,30.33,M,6.21,M,FEW,BKN,M,M,1200.00,3500.00,M,M,M,M,M,M,M,M,M,55.40,RCTP 202130Z 06019KT 9999 FEW012 BKN035 13/07 Q1027 NOSIG RMK A3033
RCTP,2017-01-20 22:00,55.40,46.40,71.64,60.00,18.00,0.00,30.33,M,6.21,M,FEW,BKN,M,M,1300.00,3300.00,M,M,M,M,M,M,M,M,M,55.40,RCTP 202200Z 06018KT 9999 FEW013 BKN033 13/08 Q1027 NOSIG RMK A3034
RCTP,2017-01-20 22:30,55.40,46.40,71.64,40.00,19.00,0.00,30.33,M,6.21,M,FEW,BKN,M,M,1300.00,3500.00,M,M,M,M,M,M,M,M,M,55.40,RCTP 202230Z 04019KT 9999 FEW013 BKN035 13/08 Q1027 NOSIG RMK A3034
RCTP,2017-01-20 23:00,55.40,46.40,71.64,50.00,18.00,0.00,30.33,M,6.21,M,FEW,BKN,OVC,M,1200.00,3500.00,5000.00,M,M,M,M,M,M,M,M,55.40,RCTP 202300Z 05018KT 9999 FEW012 BKN035 OVC050 13/08 Q1027 NOSIG RMK A3034
RCTP,2017-01-20 23:30,55.40,46.40,71.64,50.00,19.00,0.00,30.33,M,6.21,M,FEW,BKN,OVC,M,1200.00,3200.00,5000.00,M,M,M,M,M,M,M,M,55.40,RCTP 202330Z 05019KT 9999 FEW012 BKN032 OVC050 13/08 Q1027 NOSIG RMK A3035
RCTP,2017-01-21 00:00,57.20,46.40,67.12,60.00,15.00,0.00,30.36,M,6.21,M,FEW,BKN,BKN,M,1500.00,3000.00,5000.00,M,M,M,M,M,M,M,M,57.20,RCTP 210000Z 06015KT 9999 FEW015 BKN030 BKN050 14/08 Q1028 NOSIG RMK A3036
RCTP,2017-01-21 00:30,57.20,46.40,67.12,50.00,16.00,0.00,30.36,M,6.21,M,FEW,BKN,BKN,M,1500.00,3500.00,5000.00,M,M,M,M,M,M,M,M,57.20,RCTP 210030Z 05016KT 9999 FEW015 BKN035 BKN050 14/08 Q1028 NOSIG RMK A3036
RCTP,2017-01-21 01:00,57.20,46.40,67.12,60.00,16.00,0.00,30.36,M,6.21,M,FEW,BKN,BKN,M,1500.00,3200.00,5000.00,M,M,M,M,M,M,M,M,57.20,RCTP 210100Z 06016KT 9999 FEW015 BKN032 BKN050 14/08 Q1028 NOSIG RMK A3037
RCTP,2017-01-21 01:30,57.20,46.40,67.12,50.00,15.00,0.00,30.36,M,6.21,M,FEW,BKN,BKN,M,1500.00,3200.00,5000.00,M,M,M,M,M,M,M,M,57.20,RCTP 210130Z 05015KT 9999 FEW015 BKN032 BKN050 14/08 Q1028 NOSIG RMK A3037
RCTP,2017-01-21 02:00,57.20,48.20,71.83,50.00,15.00,0.00,30.36,M,6.21,M,FEW,BKN,BKN,M,1500.00,3200.00,5000.00,M,M,M,M,M,M,M,M,57.20,RCTP 210200Z 05015KT 9999 FEW015 BKN032 BKN050 14/09 Q1028 NOSIG RMK A3037
RCTP,2017-01-21 02:30,59.00,48.20,67.33,50.00,16.00,0.00,30.36,M,6.21,M,FEW,BKN,BKN,M,1500.00,3200.00,5000.00,M,M,M,M,M,M,M,M,59.00,RCTP 210230Z 05016KT 9999 FEW015 BKN032 BKN050 15/09 Q1028 NOSIG RMK A3036
RCTP,2017-01-21 03:00,59.00,48.20,67.33,50.00,15.00,0.00,30.33,M,6.21,M,FEW,BKN,BKN,M,1500.00,3200.00,5000.00,M,M,M,M,M,M,M,M,59.00,RCTP 210300Z 05015KT 9999 FEW015 BKN032 BKN050 15/09 Q1027 NOSIG RMK A3034
RCTP,2017-01-21 03:30,59.00,48.20,67.33,60.00,16.00,0.00,30.33,M,6.21,M,FEW,BKN,BKN,M,1500.00,3200.00,5000.00,M,M,M,M,M,M,M,M,59.00,RCTP 210330Z 06016KT 9999 FEW015 BKN032 BKN050 15/09 Q1027 NOSIG RMK A3033
RCTP,2017-01-21 04:00,59.00,48.20,67.33,40.00,16.00,0.00,30.30,M,6.21,M,FEW,BKN,BKN,M,1500.00,3500.00,12000.00,M,M,M,M,M,M,M,M,59.00,RCTP 210400Z 04016KT 9999 FEW015 BKN035 BKN120 15/09 Q1026 NOSIG RMK A3032
RCTP,2017-01-21 04:30,59.00,48.20,67.33,30.00,15.00,0.00,30.30,M,6.21,M,SCT,BKN,BKN,M,2000.00,3000.00,12000.00,M,M,M,M,M,M,M,M,59.00,RCTP 210430Z 03015KT 360V060 9999 SCT020 BKN030 BKN120 15/09 Q1026 NOSIG RMK A3030
RCTP,2017-01-21 05:00,59.00,51.80,76.98,30.00,16.00,0.00,30.27,M,6.21,M,SCT,BKN,BKN,M,1800.00,3000.00,12000.00,M,M,M,M,M,M,M,M,59.00,RCTP 210500Z 03016KT 9999 SCT018 BKN030 BKN120 15/11 Q1025 NOSIG RMK A3028
RCTP,2017-01-21 05:30,59.00,51.80,76.98,20.00,17.00,0.00,30.27,M,6.21,M,SCT,BKN,BKN,M,1800.00,3000.00,12000.00,M,M,M,M,M,M,M,M,59.00,RCTP 210530Z 02017KT 9999 SCT018 BKN030 BKN120 15/11 Q1025 NOSIG RMK A3027
RCTP,2017-01-21 06:00,57.20,51.80,82.12,20.00,15.00,0.00,30.27,M,6.21,M,FEW,BKN,BKN,M,1600.00,2200.00,3000.00,M,M,M,M,M,M,M,M,57.20,RCTP 210600Z 02015KT 9999 FEW016 BKN022 BKN030 14/11 Q1025 NOSIG RMK A3027
RCTP,2017-01-21 06:30,57.20,51.80,82.12,20.00,16.00,0.00,30.27,M,6.21,M,FEW,BKN,BKN,M,1200.00,1600.00,2200.00,M,M,M,M,M,M,M,M,57.20,RCTP 210630Z 02016KT 9999 FEW012 BKN016 BKN022 14/11 Q1025 NOSIG RMK A3027
RCTP,2017-01-21 07:00,57.20,51.80,82.12,20.00,16.00,0.00,30.27,M,6.21,M,FEW,BKN,BKN,M,1200.00,1600.00,2200.00,M,M,M,M,M,M,M,M,57.20,RCTP 210700Z 02016KT 9999 FEW012 BKN016 BKN022 14/11 Q1025 NOSIG RMK A3027
RCTP,2017-01-21 07:30,57.20,51.80,82.12,20.00,15.00,0.00,30.27,M,6.21,M,FEW,BKN,BKN,M,1200.00,1600.00,2200.00,M,M,M,M,M,M,M,M,57.20,RCTP 210730Z 02015KT 9999 FEW012 BKN016 BKN022 14/11 Q1025 NOSIG RMK A3027
RCTP,2017-01-21 08:00,57.20,51.80,82.12,20.00,13.00,0.00,30.27,M,6.21,M,FEW,BKN,BKN,M,1200.00,1600.00,2200.00,M,M,M,M,M,M,M,M,57.20,RCTP 210800Z 02013KT 9999 FEW012 BKN016 BKN022 14/11 Q1025 NOSIG RMK A3027
RCTP,2017-01-21 08:30,57.20,51.80,82.12,30.00,15.00,0.00,30.27,M,6.21,M,FEW,BKN,BKN,M,1200.00,1600.00,2200.00,M,M,M,M,M,M,M,M,57.20,RCTP 210830Z 03015KT 9999 FEW012 BKN016 BKN022 14/11 Q1025 NOSIG RMK A3028
RCTP,2017-01-21 09:00,57.20,51.80,82.12,20.00,14.00,0.00,30.27,M,6.21,M,FEW,BKN,BKN,M,1200.00,1600.00,2200.00,M,M,M,M,M,M,M,M,57.20,RCTP 210900Z 02014KT 9999 FEW012 BKN016 BKN022 14/11 Q1025 NOSIG RMK A3028
RCTP,2017-01-21 09:30,57.20,51.80,82.12,20.00,14.00,0.00,30.27,M,6.21,M,FEW,BKN,BKN,M,1200.00,1600.00,2300.00,M,M,M,M,M,M,M,M,57.20,RCTP 210930Z 02014KT 9999 FEW012 BKN016 BKN023 14/11 Q1025 NOSIG RMK A3029
RCTP,2017-01-21 10:00,57.20,51.80,82.12,20.00,16.00,0.00,30.30,M,6.21,M,FEW,BKN,BKN,M,1200.00,1600.00,2200.00,M,M,M,M,M,M,M,M,57.20,RCTP 211000Z 02016KT 9999 FEW012 BKN016 BKN022 14/11 Q1026 NOSIG RMK A3030
RCTP,2017-01-21 10:30,59.00,51.80,76.98,40.00,14.00,0.00,30.30,M,6.21,M,SCT,BKN,BKN,M,1500.00,1800.00,3000.00,M,M,M,M,M,M,M,M,59.00,RCTP 211030Z 04014KT 9999 SCT015 BKN018 BKN030 15/11 Q1026 NOSIG RMK A3030
RCTP,2017-01-21 11:00,59.00,50.00,72.01,40.00,14.00,0.00,30.30,M,6.21,M,FEW,BKN,BKN,M,1800.00,2600.00,4000.00,M,M,M,M,M,M,M,M,59.00,RCTP 211100Z 04014KT 9999 FEW018 BKN026 BKN040 15/10 Q1026 NOSIG RMK A3030
RCTP,2017-01-21 11:30,57.20,50.00,76.82,60.00,11.00,0.00,30.30,M,6.21,M,FEW,SCT,M,M,1800.00,4000.00,M,M,M,M,M,M,M,M,M,57.20,RCTP 211130Z 06011KT 9999 FEW018 SCT040 14/10 Q1026 NOSIG RMK A3031
RCTP,2017-01-21 12:00,59.00,50.00,72.01,60.00,12.00,0.00,30.30,M,6.21,M,FEW,SCT,M,M,1800.00,4000.00,M,M,M,M,M,M,M,M,M,59.00,RCTP 211200Z 06012KT 9999 FEW018 SCT040 15/10 Q1026 NOSIG RMK A3032
RCTP,2017-01-21 12:30,57.20,50.00,76.82,60.00,9.00,0.00,30.33,M,6.21,M,FEW,M,M,M,2000.00,M,M,M,M,M,M,M,M,M,M,57.20,RCTP 211230Z 06009KT 9999 FEW020 14/10 Q1027 NOSIG RMK A3033
RCTP,2017-01-21 13:00,57.20,50.00,76.82,50.00,12.00,0.00,30.33,M,6.21,M,FEW,M,M,M,2000.00,M,M,M,M,M,M,M,M,M,M,57.20,RCTP 211300Z 05012KT 9999 FEW020 14/10 Q1027 NOSIG RMK A3033
RCTP,2017-01-21 13:30,57.20,50.00,76.82,50.00,11.00,0.00,30.33,M,6.21,M,FEW,M,M,M,2000.00,M,M,M,M,M,M,M,M,M,M,57.20,RCTP 211330Z 05011KT 9999 FEW020 14/10 Q1027 NOSIG RMK A3033
RCTP,2017-01-21 14:00,57.20,50.00,76.82,50.00,10.00,0.00,30.33,M,6.21,M,FEW,M,M,M,2000.00,M,M,M,M,M,M,M,M,M,M,57.20,RCTP 211400Z 05010KT 9999 FEW020 14/10 Q1027 NOSIG RMK A3034
RCTP,2017-01-21 14:30,57.20,50.00,76.82,40.00,11.00,0.00,30.33,M,6.21,M,FEW,M,M,M,2000.00,M,M,M,M,M,M,M,M,M,M,57.20,RCTP 211430Z 04011KT 9999 FEW020 14/10 Q1027 NOSIG RMK A3034
RCTP,2017-01-21 15:00,57.20,50.00,76.82,60.00,10.00,0.00,30.33,M,6.21,M,FEW,M,M,M,2000.00,M,M,M,M,M,M,M,M,M,M,57.20,RCTP 211500Z 06010KT 9999 FEW020 14/10 Q1027 NOSIG RMK A3034
RCTP,2017-01-21 15:30,57.20,51.80,82.12,40.00,10.00,0.00,30.33,M,6.21,M,FEW,SCT,BKN,M,2000.00,2500.00,10000.00,M,M,M,M,M,M,M,M,57.20,RCTP 211530Z 04010KT 9999 FEW020 SCT025 BKN100 14/11 Q1027 NOSIG RMK A3034
RCTP,2017-01-21 16:00,59.00,50.00,72.01,40.00,12.00,0.00,30.33,M,6.21,M,FEW,SCT,BKN,M,2000.00,2500.00,4000.00,M,M,M,M,M,M,M,M,59.00,RCTP 211600Z 04012KT 9999 FEW020 SCT025 BKN040 15/10 Q1027 NOSIG RMK A3034
RCTP,2017-01-21 16:30,59.00,50.00,72.01,40.00,13.00,0.00,30.33,M,6.21,M,FEW,SCT,BKN,M,2000.00,2800.00,4000.00,M,M,M,M,M,M,M,M,59.00,RCTP 211630Z 04013KT 9999 FEW020 SCT028 BKN040 15/10 Q1027 NOSIG RMK A3034
RCTP,2017-01-21 17:00,59.00,50.00,72.01,30.00,14.00,0.00,30.33,M,6.21,M,FEW,SCT,BKN,M,2000.00,2800.00,4000.00,M,M,M,M,M,M,M,M,59.00,RCTP 211700Z 03014KT 9999 FEW020 SCT028 BKN040 15/10 Q1027 NOSIG RMK A3034
RCTP,2017-01-21 17:30,59.00,50.00,72.01,30.00,16.00,0.00,30.33,M,6.21,M,FEW,SCT,BKN,M,2000.00,3000.00,4000.00,M,M,M,M,M,M,M,M,59.00,RCTP 211730Z 03016KT 9999 FEW020 SCT030 BKN040 15/10 Q1027 NOSIG RMK A3034
RCTP,2017-01-21 18:00,59.00,48.20,67.33,30.00,16.00,0.00,30.33,M,6.21,M,FEW,SCT,BKN,M,2000.00,3000.00,12000.00,M,M,M,M,M,M,M,M,59.00,RCTP 211800Z 03016KT 9999 FEW020 SCT030 BKN120 15/09 Q1027 NOSIG RMK A3034
RCTP,2017-01-21 18:30,59.00,50.00,72.01,30.00,14.00,0.00,30.33,M,6.21,M,FEW,SCT,BKN,M,2000.00,3000.00,12000.00,M,M,M,M,M,M,M,M,59.00,RCTP 211830Z 03014KT 9999 FEW020 SCT030 BKN120 15/10 Q1027 NOSIG RMK A3034
RCTP,2017-01-21 19:00,59.00,48.20,67.33,30.00,15.00,0.00,30.33,M,6.21,M,FEW,SCT,BKN,M,2000.00,3000.00,12000.00,M,M,M,M,M,M,M,M,59.00,RCTP 211900Z 03015KT 9999 FEW020 SCT030 BKN120 15/09 Q1027 NOSIG RMK A3035
RCTP,2017-01-21 19:30,57.20,48.20,71.83,30.00,17.00,0.00,30.33,M,6.21,M,FEW,SCT,BKN,M,2000.00,3000.00,12000.00,M,M,M,M,M,M,M,M,57.20,RCTP 211930Z 03017KT 9999 FEW020 SCT030 BKN120 14/09 Q1027 NOSIG RMK A3035
RCTP,2017-01-21 20:00,57.20,46.40,67.12,30.00,18.00,0.00,30.36,M,6.21,M,FEW,BKN,BKN,M,2000.00,3500.00,12000.00,M,M,M,M,M,M,M,M,57.20,RCTP 212000Z 03018KT 9999 FEW020 BKN035 BKN120 14/08 Q1028 NOSIG RMK A3036
RCTP,2017-01-21 20:30,57.20,46.40,67.12,30.00,17.00,0.00,30.36,M,6.21,M,FEW,SCT,BKN,M,2000.00,3000.00,4000.00,M,M,M,M,M,M,M,M,57.20,RCTP 212030Z 03017KT 9999 FEW020 SCT030 BKN040 14/08 Q1028 NOSIG RMK A3036
RCTP,2017-01-21 21:00,57.20,42.80,58.52,30.00,18.00,0.00,30.36,M,6.21,M,FEW,BKN,BKN,M,2000.00,4000.00,12000.00,M,M,M,M,M,M,M,M,57.20,RCTP 212100Z 03018KT 9999 FEW020 BKN040 BKN120 14/06 Q1028 NOSIG RMK A3037
RCTP,2017-01-21 21:30,57.20,44.60,62.69,30.00,17.00,0.00,30.39,M,6.21,M,FEW,BKN,BKN,M,2000.00,4500.00,12000.00,M,M,M,M,M,M,M,M,57.20,RCTP 212130Z 03017KT 9999 FEW020 BKN045 BKN120 14/07 Q1029 NOSIG RMK A3039
RCTP,2017-01-21 22:00,57.20,44.60,62.69,40.00,17.00,0.00,30.39,M,6.21,M,FEW,BKN,BKN,M,2000.00,4000.00,12000.00,M,M,M,M,M,M,M,M,57.20,RCTP 212200Z 04017KT 9999 FEW020 BKN040 BKN120 14/07 Q1029 NOSIG RMK A3039
RCTP,2017-01-21 22:30,57.20,44.60,62.69,40.00,17.00,0.00,30.39,M,6.21,M,FEW,BKN,BKN,M,2000.00,4000.00,12000.00,M,M,M,M,M,M,M,M,57.20,RCTP 212230Z 04017KT 9999 FEW020 BKN040 BKN120 14/07 Q1029 NOSIG RMK A3040
RCTP,2017-01-21 23:00,57.20,44.60,62.69,40.00,17.00,0.00,30.39,M,6.21,M,FEW,BKN,BKN,M,2000.00,4000.00,12000.00,M,M,M,M,M,M,M,M,57.20,RCTP 212300Z 04017KT 9999 FEW020 BKN040 BKN120 14/07 Q1029 NOSIG RMK A3040
RCTP,2017-01-21 23:30,57.20,44.60,62.69,10.00,16.00,0.00,30.39,M,6.21,M,FEW,M,M,M,2000.00,M,M,M,M,M,M,M,M,M,M,57.20,RCTP 212330Z 01016KT 9999 FEW020 14/07 Q1029 NOSIG RMK A3040
RCTP,2017-01-22 00:00,57.20,42.80,58.52,50.00,17.00,0.00,30.39,M,6.21,M,FEW,M,M,M,2000.00,M,M,M,M,M,M,M,M,M,M,57.20,RCTP 220000Z 05017KT 9999 FEW020 14/06 Q1029 NOSIG RMK A3041
RCTP,2017-01-22 00:30,59.00,42.80,54.86,60.00,18.00,0.00,30.39,M,6.21,M,FEW,M,M,M,3600.00,M,M,M,M,M,M,M,M,M,M,59.00,RCTP 220030Z 06018KT 9999 FEW036 15/06 Q1029 NOSIG RMK A3041
RCTP,2017-01-22 01:00,59.00,42.80,54.86,50.00,19.00,0.00,30.42,M,6.21,M,FEW,M,M,M,4200.00,M,M,M,M,M,M,M,M,M,M,59.00,RCTP 220100Z 05019KT 9999 FEW042 15/06 Q1030 NOSIG RMK A3042
RCTP,2017-01-22 01:30,60.80,44.60,55.12,30.00,20.00,0.00,30.42,M,6.21,M,FEW,M,M,M,3800.00,M,M,M,M,M,M,M,M,M,M,60.80,RCTP 220130Z 03020KT 9999 FEW038 16/07 Q1030 NOSIG RMK A3043
RCTP,2017-01-22 02:00,60.80,44.60,55.12,40.00,21.00,0.00,30.42,M,6.21,M,FEW,M,M,M,3800.00,M,M,M,M,M,M,M,M,M,M,60.80,RCTP 220200Z 04021KT 9999 FEW038 16/07 Q1030 NOSIG RMK A3043
RCTP,2017-01-22 02:30,60.80,44.60,55.12,40.00,21.00,0.00,30.42,M,6.21,M,FEW,M,M,M,4200.00,M,M,M,M,M,M,M,M,M,M,60.80,RCTP 220230Z 04021KT 9999 FEW042 16/07 Q1030 NOSIG RMK A3043
RCTP,2017-01-22 03:00,60.80,42.80,51.45,40.00,21.00,0.00,30.39,M,6.21,M,M,M,M,M,M,M,M,M,M,M,M,M,M,M,M,60.80,RCTP 220300Z 04021KT CAVOK 16/06 Q1029 NOSIG RMK A3041
RCTP,2017-01-22 03:30,62.60,44.60,51.72,30.00,22.00,0.00,30.39,M,6.21,M,M,M,M,M,M,M,M,M,M,M,M,M,M,M,M,62.60,RCTP 220330Z 03022KT CAVOK 17/07 Q1029 NOSIG RMK A3040
RCTP,2017-01-22 04:00,60.80,42.80,51.45,40.00,24.00,0.00,30.36,M,6.21,M,M,M,M,M,M,M,M,M,M,M,M,M,M,M,M,60.80,RCTP 220400Z 04024KT CAVOK 16/06 Q1028 NOSIG RMK A3037
RCTP,2017-01-22 04:30,62.60,44.60,51.72,30.00,24.00,0.00,30.33,M,6.21,M,M,M,M,M,M,M,M,M,M,M,M,M,M,M,M,62.60,RCTP 220430Z 03024KT CAVOK 17/07 Q1027 NOSIG RMK A3035
RCTP,2017-01-22 05:30,60.80,44.60,55.12,40.00,26.00,0.00,30.33,M,6.21,M,M,M,M,M,M,M,M,M,M,M,M,M,M,M,M,60.80,RCTP 220530Z 04026KT CAVOK 16/07 Q1027 NOSIG RMK A3033
RCTP,2017-01-22 07:30,59.00,46.40,62.92,50.00,26.00,0.00,30.30,M,6.21,M,FEW,BKN,M,M,2500.00,4000.00,M,M,M,M,M,M,M,M,M,59.00,RCTP 220730Z 05026KT 9999 FEW025 BKN040 15/08 Q1026 NOSIG RMK A3032
RCTP,2017-01-22 08:00,57.20,44.60,62.69,40.00,26.00,0.00,30.33,M,6.21,M,FEW,BKN,M,M,2500.00,4000.00,M,M,M,M,M,M,M,M,M,57.20,RCTP 220800Z 04026KT 9999 FEW025 BKN040 14/07 Q1027 NOSIG RMK A3033
RCTP,2017-01-22 08:30,57.20,42.80,58.52,50.00,24.00,0.00,30.33,M,6.21,M,FEW,BKN,M,M,2500.00,3800.00,M,M,M,M,M,M,M,M,M,57.20,RCTP 220830Z 05024KT 9999 FEW025 BKN038 14/06 Q1027 NOSIG RMK A3033
RCTP,2017-01-22 08:51,57.20,42.80,58.52,60.00,22.00,0.00,30.33,M,6.21,M,FEW,BKN,M,M,2500.00,3700.00,M,M,M,M,M,M,M,M,M,57.20,RCTP 220851Z 06022KT 9999 FEW025 BKN037 14/06 Q1027 WS ALL RWY NOSIG RMK A3034
RCTP,2017-01-22 09:00,57.20,42.80,58.52,50.00,24.00,0.00,30.33,M,6.21,M,FEW,BKN,M,M,2500.00,3700.00,M,M,M,M,M,M,M,M,M,57.20,RCTP 220900Z 05024KT 9999 FEW025 BKN037 14/06 Q1027 WS ALL RWY NOSIG RMK A3034
RCTP,2017-01-22 09:30,57.20,42.80,58.52,60.00,21.00,0.00,30.33,M,6.21,M,FEW,BKN,M,M,2500.00,3700.00,M,M,M,M,M,M,M,M,M,57.20,RCTP 220930Z 06021KT 9999 FEW025 BKN037 14/06 Q1027 NOSIG RMK A3035
RCTP,2017-01-22 10:00,57.20,44.60,62.69,60.00,20.00,0.00,30.36,M,6.21,M,FEW,BKN,M,M,2500.00,3700.00,M,M,M,M,M,M,M,M,M,57.20,RCTP 221000Z 06020KT 9999 FEW025 BKN037 14/07 Q1028 NOSIG RMK A3036
RCTP,2017-01-22 10:30,55.40,42.80,62.46,60.00,21.00,0.00,30.36,M,6.21,M,FEW,SCT,M,M,2500.00,3700.00,M,M,M,M,M,M,M,M,M,55.40,RCTP 221030Z 06021KT 9999 FEW025 SCT037 13/06 Q1028 NOSIG RMK A3036
RCTP,2017-01-22 11:00,55.40,42.80,62.46,60.00,20.00,0.00,30.36,M,6.21,M,FEW,M,M,M,2600.00,M,M,M,M,M,M,M,M,M,M,55.40,RCTP 221100Z 06020KT 9999 FEW026 13/06 Q1028 NOSIG RMK A3037
RCTP,2017-01-22 11:30,55.40,42.80,62.46,60.00,18.00,0.00,30.36,M,6.21,M,FEW,M,M,M,2600.00,M,M,M,M,M,M,M,M,M,M,55.40,RCTP 221130Z 06018KT 9999 FEW026 13/06 Q1028 NOSIG RMK A3038
RCTP,2017-01-22 12:00,55.40,42.80,62.46,60.00,17.00,0.00,30.36,M,6.21,M,SCT,M,M,M,3500.00,M,M,M,M,M,M,M,M,M,M,55.40,RCTP 221200Z 06017KT 9999 SCT035 13/06 Q1028 NOSIG RMK A3038
RCTP,2017-01-22 12:30,55.40,42.80,62.46,60.00,18.00,0.00,30.39,M,6.21,M,SCT,M,M,M,3500.00,M,M,M,M,M,M,M,M,M,M,55.40,RCTP 221230Z 06018KT 9999 SCT035 13/06 Q1029 NOSIG RMK A3039
RCTP,2017-01-22 13:00,55.40,44.60,66.91,50.00,19.00,0.00,30.36,M,6.21,M,FEW,M,M,M,3500.00,M,M,M,M,M,M,M,M,M,M,55.40,RCTP 221300Z 05019KT 9999 FEW035 13/07 Q1028 NOSIG RMK A3038
RCTP,2017-01-22 13:30,57.20,42.80,58.52,60.00,19.00,0.00,30.36,M,6.21,M,FEW,M,M,M,3500.00,M,M,M,M,M,M,M,M,M,M,57.20,RCTP 221330Z 06019KT 9999 FEW035 14/06 Q1028 NOSIG RMK A3038
RCTP,2017-01-22 14:00,57.20,42.80,58.52,60.00,21.00,0.00,30.36,M,6.21,M,FEW,SCT,M,M,3500.00,10000.00,M,M,M,M,M,M,M,M,M,57.20,RCTP 221400Z 06021KT 9999 FEW035 SCT100 14/06 Q1028 NOSIG RMK A3038
RCTP,2017-01-22 14:30,57.20,41.00,54.60,60.00,21.00,0.00,30.36,M,6.21,M,FEW,BKN,M,M,3000.00,10000.00,M,M,M,M,M,M,M,M,M,57.20,RCTP 221430Z 06021KT 9999 FEW030 BKN100 14/05 Q1028 NOSIG RMK A3037
RCTP,2017-01-22 15:00,57.20,42.80,58.52,60.00,19.00,0.00,30.36,M,6.21,M,FEW,SCT,M,M,3000.00,10000.00,M,M,M,M,M,M,M,M,M,57.20,RCTP 221500Z 06019KT 9999 FEW030 SCT100 14/06 Q1028 NOSIG RMK A3036
RCTP,2017-01-22 15:30,57.20,42.80,58.52,60.00,18.00,0.00,30.36,M,6.21,M,FEW,M,M,M,4000.00,M,M,M,M,M,M,M,M,M,M,57.20,RCTP 221530Z 06018KT 9999 FEW040 14/06 Q1028 NOSIG RMK A3036
RCTP,2017-01-22 16:00,57.20,42.80,58.52,60.00,20.00,0.00,30.33,M,6.21,M,FEW,M,M,M,4000.00,M,M,M,M,M,M,M,M,M,M,57.20,RCTP 221600Z 06020KT 9999 FEW040 14/06 Q1027 NOSIG RMK A3035
RCTP,2017-01-22 16:30,57.20,42.80,58.52,60.00,20.00,0.00,30.33,M,6.21,M,FEW,M,M,M,3000.00,M,M,M,M,M,M,M,M,M,M,57.20,RCTP 221630Z 06020KT 9999 FEW030 14/06 Q1027 NOSIG RMK A3034
RCTP,2017-01-22 18:30,57.20,46.40,67.12,60.00,19.00,0.00,30.33,M,6.21,M,FEW,SCT,M,M,2500.00,10000.00,M,M,M,M,M,M,M,M,M,57.20,RCTP 221830Z 06019KT 9999 FEW025 SCT100 14/08 Q1027 NOSIG RMK A3034
RCTP,2017-01-22 19:30,57.20,44.60,62.69,60.00,17.00,0.00,30.33,M,6.21,M,FEW,SCT,M,M,2500.00,11000.00,M,M,M,M,M,M,M,M,M,57.20,RCTP 221930Z 06017KT 9999 FEW025 SCT110 14/07 Q1027 NOSIG RMK A3034
RCTP,2017-01-22 20:30,55.40,44.60,66.91,60.00,15.00,0.00,30.33,M,6.21,25.00,FEW,SCT,M,M,2500.00,11000.00,M,M,M,M,M,M,M,M,M,55.40,RCTP 222030Z 06015G25KT 9999 FEW025 SCT110 13/07 Q1027 NOSIG RMK A3033
RCTP,2017-01-22 21:00,55.40,44.60,66.91,60.00,12.00,0.00,30.33,M,6.21,M,FEW,SCT,M,M,2500.00,11000.00,M,M,M,M,M,M,M,M,M,55.40,RCTP 222100Z 06012KT 9999 FEW025 SCT110 13/07 Q1027 NOSIG RMK A3034
RCTP,2017-01-22 21:30,57.20,44.60,62.69,60.00,14.00,0.00,30.33,M,6.21,M,FEW,SCT,M,M,2500.00,11000.00,M,M,M,M,M,M,M,M,M,57.20,RCTP 222130Z 06014KT 9999 FEW025 SCT110 14/07 Q1027 NOSIG RMK A3034
RCTP,2017-01-22 22:30,57.20,46.40,67.12,60.00,17.00,0.00,30.36,M,6.21,M,FEW,SCT,M,M,2500.00,11000.00,M,M,M,M,M,M,M,M,M,57.20,RCTP 222230Z 06017KT 9999 FEW025 SCT110 14/08 Q1028 NOSIG RMK A3037
RCTP,2017-01-22 23:00,57.20,46.40,67.12,60.00,16.00,0.00,30.36,M,6.21,M,FEW,SCT,M,M,2500.00,11000.00,M,M,M,M,M,M,M,M,M,57.20,RCTP 222300Z 06016KT 9999 FEW025 SCT110 14/08 Q1028 NOSIG RMK A3038
RCTP,2017-01-22 23:30,57.20,46.40,67.12,50.00,17.00,0.00,30.36,M,6.21,M,FEW,BKN,M,M,2500.00,4000.00,M,M,M,M,M,M,M,M,M,57.20,RCTP 222330Z 05017KT 9999 FEW025 BKN040 14/08 Q1028 NOSIG RMK A3038
RCTP,2017-01-23 00:00,59.00,46.40,62.92,60.00,17.00,0.00,30.39,M,6.21,M,FEW,BKN,BKN,M,2500.00,4000.00,11000.00,M,M,M,M,M,M,M,M,59.00,RCTP 230000Z 06017KT 9999 FEW025 BKN040 BKN110 15/08 Q1029 NOSIG RMK A3039
RCTP,2017-01-23 00:30,59.00,46.40,62.92,70.00,16.00,0.00,30.39,M,6.21,M,FEW,BKN,BKN,M,2500.00,4000.00,11000.00,M,M,M,M,M,M,M,M,59.00,RCTP 230030Z 07016KT 9999 FEW025 BKN040 BKN110 15/08 Q1029 NOSIG RMK A3039
RCTP,2017-01-23 01:00,60.80,46.40,59.01,70.00,17.00,0.00,30.39,M,6.21,M,FEW,SCT,BKN,M,2500.00,4000.00,11000.00,M,M,M,M,M,M,M,M,60.80,RCTP 230100Z 07017KT 9999 FEW025 SCT040 BKN110 16/08 Q1029 NOSIG RMK A3040
RCTP,2017-01-23 01:55,62.60,46.40,55.37,70.00,21.00,0.00,30.36,M,6.21,M,FEW,BKN,M,M,2500.00,11000.00,M,M,M,M,M,M,M,M,M,62.60,RCTP 230155Z 07021KT 9999 FEW025 BKN110 17/08 Q1028 WS ALL RWY NOSIG RMK A3037
RCTP,2017-01-23 02:00,62.60,46.40,55.37,70.00,21.00,0.00,30.36,M,6.21,M,FEW,BKN,M,M,2500.00,10000.00,M,M,M,M,M,M,M,M,M,62.60,RCTP 230200Z 07021KT 9999 FEW025 BKN100 17/08 Q1028 WS ALL RWY NOSIG RMK A3037
RCTP,2017-01-23 02:30,62.60,46.40,55.37,70.00,21.00,0.00,30.36,M,6.21,31.00,FEW,BKN,M,M,2500.00,10000.00,M,M,M,M,M,M,M,M,M,62.60,RCTP 230230Z 07021G31KT 9999 FEW025 BKN100 17/08 Q1028 WS ALL RWY NOSIG RMK A3037
RCTP,2017-01-23 03:00,62.60,46.40,55.37,70.00,23.00,0.00,30.39,M,6.21,M,FEW,BKN,M,M,2500.00,10000.00,M,M,M,M,M,M,M,M,M,62.60,RCTP 230300Z 07023KT 9999 FEW025 BKN100 17/08 Q1029 WS ALL RWY NOSIG RMK A3039
RCTP,2017-01-23 03:30,62.60,46.40,55.37,70.00,23.00,0.00,30.36,M,6.21,M,FEW,SCT,BKN,M,2500.00,4000.00,10000.00,M,M,M,M,M,M,M,M,62.60,RCTP 230330Z 07023KT 9999 FEW025 SCT040 BKN100 17/08 Q1028 WS ALL RWY NOSIG RMK A3038
RCTP,2017-01-23 04:00,64.40,46.40,51.98,70.00,18.00,0.00,30.36,M,6.21,M,FEW,SCT,BKN,M,2500.00,4000.00,10000.00,M,M,M,M,M,M,M,M,64.40,RCTP 230400Z 07018KT 9999 FEW025 SCT040 BKN100 18/08 Q1028 WS ALL RWY NOSIG RMK A3038
RCTP,2017-01-23 04:30,64.40,48.20,55.63,60.00,21.00,0.00,30.36,M,6.21,M,FEW,BKN,BKN,M,2500.00,4000.00,10000.00,M,M,M,M,M,M,M,M,64.40,RCTP 230430Z 06021KT 9999 FEW025 BKN040 BKN100 18/09 Q1028 WS ALL RWY NOSIG RMK A3038
RCTP,2017-01-23 05:00,62.60,46.40,55.37,60.00,21.00,0.00,30.33,M,6.21,31.00,FEW,BKN,BKN,M,2500.00,4000.00,10000.00,M,M,M,M,M,M,M,M,62.60,RCTP 230500Z 06021G31KT 9999 FEW025 BKN040 BKN100 17/08 Q1027 WS ALL RWY NOSIG RMK A3034
RCTP,2017-01-23 05:30,60.80,46.40,59.01,40.00,24.00,0.00,30.33,M,6.21,M,FEW,BKN,BKN,M,2500.00,4000.00,10000.00,M,M,M,M,M,M,M,M,60.80,RCTP 230530Z 04024KT 9999 FEW025 BKN040 BKN100 16/08 Q1027 WS ALL RWY NOSIG RMK A3033
RCTP,2017-01-23 06:00,60.80,48.20,63.15,50.00,23.00,0.00,30.33,M,6.21,33.00,FEW,BKN,BKN,M,2500.00,4000.00,9000.00,M,M,M,M,M,M,M,M,60.80,RCTP 230600Z 05023G33KT 9999 FEW025 BKN040 BKN090 16/09 Q1027 WS ALL RWY NOSIG RMK A3033
RCTP,2017-01-23 06:30,59.00,46.40,62.92,50.00,24.00,0.00,30.33,M,6.21,M,FEW,BKN,BKN,M,2500.00,4000.00,9000.00,M,M,M,M,M,M,M,M,59.00,RCTP 230630Z 05024KT 9999 FEW025 BKN040 BKN090 15/08 Q1027 WS ALL RWY NOSIG RMK A3033
RCTP,2017-01-23 07:00,59.00,46.40,62.92,50.00,24.00,0.00,30.33,M,6.21,M,FEW,BKN,BKN,M,2500.00,3800.00,9000.00,M,M,M,M,M,M,M,M,59.00,RCTP 230700Z 05024KT 9999 FEW025 BKN038 BKN090 15/08 Q1027 WS ALL RWY NOSIG RMK A3033
RCTP,2017-01-23 07:30,59.00,46.40,62.92,50.00,23.00,0.00,30.33,M,6.21,M,FEW,BKN,BKN,M,2500.00,3500.00,9000.00,M,M,M,M,M,M,M,M,59.00,RCTP 230730Z 05023KT 9999 FEW025 BKN035 BKN090 15/08 Q1027 WS ALL RWY NOSIG RMK A3033
RCTP,2017-01-23 08:00,59.00,46.40,62.92,50.00,24.00,0.00,30.33,M,6.21,M,FEW,BKN,BKN,M,2500.00,3500.00,9000.00,M,M,M,M,M,M,M,M,59.00,RCTP 230800Z 05024KT 9999 FEW025 BKN035 BKN090 15/08 Q1027 WS ALL RWY NOSIG RMK A3034
RCTP,2017-01-23 08:30,59.00,46.40,62.92,60.00,24.00,0.00,30.33,M,6.21,M,FEW,BKN,BKN,M,2000.00,3500.00,9000.00,M,M,M,M,M,M,M,M,59.00,RCTP 230830Z 06024KT 9999 FEW020 BKN035 BKN090 15/08 Q1027 WS ALL RWY NOSIG RMK A3034
RCTP,2017-01-23 09:00,59.00,46.40,62.92,60.00,21.00,0.00,30.33,M,6.21,M,FEW,BKN,BKN,M,2000.00,4000.00,9000.00,M,M,M,M,M,M,M,M,59.00,RCTP 230900Z 06021KT 9999 FEW020 BKN040 BKN090 15/08 Q1027 NOSIG RMK A3035
RCTP,2017-01-23 10:00,59.00,46.40,62.92,60.00,15.00,0.00,30.36,M,6.21,M,FEW,BKN,BKN,M,2000.00,4000.00,9000.00,M,M,M,M,M,M,M,M,59.00,RCTP 231000Z 06015KT 9999 FEW020 BKN040 BKN090 15/08 Q1028 NOSIG RMK A3036
RCTP,2017-01-23 10:28,59.00,46.40,62.92,70.00,15.00,0.00,30.36,M,6.21,M,FEW,BKN,BKN,M,2000.00,4000.00,9000.00,M,M,M,M,M,M,M,M,59.00,RCTP 231028Z 07015KT 9999 FEW020 BKN040 BKN090 15/08 Q1028 WS ALL RWY NOSIG RMK A3037
RCTP,2017-01-23 10:30,59.00,46.40,62.92,70.00,16.00,0.00,30.36,M,6.21,M,FEW,BKN,BKN,M,2000.00,4000.00,9000.00,M,M,M,M,M,M,M,M,59.00,RCTP 231030Z 07016KT 9999 FEW020 BKN040 BKN090 15/08 Q1028 WS ALL RWY NOSIG RMK A3037
RCTP,2017-01-23 11:00,59.00,46.40,62.92,70.00,15.00,0.00,30.36,M,6.21,M,FEW,BKN,BKN,M,2000.00,4000.00,9000.00,M,M,M,M,M,M,M,M,59.00,RCTP 231100Z 07015KT 9999 FEW020 BKN040 BKN090 15/08 Q1028 WS ALL RWY NOSIG RMK A3037
RCTP,2017-01-23 11:25,57.20,46.40,67.12,70.00,17.00,0.00,30.36,M,6.21,M,FEW,BKN,BKN,M,2000.00,4000.00,9000.00,M,M,M,M,M,M,M,M,57.20,RCTP 231125Z 07017KT 9999 FEW020 BKN040 BKN090 14/08 Q1028 NOSIG RMK A3037
RCTP,2017-01-23 11:30,57.20,46.40,67.12,70.00,17.00,0.00,30.36,M,6.21,M,FEW,BKN,BKN,M,2000.00,4000.00,9000.00,M,M,M,M,M,M,M,M,57.20,RCTP 231130Z 07017KT 9999 FEW020 BKN040 BKN090 14/08 Q1028 NOSIG RMK A3037
RCTP,2017-01-23 17:00,57.20,46.40,67.12,70.00,18.00,0.00,30.33,M,6.21,M,FEW,SCT,BKN,M,2000.00,3500.00,12000.00,M,M,M,M,M,M,M,M,57.20,RCTP 231700Z 07018KT 9999 FEW020 SCT035 BKN120 14/08 Q1027 NOSIG RMK A3035
RCTP,2017-01-23 17:30,57.20,46.40,67.12,60.00,18.00,0.00,30.33,M,6.21,M,FEW,SCT,BKN,M,2000.00,3500.00,12000.00,M,M,M,M,M,M,M,M,57.20,RCTP 231730Z 06018KT 9999 FEW020 SCT035 BKN120 14/08 Q1027 NOSIG RMK A3035
RCTP,2017-01-23 18:00,57.20,44.60,62.69,70.00,17.00,0.00,30.33,M,6.21,M,FEW,SCT,BKN,M,2000.00,3500.00,12000.00,M,M,M,M,M,M,M,M,57.20,RCTP 231800Z 07017KT 9999 FEW020 SCT035 BKN120 14/07 Q1027 NOSIG RMK A3035
RCTP,2017-01-23 18:30,57.20,44.60,62.69,60.00,12.00,0.00,30.33,M,6.21,M,FEW,BKN,BKN,M,2000.00,3500.00,12000.00,M,M,M,M,M,M,M,M,57.20,RCTP 231830Z 06012KT 9999 FEW020 BKN035 BKN120 14/07 Q1027 NOSIG RMK A3035
RCTP,2017-01-23 19:00,57.20,44.60,62.69,60.00,12.00,0.00,30.33,M,6.21,M,FEW,BKN,BKN,M,2000.00,3500.00,12000.00,M,M,M,M,M,M,M,M,57.20,RCTP 231900Z 06012KT 9999 FEW020 BKN035 BKN120 14/07 Q1027 NOSIG RMK A3035
RCTP,2017-01-23 20:00,57.20,44.60,62.69,70.00,13.00,0.00,30.33,M,6.21,M,FEW,BKN,M,M,2000.00,3200.00,M,M,M,M,M,M,M,M,M,57.20,RCTP 232000Z 07013KT 9999 FEW020 BKN032 14/07 Q1027 NOSIG RMK A3034
RCTP,2017-01-23 20:30,57.20,44.60,62.69,60.00,13.00,0.00,30.33,M,6.21,M,FEW,BKN,M,M,2000.00,3200.00,M,M,M,M,M,M,M,M,M,57.20,RCTP 232030Z 06013KT 9999 FEW020 BKN032 14/07 Q1027 NOSIG RMK A3034
RCTP,2017-01-23 21:00,59.00,48.20,67.33,70.00,16.00,0.00,30.33,M,6.21,M,FEW,BKN,M,M,2000.00,3200.00,M,M,M,M,M,M,M,M,M,59.00,RCTP 232100Z 07016KT 9999 FEW020 BKN032 15/09 Q1027 NOSIG RMK A3033
RCTP,2017-01-23 21:30,59.00,46.40,62.92,70.00,16.00,0.00,30.33,M,6.21,M,FEW,BKN,M,M,2000.00,3200.00,M,M,-RA,M,M,M,M,M,M,59.00,RCTP 232130Z 07016KT 9999 -RA FEW020 BKN032 15/08 Q1027 NOSIG RMK A3034
RCTP,2017-01-23 22:00,57.20,48.20,71.83,70.00,13.00,0.00,30.33,M,6.21,M,FEW,BKN,BKN,M,2000.00,3200.00,6000.00,M,M,M,M,M,M,M,M,57.20,RCTP 232200Z 07013KT 9999 FEW020 BKN032 BKN060 14/09 Q1027 NOSIG RMK A3034
RCTP,2017-01-23 22:30,59.00,48.20,67.33,60.00,12.00,0.00,30.33,M,6.21,M,FEW,BKN,BKN,M,2000.00,3200.00,6000.00,M,M,M,M,M,M,M,M,59.00,RCTP 232230Z 06012KT 9999 FEW020 BKN032 BKN060 15/09 Q1027 NOSIG RMK A3035
RCTP,2017-01-23 23:00,59.00,48.20,67.33,60.00,13.00,0.00,30.36,M,6.21,M,FEW,BKN,BKN,M,2000.00,3000.00,6000.00,M,M,M,M,M,M,M,M,59.00,RCTP 232300Z 06013KT 9999 FEW020 BKN030 BKN060 15/09 Q1028 NOSIG RMK A3036
RCTP,2017-01-23 23:30,59.00,48.20,67.33,60.00,14.00,0.00,30.36,M,6.21,M,FEW,BKN,BKN,M,2000.00,3000.00,6000.00,M,M,M,M,M,M,M,M,59.00,RCTP 232330Z 06014KT 9999 FEW020 BKN030 BKN060 15/09 Q1028 NOSIG RMK A3036
RCTP,2017-01-24 00:00,59.00,48.20,67.33,60.00,15.00,0.00,30.36,M,6.21,M,FEW,SCT,BKN,M,2000.00,3000.00,6000.00,M,M,M,M,M,M,M,M,59.00,RCTP 240000Z 06015KT 9999 FEW020 SCT030 BKN060 15/09 Q1028 NOSIG RMK A3037
RCTP,2017-01-24 00:30,59.00,48.20,67.33,60.00,13.00,0.00,30.33,M,6.21,M,FEW,BKN,BKN,M,2000.00,3000.00,6000.00,M,M,M,M,M,M,M,M,59.00,RCTP 240030Z 06013KT 9999 FEW020 BKN030 BKN060 15/09 Q1027 NOSIG RMK A3034
RCTP,2017-01-24 01:00,60.80,50.00,67.54,60.00,13.00,0.00,30.33,M,6.21,M,FEW,BKN,BKN,M,2000.00,3000.00,6000.00,M,M,M,M,M,M,M,M,60.80,RCTP 240100Z 06013KT 9999 FEW020 BKN030 BKN060 16/10 Q1027 NOSIG RMK A3035
RCTP,2017-01-24 01:30,60.80,50.00,67.54,60.00,17.00,0.00,30.36,M,6.21,M,FEW,BKN,BKN,M,2000.00,3000.00,6000.00,M,M,M,M,M,M,M,M,60.80,RCTP 240130Z 06017KT 9999 FEW020 BKN030 BKN060 16/10 Q1028 NOSIG RMK A3036
RCTP,2017-01-24 02:00,62.60,51.80,67.75,50.00,18.00,0.00,30.36,M,6.21,M,FEW,BKN,BKN,M,2000.00,2800.00,4000.00,M,M,M,M,M,M,M,M,62.60,RCTP 240200Z 05018KT 9999 FEW020 BKN028 BKN040 17/11 Q1028 NOSIG RMK A3036
RCTP,2017-01-24 02:30,60.80,50.00,67.54,50.00,21.00,0.00,30.33,M,6.21,M,FEW,BKN,BKN,M,1500.00,2800.00,3600.00,M,M,M,M,M,M,M,M,60.80,RCTP 240230Z 05021KT 9999 FEW015 BKN028 BKN036 16/10 Q1027 NOSIG RMK A3034
RCTP,2017-01-24 03:00,62.60,51.80,67.75,50.00,19.00,0.00,30.33,M,6.21,M,FEW,BKN,BKN,M,1500.00,2800.00,6000.00,M,M,M,M,M,M,M,M,62.60,RCTP 240300Z 05019KT 9999 FEW015 BKN028 BKN060 17/11 Q1027 NOSIG RMK A3034
RCTP,2017-01-24 04:00,62.60,51.80,67.75,50.00,21.00,0.00,30.30,M,6.21,M,FEW,BKN,BKN,M,1500.00,2800.00,6000.00,M,M,M,M,M,M,M,M,62.60,RCTP 240400Z 05021KT 9999 FEW015 BKN028 BKN060 17/11 Q1026 NOSIG RMK A3031
RCTP,2017-01-24 04:30,62.60,51.80,67.75,50.00,20.00,0.00,30.30,M,6.21,M,FEW,BKN,BKN,M,1500.00,2800.00,6000.00,M,M,M,M,M,M,M,M,62.60,RCTP 240430Z 05020KT 9999 FEW015 BKN028 BKN060 17/11 Q1026 NOSIG RMK A3030
RCTP,2017-01-24 05:00,62.60,51.80,67.75,40.00,21.00,0.00,30.30,M,6.21,M,FEW,BKN,BKN,M,1500.00,2800.00,6000.00,M,M,M,M,M,M,M,M,62.60,RCTP 240500Z 04021KT 9999 FEW015 BKN028 BKN060 17/11 Q1026 NOSIG RMK A3030
RCTP,2017-01-24 05:30,62.60,51.80,67.75,40.00,20.00,0.00,30.27,M,6.21,M,FEW,BKN,BKN,M,1500.00,2800.00,4000.00,M,M,M,M,M,M,M,M,62.60,RCTP 240530Z 04020KT 9999 FEW015 BKN028 BKN040 17/11 Q1025 NOSIG RMK A3029
RCTP,2017-01-24 06:00,60.80,51.80,72.20,40.00,23.00,0.00,30.27,M,6.21,M,FEW,BKN,BKN,M,1500.00,2800.00,4000.00,M,M,M,M,M,M,M,M,60.80,RCTP 240600Z 04023KT 9999 FEW015 BKN028 BKN040 16/11 Q1025 NOSIG RMK A3028
RCTP,2017-01-24 06:30,60.80,51.80,72.20,40.00,21.00,0.00,30.27,M,6.21,M,FEW,BKN,BKN,M,1500.00,2800.00,4000.00,M,M,M,M,M,M,M,M,60.80,RCTP 240630Z 04021KT 9999 FEW015 BKN028 BKN040 16/11 Q1025 NOSIG RMK A3029
RCTP,2017-01-24 07:00,60.80,51.80,72.20,50.00,22.00,0.00,30.27,M,6.21,M,FEW,BKN,BKN,M,1500.00,2800.00,4000.00,M,M,M,M,M,M,M,M,60.80,RCTP 240700Z 05022KT 9999 FEW015 BKN028 BKN040 16/11 Q1025 NOSIG RMK A3029
RCTP,2017-01-24 07:30,60.80,51.80,72.20,50.00,22.00,0.00,30.30,M,6.21,M,FEW,BKN,BKN,M,1500.00,2800.00,4000.00,M,M,M,M,M,M,M,M,60.80,RCTP 240730Z 05022KT 9999 FEW015 BKN028 BKN040 16/11 Q1026 NOSIG RMK A3030
RCTP,2017-01-24 08:00,59.00,51.80,76.98,50.00,23.00,0.00,30.30,M,6.21,M,FEW,BKN,BKN,M,1500.00,2800.00,4000.00,M,M,M,M,M,M,M,M,59.00,RCTP 240800Z 05023KT 9999 FEW015 BKN028 BKN040 15/11 Q1026 NOSIG RMK A3030
RCTP,2017-01-24 09:00,59.00,50.00,72.01,50.00,24.00,0.00,30.30,M,6.21,M,FEW,BKN,BKN,M,1500.00,2800.00,4000.00,M,M,M,M,M,M,M,M,59.00,RCTP 240900Z 05024KT 9999 FEW015 BKN028 BKN040 15/10 Q1026 NOSIG RMK A3032
RCTP,2017-01-24 09:30,59.00,51.80,76.98,50.00,19.00,0.00,30.33,M,6.21,M,FEW,BKN,BKN,M,1500.00,2800.00,4000.00,M,M,M,M,M,M,M,M,59.00,RCTP 240930Z 05019KT 9999 FEW015 BKN028 BKN040 15/11 Q1027 NOSIG RMK A3033
RCTP,2017-01-24 10:00,57.20,51.80,82.12,50.00,21.00,0.00,30.33,M,6.21,M,FEW,BKN,BKN,M,1500.00,2800.00,4000.00,M,M,M,M,M,M,M,M,57.20,RCTP 241000Z 05021KT 9999 FEW015 BKN028 BKN040 14/11 Q1027 NOSIG RMK A3033
RCTP,2017-01-24 10:30,57.20,51.80,82.12,50.00,21.00,0.00,30.33,M,6.21,M,FEW,BKN,BKN,M,1500.00,2500.00,4000.00,M,M,M,M,M,M,M,M,57.20,RCTP 241030Z 05021KT 9999 FEW015 BKN025 BKN040 14/11 Q1027 NOSIG RMK A3033
RCTP,2017-01-24 11:00,59.00,51.80,76.98,50.00,18.00,0.00,30.33,M,6.21,M,FEW,BKN,BKN,M,1500.00,2500.00,4000.00,M,M,M,M,M,M,M,M,59.00,RCTP 241100Z 05018KT 9999 FEW015 BKN025 BKN040 15/11 Q1027 NOSIG RMK A3035
RCTP,2017-01-24 11:30,59.00,51.80,76.98,50.00,19.00,0.00,30.36,M,6.21,M,FEW,BKN,BKN,M,1500.00,2500.00,4000.00,M,M,M,M,M,M,M,M,59.00,RCTP 241130Z 05019KT 9999 FEW015 BKN025 BKN040 15/11 Q1028 NOSIG RMK A3036
RCTP,2017-01-24 12:00,59.00,51.80,76.98,50.00,21.00,0.00,30.36,M,6.21,M,FEW,BKN,BKN,M,1500.00,2500.00,4000.00,M,M,M,M,M,M,M,M,59.00,RCTP 241200Z 05021KT 9999 FEW015 BKN025 BKN040 15/11 Q1028 NOSIG RMK A3036
RCTP,2017-01-24 12:30,59.00,50.00,72.01,60.00,23.00,0.00,30.36,M,6.21,M,FEW,BKN,BKN,M,1500.00,2500.00,3500.00,M,M,M,M,M,M,M,M,59.00,RCTP 241230Z 06023KT 9999 FEW015 BKN025 BKN035 15/10 Q1028 NOSIG RMK A3037
RCTP,2017-01-24 13:00,59.00,50.00,72.01,50.00,20.00,0.00,30.36,M,6.21,M,FEW,BKN,BKN,M,1500.00,2500.00,4000.00,M,M,M,M,M,M,M,M,59.00,RCTP 241300Z 05020KT 9999 FEW015 BKN025 BKN040 15/10 Q1028 NOSIG RMK A3037
RCTP,2017-01-24 13:30,59.00,51.80,76.98,50.00,20.00,0.00,30.36,M,6.21,M,FEW,BKN,BKN,M,1500.00,2800.00,4000.00,M,M,M,M,M,M,M,M,59.00,RCTP 241330Z 05020KT 9999 FEW015 BKN028 BKN040 15/11 Q1028 NOSIG RMK A3037
RCTP,2017-01-24 14:00,59.00,50.00,72.01,60.00,21.00,0.00,30.36,M,6.21,M,FEW,BKN,BKN,M,1500.00,2800.00,3500.00,M,M,M,M,M,M,M,M,59.00,RCTP 241400Z 06021KT 9999 FEW015 BKN028 BKN035 15/10 Q1028 NOSIG RMK A3038
RCTP,2017-01-24 14:30,59.00,51.80,76.98,50.00,20.00,0.00,30.36,M,6.21,M,FEW,SCT,BKN,M,1500.00,2200.00,3000.00,M,M,M,M,M,M,M,M,59.00,RCTP 241430Z 05020KT 9999 FEW015 SCT022 BKN030 15/11 Q1028 NOSIG RMK A3038
RCTP,2017-01-24 15:00,59.00,51.80,76.98,60.00,21.00,0.00,30.36,M,6.21,M,FEW,SCT,BKN,M,1500.00,2200.00,3000.00,M,M,M,M,M,M,M,M,59.00,RCTP 241500Z 06021KT 9999 FEW015 SCT022 BKN030 15/11 Q1028 NOSIG RMK A3038
RCTP,2017-01-24 15:30,59.00,51.80,76.98,60.00,22.00,0.00,30.36,M,6.21,M,FEW,BKN,BKN,M,1500.00,2800.00,4000.00,M,M,M,M,M,M,M,M,59.00,RCTP 241530Z 06022KT 9999 FEW015 BKN028 BKN040 15/11 Q1028 NOSIG RMK A3036
RCTP,2017-01-24 16:00,59.00,51.80,76.98,60.00,22.00,0.00,30.36,M,6.21,M,FEW,BKN,BKN,M,1500.00,2500.00,4000.00,M,M,M,M,M,M,M,M,59.00,RCTP 241600Z 06022KT 9999 FEW015 BKN025 BKN040 15/11 Q1028 NOSIG RMK A3037
RCTP,2017-01-24 16:30,59.00,51.80,76.98,60.00,19.00,0.00,30.36,M,6.21,M,FEW,SCT,BKN,M,1000.00,1800.00,2500.00,M,M,M,M,M,M,M,M,59.00,RCTP 241630Z 06019KT 9999 FEW010 SCT018 BKN025 15/11 Q1028 NOSIG RMK A3036
RCTP,2017-01-24 17:00,59.00,51.80,76.98,60.00,21.00,0.00,30.33,M,6.21,M,FEW,SCT,BKN,M,1000.00,1800.00,2500.00,M,M,M,M,M,M,M,M,59.00,RCTP 241700Z 06021KT 9999 FEW010 SCT018 BKN025 15/11 Q1027 NOSIG RMK A3035
RCTP,2017-01-24 17:30,59.00,50.00,72.01,60.00,20.00,0.00,30.33,M,6.21,M,FEW,SCT,BKN,M,1000.00,1800.00,2500.00,M,M,M,M,M,M,M,M,59.00,RCTP 241730Z 06020KT 9999 FEW010 SCT018 BKN025 15/10 Q1027 NOSIG RMK A3033
RCTP,2017-01-24 18:00,59.00,50.00,72.01,60.00,18.00,0.00,30.30,M,6.21,M,FEW,BKN,BKN,M,1000.00,2500.00,4000.00,M,M,M,M,M,M,M,M,59.00,RCTP 241800Z 06018KT 9999 FEW010 BKN025 BKN040 15/10 Q1026 NOSIG RMK A3032
RCTP,2017-01-24 18:30,59.00,50.00,72.01,70.00,14.00,0.00,30.30,M,6.21,M,FEW,BKN,BKN,M,1000.00,2500.00,4000.00,M,M,M,M,M,M,M,M,59.00,RCTP 241830Z 07014KT 9999 FEW010 BKN025 BKN040 15/10 Q1026 NOSIG RMK A3032
RCTP,2017-01-24 19:00,57.20,50.00,76.82,60.00,12.00,0.00,30.30,M,6.21,M,FEW,SCT,BKN,M,1200.00,4000.00,12000.00,M,M,M,M,M,M,M,M,57.20,RCTP 241900Z 06012KT 9999 FEW012 SCT040 BKN120 14/10 Q1026 NOSIG RMK A3030
RCTP,2017-01-24 19:30,59.00,51.80,76.98,70.00,12.00,0.00,30.30,M,6.21,M,FEW,SCT,BKN,M,1200.00,3000.00,12000.00,M,M,M,M,M,M,M,M,59.00,RCTP 241930Z 07012KT 9999 FEW012 SCT030 BKN120 15/11 Q1026 NOSIG RMK A3030
RCTP,2017-01-24 20:00,59.00,51.80,76.98,70.00,13.00,0.00,30.27,M,6.21,M,FEW,SCT,BKN,M,1200.00,3000.00,12000.00,M,M,M,M,M,M,M,M,59.00,RCTP 242000Z 07013KT 9999 FEW012 SCT030 BKN120 15/11 Q1025 NOSIG RMK A3029
RCTP,2017-01-24 20:30,59.00,50.00,72.01,60.00,12.00,0.00,30.27,M,6.21,M,FEW,SCT,BKN,M,1200.00,3000.00,12000.00,M,M,M,M,M,M,M,M,59.00,RCTP 242030Z 06012KT 9999 FEW012 SCT030 BKN120 15/10 Q1025 NOSIG RMK A3029
RCTP,2017-01-24 21:00,59.00,50.00,72.01,60.00,10.00,0.00,30.27,M,6.21,M,FEW,BKN,BKN,M,1200.00,2800.00,12000.00,M,M,M,M,M,M,M,M,59.00,RCTP 242100Z 06010KT 9999 FEW012 BKN028 BKN120 15/10 Q1025 NOSIG RMK A3029
RCTP,2017-01-24 21:30,59.00,51.80,76.98,70.00,10.00,0.00,30.27,M,6.21,M,FEW,BKN,BKN,M,1200.00,2800.00,12000.00,M,M,M,M,M,M,M,M,59.00,RCTP 242130Z 07010KT 9999 FEW012 BKN028 BKN120 15/11 Q1025 NOSIG RMK A3029
RCTP,2017-01-24 22:00,59.00,51.80,76.98,50.00,11.00,0.00,30.30,M,6.21,M,FEW,BKN,BKN,M,1200.00,2800.00,12000.00,M,M,M,M,M,M,M,M,59.00,RCTP 242200Z 05011KT 9999 FEW012 BKN028 BKN120 15/11 Q1026 NOSIG RMK A3030
RCTP,2017-01-24 22:30,59.00,51.80,76.98,50.00,13.00,0.00,30.27,M,6.21,M,FEW,BKN,BKN,M,1200.00,2800.00,12000.00,M,M,M,M,M,M,M,M,59.00,RCTP 242230Z 05013KT 9999 FEW012 BKN028 BKN120 15/11 Q1025 NOSIG RMK A3029
RCTP,2017-01-24 23:00,59.00,51.80,76.98,60.00,12.00,0.00,30.30,M,6.21,M,FEW,BKN,BKN,M,1200.00,2800.00,12000.00,M,M,M,M,M,M,M,M,59.00,RCTP 242300Z 06012KT 9999 FEW012 BKN028 BKN120 15/11 Q1026 NOSIG RMK A3030
RCTP,2017-01-24 23:30,59.00,51.80,76.98,50.00,10.00,0.00,30.30,M,6.21,M,FEW,BKN,BKN,M,1200.00,3500.00,12000.00,M,M,M,M,M,M,M,M,59.00,RCTP 242330Z 05010KT 9999 FEW012 BKN035 BKN120 15/11 Q1026 NOSIG RMK A3030
RCTP,2017-01-25 00:00,60.80,51.80,72.20,50.00,15.00,0.00,30.30,M,6.21,M,FEW,BKN,BKN,M,1200.00,2500.00,3500.00,M,M,M,M,M,M,M,M,60.80,RCTP 250000Z 05015KT 9999 FEW012 BKN025 BKN035 16/11 Q1026 NOSIG RMK A3030
RCTP,2017-01-25 00:30,60.80,53.60,77.14,50.00,20.00,0.00,30.30,M,6.21,M,FEW,BKN,BKN,M,1200.00,2500.00,4000.00,M,M,M,M,M,M,M,M,60.80,RCTP 250030Z 05020KT 9999 FEW012 BKN025 BKN040 16/12 Q1026 NOSIG RMK A3031
RCTP,2017-01-25 01:00,60.80,51.80,72.20,50.00,19.00,0.00,30.30,M,6.21,M,FEW,BKN,BKN,M,1200.00,2500.00,4000.00,M,M,M,M,M,M,M,M,60.80,RCTP 250100Z 05019KT 9999 FEW012 BKN025 BKN040 16/11 Q1026 NOSIG RMK A3032
RCTP,2017-01-25 01:30,60.80,51.80,72.20,40.00,18.00,0.00,30.33,M,6.21,M,FEW,BKN,BKN,M,1200.00,2500.00,4000.00,M,M,M,M,M,M,M,M,60.80,RCTP 250130Z 04018KT 9999 FEW012 BKN025 BKN040 16/11 Q1027 NOSIG RMK A3033
RCTP,2017-01-25 02:00,62.60,53.60,72.38,40.00,19.00,0.00,30.33,M,6.21,M,FEW,BKN,BKN,M,1200.00,2500.00,4000.00,M,M,M,M,M,M,M,M,62.60,RCTP 250200Z 04019KT 9999 FEW012 BKN025 BKN040 17/12 Q1027 NOSIG RMK A3033
RCTP,2017-01-25 02:30,62.60,53.60,72.38,40.00,20.00,0.00,30.33,M,6.21,M,FEW,BKN,BKN,M,1200.00,2500.00,4000.00,M,M,M,M,M,M,M,M,62.60,RCTP 250230Z 04020KT 9999 FEW012 BKN025 BKN040 17/12 Q1027 NOSIG RMK A3033
RCTP,2017-01-25 03:00,62.60,53.60,72.38,40.00,19.00,0.00,30.33,M,6.21,M,FEW,BKN,BKN,M,1200.00,2500.00,4000.00,M,M,M,M,M,M,M,M,62.60,RCTP 250300Z 04019KT 9999 FEW012 BKN025 BKN040 17/12 Q1027 NOSIG RMK A3033
RCTP,2017-01-25 03:30,60.80,53.60,77.14,40.00,18.00,0.00,30.30,M,6.21,M,FEW,BKN,BKN,M,1200.00,2000.00,4000.00,M,M,M,M,M,M,M,M,60.80,RCTP 250330Z 04018KT 9999 FEW012 BKN020 BKN040 16/12 Q1026 NOSIG RMK A3032
RCTP,2017-01-25 04:00,60.80,53.60,77.14,50.00,19.00,0.00,30.30,M,6.21,M,FEW,BKN,BKN,M,1200.00,2200.00,4000.00,M,M,M,M,M,M,M,M,60.80,RCTP 250400Z 05019KT 9999 FEW012 BKN022 BKN040 16/12 Q1026 NOSIG RMK A3031
RCTP,2017-01-25 04:30,62.60,53.60,72.38,50.00,18.00,0.00,30.27,M,6.21,29.00,FEW,BKN,BKN,M,1200.00,2500.00,4000.00,M,M,M,M,M,M,M,M,62.60,RCTP 250430Z 05018G29KT 9999 FEW012 BKN025 BKN040 17/12 Q1025 NOSIG RMK A3029
RCTP,2017-01-25 05:00,62.60,53.60,72.38,50.00,21.00,0.00,30.27,M,6.21,M,FEW,BKN,BKN,M,1200.00,2400.00,4000.00,M,M,M,M,M,M,M,M,62.60,RCTP 250500Z 05021KT 9999 FEW012 BKN024 BKN040 17/12 Q1025 NOSIG RMK A3027
RCTP,2017-01-25 05:30,62.60,53.60,72.38,40.00,19.00,0.00,30.27,M,6.21,M,FEW,BKN,BKN,M,1200.00,2400.00,4000.00,M,M,M,M,M,M,M,M,62.60,RCTP 250530Z 04019KT 9999 FEW012 BKN024 BKN040 17/12 Q1025 NOSIG RMK A3027
RCTP,2017-01-25 06:00,60.80,53.60,77.14,40.00,20.00,0.00,30.27,M,6.21,M,FEW,BKN,BKN,M,1200.00,2400.00,4000.00,M,M,M,M,M,M,M,M,60.80,RCTP 250600Z 04020KT 9999 FEW012 BKN024 BKN040 16/12 Q1025 NOSIG RMK A3027
RCTP,2017-01-25 06:30,60.80,53.60,77.14,40.00,18.00,0.00,30.27,M,6.21,M,FEW,BKN,BKN,M,1200.00,2400.00,4000.00,M,M,M,M,M,M,M,M,60.80,RCTP 250630Z 04018KT 9999 FEW012 BKN024 BKN040 16/12 Q1025 NOSIG RMK A3027
RCTP,2017-01-25 07:00,60.80,53.60,77.14,40.00,18.00,0.00,30.24,M,6.21,M,FEW,BKN,BKN,M,1200.00,2000.00,4000.00,M,M,M,M,M,M,M,M,60.80,RCTP 250700Z 04018KT 9999 FEW012 BKN020 BKN040 16/12 Q1024 NOSIG RMK A3026
RCTP,2017-01-25 07:30,60.80,53.60,77.14,40.00,20.00,0.00,30.27,M,6.21,M,FEW,BKN,BKN,M,1200.00,1800.00,4000.00,M,M,M,M,M,M,M,M,60.80,RCTP 250730Z 04020KT 9999 FEW012 BKN018 BKN040 16/12 Q1025 NOSIG RMK A3027
RCTP,2017-01-25 08:00,60.80,53.60,77.14,40.00,20.00,0.00,30.27,M,6.21,M,FEW,BKN,BKN,M,1200.00,1800.00,2500.00,M,M,M,M,M,M,M,M,60.80,RCTP 250800Z 04020KT 9999 FEW012 BKN018 BKN025 16/12 Q1025 NOSIG RMK A3028
RCTP,2017-01-25 08:30,60.80,53.60,77.14,40.00,20.00,0.00,30.27,M,6.21,M,FEW,BKN,BKN,M,1200.00,1600.00,2500.00,M,M,M,M,M,M,M,M,60.80,RCTP 250830Z 04020KT 9999 FEW012 BKN016 BKN025 16/12 Q1025 NOSIG RMK A3028
RCTP,2017-01-25 09:00,59.00,53.60,82.25,40.00,20.00,0.00,30.27,M,6.21,M,FEW,BKN,BKN,M,1200.00,1600.00,2500.00,M,M,M,M,M,M,M,M,59.00,RCTP 250900Z 04020KT 9999 FEW012 BKN016 BKN025 15/12 Q1025 NOSIG RMK A3028
RCTP,2017-01-25 09:30,60.80,53.60,77.14,50.00,18.00,0.00,30.27,M,6.21,M,FEW,BKN,BKN,M,1200.00,1500.00,2500.00,M,M,M,M,M,M,M,M,60.80,RCTP 250930Z 05018KT 9999 FEW012 BKN015 BKN025 16/12 Q1025 NOSIG RMK A3029
RCTP,2017-01-25 10:00,60.80,53.60,77.14,40.00,19.00,0.00,30.30,M,6.21,M,FEW,BKN,BKN,M,1200.00,1500.00,2500.00,M,M,M,M,M,M,M,M,60.80,RCTP 251000Z 04019KT 9999 FEW012 BKN015 BKN025 16/12 Q1026 NOSIG RMK A3030
RCTP,2017-01-25 10:30,59.00,53.60,82.25,40.00,19.00,0.00,30.30,M,6.21,M,FEW,BKN,BKN,M,1200.00,1500.00,2500.00,M,M,M,M,M,M,M,M,59.00,RCTP 251030Z 04019KT 9999 FEW012 BKN015 BKN025 15/12 Q1026 NOSIG RMK A3030
RCTP,2017-01-25 11:00,59.00,51.80,76.98,50.00,20.00,0.00,30.30,M,6.21,M,FEW,BKN,BKN,M,1200.00,1800.00,2500.00,M,M,M,M,M,M,M,M,59.00,RCTP 251100Z 05020KT 9999 FEW012 BKN018 BKN025 15/11 Q1026 NOSIG RMK A3031
RCTP,2017-01-25 11:30,59.00,51.80,76.98,50.00,21.00,0.00,30.30,M,6.21,M,FEW,BKN,BKN,M,1200.00,1800.00,3000.00,M,M,M,M,M,M,M,M,59.00,RCTP 251130Z 05021KT 9999 FEW012 BKN018 BKN030 15/11 Q1026 NOSIG RMK A3031
RCTP,2017-01-25 12:00,59.00,51.80,76.98,50.00,17.00,0.00,30.30,M,6.21,M,FEW,BKN,BKN,M,1200.00,2200.00,3500.00,M,M,M,M,M,M,M,M,59.00,RCTP 251200Z 05017KT 9999 FEW012 BKN022 BKN035 15/11 Q1026 NOSIG RMK A3032
RCTP,2017-01-25 12:30,59.00,51.80,76.98,60.00,19.00,0.00,30.30,M,6.21,M,FEW,BKN,BKN,M,1200.00,2200.00,3500.00,M,M,M,M,M,M,M,M,59.00,RCTP 251230Z 06019KT 9999 FEW012 BKN022 BKN035 15/11 Q1026 NOSIG RMK A3032
RCTP,2017-01-25 13:00,59.00,51.80,76.98,50.00,20.00,0.00,30.30,M,6.21,M,FEW,BKN,BKN,M,1200.00,2000.00,5000.00,M,M,M,M,M,M,M,M,59.00,RCTP 251300Z 05020KT 9999 FEW012 BKN020 BKN050 15/11 Q1026 NOSIG RMK A3032
RCTP,2017-01-25 13:30,59.00,51.80,76.98,50.00,21.00,0.00,30.30,M,6.21,M,FEW,BKN,BKN,M,1200.00,2000.00,5000.00,M,M,M,M,M,M,M,M,59.00,RCTP 251330Z 05021KT 9999 FEW012 BKN020 BKN050 15/11 Q1026 NOSIG RMK A3032
RCTP,2017-01-25 14:00,59.00,50.00,72.01,50.00,20.00,0.00,30.30,M,6.21,M,FEW,BKN,BKN,M,1200.00,3000.00,5000.00,M,M,M,M,M,M,M,M,59.00,RCTP 251400Z 05020KT 9999 FEW012 BKN030 BKN050 15/10 Q1026 NOSIG RMK A3032
RCTP,2017-01-25 14:30,59.00,51.80,76.98,50.00,16.00,0.00,30.30,M,6.21,M,FEW,BKN,BKN,M,1200.00,3000.00,5000.00,M,M,M,M,M,M,M,M,59.00,RCTP 251430Z 05016KT 9999 FEW012 BKN030 BKN050 15/11 Q1026 NOSIG RMK A3032
RCTP,2017-01-25 15:00,59.00,51.80,76.98,50.00,19.00,0.00,30.30,M,6.21,M,FEW,BKN,BKN,M,1500.00,3500.00,6000.00,M,M,M,M,M,M,M,M,59.00,RCTP 251500Z 05019KT 9999 FEW015 BKN035 BKN060 15/11 Q1026 NOSIG RMK A3032
RCTP,2017-01-25 15:30,59.00,50.00,72.01,50.00,20.00,0.00,30.30,M,6.21,M,FEW,BKN,BKN,M,1500.00,3500.00,6000.00,M,M,M,M,M,M,M,M,59.00,RCTP 251530Z 05020KT 9999 FEW015 BKN035 BKN060 15/10 Q1026 NOSIG RMK A3031
RCTP,2017-01-25 16:00,59.00,51.80,76.98,40.00,20.00,0.00,30.30,M,6.21,M,FEW,BKN,BKN,M,2000.00,4000.00,7000.00,M,M,M,M,M,M,M,M,59.00,RCTP 251600Z 04020KT 9999 FEW020 BKN040 BKN070 15/11 Q1026 NOSIG RMK A3031
RCTP,2017-01-25 16:30,59.00,50.00,72.01,50.00,19.00,0.00,30.30,M,6.21,M,FEW,BKN,BKN,M,2000.00,4000.00,7000.00,M,M,M,M,M,M,M,M,59.00,RCTP 251630Z 05019KT 9999 FEW020 BKN040 BKN070 15/10 Q1026 NOSIG RMK A3030
RCTP,2017-01-25 17:00,59.00,50.00,72.01,60.00,17.00,0.00,30.30,M,6.21,M,FEW,BKN,BKN,M,2000.00,5000.00,8000.00,M,M,M,M,M,M,M,M,59.00,RCTP 251700Z 06017KT 9999 FEW020 BKN050 BKN080 15/10 Q1026 NOSIG RMK A3030
RCTP,2017-01-25 17:30,59.00,50.00,72.01,50.00,18.00,0.00,30.27,M,6.21,M,FEW,BKN,BKN,M,1500.00,2500.00,6000.00,M,M,M,M,M,M,M,M,59.00,RCTP 251730Z 05018KT 9999 FEW015 BKN025 BKN060 15/10 Q1025 NOSIG RMK A3029
RCTP,2017-01-25 18:00,59.00,50.00,72.01,50.00,19.00,0.00,30.27,M,6.21,M,FEW,BKN,BKN,M,1500.00,2200.00,4500.00,M,M,M,M,M,M,M,M,59.00,RCTP 251800Z 05019KT 9999 FEW015 BKN022 BKN045 15/10 Q1025 NOSIG RMK A3029
RCTP,2017-01-25 18:30,59.00,50.00,72.01,50.00,16.00,0.00,30.27,M,6.21,M,FEW,BKN,BKN,M,1500.00,2500.00,3500.00,M,M,M,M,M,M,M,M,59.00,RCTP 251830Z 05016KT 9999 FEW015 BKN025 BKN035 15/10 Q1025 NOSIG RMK A3029
RCTP,2017-01-25 19:00,59.00,50.00,72.01,60.00,17.00,0.00,30.27,M,6.21,M,FEW,BKN,BKN,M,1500.00,2500.00,3500.00,M,M,M,M,M,M,M,M,59.00,RCTP 251900Z 06017KT 9999 FEW015 BKN025 BKN035 15/10 Q1025 NOSIG RMK A3029
RCTP,2017-01-25 19:30,59.00,51.80,76.98,50.00,18.00,0.00,30.27,M,6.21,M,FEW,BKN,M,M,1500.00,3000.00,M,M,M,M,M,M,M,M,M,59.00,RCTP 251930Z 05018KT 9999 FEW015 BKN030 15/11 Q1025 NOSIG RMK A3029
RCTP,2017-01-25 20:00,59.00,50.00,72.01,50.00,16.00,0.00,30.27,M,6.21,M,FEW,BKN,BKN,M,1500.00,2500.00,5000.00,M,M,M,M,M,M,M,M,59.00,RCTP 252000Z 05016KT 9999 FEW015 BKN025 BKN050 15/10 Q1025 NOSIG RMK A3029
RCTP,2017-01-25 21:00,59.00,50.00,72.01,70.00,15.00,0.00,30.27,M,6.21,M,FEW,BKN,BKN,M,1500.00,3500.00,5000.00,M,M,M,M,M,M,M,M,59.00,RCTP 252100Z 07015KT 9999 FEW015 BKN035 BKN050 15/10 Q1025 NOSIG RMK A3029
RCTP,2017-01-25 21:30,59.00,50.00,72.01,70.00,14.00,0.00,30.30,M,6.21,M,FEW,BKN,BKN,M,1500.00,3500.00,5000.00,M,M,M,M,M,M,M,M,59.00,RCTP 252130Z 07014KT 9999 FEW015 BKN035 BKN050 15/10 Q1026 NOSIG RMK A3030
RCTP,2017-01-25 22:00,59.00,50.00,72.01,50.00,20.00,0.00,30.30,M,6.21,M,FEW,BKN,BKN,M,1500.00,3000.00,5000.00,M,M,M,M,M,M,M,M,59.00,RCTP 252200Z 05020KT 9999 FEW015 BKN030 BKN050 15/10 Q1026 NOSIG RMK A3030
RCTP,2017-01-25 22:30,59.00,50.00,72.01,60.00,20.00,0.00,30.30,M,6.21,M,FEW,BKN,BKN,M,1500.00,3000.00,5000.00,M,M,M,M,M,M,M,M,59.00,RCTP 252230Z 06020KT 9999 FEW015 BKN030 BKN050 15/10 Q1026 NOSIG RMK A3031
RCTP,2017-01-25 23:00,59.00,48.20,67.33,60.00,21.00,0.00,30.30,M,6.21,M,FEW,BKN,BKN,M,1500.00,3000.00,4500.00,M,M,M,M,M,M,M,M,59.00,RCTP 252300Z 06021KT 9999 FEW015 BKN030 BKN045 15/09 Q1026 NOSIG RMK A3032
RCTP,2017-01-25 23:30,60.80,48.20,63.15,60.00,20.00,0.00,30.30,M,6.21,M,FEW,BKN,BKN,M,1500.00,3000.00,4000.00,M,M,M,M,M,M,M,M,60.80,RCTP 252330Z 06020KT 9999 FEW015 BKN030 BKN040 16/09 Q1026 NOSIG RMK A3032
RCTP,2017-01-26 00:00,60.80,48.20,63.15,50.00,19.00,0.00,30.30,M,6.21,29.00,FEW,BKN,M,M,1500.00,4500.00,M,M,M,M,M,M,M,M,M,60.80,RCTP 260000Z 05019G29KT 9999 FEW015 BKN045 16/09 Q1026 NOSIG RMK A3032
RCTP,2017-01-26 00:30,60.80,48.20,63.15,60.00,22.00,0.00,30.30,M,6.21,M,FEW,BKN,M,M,1500.00,4500.00,M,M,M,M,M,M,M,M,M,60.80,RCTP 260030Z 06022KT 9999 FEW015 BKN045 16/09 Q1026 NOSIG RMK A3032
RCTP,2017-01-26 01:00,60.80,48.20,63.15,60.00,23.00,0.00,30.30,M,6.21,M,FEW,BKN,M,M,1500.00,4500.00,M,M,M,M,M,M,M,M,M,60.80,RCTP 260100Z 06023KT 9999 FEW015 BKN045 16/09 Q1026 NOSIG RMK A3032
RCTP,2017-01-26 01:30,62.60,48.20,59.26,60.00,22.00,0.00,30.30,M,6.21,M,FEW,SCT,M,M,1500.00,6000.00,M,M,M,M,M,M,M,M,M,62.60,RCTP 260130Z 06022KT 9999 FEW015 SCT060 17/09 Q1026 NOSIG RMK A3032
RCTP,2017-01-26 02:00,62.60,48.20,59.26,50.00,22.00,0.00,30.30,M,6.21,M,FEW,BKN,M,M,1500.00,3500.00,M,M,M,M,M,M,M,M,M,62.60,RCTP 260200Z 05022KT 9999 FEW015 BKN035 17/09 Q1026 NOSIG RMK A3032
RCTP,2017-01-26 02:30,62.60,48.20,59.26,40.00,23.00,0.00,30.30,M,6.21,M,FEW,BKN,M,M,1500.00,3500.00,M,M,M,M,M,M,M,M,M,62.60,RCTP 260230Z 04023KT 9999 FEW015 BKN035 17/09 Q1026 NOSIG RMK A3031
RCTP,2017-01-26 03:00,62.60,48.20,59.26,40.00,23.00,0.00,30.30,M,6.21,33.00,FEW,BKN,M,M,1500.00,3500.00,M,M,M,M,M,M,M,M,M,62.60,RCTP 260300Z 04023G33KT 9999 FEW015 BKN035 17/09 Q1026 NOSIG RMK A3031
RCTP,2017-01-26 03:30,62.60,48.20,59.26,50.00,25.00,0.00,30.27,M,6.21,M,FEW,BKN,M,M,1500.00,3500.00,M,M,M,M,M,M,M,M,M,62.60,RCTP 260330Z 05025KT 9999 FEW015 BKN035 17/09 Q1025 NOSIG RMK A3029
RCTP,2017-01-26 04:00,62.60,48.20,59.26,50.00,25.00,0.00,30.24,M,6.21,M,FEW,BKN,M,M,1500.00,3500.00,M,M,M,M,M,M,M,M,M,62.60,RCTP 260400Z 05025KT 9999 FEW015 BKN035 17/09 Q1024 NOSIG RMK A3026
RCTP,2017-01-26 04:46,66.20,50.00,55.88,60.00,18.00,0.00,30.21,M,6.21,M,FEW,SCT,M,M,1500.00,3500.00,M,M,M,M,M,M,M,M,M,66.20,RCTP 260446Z 06018KT 9999 FEW015 SCT035 19/10 Q1023 NOSIG RMK A3022
RCTP,2017-01-26 05:00,66.20,50.00,55.88,70.00,19.00,0.00,30.21,M,6.21,M,FEW,SCT,M,M,1500.00,3500.00,M,M,M,M,M,M,M,M,M,66.20,RCTP 260500Z 07019KT 9999 FEW015 SCT035 19/10 Q1023 NOSIG RMK A3021
RCTP,2017-01-26 05:30,66.20,50.00,55.88,60.00,20.00,0.00,30.18,M,6.21,M,FEW,SCT,M,M,1500.00,3500.00,M,M,M,M,M,M,M,M,M,66.20,RCTP 260530Z 06020KT 9999 FEW015 SCT035 19/10 Q1022 NOSIG RMK A3019
RCTP,2017-01-26 06:00,68.00,50.00,52.51,70.00,18.00,0.00,30.15,M,6.21,M,FEW,M,M,M,1500.00,M,M,M,M,M,M,M,M,M,M,68.00,RCTP 260600Z 07018KT 9999 FEW015 20/10 Q1021 NOSIG RMK A3017
RCTP,2017-01-26 07:30,66.20,50.00,55.88,60.00,21.00,0.00,30.15,M,6.21,M,FEW,M,M,M,3300.00,M,M,M,M,M,M,M,M,M,M,66.20,RCTP 260730Z 06021KT 9999 FEW033 19/10 Q1021 NOSIG RMK A3015
RCTP,2017-01-26 08:00,66.20,51.80,59.74,70.00,17.00,0.00,30.15,M,6.21,M,FEW,M,M,M,3300.00,M,M,M,M,M,M,M,M,M,M,66.20,RCTP 260800Z 07017KT 9999 FEW033 19/11 Q1021 NOSIG RMK A3015
RCTP,2017-01-26 08:30,66.20,51.80,59.74,70.00,18.00,0.00,30.15,M,6.21,M,FEW,M,M,M,3300.00,M,M,M,M,M,M,M,M,M,M,66.20,RCTP 260830Z 07018KT 9999 FEW033 19/11 Q1021 NOSIG RMK A3015
RCTP,2017-01-26 09:00,64.40,51.80,63.60,70.00,16.00,0.00,30.15,M,6.21,M,M,M,M,M,M,M,M,M,M,M,M,M,M,M,M,64.40,RCTP 260900Z 07016KT CAVOK 18/11 Q1021 NOSIG RMK A3015
RCTP,2017-01-26 09:30,62.60,51.80,67.75,60.00,15.00,0.00,30.15,M,6.21,M,M,M,M,M,M,M,M,M,M,M,M,M,M,M,M,62.60,RCTP 260930Z 06015KT CAVOK 17/11 Q1021 NOSIG RMK A3016
RCTP,2017-01-26 10:00,62.60,51.80,67.75,60.00,15.00,0.00,30.15,M,6.21,M,M,M,M,M,M,M,M,M,M,M,M,M,M,M,M,62.60,RCTP 261000Z 06015KT CAVOK 17/11 Q1021 NOSIG RMK A3017
RCTP,2017-01-26 10:30,62.60,51.80,67.75,60.00,16.00,0.00,30.15,M,6.21,M,FEW,M,M,M,2800.00,M,M,M,M,M,M,M,M,M,M,62.60,RCTP 261030Z 06016KT 9999 FEW028 17/11 Q1021 NOSIG RMK A3017
RCTP,2017-01-26 11:00,62.60,51.80,67.75,60.00,16.00,0.00,30.18,M,6.21,M,FEW,M,M,M,2600.00,M,M,M,M,M,M,M,M,M,M,62.60,RCTP 261100Z 06016KT 9999 FEW026 17/11 Q1022 NOSIG RMK A3018
RCTP,2017-01-26 11:30,62.60,51.80,67.75,50.00,15.00,0.00,30.18,M,6.21,M,FEW,M,M,M,2600.00,M,M,M,M,M,M,M,M,M,M,62.60,RCTP 261130Z 05015KT 9999 FEW026 17/11 Q1022 NOSIG RMK A3018
RCTP,2017-01-26 12:00,62.60,51.80,67.75,50.00,16.00,0.00,30.18,M,6.21,M,FEW,M,M,M,2600.00,M,M,M,M,M,M,M,M,M,M,62.60,RCTP 261200Z 05016KT 9999 FEW026 17/11 Q1022 NOSIG RMK A3019
RCTP,2017-01-26 12:30,62.60,51.80,67.75,50.00,13.00,0.00,30.18,M,6.21,M,FEW,M,M,M,2600.00,M,M,M,M,M,M,M,M,M,M,62.60,RCTP 261230Z 05013KT 9999 FEW026 17/11 Q1022 NOSIG RMK A3019
RCTP,2017-01-26 13:00,62.60,51.80,67.75,50.00,13.00,0.00,30.18,M,6.21,M,FEW,M,M,M,2600.00,M,M,M,M,M,M,M,M,M,M,62.60,RCTP 261300Z 05013KT 9999 FEW026 17/11 Q1022 NOSIG RMK A3019
RCTP,2017-01-26 13:30,62.60,51.80,67.75,60.00,13.00,0.00,30.18,M,6.21,M,FEW,M,M,M,2600.00,M,M,M,M,M,M,M,M,M,M,62.60,RCTP 261330Z 06013KT 9999 FEW026 17/11 Q1022 NOSIG RMK A3019
RCTP,2017-01-26 14:00,62.60,51.80,67.75,50.00,14.00,0.00,30.18,M,6.21,M,FEW,M,M,M,2600.00,M,M,M,M,M,M,M,M,M,M,62.60,RCTP 261400Z 05014KT 9999 FEW026 17/11 Q1022 NOSIG RMK A3020
RCTP,2017-01-26 14:30,62.60,51.80,67.75,60.00,13.00,0.00,30.18,M,6.21,M,FEW,M,M,M,2600.00,M,M,M,M,M,M,M,M,M,M,62.60,RCTP 261430Z 06013KT 9999 FEW026 17/11 Q1022 NOSIG RMK A3020
RCTP,2017-01-26 15:00,62.60,51.80,67.75,50.00,13.00,0.00,30.18,M,6.21,M,FEW,M,M,M,2600.00,M,M,M,M,M,M,M,M,M,M,62.60,RCTP 261500Z 05013KT 9999 FEW026 17/11 Q1022 NOSIG RMK A3019
RCTP,2017-01-26 15:30,62.60,51.80,67.75,50.00,14.00,0.00,30.18,M,6.21,M,FEW,M,M,M,2600.00,M,M,M,M,M,M,M,M,M,M,62.60,RCTP 261530Z 05014KT 9999 FEW026 17/11 Q1022 NOSIG RMK A3019
RCTP,2017-01-26 16:00,62.60,51.80,67.75,50.00,13.00,0.00,30.18,M,6.21,M,FEW,M,M,M,2600.00,M,M,M,M,M,M,M,M,M,M,62.60,RCTP 261600Z 05013KT 9999 FEW026 17/11 Q1022 NOSIG RMK A3019
RCTP,2017-01-26 16:30,62.60,51.80,67.75,50.00,12.00,0.00,30.18,M,6.21,M,FEW,M,M,M,2600.00,M,M,M,M,M,M,M,M,M,M,62.60,RCTP 261630Z 05012KT 9999 FEW026 17/11 Q1022 NOSIG RMK A3019
RCTP,2017-01-26 17:00,62.60,51.80,67.75,40.00,11.00,0.00,30.18,M,6.21,M,FEW,M,M,M,2600.00,M,M,M,M,M,M,M,M,M,M,62.60,RCTP 261700Z 04011KT 9999 FEW026 17/11 Q1022 NOSIG RMK A3019
RCTP,2017-01-26 17:30,60.80,51.80,72.20,40.00,11.00,0.00,30.18,M,6.21,M,FEW,M,M,M,2600.00,M,M,M,M,M,M,M,M,M,M,60.80,RCTP 261730Z 04011KT 9999 FEW026 16/11 Q1022 NOSIG RMK A3019
RCTP,2017-01-26 18:00,60.80,53.60,77.14,40.00,11.00,0.00,30.18,M,6.21,M,FEW,M,M,M,3000.00,M,M,M,M,M,M,M,M,M,M,60.80,RCTP 261800Z 04011KT 9999 FEW030 16/12 Q1022 NOSIG RMK A3019
RCTP,2017-01-26 18:30,60.80,53.60,77.14,50.00,11.00,0.00,30.18,M,6.21,M,M,M,M,M,M,M,M,M,M,M,M,M,M,M,M,60.80,RCTP 261830Z 05011KT CAVOK 16/12 Q1022 NOSIG RMK A3018
RCTP,2017-01-26 19:00,59.00,51.80,76.98,50.00,8.00,0.00,30.18,M,6.21,M,M,M,M,M,M,M,M,M,M,M,M,M,M,M,M,59.00,RCTP 261900Z 05008KT CAVOK 15/11 Q1022 NOSIG RMK A3018
RCTP,2017-01-26 19:30,60.80,51.80,72.20,50.00,8.00,0.00,30.15,M,6.21,M,M,M,M,M,M,M,M,M,M,M,M,M,M,M,M,60.80,RCTP 261930Z 05008KT CAVOK 16/11 Q1021 NOSIG RMK A3017
RCTP,2017-01-26 20:00,59.00,51.80,76.98,50.00,7.00,0.00,30.18,M,6.21,M,M,M,M,M,M,M,M,M,M,M,M,M,M,M,M,59.00,RCTP 262000Z 05007KT CAVOK 15/11 Q1022 NOSIG RMK A3018
RCTP,2017-01-26 20:30,59.00,51.80,76.98,50.00,8.00,0.00,30.18,M,6.21,M,FEW,M,M,M,3000.00,M,M,M,M,M,M,M,M,M,M,59.00,RCTP 262030Z 05008KT 9999 FEW030 15/11 Q1022 NOSIG RMK A3018
RCTP,2017-01-26 21:00,59.00,53.60,82.25,50.00,8.00,0.00,30.18,M,6.21,M,FEW,M,M,M,3000.00,M,M,M,M,M,M,M,M,M,M,59.00,RCTP 262100Z 05008KT 9999 FEW030 15/12 Q1022 NOSIG RMK A3018
RCTP,2017-01-26 21:30,60.80,55.40,82.37,30.00,9.00,0.00,30.18,M,6.21,M,M,M,M,M,M,M,M,M,M,M,M,M,M,M,M,60.80,RCTP 262130Z 03009KT CAVOK 16/13 Q1022 NOSIG RMK A3019
RCTP,2017-01-26 22:00,60.80,55.40,82.37,40.00,8.00,0.00,30.18,M,6.21,M,M,M,M,M,M,M,M,M,M,M,M,M,M,M,M,60.80,RCTP 262200Z 04008KT CAVOK 16/13 Q1022 NOSIG RMK A3020
RCTP,2017-01-26 22:30,60.80,57.20,87.92,40.00,10.00,0.00,30.21,M,6.21,M,FEW,M,M,M,2800.00,M,M,M,M,M,M,M,M,M,M,60.80,RCTP 262230Z 04010KT 9999 FEW028 16/14 Q1023 NOSIG RMK A3021
RCTP,2017-01-26 23:00,62.60,57.20,82.50,40.00,11.00,0.00,30.21,M,6.21,M,FEW,M,M,M,2300.00,M,M,M,M,M,M,M,M,M,M,62.60,RCTP 262300Z 04011KT 9999 FEW023 17/14 Q1023 NOSIG RMK A3022
RCTP,2017-01-26 23:30,64.40,57.20,77.45,40.00,11.00,0.00,30.21,M,6.21,M,M,M,M,M,M,M,M,M,M,M,M,M,M,M,M,64.40,RCTP 262330Z 04011KT CAVOK 18/14 Q1023 NOSIG RMK A3022
RCTP,2017-01-27 00:00,64.40,57.20,77.45,50.00,11.00,0.00,30.21,M,6.21,M,M,M,M,M,M,M,M,M,M,M,M,M,M,M,M,64.40,RCTP 270000Z 05011KT CAVOK 18/14 Q1023 NOSIG RMK A3022
RCTP,2017-01-27 00:30,66.20,59.00,77.60,50.00,11.00,0.00,30.21,M,6.21,M,FEW,M,M,M,2500.00,M,M,M,M,M,M,M,M,M,M,66.20,RCTP 270030Z 05011KT 9999 FEW025 19/15 Q1023 NOSIG RMK A3023
RCTP,2017-01-27 01:00,68.00,59.00,72.92,40.00,11.00,0.00,30.24,M,6.21,M,FEW,M,M,M,2500.00,M,M,M,M,M,M,M,M,M,M,68.00,RCTP 270100Z 04011KT 9999 FEW025 20/15 Q1024 NOSIG RMK A3024
RCTP,2017-01-27 01:30,69.80,60.80,73.09,30.00,10.00,0.00,30.24,M,6.21,M,FEW,M,M,M,2500.00,M,M,M,M,M,M,M,M,M,M,69.80,RCTP 270130Z 03010KT 360V060 9999 FEW025 21/16 Q1024 NOSIG RMK A3024
RCTP,2017-01-27 02:00,68.00,60.80,77.75,20.00,13.00,0.00,30.24,M,6.21,M,FEW,M,M,M,2500.00,M,M,M,M,M,M,M,M,M,M,68.00,RCTP 270200Z 02013KT 9999 FEW025 20/16 Q1024 NOSIG RMK A3024
RCTP,2017-01-27 02:30,68.00,60.80,77.75,30.00,16.00,0.00,30.21,M,6.21,M,FEW,M,M,M,2200.00,M,M,M,M,M,M,M,M,M,M,68.00,RCTP 270230Z 03016KT 9999 FEW022 20/16 Q1023 NOSIG RMK A3023
RCTP,2017-01-27 03:00,68.00,59.00,72.92,30.00,17.00,0.00,30.21,M,6.21,M,FEW,M,M,M,2200.00,M,M,M,M,M,M,M,M,M,M,68.00,RCTP 270300Z 03017KT 9999 FEW022 20/15 Q1023 NOSIG RMK A3023
RCTP,2017-01-27 03:30,68.00,59.00,72.92,40.00,17.00,0.00,30.21,M,6.21,M,FEW,M,M,M,2500.00,M,M,M,M,M,M,M,M,M,M,68.00,RCTP 270330Z 04017KT 9999 FEW025 20/15 Q1023 NOSIG RMK A3022
RCTP,2017-01-27 04:00,68.00,59.00,72.92,30.00,18.00,0.00,30.21,M,6.21,M,FEW,M,M,M,2500.00,M,M,M,M,M,M,M,M,M,M,68.00,RCTP 270400Z 03018KT 9999 FEW025 20/15 Q1023 NOSIG RMK A3022
RCTP,2017-01-27 04:30,68.00,59.00,72.92,30.00,20.00,0.00,30.18,M,6.21,M,FEW,M,M,M,1600.00,M,M,M,M,M,M,M,M,M,M,68.00,RCTP 270430Z 03020KT 9999 FEW016 20/15 Q1022 NOSIG RMK A3020
RCTP,2017-01-27 05:00,68.00,59.00,72.92,30.00,16.00,0.00,30.18,M,6.21,M,FEW,M,M,M,2000.00,M,M,M,M,M,M,M,M,M,M,68.00,RCTP 270500Z 03016KT 9999 FEW020 20/15 Q1022 NOSIG RMK A3019
RCTP,2017-01-27 05:30,68.00,57.20,68.35,20.00,18.00,0.00,30.18,M,6.21,M,FEW,M,M,M,2000.00,M,M,M,M,M,M,M,M,M,M,68.00,RCTP 270530Z 02018KT 9999 FEW020 20/14 Q1022 NOSIG RMK A3018
RCTP,2017-01-27 06:00,66.20,59.00,77.60,20.00,17.00,0.00,30.18,M,6.21,M,SCT,M,M,M,2000.00,M,M,M,M,M,M,M,M,M,M,66.20,RCTP 270600Z 02017KT 9999 SCT020 19/15 Q1022 NOSIG RMK A3018
RCTP,2017-01-27 06:30,66.20,57.20,72.74,30.00,17.00,0.00,30.15,M,6.21,M,SCT,SCT,M,M,1600.00,4500.00,M,M,M,M,M,M,M,M,M,66.20,RCTP 270630Z 03017KT 9999 SCT016 SCT045 19/14 Q1021 NOSIG RMK A3017
RCTP,2017-01-27 07:00,66.20,57.20,72.74,30.00,17.00,0.00,30.15,M,6.21,M,BKN,BKN,M,M,1600.00,4500.00,M,M,M,M,M,M,M,M,M,66.20,RCTP 270700Z 03017KT 9999 BKN016 BKN045 19/14 Q1021 NOSIG RMK A3016
RCTP,2017-01-27 07:30,66.20,57.20,72.74,30.00,18.00,0.00,30.15,M,6.21,M,SCT,M,M,M,1600.00,M,M,M,M,M,M,M,M,M,M,66.20,RCTP 270730Z 03018KT 9999 SCT016 19/14 Q1021 NOSIG RMK A3016
RCTP,2017-01-27 08:00,64.40,57.20,77.45,30.00,21.00,0.00,30.15,M,6.21,M,SCT,M,M,M,1600.00,M,M,M,M,M,M,M,M,M,M,64.40,RCTP 270800Z 03021KT 9999 SCT016 18/14 Q1021 NOSIG RMK A3016
RCTP,2017-01-27 08:30,64.40,57.20,77.45,40.00,18.00,0.00,30.15,M,6.21,M,FEW,M,M,M,1600.00,M,M,M,M,M,M,M,M,M,M,64.40,RCTP 270830Z 04018KT 9999 FEW016 18/14 Q1021 NOSIG RMK A3017
RCTP,2017-01-27 09:00,62.60,57.20,82.50,50.00,20.00,0.00,30.15,M,6.21,M,FEW,M,M,M,1500.00,M,M,M,M,M,M,M,M,M,M,62.60,RCTP 270900Z 05020KT 9999 FEW015 17/14 Q1021 NOSIG RMK A3017
RCTP,2017-01-27 09:30,62.60,57.20,82.50,40.00,18.00,0.00,30.18,M,6.21,M,FEW,M,M,M,2000.00,M,M,M,M,M,M,M,M,M,M,62.60,RCTP 270930Z 04018KT 9999 FEW020 17/14 Q1022 NOSIG RMK A3018
RCTP,2017-01-27 10:00,62.60,57.20,82.50,40.00,17.00,0.00,30.18,M,6.21,M,FEW,M,M,M,2000.00,M,M,M,M,M,M,M,M,M,M,62.60,RCTP 271000Z 04017KT 9999 FEW020 17/14 Q1022 NOSIG RMK A3018
RCTP,2017-01-27 10:30,62.60,57.20,82.50,50.00,15.00,0.00,30.18,M,6.21,M,FEW,M,M,M,2000.00,M,M,M,M,M,M,M,M,M,M,62.60,RCTP 271030Z 05015KT 9999 FEW020 17/14 Q1022 NOSIG RMK A3019
RCTP,2017-01-27 11:00,62.60,57.20,82.50,50.00,15.00,0.00,30.18,M,6.21,M,FEW,M,M,M,2000.00,M,M,M,M,M,M,M,M,M,M,62.60,RCTP 271100Z 05015KT 9999 FEW020 17/14 Q1022 NOSIG RMK A3019
RCTP,2017-01-27 11:30,62.60,57.20,82.50,60.00,16.00,0.00,30.18,M,6.21,M,FEW,M,M,M,2000.00,M,M,M,M,M,M,M,M,M,M,62.60,RCTP 271130Z 06016KT 9999 FEW020 17/14 Q1022 NOSIG RMK A3019
RCTP,2017-01-27 12:00,62.60,57.20,82.50,60.00,14.00,0.00,30.18,M,6.21,M,FEW,M,M,M,2000.00,M,M,M,M,M,M,M,M,M,M,62.60,RCTP 271200Z 06014KT 9999 FEW020 17/14 Q1022 NOSIG RMK A3019
RCTP,2017-01-27 12:30,62.60,57.20,82.50,60.00,14.00,0.00,30.18,M,6.21,M,FEW,M,M,M,2000.00,M,M,M,M,M,M,M,M,M,M,62.60,RCTP 271230Z 06014KT 9999 FEW020 17/14 Q1022 NOSIG RMK A3019
RCTP,2017-01-27 13:00,62.60,57.20,82.50,60.00,12.00,0.00,30.18,M,6.21,M,FEW,M,M,M,2000.00,M,M,M,M,M,M,M,M,M,M,62.60,RCTP 271300Z 06012KT 9999 FEW020 17/14 Q1022 NOSIG RMK A3019
RCTP,2017-01-27 13:30,60.80,57.20,87.92,40.00,11.00,0.00,30.18,M,6.21,M,FEW,M,M,M,2000.00,M,M,M,M,M,M,M,M,M,M,60.80,RCTP 271330Z 04011KT 9999 FEW020 16/14 Q1022 NOSIG RMK A3019
RCTP,2017-01-27 14:00,62.60,57.20,82.50,40.00,11.00,0.00,30.18,M,6.21,M,FEW,M,M,M,2000.00,M,M,M,M,M,M,M,M,M,M,62.60,RCTP 271400Z 04011KT 9999 FEW020 17/14 Q1022 NOSIG RMK A3018
RCTP,2017-01-27 14:30,62.60,59.00,88.00,50.00,15.00,0.00,30.15,M,6.21,M,FEW,SCT,M,M,2000.00,5000.00,M,M,M,M,M,M,M,M,M,62.60,RCTP 271430Z 05015KT 9999 FEW020 SCT050 17/15 Q1021 NOSIG RMK A3017
RCTP,2017-01-27 15:00,62.60,59.00,88.00,50.00,13.00,0.00,30.15,M,6.21,M,FEW,BKN,BKN,M,1500.00,2500.00,4000.00,M,M,M,M,M,M,M,M,62.60,RCTP 271500Z 05013KT 9999 FEW015 BKN025 BKN040 17/15 Q1021 NOSIG RMK A3017
RCTP,2017-01-27 15:30,64.40,59.00,82.62,40.00,11.00,0.00,30.15,M,6.21,M,FEW,BKN,BKN,M,1300.00,2200.00,4000.00,M,M,M,M,M,M,M,M,64.40,RCTP 271530Z 04011KT 9999 FEW013 BKN022 BKN040 18/15 Q1021 NOSIG RMK A3017
RCTP,2017-01-27 16:00,64.40,60.80,88.09,40.00,12.00,0.00,30.15,M,6.21,M,SCT,BKN,BKN,M,1300.00,2200.00,4000.00,M,M,M,M,M,M,M,M,64.40,RCTP 271600Z 04012KT 9999 SCT013 BKN022 BKN040 18/16 Q1021 NOSIG RMK A3017
RCTP,2017-01-27 16:20,64.40,60.80,88.09,40.00,12.00,0.00,30.15,M,6.21,M,SCT,BKN,BKN,M,1000.00,1500.00,2400.00,M,M,M,M,M,M,M,M,64.40,RCTP 271620Z 04012KT 9999 SCT010 BKN015 BKN024 18/16 Q1021 NOSIG RMK A3016
RCTP,2017-01-27 16:30,64.40,60.80,88.09,40.00,11.00,0.00,30.15,M,6.21,M,SCT,BKN,BKN,M,1000.00,1500.00,2400.00,M,M,M,M,M,M,M,M,64.40,RCTP 271630Z 04011KT 9999 SCT010 BKN015 BKN024 18/16 Q1021 NOSIG RMK A3016
RCTP,2017-01-27 16:39,64.40,60.80,88.09,40.00,12.00,0.00,30.15,M,5.59,M,FEW,BKN,BKN,M,900.00,1200.00,2000.00,M,-DZ,M,M,M,M,M,M,64.40,RCTP 271639Z 04012KT 9000 -DZ FEW009 BKN012 BKN020 18/16 Q1021 NOSIG RMK A3015
RCTP,2017-01-27 17:00,62.60,60.80,93.83,40.00,12.00,0.00,30.15,M,5.59,M,SCT,BKN,BKN,M,900.00,1200.00,2000.00,M,-RA,M,M,M,M,M,M,62.60,RCTP 271700Z 04012KT 9000 -RA SCT009 BKN012 BKN020 17/16 Q1021 NOSIG RMK A3015
RCTP,2017-01-27 17:30,62.60,60.80,93.83,50.00,12.00,0.00,30.15,M,5.59,M,FEW,BKN,BKN,M,800.00,1200.00,2000.00,M,-RA,M,M,M,M,M,M,62.60,RCTP 271730Z 05012KT 9000 -RA FEW008 BKN012 BKN020 17/16 Q1021 NOSIG RMK A3015
RCTP,2017-01-27 18:00,62.60,60.80,93.83,50.00,12.00,0.00,30.12,M,4.97,M,FEW,BKN,BKN,M,800.00,1200.00,2000.00,M,-RA,M,M,M,M,M,M,62.60,RCTP 271800Z 05012KT 8000 -RA FEW008 BKN012 BKN020 17/16 Q1020 NOSIG RMK A3014
RCTP,2017-01-27 18:30,62.60,60.80,93.83,40.00,12.00,0.00,30.12,M,4.35,M,FEW,BKN,BKN,M,800.00,1000.00,2000.00,M,-RA,M,M,M,M,M,M,62.60,RCTP 271830Z 04012KT 7000 -RA FEW008 BKN010 BKN020 17/16 Q1020 NOSIG RMK A3012
RCTP,2017-01-27 19:00,62.60,60.80,93.83,40.00,17.00,0.00,30.12,M,4.97,M,BKN,BKN,BKN,M,600.00,800.00,1000.00,M,M,M,M,M,M,M,M,62.60,RCTP 271900Z 04017KT 8000 BKN006 BKN008 BKN010 17/16 Q1020 NOSIG RMK A3012
RCTP,2017-01-27 19:30,62.60,60.80,93.83,40.00,19.00,0.00,30.09,M,5.59,M,BKN,BKN,BKN,M,600.00,800.00,1000.00,M,M,M,M,M,M,M,M,62.60,RCTP 271930Z 04019KT 9000 BKN006 BKN008 BKN010 17/16 Q1019 NOSIG RMK A3009
RCTP,2017-01-27 20:00,62.60,60.80,93.83,40.00,18.00,0.00,30.09,M,6.21,M,BKN,BKN,M,M,600.00,1200.00,M,M,M,M,M,M,M,M,M,62.60,RCTP 272000Z 04018KT 9999 BKN006 BKN012 17/16 Q1019 NOSIG RMK A3009
RCTP,2017-01-27 20:30,62.60,60.80,93.83,40.00,16.00,0.00,30.09,M,6.21,M,BKN,BKN,M,M,700.00,900.00,M,M,M,M,M,M,M,M,M,62.60,RCTP 272030Z 04016KT 9999 BKN007 BKN009 17/16 Q1019 NOSIG RMK A3009
RCTP,2017-01-27 21:00,62.60,60.80,93.83,40.00,16.00,0.00,30.09,M,6.21,M,BKN,M,M,M,700.00,M,M,M,M,M,M,M,M,M,M,62.60,RCTP 272100Z 04016KT 9999 BKN007 17/16 Q1019 NOSIG RMK A3009
RCTP,2017-01-27 21:30,62.60,60.80,93.83,40.00,15.00,0.00,30.09,M,6.21,M,BKN,M,M,M,700.00,M,M,M,M,M,M,M,M,M,M,62.60,RCTP 272130Z 04015KT 9999 BKN007 17/16 Q1019 NOSIG RMK A3010
RCTP,2017-01-27 22:00,62.60,60.80,93.83,40.00,15.00,0.00,30.09,M,6.21,M,BKN,M,M,M,600.00,M,M,M,M,M,M,M,M,M,M,62.60,RCTP 272200Z 04015KT 9999 BKN006 17/16 Q1019 NOSIG RMK A3011
RCTP,2017-01-27 22:30,62.60,60.80,93.83,30.00,12.00,0.00,30.12,M,6.21,M,BKN,M,M,M,700.00,M,M,M,M,M,M,M,M,M,M,62.60,RCTP 272230Z 03012KT 9999 BKN007 17/16 Q1020 NOSIG RMK A3012
RCTP,2017-01-27 23:00,62.60,60.80,93.83,30.00,11.00,0.00,30.12,M,6.21,M,BKN,M,M,M,700.00,M,M,M,M,M,M,M,M,M,M,62.60,RCTP 272300Z 03011KT 9999 BKN007 17/16 Q1020 NOSIG RMK A3013
RCTP,2017-01-27 23:30,62.60,60.80,93.83,30.00,12.00,0.00,30.12,M,6.21,M,BKN,M,M,M,800.00,M,M,M,M,M,M,M,M,M,M,62.60,RCTP 272330Z 03012KT 9999 BKN008 17/16 Q1020 NOSIG RMK A3013
RCTP,2017-01-28 00:00,64.40,60.80,88.09,20.00,10.00,0.00,30.12,M,6.21,M,BKN,BKN,M,M,600.00,1000.00,M,M,M,M,M,M,M,M,M,64.40,RCTP 280000Z 02010KT 9999 BKN006 BKN010 18/16 Q1020 NOSIG RMK A3013
RCTP,2017-01-28 00:25,64.40,62.60,93.88,30.00,10.00,0.00,30.12,M,6.21,M,SCT,BKN,BKN,M,600.00,1500.00,2500.00,M,M,M,M,M,M,M,M,64.40,RCTP 280025Z 03010KT 9999 SCT006 BKN015 BKN025 18/17 Q1020 NOSIG RMK A3013
RCTP,2017-01-28 00:30,66.20,62.60,88.18,30.00,10.00,0.00,30.12,M,6.21,M,FEW,SCT,BKN,M,600.00,1500.00,2500.00,M,M,M,M,M,M,M,M,66.20,RCTP 280030Z 03010KT 9999 FEW006 SCT015 BKN025 19/17 Q1020 NOSIG RMK A3014
RCTP,2017-01-28 01:00,66.20,62.60,88.18,30.00,12.00,0.00,30.12,M,6.21,M,FEW,SCT,BKN,M,600.00,1500.00,2800.00,M,M,M,M,M,M,M,M,66.20,RCTP 280100Z 03012KT 9999 FEW006 SCT015 BKN028 19/17 Q1020 NOSIG RMK A3014
RCTP,2017-01-28 01:30,66.20,62.60,88.18,30.00,11.00,0.00,30.15,M,6.21,M,FEW,SCT,BKN,M,600.00,1500.00,2800.00,M,M,M,M,M,M,M,M,66.20,RCTP 280130Z 03011KT 9999 FEW006 SCT015 BKN028 19/17 Q1021 NOSIG RMK A3015
RCTP,2017-01-28 02:00,68.00,62.60,82.86,30.00,11.00,0.00,30.12,M,6.21,M,FEW,SCT,BKN,M,600.00,1200.00,2500.00,M,M,M,M,M,M,M,M,68.00,RCTP 280200Z 03011KT 9999 FEW006 SCT012 BKN025 20/17 Q1020 NOSIG RMK A3014
RCTP,2017-01-28 02:30,68.00,62.60,82.86,20.00,12.00,0.00,30.12,M,6.21,M,FEW,SCT,M,M,900.00,2000.00,M,M,M,M,M,M,M,M,M,68.00,RCTP 280230Z 02012KT 9999 FEW009 SCT020 20/17 Q1020 NOSIG RMK A3013
RCTP,2017-01-28 03:00,68.00,64.40,88.26,30.00,12.00,0.00,30.12,M,6.21,M,FEW,SCT,M,M,800.00,1200.00,M,M,M,M,M,M,M,M,M,68.00,RCTP 280300Z 03012KT 9999 FEW008 SCT012 20/18 Q1020 NOSIG RMK A3012
RCTP,2017-01-28 03:30,68.00,62.60,82.86,30.00,12.00,0.00,30.09,M,6.21,M,FEW,SCT,BKN,M,600.00,1000.00,1600.00,M,M,M,M,M,M,M,M,68.00,RCTP 280330Z 03012KT 9999 FEW006 SCT010 BKN016 20/17 Q1019 NOSIG RMK A3011
RCTP,2017-01-28 04:00,68.00,62.60,82.86,20.00,13.00,0.00,30.09,M,6.21,M,FEW,SCT,M,M,800.00,1200.00,M,M,M,M,M,M,M,M,M,68.00,RCTP 280400Z 02013KT 9999 FEW008 SCT012 20/17 Q1019 NOSIG RMK A3009
RCTP,2017-01-28 04:30,68.00,62.60,82.86,20.00,14.00,0.00,30.06,M,6.21,M,FEW,SCT,M,M,800.00,1200.00,M,M,M,M,M,M,M,M,M,68.00,RCTP 280430Z 02014KT 9999 FEW008 SCT012 20/17 Q1018 NOSIG RMK A3007
RCTP,2017-01-28 05:00,68.00,62.60,82.86,20.00,15.00,0.00,30.06,M,6.21,M,SCT,BKN,BKN,M,600.00,1000.00,1600.00,M,M,M,M,M,M,M,M,68.00,RCTP 280500Z 02015KT 9999 SCT006 BKN010 BKN016 20/17 Q1018 NOSIG RMK A3007
RCTP,2017-01-28 05:30,68.00,62.60,82.86,20.00,13.00,0.00,30.03,M,6.21,M,SCT,BKN,BKN,M,600.00,900.00,1500.00,M,M,M,M,M,M,M,M,68.00,RCTP 280530Z 02013KT 9999 SCT006 BKN009 BKN015 20/17 Q1017 TEMPO SCT005 BKN007 BKN015 RMK A3005
RCTP,2017-01-28 05:53,66.20,62.60,88.18,20.00,12.00,0.00,30.03,M,6.21,M,SCT,BKN,BKN,M,500.00,700.00,1500.00,M,M,M,M,M,M,M,M,66.20,RCTP 280553Z 02012KT 9999 SCT005 BKN007 BKN015 19/17 Q1017 NOSIG RMK A3004
RCTP,2017-01-28 06:00,66.20,62.60,88.18,20.00,12.00,0.00,30.03,M,6.21,M,SCT,BKN,BKN,M,500.00,700.00,1500.00,M,M,M,M,M,M,M,M,66.20,RCTP 280600Z 02012KT 9999 SCT005 BKN007 BKN015 19/17 Q1017 NOSIG RMK A3004
RCTP,2017-01-28 06:30,68.00,64.40,88.26,20.00,12.00,0.00,30.00,M,5.59,M,BKN,BKN,M,M,600.00,1000.00,M,M,M,M,M,M,M,M,M,68.00,RCTP 280630Z 02012KT 9000 BKN006 BKN010 20/18 Q1016 NOSIG RMK A3003
RCTP,2017-01-28 07:00,66.20,62.60,88.18,30.00,13.00,0.00,30.00,M,5.59,M,BKN,BKN,M,M,600.00,1000.00,M,M,M,M,M,M,M,M,M,66.20,RCTP 280700Z 03013KT 9000 BKN006 BKN010 19/17 Q1016 NOSIG RMK A3002
RCTP,2017-01-28 07:30,68.00,64.40,88.26,30.00,14.00,0.00,30.00,M,6.21,M,BKN,M,M,M,700.00,M,M,M,M,M,M,M,M,M,M,68.00,RCTP 280730Z 03014KT 9999 BKN007 20/18 Q1016 TEMPO SCT006 RMK A3001
RCTP,2017-01-28 08:00,66.20,62.60,88.18,40.00,15.00,0.00,30.00,M,6.21,M,FEW,BKN,M,M,400.00,600.00,M,M,M,M,M,M,M,M,M,66.20,RCTP 280800Z 04015KT 9999 FEW004 BKN006 19/17 Q1016 NOSIG RMK A3001
RCTP,2017-01-28 08:15,66.20,62.60,88.18,30.00,13.00,0.00,30.00,M,5.59,M,BKN,OVC,M,M,500.00,1000.00,M,M,M,M,M,M,M,M,M,66.20,RCTP 280815Z 03013KT 9000 BKN005 OVC010 19/17 Q1016 NOSIG RMK A3002
RCTP,2017-01-28 08:30,66.20,62.60,88.18,20.00,11.00,0.00,30.00,M,4.97,M,FEW,BKN,OVC,M,300.00,500.00,1000.00,M,M,M,M,M,M,M,M,66.20,RCTP 280830Z 02011KT 8000 FEW003 BKN005 OVC010 19/17 Q1016 TEMPO BKN003 RMK A3002
RCTP,2017-01-28 08:53,64.40,62.60,93.88,20.00,11.00,0.00,30.00,M,4.35,M,BKN,OVC,M,M,400.00,1000.00,M,M,M,M,M,M,M,M,M,64.40,RCTP 280853Z 02011KT 7000 BKN004 OVC010 18/17 Q1016 TEMPO 4500 BR RMK A3002
RCTP,2017-01-28 09:00,64.40,62.60,93.88,20.00,11.00,0.00,30.00,M,3.73,M,BKN,OVC,M,M,400.00,1000.00,M,M,M,M,M,M,M,M,M,64.40,RCTP 280900Z 02011KT 6000 BKN004 OVC010 18/17 Q1016 TEMPO 4500 BR RMK A3002
RCTP,2017-01-28 09:30,64.40,62.60,93.88,20.00,8.00,0.00,30.00,M,4.35,M,BKN,OVC,M,M,400.00,1000.00,M,M,M,M,M,M,M,M,M,64.40,RCTP 280930Z 02008KT 7000 BKN004 OVC010 18/17 Q1016 TEMPO 4500 BR RMK A3003
RCTP,2017-01-28 10:00,64.40,62.60,93.88,20.00,8.00,0.00,30.00,M,4.35,M,BKN,OVC,M,M,300.00,1000.00,M,M,M,M,M,M,M,M,M,64.40,RCTP 281000Z 02008KT 7000 BKN003 OVC010 18/17 Q1016 TEMPO 4500 BR RMK A3002
RCTP,2017-01-28 10:30,64.40,62.60,93.88,20.00,6.00,0.00,30.00,M,4.35,M,BKN,M,M,M,300.00,M,M,M,M,M,M,M,M,M,M,64.40,RCTP 281030Z 02006KT 7000 BKN003 18/17 Q1016 NOSIG RMK A3002
RCTP,2017-01-28 11:00,64.40,62.60,93.88,20.00,4.00,0.00,30.00,M,3.73,M,BKN,M,M,M,300.00,M,M,M,M,M,M,M,M,M,M,64.40,RCTP 281100Z 02004KT 6000 BKN003 18/17 Q1016 NOSIG RMK A3002
RCTP,2017-01-28 11:09,64.40,62.60,93.88,20.00,4.00,0.00,30.00,M,4.35,M,SCT,BKN,M,M,300.00,500.00,M,M,M,M,M,M,M,M,M,64.40,RCTP 281109Z 02004KT 7000 SCT003 BKN005 18/17 Q1016 NOSIG RMK A3002
RCTP,2017-01-28 11:21,64.40,62.60,93.88,20.00,4.00,0.00,30.00,M,4.35,M,SCT,M,M,M,500.00,M,M,M,M,M,M,M,M,M,M,64.40,RCTP 281121Z 02004KT 7000 SCT005 18/17 Q1016 NOSIG RMK A3003
RCTP,2017-01-28 11:30,64.40,62.60,93.88,20.00,4.00,0.00,30.00,M,4.97,M,SCT,M,M,M,500.00,M,M,M,M,M,M,M,M,M,M,64.40,RCTP 281130Z 02004KT 8000 SCT005 18/17 Q1016 NOSIG RMK A3003
RCTP,2017-01-28 12:00,62.60,62.60,100.00,M,1.00,0.00,30.00,M,4.35,M,FEW,SCT,M,M,200.00,400.00,M,M,M,M,M,M,M,M,M,62.60,RCTP 281200Z VRB01KT 7000 FEW002 SCT004 17/17 Q1016 NOSIG RMK A3003
RCTP,2017-01-28 12:30,64.40,62.60,93.88,M,2.00,0.00,30.00,M,4.35,M,FEW,SCT,M,M,400.00,8000.00,M,M,M,M,M,M,M,M,M,64.40,RCTP 281230Z VRB02KT 7000 FEW004 SCT080 18/17 Q1016 NOSIG RMK A3002
RCTP,2017-01-28 13:00,62.60,62.60,100.00,240.00,3.00,0.00,30.00,M,4.35,M,FEW,SCT,M,M,400.00,8000.00,M,M,M,M,M,M,M,M,M,62.60,RCTP 281300Z 24003KT 7000 FEW004 SCT080 17/17 Q1016 NOSIG RMK A3002
RCTP,2017-01-28 13:30,60.80,60.80,100.00,230.00,6.00,0.00,30.00,M,2.98,M,FEW,SCT,M,M,500.00,9000.00,M,M,BR,M,M,M,M,M,M,60.80,RCTP 281330Z 23006KT 4800 BR FEW005 SCT090 16/16 Q1016 NOSIG RMK A3003
RCTP,2017-01-28 13:39,62.60,60.80,93.83,230.00,6.00,0.00,30.00,M,0.93,M,FEW,SCT,M,M,500.00,9000.00,M,M,BR,M,M,M,M,M,M,62.60,RCTP 281339Z 23006KT 1500 BR FEW005 SCT090 17/16 Q1016 TEMPO 0800 FG RMK A3003
RCTP,2017-01-28 13:46,62.60,60.80,93.83,240.00,7.00,0.00,30.00,M,0.50,M,VV ,M,M,M,100.00,M,M,M,FG,M,M,M,M,M,M,62.60,RCTP 281346Z 24007KT 0800 R23R/P2000 R23L/0800N FG VV001 17/16 Q1016 NOSIG RMK R23 A3002
RCTP,2017-01-28 13:52,62.60,62.60,100.00,230.00,7.00,0.00,30.00,M,0.25,M,VV ,M,M,M,100.00,M,M,M,FG,M,M,M,M,M,M,62.60,RCTP 281352Z 23007KT 0400 R23R/1900D R23L/0900U FG VV001 17/17 Q1016 NOSIG RMK A3002
RCTP,2017-01-28 14:00,62.60,62.60,100.00,230.00,8.00,0.00,30.00,M,0.25,M,VV ,M,M,M,100.00,M,M,M,FG,M,M,M,M,M,M,62.60,RCTP 281400Z 23008KT 0400 R23R/1400D R23L/1000U FG VV001 17/17 Q1016 NOSIG RMK A3002
RCTP,2017-01-28 14:30,62.60,62.60,100.00,230.00,8.00,0.00,30.00,M,0.19,M,VV ,M,M,M,100.00,M,M,M,FG,M,M,M,M,M,M,62.60,RCTP 281430Z 23008KT 0300 R23R/1600D R23L/1000U FG VV001 17/17 Q1016 NOSIG RMK A3002
RCTP,2017-01-28 14:52,62.60,62.60,100.00,230.00,8.00,0.00,30.00,M,0.87,M,SCT,BKN,M,M,100.00,200.00,M,M,BR,M,M,M,M,M,M,62.60,RCTP 281452Z 23008KT 1400 R23R/1600U R23L/1000U BR SCT001 BKN002 17/17 Q1016 TEMPO 2000 BR RMK A3003
RCTP,2017-01-28 15:00,62.60,62.60,100.00,230.00,8.00,0.00,30.00,M,1.24,M,SCT,BKN,M,M,100.00,200.00,M,M,BR,M,M,M,M,M,M,62.60,RCTP 281500Z 23008KT 2000 BR SCT001 BKN002 17/17 Q1016 NOSIG RMK A3002
RCTP,2017-01-28 15:24,62.60,62.60,100.00,230.00,7.00,0.00,30.00,M,0.93,M,SCT,BKN,M,M,100.00,200.00,M,M,BR,M,M,M,M,M,M,62.60,RCTP 281524Z 23007KT 1500 BR SCT001 BKN002 17/17 Q1016 TEMPO 0800 FG RMK A3002
RCTP,2017-01-28 15:30,62.60,62.60,100.00,230.00,8.00,0.00,30.00,M,0.93,M,SCT,BKN,M,M,100.00,200.00,M,M,BR,M,M,M,M,M,M,62.60,RCTP 281530Z 23008KT 1500 BR SCT001 BKN002 17/17 Q1016 TEMPO 0800 FG RMK A3002
RCTP,2017-01-28 16:00,62.60,62.60,100.00,230.00,6.00,0.00,30.00,M,0.62,M,SCT,BKN,M,M,100.00,200.00,M,M,BR,M,M,M,M,M,M,62.60,RCTP 281600Z 23006KT 1000 R23R/P2000 R23L/1700U BR SCT001 BKN002 17/17 Q1016 TEMPO 0800 FG RMK A3002
RCTP,2017-01-28 16:30,62.60,62.60,100.00,240.00,6.00,0.00,30.00,M,0.87,M,SCT,BKN,M,M,100.00,200.00,M,M,BR,M,M,M,M,M,M,62.60,RCTP 281630Z 24006KT 1400 R23R/P2000 R23L/1800U BR SCT001 BKN002 17/17 Q1016 TEMPO 0800 FG RMK A3002
RCTP,2017-01-28 16:48,62.60,62.60,100.00,230.00,6.00,0.00,30.00,M,1.24,M,SCT,BKN,M,M,100.00,300.00,M,M,BR,M,M,M,M,M,M,62.60,RCTP 281648Z 23006KT 2000 BR SCT001 BKN003 17/17 Q1016 NOSIG RMK A3002
RCTP,2017-01-28 17:00,62.60,62.60,100.00,240.00,6.00,0.00,30.00,M,1.24,M,SCT,BKN,M,M,100.00,300.00,M,M,BR,M,M,M,M,M,M,62.60,RCTP 281700Z 24006KT 2000 BR SCT001 BKN003 17/17 Q1016 NOSIG RMK A3002
RCTP,2017-01-28 17:30,62.60,62.60,100.00,240.00,5.00,0.00,30.00,M,1.86,M,SCT,BKN,M,M,200.00,400.00,M,M,BR,M,M,M,M,M,M,62.60,RCTP 281730Z 24005KT 3000 BR SCT002 BKN004 17/17 Q1016 NOSIG RMK A3001
RCTP,2017-01-28 18:00,62.60,62.60,100.00,230.00,6.00,0.00,30.00,M,1.86,M,FEW,BKN,M,M,200.00,500.00,M,M,BR,M,M,M,M,M,M,62.60,RCTP 281800Z 23006KT 3000 BR FEW002 BKN005 17/17 Q1016 TEMPO 2000 BKN003 RMK A3001
RCTP,2017-01-28 18:30,62.60,62.60,100.00,240.00,6.00,0.00,30.00,M,1.99,M,FEW,BKN,M,M,200.00,500.00,M,M,BR,M,M,M,M,M,M,62.60,RCTP 281830Z 24006KT 3200 BR FEW002 BKN005 17/17 Q1016 TEMPO 2000 BKN003 RMK A3001
RCTP,2017-01-28 19:00,62.60,62.60,100.00,230.00,7.00,0.00,30.00,M,2.17,M,BKN,M,M,M,600.00,M,M,M,BR,M,M,M,M,M,M,62.60,RCTP 281900Z 23007KT 3500 BR BKN006 17/17 Q1016 NOSIG RMK A3001
RCTP,2017-01-28 19:30,62.60,62.60,100.00,170.00,4.00,0.00,30.00,M,2.17,M,BKN,M,M,M,600.00,M,M,M,BR,M,M,M,M,M,M,62.60,RCTP 281930Z 17004KT 3500 BR BKN006 17/17 Q1016 TEMPO 2000 BKN004 RMK A3001
RCTP,2017-01-28 19:50,62.60,62.60,100.00,170.00,5.00,0.00,30.00,M,2.17,M,SCT,BKN,M,M,500.00,8000.00,M,M,BR,M,M,M,M,M,M,62.60,RCTP 281950Z 17005KT 3500 BR SCT005 BKN080 17/17 Q1016 TEMPO BKN005 RMK A3001
RCTP,2017-01-28 20:00,62.60,62.60,100.00,170.00,4.00,0.00,30.00,M,2.17,M,SCT,BKN,M,M,500.00,8000.00,M,M,BR,M,M,M,M,M,M,62.60,RCTP 282000Z 17004KT 3500 BR SCT005 BKN080 17/17 Q1016 TEMPO BKN005 RMK A3001
RCTP,2017-01-28 20:30,62.60,60.80,93.83,160.00,3.00,0.00,30.00,M,2.17,M,FEW,BKN,M,M,500.00,8000.00,M,M,BR,M,M,M,M,M,M,62.60,RCTP 282030Z 16003KT 120V190 3500 BR FEW005 BKN080 17/16 Q1016 TEMPO BKN005 RMK A3001
RCTP,2017-01-28 21:00,62.60,60.80,93.83,160.00,5.00,0.00,30.00,M,2.30,M,FEW,BKN,M,M,500.00,8000.00,M,M,BR,M,M,M,M,M,M,62.60,RCTP 282100Z 16005KT 130V190 3700 BR FEW005 BKN080 17/16 Q1016 NOSIG RMK A3001
RCTP,2017-01-28 21:30,62.60,60.80,93.83,180.00,4.00,0.00,30.00,M,2.98,M,FEW,BKN,M,M,1000.00,8000.00,M,M,BR,M,M,M,M,M,M,62.60,RCTP 282130Z 18004KT 130V210 4800 BR FEW010 BKN080 17/16 Q1016 NOSIG RMK A3002
RCTP,2017-01-28 22:00,62.60,60.80,93.83,200.00,3.00,0.00,30.00,M,3.11,M,FEW,BKN,M,M,800.00,8000.00,M,M,BR,M,M,M,M,M,M,62.60,RCTP 282200Z 20003KT 160V240 5000 BR FEW008 BKN080 17/16 Q1016 TEMPO 3000 BKN008 RMK A3003
RCTP,2017-01-28 22:30,62.60,60.80,93.83,220.00,4.00,0.00,30.03,M,3.11,M,SCT,BKN,M,M,800.00,8000.00,M,M,BR,M,M,M,M,M,M,62.60,RCTP 282230Z 22004KT 5000 BR SCT008 BKN080 17/16 Q1017 TEMPO 3000 FEW003 BKN008 RMK A3004
RCTP,2017-01-28 22:35,62.60,62.60,100.00,220.00,4.00,0.00,30.03,M,2.80,M,BKN,BKN,M,M,800.00,8000.00,M,M,BR,M,M,M,M,M,M,62.60,RCTP 282235Z 22004KT 4500 BR BKN008 BKN080 17/17 Q1017 TEMPO 3000 FEW003 BKN006 RMK A3004
RCTP,2017-01-28 23:00,64.40,62.60,93.88,210.00,4.00,0.00,30.03,M,2.61,M,BKN,BKN,M,M,800.00,8000.00,M,M,BR,M,M,M,M,M,M,64.40,RCTP 282300Z 21004KT 4200 BR BKN008 BKN080 18/17 Q1017 TEMPO 3000 FEW003 BKN006 RMK A3005
RCTP,2017-01-28 23:08,64.40,62.60,93.88,210.00,4.00,0.00,30.03,M,2.17,M,FEW,BKN,M,M,400.00,700.00,M,M,BR,M,M,M,M,M,M,64.40,RCTP 282308Z 21004KT 3500 BR FEW004 BKN007 18/17 Q1017 TEMPO 3000 RMK A3005
RCTP,2017-01-28 23:30,64.40,62.60,93.88,240.00,3.00,0.00,30.03,M,2.17,M,FEW,BKN,M,M,400.00,600.00,M,M,BR,M,M,M,M,M,M,64.40,RCTP 282330Z 24003KT 3500 BR FEW004 BKN006 18/17 Q1017 NOSIG RMK A3005
RCTP,2017-01-29 00:00,64.40,62.60,93.88,220.00,3.00,0.00,30.06,M,2.30,M,FEW,BKN,M,M,400.00,700.00,M,M,BR,M,M,M,M,M,M,64.40,RCTP 290000Z 22003KT 190V250 3700 BR FEW004 BKN007 18/17 Q1018 NOSIG RMK A3007
RCTP,2017-01-29 00:30,66.20,64.40,93.92,260.00,3.00,0.00,30.06,M,2.30,M,FEW,BKN,M,M,400.00,700.00,M,M,BR,M,M,M,M,M,M,66.20,RCTP 290030Z 26003KT 220V300 3700 BR FEW004 BKN007 19/18 Q1018 NOSIG RMK A3007
RCTP,2017-01-29 01:00,66.20,64.40,93.92,290.00,3.00,0.00,30.06,M,2.80,M,FEW,BKN,M,M,400.00,800.00,M,M,BR,M,M,M,M,M,M,66.20,RCTP 290100Z 29003KT 260V330 4500 BR FEW004 BKN008 19/18 Q1018 NOSIG RMK A3006
RCTP,2017-01-29 01:30,68.00,66.20,93.97,280.00,4.00,0.00,30.06,M,2.80,M,FEW,BKN,M,M,400.00,800.00,M,M,BR,M,M,M,M,M,M,68.00,RCTP 290130Z 28004KT 250V310 4500 BR FEW004 BKN008 20/19 Q1018 NOSIG RMK A3006
RCTP,2017-01-29 01:46,69.80,66.20,88.34,310.00,4.00,0.00,30.06,M,3.73,M,FEW,SCT,BKN,M,400.00,800.00,8000.00,M,M,M,M,M,M,M,M,69.80,RCTP 290146Z 31004KT 280V340 6000 FEW004 SCT008 BKN080 21/19 Q1018 NOSIG RMK A3006
RCTP,2017-01-29 02:00,69.80,66.20,88.34,290.00,3.00,0.00,30.09,M,3.73,M,FEW,SCT,BKN,M,600.00,1000.00,8000.00,M,M,M,M,M,M,M,M,69.80,RCTP 290200Z 29003KT 240V340 6000 FEW006 SCT010 BKN080 21/19 Q1019 NOSIG RMK A3009
RCTP,2017-01-29 02:30,71.60,66.20,83.09,310.00,6.00,0.00,30.09,M,3.73,M,FEW,SCT,BKN,M,600.00,1000.00,10000.00,M,M,M,M,M,M,M,M,71.60,RCTP 290230Z 31006KT 260V330 6000 FEW006 SCT010 BKN100 22/19 Q1019 NOSIG RMK A3009
RCTP,2017-01-29 03:00,71.60,64.40,78.04,310.00,8.00,0.00,30.06,M,4.97,M,FEW,BKN,M,M,1200.00,15000.00,M,M,M,M,M,M,M,M,M,71.60,RCTP 290300Z 31008KT 8000 FEW012 BKN150 22/18 Q1018 NOSIG RMK A3008
RCTP,2017-01-29 03:30,71.60,66.20,83.09,310.00,6.00,0.00,30.06,M,4.97,M,FEW,BKN,M,M,1200.00,10000.00,M,M,M,M,M,M,M,M,M,71.60,RCTP 290330Z 31006KT 280V340 8000 FEW012 BKN100 22/19 Q1018 NOSIG RMK A3007
RCTP,2017-01-29 04:00,73.40,66.20,78.19,320.00,5.00,0.00,30.03,M,4.97,M,FEW,SCT,M,M,1200.00,15000.00,M,M,M,M,M,M,M,M,M,73.40,RCTP 290400Z 32005KT 270V010 8000 FEW012 SCT150 23/19 Q1017 NOSIG RMK A3005
RCTP,2017-01-29 04:11,71.60,64.40,78.04,330.00,4.00,0.00,30.03,M,6.21,M,FEW,SCT,M,M,1200.00,10000.00,M,M,M,M,M,M,M,M,M,71.60,RCTP 290411Z 33004KT 280V010 9999 FEW012 SCT100 22/18 Q1017 NOSIG RMK R05 A3005
RCTP,2017-01-29 04:30,71.60,64.40,78.04,320.00,6.00,0.00,30.03,M,6.21,M,FEW,SCT,M,M,1200.00,10000.00,M,M,M,M,M,M,M,M,M,71.60,RCTP 290430Z 32006KT 280V360 9999 FEW012 SCT100 22/18 Q1017 NOSIG RMK A3004
RCTP,2017-01-29 05:00,71.60,64.40,78.04,M,5.00,0.00,30.00,M,6.21,M,FEW,BKN,M,M,1200.00,10000.00,M,M,M,M,M,M,M,M,M,71.60,RCTP 290500Z VRB05KT 9999 FEW012 BKN100 22/18 Q1016 NOSIG RMK A3003
RCTP,2017-01-29 05:30,71.60,64.40,78.04,320.00,6.00,0.00,30.00,M,6.21,M,FEW,BKN,M,M,1200.00,10000.00,M,M,M,M,M,M,M,M,M,71.60,RCTP 290530Z 32006KT 280V350 9999 FEW012 BKN100 22/18 Q1016 NOSIG RMK A3002
RCTP,2017-01-29 06:00,69.80,64.40,82.98,330.00,7.00,0.00,30.00,M,6.21,M,FEW,BKN,M,M,1200.00,10000.00,M,M,M,M,M,M,M,M,M,69.80,RCTP 290600Z 33007KT 290V350 9999 FEW012 BKN100 21/18 Q1016 NOSIG RMK A3002
RCTP,2017-01-29 06:30,69.80,64.40,82.98,320.00,5.00,0.00,30.00,M,6.21,M,FEW,SCT,BKN,M,1200.00,6000.00,8000.00,M,M,M,M,M,M,M,M,69.80,RCTP 290630Z 32005KT 9999 FEW012 SCT060 BKN080 21/18 Q1016 NOSIG RMK A3001
RCTP,2017-01-29 07:00,69.80,64.40,82.98,320.00,3.00,0.00,30.00,M,4.97,M,SCT,BKN,M,M,600.00,9000.00,M,M,M,M,M,M,M,M,M,69.80,RCTP 290700Z 32003KT 260V020 8000 SCT006 BKN090 21/18 Q1016 NOSIG RMK A3001
RCTP,2017-01-29 07:30,69.80,64.40,82.98,20.00,3.00,0.00,29.97,M,5.59,M,FEW,BKN,BKN,M,1200.00,9000.00,20000.00,M,M,M,M,M,M,M,M,69.80,RCTP 290730Z 02003KT 300V060 9000 FEW012 BKN090 BKN200 21/18 Q1015 NOSIG RMK A3000
RCTP,2017-01-29 08:00,71.60,64.40,78.04,30.00,3.00,0.00,29.97,M,5.59,M,FEW,BKN,BKN,M,1200.00,9000.00,22000.00,M,M,M,M,M,M,M,M,71.60,RCTP 290800Z 03003KT 340V120 9000 FEW012 BKN090 BKN220 22/18 Q1015 NOSIG RMK A3000
RCTP,2017-01-29 08:30,71.60,64.40,78.04,10.00,3.00,0.00,29.97,M,5.59,M,FEW,SCT,BKN,M,1200.00,9000.00,22000.00,M,M,M,M,M,M,M,M,71.60,RCTP 290830Z 01003KT 340V070 9000 FEW012 SCT090 BKN220 22/18 Q1015 NOSIG RMK A3000
RCTP,2017-01-29 09:00,71.60,64.40,78.04,20.00,3.00,0.00,29.97,M,5.59,M,FEW,SCT,BKN,M,1200.00,7000.00,22000.00,M,M,M,M,M,M,M,M,71.60,RCTP 290900Z 02003KT 9000 FEW012 SCT070 BKN220 22/18 Q1015 NOSIG RMK A3000
RCTP,2017-01-29 09:30,69.80,64.40,82.98,340.00,4.00,0.00,30.00,M,5.59,M,FEW,SCT,BKN,M,1200.00,6000.00,22000.00,M,M,M,M,M,M,M,M,69.80,RCTP 290930Z 34004KT 9000 FEW012 SCT060 BKN220 21/18 Q1016 NOSIG RMK A3001
RCTP,2017-01-29 10:00,66.20,62.60,88.18,330.00,6.00,0.00,30.00,M,4.35,M,FEW,BKN,BKN,M,1200.00,6000.00,15000.00,M,M,M,M,M,M,M,M,66.20,RCTP 291000Z 33006KT 7000 FEW012 BKN060 BKN150 19/17 Q1016 TEMPO 5000 BR RMK A3002
RCTP,2017-01-29 10:30,64.40,62.60,93.88,330.00,5.00,0.00,30.00,M,3.11,M,FEW,SCT,BKN,M,1200.00,5000.00,12000.00,M,BR,M,M,M,M,M,M,64.40,RCTP 291030Z 33005KT 5000 BR FEW012 SCT050 BKN120 18/17 Q1016 NOSIG RMK A3002
RCTP,2017-01-29 11:00,64.40,62.60,93.88,320.00,4.00,0.00,30.03,M,2.49,M,SCT,BKN,M,M,800.00,10000.00,M,M,BR,M,M,M,M,M,M,64.40,RCTP 291100Z 32004KT 4000 BR SCT008 BKN100 18/17 Q1017 NOSIG RMK A3004
RCTP,2017-01-29 11:30,64.40,62.60,93.88,40.00,3.00,0.00,30.03,M,1.99,M,SCT,BKN,M,M,800.00,10000.00,M,M,BR,M,M,M,M,M,M,64.40,RCTP 291130Z 04003KT 3200 BR SCT008 BKN100 18/17 Q1017 NOSIG RMK A3004
RCTP,2017-01-29 12:00,64.40,62.60,93.88,10.00,3.00,0.00,30.03,M,1.99,M,SCT,BKN,M,M,800.00,10000.00,M,M,BR,M,M,M,M,M,M,64.40,RCTP 291200Z 01003KT 320V040 3200 BR SCT008 BKN100 18/17 Q1017 NOSIG RMK A3004
RCTP,2017-01-29 12:30,66.20,64.40,93.92,30.00,1.00,0.00,30.03,M,1.99,M,SCT,BKN,M,M,800.00,10000.00,M,M,BR,M,M,M,M,M,M,66.20,RCTP 291230Z 03001KT 3200 BR SCT008 BKN100 19/18 Q1017 NOSIG RMK A3005
RCTP,2017-01-29 13:00,66.20,64.40,93.92,M,2.00,0.00,30.03,M,1.99,M,SCT,BKN,M,M,800.00,10000.00,M,M,BR,M,M,M,M,M,M,66.20,RCTP 291300Z VRB02KT 3200 BR SCT008 BKN100 19/18 Q1017 NOSIG RMK A3005
RCTP,2017-01-29 13:30,66.20,62.60,88.18,200.00,3.00,0.00,30.06,M,1.99,M,SCT,BKN,M,M,800.00,10000.00,M,M,BR,M,M,M,M,M,M,66.20,RCTP 291330Z 20003KT 3200 BR SCT008 BKN100 19/17 Q1018 NOSIG RMK A3006
RCTP,2017-01-29 14:00,66.20,64.40,93.92,190.00,4.00,0.00,30.03,M,2.61,M,SCT,BKN,M,M,800.00,10000.00,M,M,BR,M,M,M,M,M,M,66.20,RCTP 291400Z 19004KT 150V210 4200 BR SCT008 BKN100 19/18 Q1017 NOSIG RMK A3005
RCTP,2017-01-29 14:30,66.20,62.60,88.18,230.00,4.00,0.00,30.03,M,2.61,M,SCT,BKN,M,M,800.00,10000.00,M,M,BR,M,M,M,M,M,M,66.20,RCTP 291430Z 23004KT 180V250 4200 BR SCT008 BKN100 19/17 Q1017 NOSIG RMK A3005
RCTP,2017-01-29 15:00,64.40,62.60,93.88,270.00,2.00,0.00,30.03,M,1.99,M,SCT,BKN,M,M,800.00,10000.00,M,M,BR,M,M,M,M,M,M,64.40,RCTP 291500Z 27002KT 3200 BR SCT008 BKN100 18/17 Q1017 NOSIG RMK A3005
RCTP,2017-01-29 15:30,66.20,62.60,88.18,290.00,3.00,0.00,30.03,M,1.55,M,SCT,SCT,BKN,M,800.00,3000.00,10000.00,M,BR,M,M,M,M,M,M,66.20,RCTP 291530Z 29003KT 2500 BR SCT008 SCT030 BKN100 19/17 Q1017 NOSIG RMK A3005
RCTP,2017-01-29 16:00,64.40,62.60,93.88,240.00,3.00,0.00,30.03,M,1.55,M,FEW,SCT,BKN,M,800.00,3000.00,10000.00,M,BR,M,M,M,M,M,M,64.40,RCTP 291600Z 24003KT 2500 BR FEW008 SCT030 BKN100 18/17 Q1017 NOSIG RMK A3005
RCTP,2017-01-29 16:30,66.20,62.60,88.18,M,2.00,0.00,30.03,M,1.55,M,FEW,SCT,BKN,M,800.00,3000.00,10000.00,M,BR,M,M,M,M,M,M,66.20,RCTP 291630Z VRB02KT 2500 BR FEW008 SCT030 BKN100 19/17 Q1017 NOSIG RMK A3004
RCTP,2017-01-29 17:00,64.40,62.60,93.88,230.00,3.00,0.00,30.03,M,1.55,M,FEW,BKN,M,M,800.00,8000.00,M,M,BR,M,M,M,M,M,M,64.40,RCTP 291700Z 23003KT 2500 BR FEW008 BKN080 18/17 Q1017 NOSIG RMK A3004
RCTP,2017-01-29 17:30,66.20,62.60,88.18,180.00,3.00,0.00,30.03,M,1.99,M,SCT,BKN,M,M,800.00,8000.00,M,M,BR,M,M,M,M,M,M,66.20,RCTP 291730Z 18003KT 3200 BR SCT008 BKN080 19/17 Q1017 NOSIG RMK A3004
RCTP,2017-01-29 18:00,66.20,62.60,88.18,150.00,5.00,0.00,30.00,M,2.49,M,FEW,BKN,M,M,1200.00,8000.00,M,M,BR,M,M,M,M,M,M,66.20,RCTP 291800Z 15005KT 4000 BR FEW012 BKN080 19/17 Q1016 NOSIG RMK A3003
RCTP,2017-01-29 18:30,68.00,62.60,82.86,140.00,4.00,0.00,30.00,M,2.49,M,FEW,BKN,M,M,1200.00,8000.00,M,M,BR,M,M,M,M,M,M,68.00,RCTP 291830Z 14004KT 4000 BR FEW012 BKN080 20/17 Q1016 NOSIG RMK A3003
RCTP,2017-01-29 19:00,68.00,62.60,82.86,160.00,3.00,0.00,30.00,M,2.80,M,FEW,BKN,M,M,1200.00,9000.00,M,M,BR,M,M,M,M,M,M,68.00,RCTP 291900Z 16003KT 4500 BR FEW012 BKN090 20/17 Q1016 NOSIG RMK A3003
RCTP,2017-01-29 19:30,66.20,62.60,88.18,100.00,3.00,0.00,30.00,M,2.80,M,FEW,BKN,M,M,1200.00,10000.00,M,M,BR,M,M,M,M,M,M,66.20,RCTP 291930Z 10003KT 4500 BR FEW012 BKN100 19/17 Q1016 NOSIG RMK A3003
RCTP,2017-01-29 20:00,66.20,62.60,88.18,90.00,3.00,0.00,30.00,M,2.80,M,FEW,BKN,M,M,1200.00,10000.00,M,M,BR,M,M,M,M,M,M,66.20,RCTP 292000Z 09003KT 4500 BR FEW012 BKN100 19/17 Q1016 NOSIG RMK A3003
RCTP,2017-01-29 20:30,66.20,62.60,88.18,120.00,5.00,0.00,30.00,M,2.80,M,FEW,BKN,M,M,1200.00,10000.00,M,M,BR,M,M,M,M,M,M,66.20,RCTP 292030Z 12005KT 4500 BR FEW012 BKN100 19/17 Q1016 NOSIG RMK A3003
RCTP,2017-01-29 21:00,66.20,62.60,88.18,130.00,6.00,0.00,30.03,M,4.35,M,FEW,BKN,M,M,1000.00,8000.00,M,M,M,M,M,M,M,M,M,66.20,RCTP 292100Z 13006KT 7000 FEW010 BKN080 19/17 Q1017 NOSIG RMK A3004
RCTP,2017-01-29 21:30,68.00,62.60,82.86,150.00,6.00,0.00,30.03,M,4.35,M,FEW,BKN,M,M,1000.00,8000.00,M,M,M,M,M,M,M,M,M,68.00,RCTP 292130Z 15006KT 7000 FEW010 BKN080 20/17 Q1017 NOSIG RMK A3004
RCTP,2017-01-29 22:00,68.00,60.80,77.75,150.00,4.00,0.00,30.03,M,4.35,M,FEW,BKN,M,M,1000.00,8000.00,M,M,M,M,M,M,M,M,M,68.00,RCTP 292200Z 15004KT 7000 FEW010 BKN080 20/16 Q1017 NOSIG RMK A3005
RCTP,2017-01-29 22:30,68.00,62.60,82.86,130.00,6.00,0.00,30.06,M,4.35,M,FEW,SCT,BKN,M,1000.00,5000.00,8000.00,M,M,M,M,M,M,M,M,68.00,RCTP 292230Z 13006KT 7000 FEW010 SCT050 BKN080 20/17 Q1018 NOSIG RMK A3006
RCTP,2017-01-29 23:00,68.00,62.60,82.86,20.00,10.00,0.00,30.09,M,4.35,M,FEW,SCT,BKN,M,1000.00,5000.00,8000.00,M,M,M,M,M,M,M,M,68.00,RCTP 292300Z 02010KT 7000 FEW010 SCT050 BKN080 20/17 Q1019 NOSIG RMK A3009
RCTP,2017-01-29 23:30,68.00,62.60,82.86,40.00,15.00,0.00,30.09,M,6.21,M,FEW,SCT,BKN,M,1000.00,5000.00,8000.00,M,M,M,M,M,M,M,M,68.00,RCTP 292330Z 04015KT 9999 FEW010 SCT050 BKN080 20/17 Q1019 NOSIG RMK A3010
RCTP,2017-01-29 23:44,66.20,64.40,93.92,50.00,15.00,0.00,30.12,M,3.73,M,SCT,BKN,BKN,M,600.00,1000.00,4000.00,M,M,M,M,M,M,M,M,66.20,RCTP 292344Z 05015KT 6000 SCT006 BKN010 BKN040 19/18 Q1020 TEMPO 3000 BR RMK A3012
RCTP,2017-01-29 23:47,66.20,64.40,93.92,50.00,16.00,0.00,30.12,M,1.86,M,SCT,BKN,OVC,M,500.00,800.00,3000.00,M,BR,M,M,M,M,M,M,66.20,RCTP 292347Z 05016KT 3000 BR SCT005 BKN008 OVC030 19/18 Q1020 TEMPO 1500 BR RMK A3012
RCTP,2017-01-30 00:00,66.20,64.40,93.92,50.00,18.00,0.00,30.12,M,1.24,M,SCT,BKN,OVC,M,500.00,800.00,3000.00,M,BR,M,M,M,M,M,M,66.20,RCTP 300000Z 05018KT 2000 BR SCT005 BKN008 OVC030 19/18 Q1020 TEMPO 1500 BR RMK A3012
RCTP,2017-01-30 00:14,66.20,62.60,88.18,40.00,23.00,0.00,30.12,M,1.12,M,SCT,BKN,BKN,M,400.00,700.00,3000.00,M,BR,M,M,M,M,M,M,66.20,RCTP 300014Z 04023KT 1800 BR SCT004 BKN007 BKN030 19/17 Q1020 TEMPO 1500 BR RMK A3012
RCTP,2017-01-30 00:30,66.20,62.60,88.18,40.00,24.00,0.00,30.12,M,1.24,M,SCT,BKN,BKN,M,400.00,700.00,6000.00,M,BR,M,M,M,M,M,M,66.20,RCTP 300030Z 04024KT 2000 BR SCT004 BKN007 BKN060 19/17 Q1020 TEMPO 3000 BR RMK A3012
RCTP,2017-01-30 01:00,66.20,60.80,82.74,50.00,23.00,0.00,30.15,M,1.24,33.00,SCT,BKN,BKN,M,400.00,700.00,6000.00,M,BR,M,M,M,M,M,M,66.20,RCTP 300100Z 05023G33KT 2000 BR SCT004 BKN007 BKN060 19/16 Q1021 TEMPO 3000 BR RMK A3015
RCTP,2017-01-30 01:48,64.40,60.80,88.09,50.00,25.00,0.00,30.15,M,1.55,M,SCT,BKN,BKN,M,400.00,800.00,1500.00,M,BR,M,M,M,M,M,M,64.40,RCTP 300148Z 05025KT 2500 BR SCT004 BKN008 BKN015 18/16 Q1021 WS ALL RWY NOSIG RMK A3015
RCTP,2017-01-30 02:00,64.40,60.80,88.09,50.00,25.00,0.00,30.15,M,1.55,M,SCT,BKN,BKN,M,400.00,800.00,1500.00,M,BR,M,M,M,M,M,M,64.40,RCTP 300200Z 05025KT 2500 BR SCT004 BKN008 BKN015 18/16 Q1021 WS ALL RWY NOSIG RMK A3015
RCTP,2017-01-30 02:30,62.60,59.00,88.00,50.00,27.00,0.00,30.15,M,1.74,37.00,SCT,BKN,BKN,M,400.00,800.00,1500.00,M,BR,M,M,M,M,M,M,62.60,RCTP 300230Z 05027G37KT 2800 BR SCT004 BKN008 BKN015 17/15 Q1021 WS ALL RWY NOSIG RMK A3015
RCTP,2017-01-30 03:00,62.60,57.20,82.50,50.00,29.00,0.00,30.12,M,2.80,39.00,SCT,BKN,BKN,M,500.00,900.00,1500.00,M,BR,M,M,M,M,M,M,62.60,RCTP 300300Z 05029G39KT 4500 BR SCT005 BKN009 BKN015 17/14 Q1020 WS ALL RWY NOSIG RMK A3014
RCTP,2017-01-30 03:30,60.80,57.20,87.92,40.00,28.00,0.00,30.15,M,2.80,38.00,SCT,BKN,BKN,M,600.00,900.00,1500.00,M,BR,M,M,M,M,M,M,60.80,RCTP 300330Z 04028G38KT 4500 BR SCT006 BKN009 BKN015 16/14 Q1021 WS ALL RWY NOSIG RMK A3015
RCTP,2017-01-30 04:00,60.80,57.20,87.92,40.00,28.00,0.00,30.12,M,3.73,38.00,SCT,BKN,BKN,M,600.00,1000.00,1500.00,M,M,M,M,M,M,M,M,60.80,RCTP 300400Z 04028G38KT 6000 SCT006 BKN010 BKN015 16/14 Q1020 WS ALL RWY NOSIG RMK A3014
RCTP,2017-01-30 04:30,60.80,57.20,87.92,50.00,30.00,0.00,30.12,M,3.73,M,SCT,BKN,BKN,M,600.00,1000.00,1500.00,M,M,M,M,M,M,M,M,60.80,RCTP 300430Z 05030KT 6000 SCT006 BKN010 BKN015 16/14 Q1020 WS ALL RWY NOSIG RMK A3014
RCTP,2017-01-30 05:00,60.80,57.20,87.92,40.00,27.00,0.00,30.12,M,3.73,37.00,SCT,BKN,BKN,M,600.00,1000.00,1500.00,M,M,M,M,M,M,M,M,60.80,RCTP 300500Z 04027G37KT 6000 SCT006 BKN010 BKN015 16/14 Q1020 WS ALL RWY NOSIG RMK A3013
RCTP,2017-01-30 05:30,60.80,55.40,82.37,40.00,26.00,0.00,30.12,M,4.97,36.00,SCT,BKN,BKN,M,600.00,1000.00,1500.00,M,M,M,M,M,M,M,M,60.80,RCTP 300530Z 04026G36KT 8000 SCT006 BKN010 BKN015 16/13 Q1020 WS ALL RWY NOSIG RMK A3013
RCTP,2017-01-30 06:00,59.00,55.40,87.83,40.00,27.00,0.00,30.12,M,4.97,40.00,SCT,BKN,BKN,M,600.00,1000.00,1500.00,M,M,M,M,M,M,M,M,59.00,RCTP 300600Z 04027G40KT 8000 SCT006 BKN010 BKN015 15/13 Q1020 WS ALL RWY NOSIG RMK A3013
RCTP,2017-01-30 06:30,59.00,55.40,87.83,50.00,27.00,0.00,30.12,M,5.59,37.00,SCT,BKN,BKN,M,600.00,1000.00,1500.00,M,M,M,M,M,M,M,M,59.00,RCTP 300630Z 05027G37KT 9000 SCT006 BKN010 BKN015 15/13 Q1020 WS ALL RWY NOSIG RMK A3012
RCTP,2017-01-30 07:00,59.00,55.40,87.83,40.00,27.00,0.00,30.12,M,5.59,37.00,SCT,BKN,BKN,M,600.00,900.00,1500.00,M,M,M,M,M,M,M,M,59.00,RCTP 300700Z 04027G37KT 9000 SCT006 BKN009 BKN015 15/13 Q1020 WS ALL RWY NOSIG RMK A3013
RCTP,2017-01-30 07:30,59.00,55.40,87.83,40.00,26.00,0.00,30.12,M,5.59,36.00,SCT,BKN,BKN,M,600.00,900.00,1500.00,M,M,M,M,M,M,M,M,59.00,RCTP 300730Z 04026G36KT 9000 SCT006 BKN009 BKN015 15/13 Q1020 WS ALL RWY NOSIG RMK A3014
RCTP,2017-01-30 08:00,59.00,55.40,87.83,40.00,27.00,0.00,30.15,M,5.59,39.00,SCT,BKN,BKN,M,600.00,900.00,1500.00,M,M,M,M,M,M,M,M,59.00,RCTP 300800Z 04027G39KT 9000 SCT006 BKN009 BKN015 15/13 Q1021 WS ALL RWY NOSIG RMK A3015
RCTP,2017-01-30 08:30,59.00,55.40,87.83,50.00,26.00,0.00,30.15,M,5.59,M,SCT,BKN,OVC,M,600.00,900.00,1500.00,M,M,M,M,M,M,M,M,59.00,RCTP 300830Z 05026KT 9000 SCT006 BKN009 OVC015 15/13 Q1021 WS ALL RWY NOSIG RMK A3017
RCTP,2017-01-30 09:00,59.00,55.40,87.83,40.00,25.00,0.00,30.15,M,4.97,M,SCT,BKN,OVC,M,600.00,900.00,1500.00,M,M,M,M,M,M,M,M,59.00,RCTP 300900Z 04025KT 8000 SCT006 BKN009 OVC015 15/13 Q1021 WS ALL RWY NOSIG RMK A3017
RCTP,2017-01-30 09:30,57.20,53.60,87.74,50.00,28.00,0.00,30.18,M,4.97,39.00,SCT,BKN,OVC,M,600.00,900.00,1500.00,M,M,M,M,M,M,M,M,57.20,RCTP 300930Z 05028G39KT 8000 SCT006 BKN009 OVC015 14/12 Q1022 WS ALL RWY NOSIG RMK A3019
RCTP,2017-01-30 10:00,59.00,55.40,87.83,50.00,27.00,0.00,30.18,M,4.97,37.00,SCT,BKN,OVC,M,600.00,900.00,1500.00,M,M,M,M,M,M,M,M,59.00,RCTP 301000Z 05027G37KT 8000 SCT006 BKN009 OVC015 15/13 Q1022 WS ALL RWY NOSIG RMK A3020
RCTP,2017-01-30 10:30,57.20,53.60,87.74,50.00,26.00,0.00,30.21,M,4.97,38.00,SCT,BKN,OVC,M,600.00,900.00,1500.00,M,M,M,M,M,M,M,M,57.20,RCTP 301030Z 05026G38KT 8000 SCT006 BKN009 OVC015 14/12 Q1023 WS ALL RWY NOSIG RMK A3021
RCTP,2017-01-30 11:00,57.20,53.60,87.74,50.00,27.00,0.00,30.21,M,4.97,38.00,SCT,BKN,OVC,M,600.00,900.00,1500.00,M,M,M,M,M,M,M,M,57.20,RCTP 301100Z 05027G38KT 8000 SCT006 BKN009 OVC015 14/12 Q1023 WS ALL RWY NOSIG RMK A3022
RCTP,2017-01-30 11:30,57.20,53.60,87.74,50.00,28.00,0.00,30.21,M,4.97,38.00,SCT,BKN,OVC,M,600.00,900.00,1500.00,M,M,M,M,M,M,M,M,57.20,RCTP 301130Z 05028G38KT 8000 SCT006 BKN009 OVC015 14/12 Q1023 WS ALL RWY NOSIG RMK A3022
RCTP,2017-01-30 12:00,57.20,53.60,87.74,50.00,27.00,0.00,30.21,M,4.97,M,SCT,BKN,OVC,M,600.00,900.00,1500.00,M,M,M,M,M,M,M,M,57.20,RCTP 301200Z 05027KT 8000 SCT006 BKN009 OVC015 14/12 Q1023 WS ALL RWY NOSIG RMK A3023
RCTP,2017-01-30 12:30,57.20,53.60,87.74,50.00,27.00,0.00,30.21,M,4.97,37.00,SCT,BKN,OVC,M,600.00,900.00,1500.00,M,M,M,M,M,M,M,M,57.20,RCTP 301230Z 05027G37KT 8000 SCT006 BKN009 OVC015 14/12 Q1023 WS ALL RWY NOSIG RMK A3023
RCTP,2017-01-30 13:00,57.20,53.60,87.74,50.00,28.00,0.00,30.21,M,4.97,38.00,SCT,BKN,BKN,M,600.00,900.00,1500.00,M,M,M,M,M,M,M,M,57.20,RCTP 301300Z 05028G38KT 8000 SCT006 BKN009 BKN015 14/12 Q1023 WS ALL RWY NOSIG RMK A3022
RCTP,2017-01-30 13:30,57.20,53.60,87.74,50.00,28.00,0.00,30.21,M,4.97,38.00,SCT,BKN,BKN,M,600.00,900.00,1500.00,M,M,M,M,M,M,M,M,57.20,RCTP 301330Z 05028G38KT 8000 SCT006 BKN009 BKN015 14/12 Q1023 WS ALL RWY NOSIG RMK A3022
RCTP,2017-01-30 14:00,57.20,53.60,87.74,50.00,28.00,0.00,30.21,M,4.97,38.00,SCT,BKN,BKN,M,600.00,900.00,1800.00,M,M,M,M,M,M,M,M,57.20,RCTP 301400Z 05028G38KT 8000 SCT006 BKN009 BKN018 14/12 Q1023 WS ALL RWY NOSIG RMK A3022
RCTP,2017-01-30 14:30,57.20,51.80,82.12,50.00,29.00,0.00,30.21,M,6.21,M,SCT,BKN,BKN,M,700.00,1000.00,1800.00,M,M,M,M,M,M,M,M,57.20,RCTP 301430Z 05029KT 9999 SCT007 BKN010 BKN018 14/11 Q1023 WS ALL RWY NOSIG RMK A3022
RCTP,2017-01-30 15:00,57.20,53.60,87.74,50.00,26.00,0.00,30.21,M,6.21,36.00,SCT,BKN,BKN,M,700.00,1000.00,1800.00,M,M,M,M,M,M,M,M,57.20,RCTP 301500Z 05026G36KT 9999 SCT007 BKN010 BKN018 14/12 Q1023 WS ALL RWY NOSIG RMK A3022
RCTP,2017-01-30 15:30,57.20,53.60,87.74,50.00,26.00,0.00,30.21,M,6.21,M,SCT,BKN,BKN,M,700.00,1000.00,1800.00,M,M,M,M,M,M,M,M,57.20,RCTP 301530Z 05026KT 9999 SCT007 BKN010 BKN018 14/12 Q1023 WS ALL RWY NOSIG RMK A3021
RCTP,2017-01-30 16:00,57.20,53.60,87.74,50.00,27.00,0.00,30.18,M,6.21,39.00,SCT,BKN,BKN,M,700.00,1000.00,1800.00,M,M,M,M,M,M,M,M,57.20,RCTP 301600Z 05027G39KT 9999 SCT007 BKN010 BKN018 14/12 Q1022 WS ALL RWY NOSIG RMK A3020
RCTP,2017-01-30 16:30,57.20,53.60,87.74,50.00,28.00,0.00,30.18,M,6.21,38.00,SCT,BKN,BKN,M,700.00,1000.00,1800.00,M,M,M,M,M,M,M,M,57.20,RCTP 301630Z 05028G38KT 9999 SCT007 BKN010 BKN018 14/12 Q1022 WS ALL RWY NOSIG RMK A3019
RCTP,2017-01-30 17:00,57.20,53.60,87.74,60.00,25.00,0.00,30.18,M,6.21,35.00,SCT,BKN,BKN,M,700.00,1000.00,1800.00,M,M,M,M,M,M,M,M,57.20,RCTP 301700Z 06025G35KT 9999 SCT007 BKN010 BKN018 14/12 Q1022 WS ALL RWY NOSIG RMK A3018
RCTP,2017-01-30 17:30,57.20,53.60,87.74,50.00,24.00,0.00,30.18,M,6.21,M,SCT,BKN,BKN,M,700.00,1000.00,1800.00,M,M,M,M,M,M,M,M,57.20,RCTP 301730Z 05024KT 9999 SCT007 BKN010 BKN018 14/12 Q1022 WS ALL RWY NOSIG RMK A3018
RCTP,2017-01-30 18:00,57.20,53.60,87.74,50.00,23.00,0.00,30.15,M,6.21,M,SCT,BKN,BKN,M,700.00,1000.00,2000.00,M,M,M,M,M,M,M,M,57.20,RCTP 301800Z 05023KT 9999 SCT007 BKN010 BKN020 14/12 Q1021 WS ALL RWY NOSIG RMK A3016
RCTP,2017-01-30 18:30,57.20,53.60,87.74,50.00,25.00,0.00,30.15,M,6.21,M,SCT,BKN,BKN,M,700.00,1000.00,1800.00,M,M,M,M,M,M,M,M,57.20,RCTP 301830Z 05025KT 9999 SCT007 BKN010 BKN018 14/12 Q1021 WS ALL RWY NOSIG RMK A3016
RCTP,2017-01-30 19:00,57.20,53.60,87.74,50.00,24.00,0.00,30.15,M,6.21,34.00,FEW,BKN,BKN,M,700.00,1000.00,2000.00,M,M,M,M,M,M,M,M,57.20,RCTP 301900Z 05024G34KT 9999 FEW007 BKN010 BKN020 14/12 Q1021 WS ALL RWY NOSIG RMK A3015
RCTP,2017-01-30 19:30,57.20,53.60,87.74,50.00,21.00,0.00,30.15,M,6.21,M,FEW,BKN,BKN,M,700.00,1000.00,2000.00,M,M,M,M,M,M,M,M,57.20,RCTP 301930Z 05021KT 9999 FEW007 BKN010 BKN020 14/12 Q1021 WS ALL RWY NOSIG RMK A3015
RCTP,2017-01-30 20:00,59.00,53.60,82.25,50.00,23.00,0.00,30.15,M,6.21,M,FEW,BKN,BKN,M,700.00,1000.00,2000.00,M,M,M,M,M,M,M,M,59.00,RCTP 302000Z 05023KT 9999 FEW007 BKN010 BKN020 15/12 Q1021 WS ALL RWY NOSIG RMK A3015
RCTP,2017-01-30 20:30,59.00,53.60,82.25,50.00,22.00,0.00,30.12,M,6.21,M,FEW,BKN,BKN,M,700.00,1000.00,2000.00,M,M,M,M,M,M,M,M,59.00,RCTP 302030Z 05022KT 9999 FEW007 BKN010 BKN020 15/12 Q1020 WS ALL RWY NOSIG RMK A3014
RCTP,2017-01-30 21:00,59.00,53.60,82.25,50.00,22.00,0.00,30.15,M,6.21,M,FEW,BKN,BKN,M,700.00,1200.00,2000.00,M,M,M,M,M,M,M,M,59.00,RCTP 302100Z 05022KT 9999 FEW007 BKN012 BKN020 15/12 Q1021 NOSIG RMK A3015
RCTP,2017-01-30 21:26,59.00,53.60,82.25,50.00,22.00,0.00,30.15,M,6.21,M,FEW,BKN,BKN,M,700.00,1200.00,2000.00,M,M,M,M,M,M,M,M,59.00,RCTP 302126Z 05022KT 9999 FEW007 BKN012 BKN020 15/12 Q1021 WS ALL RWY NOSIG RMK A3015
RCTP,2017-01-30 21:30,59.00,55.40,87.83,50.00,21.00,0.00,30.15,M,6.21,M,FEW,BKN,BKN,M,700.00,1200.00,2000.00,M,M,M,M,M,M,M,M,59.00,RCTP 302130Z 05021KT 9999 FEW007 BKN012 BKN020 15/13 Q1021 WS ALL RWY NOSIG RMK A3015
RCTP,2017-01-30 22:00,59.00,55.40,87.83,50.00,23.00,0.00,30.15,M,6.21,M,FEW,BKN,BKN,M,800.00,1200.00,2000.00,M,M,M,M,M,M,M,M,59.00,RCTP 302200Z 05023KT 9999 FEW008 BKN012 BKN020 15/13 Q1021 WS ALL RWY NOSIG RMK A3016
RCTP,2017-01-30 22:30,59.00,55.40,87.83,50.00,25.00,0.00,30.15,M,6.21,M,FEW,BKN,BKN,M,800.00,1200.00,2000.00,M,M,M,M,M,M,M,M,59.00,RCTP 302230Z 05025KT 9999 FEW008 BKN012 BKN020 15/13 Q1021 WS ALL RWY NOSIG RMK A3016
RCTP,2017-01-30 23:00,59.00,55.40,87.83,50.00,25.00,0.00,30.15,M,6.21,M,FEW,BKN,BKN,M,800.00,1200.00,2000.00,M,M,M,M,M,M,M,M,59.00,RCTP 302300Z 05025KT 9999 FEW008 BKN012 BKN020 15/13 Q1021 NOSIG RMK A3017
RCTP,2017-01-30 23:18,59.00,53.60,82.25,50.00,24.00,0.00,30.18,M,6.21,M,FEW,BKN,BKN,M,800.00,1200.00,2000.00,M,M,M,M,M,M,M,M,59.00,RCTP 302318Z 05024KT 9999 FEW008 BKN012 BKN020 15/12 Q1022 WS ALL RWY NOSIG RMK A3018
RCTP,2017-01-30 23:30,59.00,53.60,82.25,50.00,23.00,0.00,30.18,M,6.21,M,FEW,SCT,BKN,M,800.00,1400.00,2200.00,M,M,M,M,M,M,M,M,59.00,RCTP 302330Z 05023KT 9999 FEW008 SCT014 BKN022 15/12 Q1022 WS ALL RWY NOSIG RMK A3018
RCTP,2017-01-31 00:00,59.00,53.60,82.25,50.00,24.00,0.00,30.18,M,6.21,M,FEW,SCT,BKN,M,1000.00,1600.00,2200.00,M,M,M,M,M,M,M,M,59.00,RCTP 310000Z 05024KT 9999 FEW010 SCT016 BKN022 15/12 Q1022 NOSIG RMK A3018
RCTP,2017-01-31 00:30,60.80,55.40,82.37,50.00,25.00,0.00,30.18,M,6.21,M,FEW,BKN,M,M,1500.00,2300.00,M,M,M,M,M,M,M,M,M,60.80,RCTP 310030Z 05025KT 9999 FEW015 BKN023 16/13 Q1022 NOSIG RMK A3019
RCTP,2017-01-31 01:00,60.80,55.40,82.37,50.00,26.00,0.00,30.18,M,6.21,M,FEW,BKN,M,M,1500.00,2500.00,M,M,M,M,M,M,M,M,M,60.80,RCTP 310100Z 05026KT 9999 FEW015 BKN025 16/13 Q1022 NOSIG RMK A3019
RCTP,2017-01-31 01:24,60.80,55.40,82.37,40.00,25.00,0.00,30.18,M,6.21,M,FEW,BKN,M,M,1500.00,2500.00,M,M,M,M,M,M,M,M,M,60.80,RCTP 310124Z 04025KT 9999 FEW015 BKN025 16/13 Q1022 WS ALL RWY NOSIG RMK A3020
RCTP,2017-01-31 01:30,60.80,55.40,82.37,40.00,24.00,0.00,30.18,M,6.21,M,FEW,BKN,M,M,1500.00,2200.00,M,M,M,M,M,M,M,M,M,60.80,RCTP 310130Z 04024KT 9999 FEW015 BKN022 16/13 Q1022 WS ALL RWY NOSIG RMK A3020
RCTP,2017-01-31 02:00,62.60,57.20,82.50,50.00,23.00,0.00,30.18,M,6.21,M,FEW,BKN,M,M,1500.00,2300.00,M,M,M,M,M,M,M,M,M,62.60,RCTP 310200Z 05023KT 9999 FEW015 BKN023 17/14 Q1022 WS ALL RWY NOSIG RMK A3019
RCTP,2017-01-31 02:30,62.60,57.20,82.50,40.00,26.00,0.00,30.15,M,6.21,37.00,FEW,BKN,BKN,M,1500.00,2500.00,3700.00,M,M,M,M,M,M,M,M,62.60,RCTP 310230Z 04026G37KT 9999 FEW015 BKN025 BKN037 17/14 Q1021 NOSIG RMK A3017
RCTP,2017-01-31 03:00,64.40,57.20,77.45,40.00,25.00,0.00,30.15,M,6.21,M,FEW,BKN,BKN,M,1500.00,2500.00,3500.00,M,M,M,M,M,M,M,M,64.40,RCTP 310300Z 04025KT 9999 FEW015 BKN025 BKN035 18/14 Q1021 NOSIG RMK A3016
RCTP,2017-01-31 03:23,64.40,57.20,77.45,40.00,24.00,0.00,30.15,M,6.21,36.00,FEW,BKN,BKN,M,1500.00,2500.00,3500.00,M,M,M,M,M,M,M,M,64.40,RCTP 310323Z 04024G36KT 9999 FEW015 BKN025 BKN035 18/14 Q1021 WS ALL RWY NOSIG RMK A3015
RCTP,2017-01-31 03:30,64.40,57.20,77.45,40.00,24.00,0.00,30.15,M,6.21,36.00,FEW,BKN,BKN,M,1500.00,2500.00,3500.00,M,M,M,M,M,M,M,M,64.40,RCTP 310330Z 04024G36KT 9999 FEW015 BKN025 BKN035 18/14 Q1021 WS ALL RWY NOSIG RMK A3015
RCTP,2017-01-31 04:00,64.40,57.20,77.45,40.00,26.00,0.00,30.12,M,6.21,M,FEW,BKN,BKN,M,1500.00,2500.00,3500.00,M,M,M,M,M,M,M,M,64.40,RCTP 310400Z 04026KT 9999 FEW015 BKN025 BKN035 18/14 Q1020 WS ALL RWY NOSIG RMK A3013
RCTP,2017-01-31 04:30,64.40,57.20,77.45,40.00,24.00,0.00,30.09,M,6.21,M,FEW,BKN,BKN,M,1500.00,2500.00,3500.00,M,M,M,M,M,M,M,M,64.40,RCTP 310430Z 04024KT 9999 FEW015 BKN025 BKN035 18/14 Q1019 NOSIG RMK A3011
RCTP,2017-01-31 05:00,66.20,57.20,72.74,40.00,24.00,0.00,30.09,M,6.21,M,FEW,BKN,M,M,1500.00,2700.00,M,M,M,M,M,M,M,M,M,66.20,RCTP 310500Z 04024KT 9999 FEW015 BKN027 19/14 Q1019 NOSIG RMK A3009
RCTP,2017-01-31 05:30,68.00,57.20,68.35,40.00,22.00,0.00,30.06,M,6.21,M,FEW,BKN,BKN,M,1500.00,2500.00,10000.00,M,M,M,M,M,M,M,M,68.00,RCTP 310530Z 04022KT 9999 FEW015 BKN025 BKN100 20/14 Q1018 NOSIG RMK A3008
RCTP,2017-01-31 06:00,64.40,57.20,77.45,40.00,22.00,0.00,30.06,M,6.21,M,FEW,BKN,BKN,M,1500.00,2800.00,10000.00,M,M,M,M,M,M,M,M,64.40,RCTP 310600Z 04022KT 9999 FEW015 BKN028 BKN100 18/14 Q1018 WS ALL RWY NOSIG RMK A3008
RCTP,2017-01-31 06:30,66.20,57.20,72.74,40.00,23.00,0.00,30.06,M,6.21,33.00,FEW,BKN,BKN,M,1500.00,2800.00,10000.00,M,M,M,M,M,M,M,M,66.20,RCTP 310630Z 04023G33KT 9999 FEW015 BKN028 BKN100 19/14 Q1018 WS ALL RWY NOSIG RMK A3007
RCTP,2017-01-31 07:00,64.40,57.20,77.45,40.00,23.00,0.00,30.06,M,6.21,M,FEW,BKN,BKN,M,1500.00,2800.00,10000.00,M,M,M,M,M,M,M,M,64.40,RCTP 310700Z 04023KT 9999 FEW015 BKN028 BKN100 18/14 Q1018 NOSIG RMK A3008
RCTP,2017-01-31 07:30,64.40,57.20,77.45,40.00,22.00,0.00,30.06,M,6.21,M,FEW,BKN,BKN,M,1500.00,2600.00,9000.00,M,M,M,M,M,M,M,M,64.40,RCTP 310730Z 04022KT 9999 FEW015 BKN026 BKN090 18/14 Q1018 NOSIG RMK A3007
RCTP,2017-01-31 08:00,64.40,57.20,77.45,40.00,22.00,0.00,30.09,M,6.21,M,FEW,BKN,BKN,M,1500.00,2500.00,9000.00,M,M,M,M,M,M,M,M,64.40,RCTP 310800Z 04022KT 9999 FEW015 BKN025 BKN090 18/14 Q1019 NOSIG RMK A3010
RCTP,2017-01-31 08:30,62.60,57.20,82.50,40.00,20.00,0.00,30.09,M,6.21,M,FEW,BKN,BKN,M,1500.00,3000.00,10000.00,M,M,M,M,M,M,M,M,62.60,RCTP 310830Z 04020KT 9999 FEW015 BKN030 BKN100 17/14 Q1019 NOSIG RMK A3010
RCTP,2017-01-31 09:00,62.60,57.20,82.50,40.00,20.00,0.00,30.09,M,6.21,M,FEW,BKN,BKN,M,1500.00,3000.00,10000.00,M,M,M,M,M,M,M,M,62.60,RCTP 310900Z 04020KT 9999 FEW015 BKN030 BKN100 17/14 Q1019 NOSIG RMK A3011
RCTP,2017-01-31 09:30,60.80,57.20,87.92,40.00,19.00,0.00,30.12,M,6.21,M,FEW,BKN,BKN,M,1500.00,2000.00,3000.00,M,M,M,M,M,M,M,M,60.80,RCTP 310930Z 04019KT 9999 FEW015 BKN020 BKN030 16/14 Q1020 NOSIG RMK A3012
RCTP,2017-01-31 10:00,60.80,57.20,87.92,40.00,19.00,0.00,30.12,M,6.21,M,SCT,BKN,BKN,M,800.00,1800.00,3000.00,M,M,M,M,M,M,M,M,60.80,RCTP 311000Z 04019KT 9999 SCT008 BKN018 BKN030 16/14 Q1020 NOSIG RMK A3013
RCTP,2017-01-31 10:30,60.80,57.20,87.92,50.00,19.00,0.00,30.12,M,6.21,M,SCT,BKN,BKN,M,1000.00,1800.00,3000.00,M,M,M,M,M,M,M,M,60.80,RCTP 311030Z 05019KT 9999 SCT010 BKN018 BKN030 16/14 Q1020 NOSIG RMK A3013
RCTP,2017-01-31 11:00,62.60,57.20,82.50,50.00,18.00,0.00,30.12,M,6.21,M,FEW,BKN,BKN,M,1000.00,2000.00,10000.00,M,M,M,M,M,M,M,M,62.60,RCTP 311100Z 05018KT 9999 FEW010 BKN020 BKN100 17/14 Q1020 NOSIG RMK A3014
RCTP,2017-01-31 11:30,60.80,57.20,87.92,50.00,17.00,0.00,30.12,M,6.21,M,FEW,SCT,BKN,M,1000.00,2000.00,10000.00,M,M,M,M,M,M,M,M,60.80,RCTP 311130Z 05017KT 9999 FEW010 SCT020 BKN100 16/14 Q1020 NOSIG RMK A3014
RCTP,2017-01-31 12:00,62.60,57.20,82.50,50.00,14.00,0.00,30.12,M,6.21,M,FEW,BKN,M,M,2000.00,10000.00,M,M,M,M,M,M,M,M,M,62.60,RCTP 311200Z 05014KT 9999 FEW020 BKN100 17/14 Q1020 NOSIG RMK A3013
RCTP,2017-01-31 12:30,62.60,57.20,82.50,60.00,14.00,0.00,30.12,M,6.21,M,FEW,BKN,M,M,2000.00,10000.00,M,M,M,M,M,M,M,M,M,62.60,RCTP 311230Z 06014KT 9999 FEW020 BKN100 17/14 Q1020 NOSIG RMK A3013
RCTP,2017-01-31 13:00,64.40,57.20,77.45,70.00,16.00,0.00,30.12,M,6.21,M,FEW,BKN,M,M,2000.00,11000.00,M,M,M,M,M,M,M,M,M,64.40,RCTP 311300Z 07016KT 9999 FEW020 BKN110 18/14 Q1020 NOSIG RMK A3012
RCTP,2017-01-31 13:30,64.40,57.20,77.45,60.00,13.00,0.00,30.12,M,6.21,M,FEW,BKN,M,M,2000.00,11000.00,M,M,M,M,M,M,M,M,M,64.40,RCTP 311330Z 06013KT 9999 FEW020 BKN110 18/14 Q1020 NOSIG RMK A3012
RCTP,2017-01-31 14:00,64.40,57.20,77.45,50.00,11.00,0.00,30.12,M,6.21,M,FEW,BKN,M,M,2000.00,11000.00,M,M,M,M,M,M,M,M,M,64.40,RCTP 311400Z 05011KT 9999 FEW020 BKN110 18/14 Q1020 NOSIG RMK A3012
RCTP,2017-01-31 14:30,64.40,57.20,77.45,50.00,16.00,0.00,30.12,M,6.21,M,FEW,BKN,M,M,2000.00,10000.00,M,M,M,M,M,M,M,M,M,64.40,RCTP 311430Z 05016KT 9999 FEW020 BKN100 18/14 Q1020 NOSIG RMK A3012
RCTP,2017-01-31 15:00,64.40,57.20,77.45,50.00,14.00,0.00,30.12,M,6.21,M,FEW,BKN,M,M,2000.00,10000.00,M,M,M,M,M,M,M,M,M,64.40,RCTP 311500Z 05014KT 9999 FEW020 BKN100 18/14 Q1020 NOSIG RMK A3012
RCTP,2017-01-31 15:30,64.40,57.20,77.45,40.00,13.00,0.00,30.12,M,6.21,M,FEW,BKN,M,M,2000.00,10000.00,M,M,M,M,M,M,M,M,M,64.40,RCTP 311530Z 04013KT 9999 FEW020 BKN100 18/14 Q1020 NOSIG RMK A3012
RCTP,2017-01-31 16:00,64.40,57.20,77.45,50.00,12.00,0.00,30.12,M,6.21,M,FEW,BKN,M,M,2000.00,10000.00,M,M,M,M,M,M,M,M,M,64.40,RCTP 311600Z 05012KT 9999 FEW020 BKN100 18/14 Q1020 NOSIG RMK A3012
RCTP,2017-01-31 16:30,64.40,59.00,82.62,40.00,11.00,0.00,30.12,M,6.21,M,SCT,BKN,M,M,2000.00,10000.00,M,M,M,M,M,M,M,M,M,64.40,RCTP 311630Z 04011KT 9999 SCT020 BKN100 18/15 Q1020 NOSIG RMK A3013
RCTP,2017-01-31 17:00,64.40,59.00,82.62,40.00,14.00,0.00,30.12,M,6.21,M,BKN,BKN,M,M,2200.00,10000.00,M,M,M,M,M,M,M,M,M,64.40,RCTP 311700Z 04014KT 9999 BKN022 BKN100 18/15 Q1020 NOSIG RMK A3013
RCTP,2017-01-31 17:30,64.40,59.00,82.62,40.00,16.00,0.00,30.12,M,6.21,M,BKN,BKN,M,M,2300.00,10000.00,M,M,M,M,M,M,M,M,M,64.40,RCTP 311730Z 04016KT 9999 BKN023 BKN100 18/15 Q1020 NOSIG RMK A3012
RCTP,2017-01-31 18:00,64.40,59.00,82.62,40.00,15.00,0.00,30.12,M,6.21,M,FEW,BKN,BKN,M,1500.00,2500.00,10000.00,M,M,M,M,M,M,M,M,64.40,RCTP 311800Z 04015KT 9999 FEW015 BKN025 BKN100 18/15 Q1020 NOSIG RMK A3012
RCTP,2017-01-31 18:30,64.40,59.00,82.62,40.00,16.00,0.00,30.12,M,6.21,M,FEW,BKN,BKN,M,1500.00,2500.00,10000.00,M,M,M,M,M,M,M,M,64.40,RCTP 311830Z 04016KT 9999 FEW015 BKN025 BKN100 18/15 Q1020 NOSIG RMK A3012
RCTP,2017-01-31 19:00,64.40,59.00,82.62,40.00,17.00,0.00,30.12,M,6.21,M,FEW,BKN,BKN,M,1500.00,2500.00,10000.00,M,M,M,M,M,M,M,M,64.40,RCTP 311900Z 04017KT 9999 FEW015 BKN025 BKN100 18/15 Q1020 NOSIG RMK A3012
RCTP,2017-01-31 19:30,64.40,59.00,82.62,40.00,17.00,0.00,30.12,M,6.21,M,FEW,BKN,BKN,M,1500.00,2500.00,10000.00,M,M,M,M,M,M,M,M,64.40,RCTP 311930Z 04017KT 9999 FEW015 BKN025 BKN100 18/15 Q1020 NOSIG RMK A3013
RCTP,2017-01-31 20:00,64.40,59.00,82.62,40.00,17.00,0.00,30.12,M,6.21,M,FEW,BKN,BKN,M,1500.00,2500.00,10000.00,M,M,M,M,M,M,M,M,64.40,RCTP 312000Z 04017KT 9999 FEW015 BKN025 BKN100 18/15 Q1020 NOSIG RMK A3014
RCTP,2017-01-31 20:30,64.40,59.00,82.62,40.00,16.00,0.00,30.12,M,6.21,M,FEW,BKN,BKN,M,1500.00,2500.00,10000.00,M,M,M,M,M,M,M,M,64.40,RCTP 312030Z 04016KT 9999 FEW015 BKN025 BKN100 18/15 Q1020 NOSIG RMK A3014
RCTP,2017-01-31 21:00,62.60,59.00,88.00,30.00,17.00,0.00,30.15,M,6.21,M,FEW,BKN,BKN,M,1200.00,2500.00,10000.00,M,M,M,M,M,M,M,M,62.60,RCTP 312100Z 03017KT 9999 FEW012 BKN025 BKN100 17/15 Q1021 NOSIG RMK A3015
RCTP,2017-01-31 21:30,62.60,57.20,82.50,30.00,21.00,0.00,30.15,M,6.21,M,SCT,BKN,M,M,1200.00,2500.00,M,M,M,M,M,M,M,M,M,62.60,RCTP 312130Z 03021KT 9999 SCT012 BKN025 17/14 Q1021 NOSIG RMK A3015
RCTP,2017-01-31 22:00,60.80,59.00,93.79,30.00,20.00,0.00,30.15,M,6.21,M,BKN,BKN,M,M,900.00,2500.00,M,M,M,M,M,M,M,M,M,60.80,RCTP 312200Z 03020KT 9999 BKN009 BKN025 16/15 Q1021 NOSIG RMK A3016
RCTP,2017-01-31 23:00,60.80,59.00,93.79,40.00,19.00,0.00,30.15,M,6.21,M,SCT,BKN,BKN,M,700.00,900.00,2000.00,M,M,M,M,M,M,M,M,60.80,RCTP 312300Z 04019KT 9999 SCT007 BKN009 BKN020 16/15 Q1021 NOSIG RMK A3016
RCTP,2017-01-31 23:30,62.60,59.00,88.00,40.00,17.00,0.00,30.15,M,6.21,M,SCT,BKN,BKN,M,800.00,1100.00,2000.00,M,M,M,M,M,M,M,M,62.60,RCTP 312330Z 04017KT 9999 SCT008 BKN011 BKN020 17/15 Q1021 NOSIG RMK A3017
RCTP,2017-02-01 00:00,62.60,59.00,88.00,40.00,21.00,0.00,30.18,M,6.21,M,FEW,BKN,BKN,M,800.00,1200.00,2000.00,M,M,M,M,M,M,M,M,62.60,RCTP 010000Z 04021KT 9999 FEW008 BKN012 BKN020 17/15 Q1022 NOSIG RMK A3019
RCTP,2017-02-01 00:30,64.40,59.00,82.62,40.00,21.00,0.00,30.18,M,6.21,M,FEW,BKN,OVC,M,800.00,1400.00,2500.00,M,M,M,M,M,M,M,M,64.40,RCTP 010030Z 04021KT 9999 FEW008 BKN014 OVC025 18/15 Q1022 NOSIG RMK A3020
RCTP,2017-02-01 00:42,64.40,59.00,82.62,40.00,20.00,0.00,30.21,M,6.21,M,BKN,OVC,M,M,1500.00,2500.00,M,M,M,M,M,M,M,M,M,64.40,RCTP 010042Z 04020KT 9999 BKN015 OVC025 18/15 Q1023 NOSIG RMK A3021
RCTP,2017-02-01 01:00,64.40,59.00,82.62,40.00,20.00,0.00,30.21,M,6.21,M,BKN,OVC,M,M,1500.00,2500.00,M,M,M,M,M,M,M,M,M,64.40,RCTP 010100Z 04020KT 9999 BKN015 OVC025 18/15 Q1023 NOSIG RMK A3021
RCTP,2017-02-01 01:30,64.40,59.00,82.62,40.00,21.00,0.00,30.21,M,6.21,M,BKN,OVC,M,M,1600.00,2800.00,M,M,M,M,M,M,M,M,M,64.40,RCTP 010130Z 04021KT 9999 BKN016 OVC028 18/15 Q1023 NOSIG RMK A3022
RCTP,2017-02-01 02:00,64.40,57.20,77.45,40.00,21.00,0.00,30.21,M,6.21,M,BKN,OVC,M,M,1600.00,2500.00,M,M,M,M,M,M,M,M,M,64.40,RCTP 010200Z 04021KT 9999 BKN016 OVC025 18/14 Q1023 NOSIG RMK A3022
RCTP,2017-02-01 02:30,64.40,57.20,77.45,50.00,23.00,0.00,30.21,M,6.21,M,BKN,OVC,M,M,1600.00,2500.00,M,M,M,M,M,M,M,M,M,64.40,RCTP 010230Z 05023KT 9999 BKN016 OVC025 18/14 Q1023 NOSIG RMK A3021
RCTP,2017-02-01 03:00,64.40,55.40,72.56,40.00,23.00,0.00,30.18,M,6.21,M,FEW,BKN,OVC,M,1400.00,1800.00,3000.00,M,M,M,M,M,M,M,M,64.40,RCTP 010300Z 04023KT 9999 FEW014 BKN018 OVC030 18/13 Q1022 NOSIG RMK A3020
RCTP,2017-02-01 03:30,64.40,57.20,77.45,50.00,22.00,0.00,30.18,M,6.21,M,FEW,OVC,M,M,1500.00,2000.00,M,M,M,M,M,M,M,M,M,64.40,RCTP 010330Z 05022KT 9999 FEW015 OVC020 18/14 Q1022 NOSIG RMK A3020
RCTP,2017-02-01 04:30,64.40,55.40,72.56,40.00,23.00,0.00,30.18,M,6.21,33.00,FEW,OVC,M,M,1800.00,2400.00,M,M,M,M,M,M,M,M,M,64.40,RCTP 010430Z 04023G33KT 9999 FEW018 OVC024 18/13 Q1022 NOSIG RMK A3020
RCTP,2017-02-01 05:00,64.40,57.20,77.45,40.00,23.00,0.00,30.18,M,6.21,M,BKN,OVC,M,M,2000.00,3000.00,M,M,M,M,M,M,M,M,M,64.40,RCTP 010500Z 04023KT 9999 BKN020 OVC030 18/14 Q1022 NOSIG RMK A3019
RCTP,2017-02-01 05:30,64.40,55.40,72.56,40.00,26.00,0.00,30.18,M,6.21,M,BKN,BKN,M,M,1900.00,3500.00,M,M,M,M,M,M,M,M,M,64.40,RCTP 010530Z 04026KT 9999 BKN019 BKN035 18/13 Q1022 NOSIG RMK A3018
RCTP,2017-02-01 06:00,64.40,55.40,72.56,40.00,22.00,0.00,30.15,M,6.21,M,BKN,BKN,M,M,2000.00,3500.00,M,M,M,M,M,M,M,M,M,64.40,RCTP 010600Z 04022KT 9999 BKN020 BKN035 18/13 Q1021 NOSIG RMK A3017
RCTP,2017-02-01 06:30,64.40,55.40,72.56,40.00,23.00,0.00,30.18,M,6.21,M,SCT,BKN,M,M,2000.00,3500.00,M,M,M,M,M,M,M,M,M,64.40,RCTP 010630Z 04023KT 9999 SCT020 BKN035 18/13 Q1022 NOSIG RMK A3018
RCTP,2017-02-01 07:00,62.60,55.40,77.29,40.00,21.00,0.00,30.18,M,6.21,M,FEW,BKN,BKN,M,1500.00,2000.00,3500.00,M,M,M,M,M,M,M,M,62.60,RCTP 010700Z 04021KT 9999 FEW015 BKN020 BKN035 17/13 Q1022 NOSIG RMK A3018
RCTP,2017-02-01 07:30,62.60,55.40,77.29,50.00,22.00,0.00,30.18,M,6.21,M,FEW,BKN,BKN,M,1200.00,1800.00,3000.00,M,M,M,M,M,M,M,M,62.60,RCTP 010730Z 05022KT 9999 FEW012 BKN018 BKN030 17/13 Q1022 NOSIG RMK A3020
RCTP,2017-02-01 08:00,62.60,55.40,77.29,50.00,23.00,0.00,30.18,M,6.21,M,FEW,BKN,BKN,M,1200.00,1800.00,3000.00,M,M,M,M,M,M,M,M,62.60,RCTP 010800Z 05023KT 9999 FEW012 BKN018 BKN030 17/13 Q1022 NOSIG RMK A3020
RCTP,2017-02-01 09:00,62.60,57.20,82.50,50.00,22.00,0.00,30.21,M,6.21,M,FEW,SCT,BKN,M,1200.00,1800.00,3000.00,M,M,M,M,M,M,M,M,62.60,RCTP 010900Z 05022KT 9999 FEW012 SCT018 BKN030 17/14 Q1023 NOSIG RMK A3023
RCTP,2017-02-01 09:30,62.60,55.40,77.29,50.00,21.00,0.00,30.24,M,6.21,M,FEW,SCT,BKN,M,1200.00,1800.00,3000.00,M,M,M,M,M,M,M,M,62.60,RCTP 010930Z 05021KT 9999 FEW012 SCT018 BKN030 17/13 Q1024 NOSIG RMK A3024
RCTP,2017-02-01 10:00,62.60,55.40,77.29,50.00,23.00,0.00,30.24,M,6.21,M,FEW,SCT,BKN,M,1200.00,1800.00,3000.00,M,M,M,M,M,M,M,M,62.60,RCTP 011000Z 05023KT 9999 FEW012 SCT018 BKN030 17/13 Q1024 NOSIG RMK A3024
RCTP,2017-02-01 10:47,60.80,55.40,82.37,40.00,25.00,0.00,30.24,M,6.21,M,FEW,BKN,BKN,M,1000.00,1300.00,2000.00,M,M,M,M,M,M,M,M,60.80,RCTP 011047Z 04025KT 9999 FEW010 BKN013 BKN020 16/13 Q1024 NOSIG RMK A3025
RCTP,2017-02-01 11:05,60.80,55.40,82.37,40.00,24.00,0.00,30.24,M,6.21,M,FEW,BKN,BKN,M,900.00,1300.00,2000.00,M,M,M,M,M,M,M,M,60.80,RCTP 011105Z 04024KT 9999 FEW009 BKN013 BKN020 16/13 Q1024 WS ALL RWY NOSIG RMK A3026
RCTP,2017-02-01 11:30,59.00,55.40,87.83,40.00,21.00,0.00,30.27,M,6.21,32.00,BKN,OVC,M,M,1300.00,2000.00,M,M,M,M,M,M,M,M,M,59.00,RCTP 011130Z 04021G32KT 9999 BKN013 OVC020 15/13 Q1025 WS ALL RWY NOSIG RMK A3027
RCTP,2017-02-01 12:20,59.00,55.40,87.83,40.00,24.00,0.00,30.27,M,6.21,34.00,BKN,OVC,M,M,1000.00,2000.00,M,M,M,M,M,M,M,M,M,59.00,RCTP 011220Z 04024G34KT 9999 BKN010 OVC020 15/13 Q1025 TEMPO BKN008 OVC015 RMK A3027
RCTP,2017-02-01 12:23,59.00,55.40,87.83,40.00,24.00,0.00,30.27,M,6.21,34.00,BKN,OVC,M,M,1000.00,2000.00,M,M,M,M,M,M,M,M,M,59.00,RCTP 011223Z 04024G34KT 9999 BKN010 OVC020 15/13 Q1025 WS ALL RWY TEMPO BKN008 OVC015 RMK A3028
RCTP,2017-02-01 12:30,59.00,55.40,87.83,40.00,26.00,0.00,30.27,M,6.21,M,FEW,OVC,M,M,600.00,900.00,M,M,M,M,M,M,M,M,M,59.00,RCTP 011230Z 04026KT 9999 FEW006 OVC009 15/13 Q1025 WS ALL RWY TEMPO FEW005 BKN008 RMK A3028
RCTP,2017-02-01 12:49,57.20,55.40,93.69,40.00,25.00,0.00,30.27,M,5.59,M,FEW,BKN,OVC,M,600.00,800.00,1400.00,M,-DZ,M,M,M,M,M,M,57.20,RCTP 011249Z 04025KT 9000 -DZ FEW006 BKN008 OVC014 14/13 Q1025 WS ALL RWY NOSIG RMK A3028
RCTP,2017-02-01 13:00,57.20,55.40,93.69,40.00,24.00,0.00,30.27,M,6.21,M,FEW,BKN,OVC,M,600.00,800.00,1400.00,M,-DZ,M,M,M,M,M,M,57.20,RCTP 011300Z 04024KT 9999 -DZ FEW006 BKN008 OVC014 14/13 Q1025 WS ALL RWY NOSIG RMK A3028
RCTP,2017-02-01 13:12,57.20,55.40,93.69,40.00,27.00,0.00,30.27,M,6.21,37.00,FEW,BKN,OVC,M,600.00,800.00,1400.00,M,M,M,M,M,M,M,M,57.20,RCTP 011312Z 04027G37KT 9999 FEW006 BKN008 OVC014 14/13 Q1025 WS ALL RWY NOSIG RMK A3028
RCTP,2017-02-01 13:30,57.20,55.40,93.69,40.00,25.00,0.00,30.27,M,6.21,35.00,FEW,BKN,OVC,M,600.00,900.00,1400.00,M,M,M,M,M,M,M,M,57.20,RCTP 011330Z 04025G35KT 9999 FEW006 BKN009 OVC014 14/13 Q1025 WS ALL RWY NOSIG RMK A3028
RCTP,2017-02-01 13:48,59.00,55.40,87.83,50.00,25.00,0.00,30.27,M,6.21,M,BKN,OVC,M,M,1000.00,2000.00,M,M,M,M,M,M,M,M,M,59.00,RCTP 011348Z 05025KT 9999 BKN010 OVC020 15/13 Q1025 NOSIG RMK A3028
RCTP,2017-02-01 13:58,57.20,53.60,87.74,50.00,26.00,0.00,30.27,M,6.21,36.00,BKN,BKN,M,M,1200.00,2200.00,M,M,M,M,M,M,M,M,M,57.20,RCTP 011358Z 05026G36KT 9999 BKN012 BKN022 14/12 Q1025 WS ALL RWY NOSIG RMK A3028
RCTP,2017-02-01 14:00,57.20,53.60,87.74,50.00,25.00,0.00,30.27,M,6.21,36.00,BKN,BKN,M,M,1200.00,2200.00,M,M,M,M,M,M,M,M,M,57.20,RCTP 011400Z 05025G36KT 9999 BKN012 BKN022 14/12 Q1025 WS ALL RWY NOSIG RMK A3028
RCTP,2017-02-01 14:30,59.00,53.60,82.25,50.00,26.00,0.00,30.27,M,6.21,39.00,FEW,BKN,OVC,M,1200.00,1500.00,2800.00,M,M,M,M,M,M,M,M,59.00,RCTP 011430Z 05026G39KT 9999 FEW012 BKN015 OVC028 15/12 Q1025 WS ALL RWY NOSIG RMK A3028
RCTP,2017-02-01 15:00,59.00,53.60,82.25,50.00,26.00,0.00,30.27,M,6.21,M,FEW,BKN,OVC,M,1200.00,1500.00,2800.00,M,M,M,M,M,M,M,M,59.00,RCTP 011500Z 05026KT 9999 FEW012 BKN015 OVC028 15/12 Q1025 WS ALL RWY NOSIG RMK A3027
RCTP,2017-02-01 15:30,59.00,53.60,82.25,50.00,23.00,0.00,30.27,M,6.21,M,BKN,OVC,M,M,1500.00,2800.00,M,M,M,M,M,M,M,M,M,59.00,RCTP 011530Z 05023KT 9999 BKN015 OVC028 15/12 Q1025 WS ALL RWY NOSIG RMK A3027
RCTP,2017-02-01 16:00,59.00,53.60,82.25,50.00,25.00,0.00,30.27,M,6.21,M,BKN,OVC,M,M,1500.00,2800.00,M,M,M,M,M,M,M,M,M,59.00,RCTP 011600Z 05025KT 9999 BKN015 OVC028 15/12 Q1025 WS ALL RWY NOSIG RMK A3027
RCTP,2017-02-01 16:30,59.00,53.60,82.25,50.00,24.00,0.00,30.24,M,6.21,34.00,BKN,BKN,M,M,1500.00,3000.00,M,M,M,M,M,M,M,M,M,59.00,RCTP 011630Z 05024G34KT 9999 BKN015 BKN030 15/12 Q1024 WS ALL RWY NOSIG RMK A3026
RCTP,2017-02-01 17:00,59.00,53.60,82.25,50.00,26.00,0.00,30.24,M,6.21,37.00,BKN,BKN,M,M,1500.00,2800.00,M,M,M,M,M,M,M,M,M,59.00,RCTP 011700Z 05026G37KT 9999 BKN015 BKN028 15/12 Q1024 WS ALL RWY NOSIG RMK A3026
RCTP,2017-02-01 17:30,59.00,53.60,82.25,50.00,23.00,0.00,30.24,M,6.21,33.00,SCT,BKN,BKN,M,1200.00,1500.00,2800.00,M,M,M,M,M,M,M,M,59.00,RCTP 011730Z 05023G33KT 9999 SCT012 BKN015 BKN028 15/12 Q1024 WS ALL RWY NOSIG RMK A3025
RCTP,2017-02-01 18:00,59.00,53.60,82.25,50.00,25.00,0.00,30.24,M,6.21,M,SCT,BKN,BKN,M,1200.00,1500.00,2500.00,M,M,M,M,M,M,M,M,59.00,RCTP 011800Z 05025KT 9999 SCT012 BKN015 BKN025 15/12 Q1024 WS ALL RWY NOSIG RMK A3025
RCTP,2017-02-01 18:30,59.00,53.60,82.25,50.00,23.00,0.00,30.24,M,6.21,M,SCT,BKN,BKN,M,1200.00,1500.00,2500.00,M,M,M,M,M,M,M,M,59.00,RCTP 011830Z 05023KT 9999 SCT012 BKN015 BKN025 15/12 Q1024 WS ALL RWY NOSIG RMK A3025
RCTP,2017-02-01 19:00,59.00,53.60,82.25,50.00,25.00,0.00,30.24,M,6.21,M,SCT,BKN,BKN,M,1200.00,1500.00,2500.00,M,M,M,M,M,M,M,M,59.00,RCTP 011900Z 05025KT 9999 SCT012 BKN015 BKN025 15/12 Q1024 WS ALL RWY NOSIG RMK A3025
RCTP,2017-02-01 19:30,59.00,53.60,82.25,50.00,24.00,0.00,30.24,M,6.21,M,SCT,BKN,BKN,M,1200.00,1500.00,2500.00,M,M,M,M,M,M,M,M,59.00,RCTP 011930Z 05024KT 9999 SCT012 BKN015 BKN025 15/12 Q1024 WS ALL RWY NOSIG RMK A3025
RCTP,2017-02-01 20:00,59.00,53.60,82.25,50.00,24.00,0.00,30.24,M,6.21,M,FEW,BKN,BKN,M,1200.00,1600.00,2500.00,M,M,M,M,M,M,M,M,59.00,RCTP 012000Z 05024KT 9999 FEW012 BKN016 BKN025 15/12 Q1024 WS ALL RWY NOSIG RMK A3024
RCTP,2017-02-01 20:30,60.80,53.60,77.14,50.00,22.00,0.00,30.24,M,6.21,M,FEW,BKN,BKN,M,1200.00,1600.00,2500.00,M,M,M,M,M,M,M,M,60.80,RCTP 012030Z 05022KT 9999 FEW012 BKN016 BKN025 16/12 Q1024 WS ALL RWY NOSIG RMK A3025
RCTP,2017-02-01 21:00,59.00,53.60,82.25,40.00,25.00,0.00,30.24,M,6.21,M,FEW,BKN,BKN,M,1200.00,1600.00,2500.00,M,M,M,M,M,M,M,M,59.00,RCTP 012100Z 04025KT 9999 FEW012 BKN016 BKN025 15/12 Q1024 WS ALL RWY NOSIG RMK A3025
RCTP,2017-02-01 21:30,59.00,53.60,82.25,50.00,22.00,0.00,30.24,M,6.21,M,FEW,BKN,BKN,M,1200.00,1600.00,2500.00,M,M,M,M,M,M,M,M,59.00,RCTP 012130Z 05022KT 9999 FEW012 BKN016 BKN025 15/12 Q1024 WS ALL RWY NOSIG RMK A3025
RCTP,2017-02-01 22:00,59.00,53.60,82.25,50.00,25.00,0.00,30.24,M,6.21,M,FEW,BKN,BKN,M,1200.00,1600.00,2800.00,M,M,M,M,M,M,M,M,59.00,RCTP 012200Z 05025KT 9999 FEW012 BKN016 BKN028 15/12 Q1024 NOSIG RMK A3026
RCTP,2017-02-01 22:30,59.00,53.60,82.25,50.00,24.00,0.00,30.24,M,6.21,M,FEW,BKN,BKN,M,1200.00,1600.00,2800.00,M,M,M,M,M,M,M,M,59.00,RCTP 012230Z 05024KT 9999 FEW012 BKN016 BKN028 15/12 Q1024 NOSIG RMK A3026
RCTP,2017-02-01 22:46,59.00,53.60,82.25,60.00,23.00,0.00,30.27,M,6.21,M,FEW,BKN,BKN,M,1200.00,1600.00,2800.00,M,M,M,M,M,M,M,M,59.00,RCTP 012246Z 06023KT 9999 FEW012 BKN016 BKN028 15/12 Q1025 WS ALL RWY NOSIG RMK A3028
RCTP,2017-02-01 23:00,59.00,53.60,82.25,50.00,23.00,0.00,30.27,M,6.21,M,FEW,SCT,BKN,M,1200.00,1600.00,3000.00,M,M,M,M,M,M,M,M,59.00,RCTP 012300Z 05023KT 9999 FEW012 SCT016 BKN030 15/12 Q1025 WS ALL RWY NOSIG RMK A3027
RCTP,2017-02-01 23:30,59.00,53.60,82.25,50.00,23.00,0.00,30.27,M,6.21,M,FEW,SCT,BKN,M,1200.00,1800.00,3000.00,M,M,M,M,M,M,M,M,59.00,RCTP 012330Z 05023KT 9999 FEW012 SCT018 BKN030 15/12 Q1025 WS ALL RWY NOSIG RMK A3028
RCTP,2017-02-02 00:00,60.80,53.60,77.14,50.00,24.00,0.00,30.27,M,6.21,M,FEW,SCT,BKN,M,1200.00,1800.00,3000.00,M,M,M,M,M,M,M,M,60.80,RCTP 020000Z 05024KT 9999 FEW012 SCT018 BKN030 16/12 Q1025 NOSIG RMK A3029
RCTP,2017-02-02 01:00,60.80,53.60,77.14,50.00,24.00,0.00,30.30,M,6.21,M,FEW,BKN,BKN,M,1500.00,2500.00,4000.00,M,M,M,M,M,M,M,M,60.80,RCTP 020100Z 05024KT 9999 FEW015 BKN025 BKN040 16/12 Q1026 NOSIG RMK A3030
RCTP,2017-02-02 01:30,60.80,53.60,77.14,50.00,26.00,0.00,30.30,M,6.21,M,FEW,BKN,BKN,M,2000.00,3000.00,5000.00,M,M,M,M,M,M,M,M,60.80,RCTP 020130Z 05026KT 9999 FEW020 BKN030 BKN050 16/12 Q1026 NOSIG RMK A3030
RCTP,2017-02-02 02:12,62.60,53.60,72.38,50.00,25.00,0.00,30.27,M,6.21,M,FEW,BKN,BKN,M,2000.00,3000.00,5000.00,M,M,M,M,M,M,M,M,62.60,RCTP 020212Z 05025KT 9999 FEW020 BKN030 BKN050 17/12 Q1025 WS ALL RWY NOSIG RMK A3029
RCTP,2017-02-02 02:30,60.80,51.80,72.20,50.00,27.00,0.00,30.27,M,6.21,M,FEW,BKN,BKN,M,2000.00,3000.00,5000.00,M,M,M,M,M,M,M,M,60.80,RCTP 020230Z 05027KT 9999 FEW020 BKN030 BKN050 16/11 Q1025 WS ALL RWY NOSIG RMK A3028
RCTP,2017-02-02 03:00,60.80,51.80,72.20,50.00,25.00,0.00,30.24,M,6.21,M,FEW,BKN,BKN,M,2000.00,3000.00,5000.00,M,M,M,M,M,M,M,M,60.80,RCTP 020300Z 05025KT 9999 FEW020 BKN030 BKN050 16/11 Q1024 NOSIG RMK A3026
RCTP,2017-02-02 03:30,62.60,51.80,67.75,50.00,24.00,0.00,30.24,M,6.21,M,FEW,BKN,BKN,M,2000.00,3000.00,5000.00,M,M,M,M,M,M,M,M,62.60,RCTP 020330Z 05024KT 9999 FEW020 BKN030 BKN050 17/11 Q1024 NOSIG RMK A3025
RCTP,2017-02-02 04:00,62.60,51.80,67.75,50.00,25.00,0.00,30.24,M,6.21,M,FEW,BKN,BKN,M,2000.00,3000.00,5000.00,M,M,M,M,M,M,M,M,62.60,RCTP 020400Z 05025KT 9999 FEW020 BKN030 BKN050 17/11 Q1024 NOSIG RMK A3024
RCTP,2017-02-02 04:30,62.60,51.80,67.75,40.00,24.00,0.00,30.21,M,6.21,M,FEW,BKN,BKN,M,1500.00,2500.00,4000.00,M,M,M,M,M,M,M,M,62.60,RCTP 020430Z 04024KT 9999 FEW015 BKN025 BKN040 17/11 Q1023 NOSIG RMK A3023
RCTP,2017-02-02 06:30,60.80,51.80,72.20,50.00,21.00,0.00,30.18,M,6.21,M,FEW,BKN,BKN,M,1500.00,2800.00,4000.00,M,M,M,M,M,M,M,M,60.80,RCTP 020630Z 05021KT 9999 FEW015 BKN028 BKN040 16/11 Q1022 NOSIG RMK A3019
RCTP,2017-02-02 07:00,60.80,51.80,72.20,50.00,27.00,0.00,30.18,M,6.21,M,FEW,BKN,BKN,M,1500.00,2800.00,4000.00,M,M,M,M,M,M,M,M,60.80,RCTP 020700Z 05027KT 9999 FEW015 BKN028 BKN040 16/11 Q1022 NOSIG RMK A3019
RCTP,2017-02-02 08:00,60.80,51.80,72.20,50.00,26.00,0.00,30.18,M,6.21,M,FEW,BKN,BKN,M,1500.00,2800.00,4000.00,M,M,M,M,M,M,M,M,60.80,RCTP 020800Z 05026KT 9999 FEW015 BKN028 BKN040 16/11 Q1022 NOSIG RMK A3019
RCTP,2017-02-02 08:30,60.80,51.80,72.20,50.00,24.00,0.00,30.18,M,6.21,M,FEW,BKN,BKN,M,1500.00,2800.00,4000.00,M,M,M,M,M,M,M,M,60.80,RCTP 020830Z 05024KT 9999 FEW015 BKN028 BKN040 16/11 Q1022 NOSIG RMK A3019
RCTP,2017-02-02 09:00,60.80,51.80,72.20,50.00,24.00,0.00,30.18,M,6.21,M,FEW,BKN,BKN,M,1500.00,2800.00,4000.00,M,M,M,M,M,M,M,M,60.80,RCTP 020900Z 05024KT 9999 FEW015 BKN028 BKN040 16/11 Q1022 NOSIG RMK A3020
RCTP,2017-02-02 09:13,60.80,51.80,72.20,50.00,24.00,0.00,30.18,M,6.21,M,FEW,BKN,BKN,M,1500.00,2800.00,4000.00,M,M,M,M,M,M,M,M,60.80,RCTP 020913Z 05024KT 9999 FEW015 BKN028 BKN040 16/11 Q1022 WS ALL RWY NOSIG RMK A3020
RCTP,2017-02-02 09:30,60.80,51.80,72.20,50.00,25.00,0.00,30.18,M,6.21,M,FEW,BKN,BKN,M,1500.00,2800.00,4000.00,M,M,M,M,M,M,M,M,60.80,RCTP 020930Z 05025KT 9999 FEW015 BKN028 BKN040 16/11 Q1022 WS ALL RWY NOSIG RMK A3020
RCTP,2017-02-02 09:42,60.80,51.80,72.20,50.00,22.00,0.00,30.21,M,6.21,M,FEW,BKN,BKN,M,1500.00,2800.00,4000.00,M,M,M,M,M,M,M,M,60.80,RCTP 020942Z 05022KT 9999 FEW015 BKN028 BKN040 16/11 Q1023 NOSIG RMK A3021
RCTP,2017-02-02 10:13,60.80,51.80,72.20,50.00,25.00,0.00,30.21,M,6.21,M,FEW,BKN,BKN,M,1500.00,2800.00,4000.00,M,M,M,M,M,M,M,M,60.80,RCTP 021013Z 05025KT 9999 FEW015 BKN028 BKN040 16/11 Q1023 NOSIG RMK A3022
RCTP,2017-02-02 10:30,60.80,51.80,72.20,50.00,22.00,0.00,30.21,M,6.21,M,FEW,BKN,BKN,M,1500.00,2800.00,4000.00,M,M,M,M,M,M,M,M,60.80,RCTP 021030Z 05022KT 9999 FEW015 BKN028 BKN040 16/11 Q1023 NOSIG RMK A3021
RCTP,2017-02-02 11:00,60.80,51.80,72.20,50.00,25.00,0.00,30.21,M,6.21,M,FEW,BKN,BKN,M,1500.00,2800.00,4000.00,M,M,M,M,M,M,M,M,60.80,RCTP 021100Z 05025KT 9999 FEW015 BKN028 BKN040 16/11 Q1023 NOSIG RMK A3021
RCTP,2017-02-02 11:30,60.80,51.80,72.20,50.00,21.00,0.00,30.21,M,6.21,M,FEW,SCT,M,M,1500.00,3000.00,M,M,M,M,M,M,M,M,M,60.80,RCTP 021130Z 05021KT 9999 FEW015 SCT030 16/11 Q1023 NOSIG RMK A3021
RCTP,2017-02-02 12:00,60.80,51.80,72.20,60.00,21.00,0.00,30.21,M,6.21,M,FEW,SCT,M,M,2000.00,3500.00,M,M,M,M,M,M,M,M,M,60.80,RCTP 021200Z 06021KT 9999 FEW020 SCT035 16/11 Q1023 NOSIG RMK A3021
RCTP,2017-02-02 12:08,60.80,51.80,72.20,50.00,22.00,0.00,30.21,M,6.21,M,FEW,SCT,M,M,2000.00,3500.00,M,M,M,M,M,M,M,M,M,60.80,RCTP 021208Z 05022KT 9999 FEW020 SCT035 16/11 Q1023 WS ALL RWY NOSIG RMK A3021
RCTP,2017-02-02 12:30,59.00,51.80,76.98,60.00,22.00,0.00,30.21,M,6.21,M,FEW,BKN,M,M,2000.00,4000.00,M,M,M,M,M,M,M,M,M,59.00,RCTP 021230Z 06022KT 9999 FEW020 BKN040 15/11 Q1023 WS ALL RWY NOSIG RMK A3021
RCTP,2017-02-02 13:00,59.00,51.80,76.98,50.00,21.00,0.00,30.18,M,6.21,M,FEW,BKN,M,M,2000.00,4000.00,M,M,M,M,M,M,M,M,M,59.00,RCTP 021300Z 05021KT 9999 FEW020 BKN040 15/11 Q1022 NOSIG RMK A3020
RCTP,2017-02-02 13:30,59.00,51.80,76.98,50.00,16.00,0.00,30.18,M,6.21,M,FEW,SCT,M,M,2000.00,5000.00,M,M,M,M,M,M,M,M,M,59.00,RCTP 021330Z 05016KT 9999 FEW020 SCT050 15/11 Q1022 NOSIG RMK A3020
RCTP,2017-02-02 14:00,59.00,51.80,76.98,60.00,15.00,0.00,30.18,M,6.21,M,FEW,SCT,M,M,2000.00,4000.00,M,M,M,M,M,M,M,M,M,59.00,RCTP 021400Z 06015KT 9999 FEW020 SCT040 15/11 Q1022 NOSIG RMK A3020
RCTP,2017-02-02 14:30,60.80,51.80,72.20,60.00,17.00,0.00,30.18,M,6.21,M,FEW,M,M,M,2000.00,M,M,M,M,M,M,M,M,M,M,60.80,RCTP 021430Z 06017KT 9999 FEW020 16/11 Q1022 NOSIG RMK A3019
RCTP,2017-02-02 15:00,60.80,51.80,72.20,60.00,16.00,0.00,30.18,M,6.21,M,FEW,M,M,M,2000.00,M,M,M,M,M,M,M,M,M,M,60.80,RCTP 021500Z 06016KT 9999 FEW020 16/11 Q1022 NOSIG RMK A3018
RCTP,2017-02-02 15:30,60.80,51.80,72.20,60.00,15.00,0.00,30.18,M,6.21,M,FEW,SCT,M,M,2000.00,5000.00,M,M,M,M,M,M,M,M,M,60.80,RCTP 021530Z 06015KT 9999 FEW020 SCT050 16/11 Q1022 NOSIG RMK A3018
RCTP,2017-02-02 16:00,60.80,53.60,77.14,50.00,15.00,0.00,30.15,M,6.21,M,FEW,M,M,M,2000.00,M,M,M,M,M,M,M,M,M,M,60.80,RCTP 021600Z 05015KT 9999 FEW020 16/12 Q1021 NOSIG RMK A3017
RCTP,2017-02-02 16:30,60.80,51.80,72.20,60.00,15.00,0.00,30.15,M,6.21,M,FEW,M,M,M,2000.00,M,M,M,M,M,M,M,M,M,M,60.80,RCTP 021630Z 06015KT 9999 FEW020 16/11 Q1021 NOSIG RMK A3017
RCTP,2017-02-02 17:00,60.80,51.80,72.20,60.00,17.00,0.00,30.15,M,6.21,M,FEW,M,M,M,2000.00,M,M,M,M,M,M,M,M,M,M,60.80,RCTP 021700Z 06017KT 9999 FEW020 16/11 Q1021 NOSIG RMK A3016
RCTP,2017-02-02 17:30,60.80,51.80,72.20,60.00,15.00,0.00,30.15,M,6.21,M,FEW,M,M,M,2000.00,M,M,M,M,M,M,M,M,M,M,60.80,RCTP 021730Z 06015KT 9999 FEW020 16/11 Q1021 NOSIG RMK A3015
RCTP,2017-02-02 18:00,60.80,51.80,72.20,50.00,17.00,0.00,30.12,M,6.21,M,FEW,M,M,M,2000.00,M,M,M,M,M,M,M,M,M,M,60.80,RCTP 021800Z 05017KT 9999 FEW020 16/11 Q1020 NOSIG RMK A3014
RCTP,2017-02-02 18:30,60.80,53.60,77.14,50.00,15.00,0.00,30.12,M,6.21,M,FEW,M,M,M,2000.00,M,M,M,M,M,M,M,M,M,M,60.80,RCTP 021830Z 05015KT 9999 FEW020 16/12 Q1020 NOSIG RMK A3013
RCTP,2017-02-02 19:00,60.80,53.60,77.14,50.00,12.00,0.00,30.12,M,6.21,M,FEW,M,M,M,2000.00,M,M,M,M,M,M,M,M,M,M,60.80,RCTP 021900Z 05012KT 9999 FEW020 16/12 Q1020 NOSIG RMK A3013
RCTP,2017-02-02 19:30,62.60,53.60,72.38,50.00,12.00,0.00,30.12,M,6.21,M,FEW,BKN,M,M,2000.00,5000.00,M,M,M,M,M,M,M,M,M,62.60,RCTP 021930Z 05012KT 9999 FEW020 BKN050 17/12 Q1020 NOSIG RMK A3013
RCTP,2017-02-02 20:00,62.60,53.60,72.38,50.00,13.00,0.00,30.12,M,6.21,M,FEW,BKN,M,M,2000.00,3600.00,M,M,M,M,M,M,M,M,M,62.60,RCTP 022000Z 05013KT 9999 FEW020 BKN036 17/12 Q1020 NOSIG RMK A3012
RCTP,2017-02-02 20:30,62.60,55.40,77.29,50.00,11.00,0.00,30.12,M,6.21,M,FEW,BKN,M,M,2000.00,3600.00,M,M,M,M,M,M,M,M,M,62.60,RCTP 022030Z 05011KT 9999 FEW020 BKN036 17/13 Q1020 NOSIG RMK A3013
RCTP,2017-02-02 21:00,62.60,55.40,77.29,50.00,12.00,0.00,30.12,M,6.21,M,FEW,BKN,M,M,2000.00,3600.00,M,M,M,M,M,M,M,M,M,62.60,RCTP 022100Z 05012KT 9999 FEW020 BKN036 17/13 Q1020 NOSIG RMK A3013
RCTP,2017-02-02 21:30,62.60,57.20,82.50,50.00,15.00,0.00,30.12,M,6.21,M,FEW,BKN,M,M,2000.00,3600.00,M,M,M,M,M,M,M,M,M,62.60,RCTP 022130Z 05015KT 9999 FEW020 BKN036 17/14 Q1020 NOSIG RMK A3013
RCTP,2017-02-02 22:00,62.60,57.20,82.50,50.00,13.00,0.00,30.12,M,6.21,M,FEW,BKN,M,M,2000.00,3600.00,M,M,M,M,M,M,M,M,M,62.60,RCTP 022200Z 05013KT 9999 FEW020 BKN036 17/14 Q1020 NOSIG RMK A3013
RCTP,2017-02-02 22:30,62.60,57.20,82.50,50.00,12.00,0.00,30.12,M,6.21,M,FEW,BKN,M,M,2000.00,5000.00,M,M,M,M,M,M,M,M,M,62.60,RCTP 022230Z 05012KT 9999 FEW020 BKN050 17/14 Q1020 NOSIG RMK A3014
RCTP,2017-02-02 23:00,62.60,59.00,88.00,40.00,12.00,0.00,30.12,M,6.21,M,FEW,BKN,M,M,2000.00,5000.00,M,M,M,M,M,M,M,M,M,62.60,RCTP 022300Z 04012KT 9999 FEW020 BKN050 17/15 Q1020 NOSIG RMK A3014
RCTP,2017-02-02 23:30,64.40,59.00,82.62,40.00,11.00,0.00,30.15,M,6.21,M,FEW,BKN,M,M,2000.00,7000.00,M,M,M,M,M,M,M,M,M,64.40,RCTP 022330Z 04011KT 9999 FEW020 BKN070 18/15 Q1021 NOSIG RMK A3015
RCTP,2017-02-03 00:00,64.40,59.00,82.62,40.00,14.00,0.00,30.15,M,6.21,M,FEW,BKN,M,M,2000.00,7000.00,M,M,M,M,M,M,M,M,M,64.40,RCTP 030000Z 04014KT 9999 FEW020 BKN070 18/15 Q1021 NOSIG RMK A3015
RCTP,2017-02-03 00:30,64.40,59.00,82.62,40.00,15.00,0.00,30.15,M,6.21,M,FEW,BKN,M,M,2000.00,15000.00,M,M,M,M,M,M,M,M,M,64.40,RCTP 030030Z 04015KT 9999 FEW020 BKN150 18/15 Q1021 NOSIG RMK A3016
RCTP,2017-02-03 01:00,66.20,60.80,82.74,40.00,15.00,0.00,30.15,M,6.21,M,FEW,BKN,M,M,2000.00,15000.00,M,M,M,M,M,M,M,M,M,66.20,RCTP 030100Z 04015KT 9999 FEW020 BKN150 19/16 Q1021 NOSIG RMK A3016
RCTP,2017-02-03 01:30,68.00,60.80,77.75,40.00,19.00,0.00,30.15,M,6.21,M,FEW,BKN,M,M,2000.00,15000.00,M,M,M,M,M,M,M,M,M,68.00,RCTP 030130Z 04019KT 9999 FEW020 BKN150 20/16 Q1021 NOSIG RMK A3016
RCTP,2017-02-03 02:00,68.00,60.80,77.75,40.00,20.00,0.00,30.15,M,6.21,M,FEW,BKN,M,M,2000.00,15000.00,M,M,M,M,M,M,M,M,M,68.00,RCTP 030200Z 04020KT 9999 FEW020 BKN150 20/16 Q1021 NOSIG RMK A3015
RCTP,2017-02-03 02:30,68.00,60.80,77.75,40.00,20.00,0.00,30.12,M,6.21,M,FEW,BKN,M,M,2000.00,15000.00,M,M,M,M,M,M,M,M,M,68.00,RCTP 030230Z 04020KT 9999 FEW020 BKN150 20/16 Q1020 NOSIG RMK A3014
RCTP,2017-02-03 03:00,69.80,60.80,73.09,30.00,16.00,0.00,30.12,M,6.21,M,FEW,BKN,M,M,2000.00,18000.00,M,M,M,M,M,M,M,M,M,69.80,RCTP 030300Z 03016KT 9999 FEW020 BKN180 21/16 Q1020 NOSIG RMK A3012
RCTP,2017-02-03 03:30,71.60,62.60,73.27,40.00,15.00,0.00,30.09,M,6.21,M,FEW,BKN,M,M,2000.00,18000.00,M,M,M,M,M,M,M,M,M,71.60,RCTP 030330Z 04015KT 9999 FEW020 BKN180 22/17 Q1019 NOSIG RMK A3010
RCTP,2017-02-03 04:00,71.60,62.60,73.27,30.00,15.00,0.00,30.06,M,6.21,M,FEW,BKN,M,M,2500.00,18000.00,M,M,M,M,M,M,M,M,M,71.60,RCTP 030400Z 03015KT 9999 FEW025 BKN180 22/17 Q1018 NOSIG RMK A3008
RCTP,2017-02-03 04:30,71.60,60.80,68.75,30.00,16.00,0.00,30.06,M,6.21,M,FEW,BKN,M,M,2500.00,18000.00,M,M,M,M,M,M,M,M,M,71.60,RCTP 030430Z 03016KT 9999 FEW025 BKN180 22/16 Q1018 NOSIG RMK A3007
RCTP,2017-02-03 05:00,69.80,60.80,73.09,30.00,15.00,0.00,30.03,M,6.21,M,FEW,BKN,M,M,2500.00,18000.00,M,M,M,M,M,M,M,M,M,69.80,RCTP 030500Z 03015KT 9999 FEW025 BKN180 21/16 Q1017 NOSIG RMK A3005
RCTP,2017-02-03 05:30,69.80,60.80,73.09,30.00,15.00,0.00,30.00,M,6.21,M,FEW,BKN,M,M,2500.00,18000.00,M,M,M,M,M,M,M,M,M,69.80,RCTP 030530Z 03015KT 9999 FEW025 BKN180 21/16 Q1016 NOSIG RMK A3003
RCTP,2017-02-03 06:00,69.80,62.60,77.90,30.00,15.00,0.00,30.00,M,6.21,M,FEW,BKN,M,M,2500.00,18000.00,M,M,M,M,M,M,M,M,M,69.80,RCTP 030600Z 03015KT 9999 FEW025 BKN180 21/17 Q1016 NOSIG RMK A3002
RCTP,2017-02-03 06:30,69.80,62.60,77.90,30.00,13.00,0.00,30.00,M,6.21,M,FEW,BKN,M,M,2500.00,18000.00,M,M,M,M,M,M,M,M,M,69.80,RCTP 030630Z 03013KT 9999 FEW025 BKN180 21/17 Q1016 NOSIG RMK A3001
RCTP,2017-02-03 07:00,71.60,62.60,73.27,20.00,13.00,0.00,29.97,M,6.21,M,FEW,BKN,M,M,2500.00,18000.00,M,M,M,M,M,M,M,M,M,71.60,RCTP 030700Z 02013KT 9999 FEW025 BKN180 22/17 Q1015 NOSIG RMK A3000
RCTP,2017-02-03 07:30,71.60,62.60,73.27,20.00,12.00,0.00,29.97,M,6.21,M,FEW,BKN,M,M,2500.00,18000.00,M,M,M,M,M,M,M,M,M,71.60,RCTP 030730Z 02012KT 9999 FEW025 BKN180 22/17 Q1015 NOSIG RMK A3000
RCTP,2017-02-03 08:00,69.80,62.60,77.90,30.00,13.00,0.00,30.00,M,6.21,M,FEW,BKN,M,M,2500.00,18000.00,M,M,M,M,M,M,M,M,M,69.80,RCTP 030800Z 03013KT 9999 FEW025 BKN180 21/17 Q1016 NOSIG RMK A3001
RCTP,2017-02-03 08:30,68.00,60.80,77.75,30.00,12.00,0.00,30.00,M,6.21,M,FEW,BKN,M,M,2500.00,18000.00,M,M,M,M,M,M,M,M,M,68.00,RCTP 030830Z 03012KT 9999 FEW025 BKN180 20/16 Q1016 NOSIG RMK A3001
RCTP,2017-02-03 09:00,68.00,62.60,82.86,30.00,12.00,0.00,30.00,M,6.21,M,FEW,BKN,M,M,2500.00,18000.00,M,M,M,M,M,M,M,M,M,68.00,RCTP 030900Z 03012KT 9999 FEW025 BKN180 20/17 Q1016 NOSIG RMK A3002
RCTP,2017-02-03 09:30,68.00,60.80,77.75,30.00,10.00,0.00,30.00,M,6.21,M,FEW,BKN,M,M,2500.00,18000.00,M,M,M,M,M,M,M,M,M,68.00,RCTP 030930Z 03010KT 9999 FEW025 BKN180 20/16 Q1016 NOSIG RMK A3002
RCTP,2017-02-03 10:00,68.00,60.80,77.75,40.00,10.00,0.00,30.00,M,6.21,M,FEW,BKN,M,M,2500.00,18000.00,M,M,M,M,M,M,M,M,M,68.00,RCTP 031000Z 04010KT 9999 FEW025 BKN180 20/16 Q1016 NOSIG RMK A3002
RCTP,2017-02-03 10:30,68.00,60.80,77.75,40.00,8.00,0.00,30.00,M,6.21,M,FEW,BKN,M,M,2500.00,18000.00,M,M,M,M,M,M,M,M,M,68.00,RCTP 031030Z 04008KT 9999 FEW025 BKN180 20/16 Q1016 NOSIG RMK A3003
RCTP,2017-02-03 11:00,68.00,59.00,72.92,50.00,11.00,0.00,30.00,M,6.21,M,FEW,BKN,M,M,2500.00,18000.00,M,M,M,M,M,M,M,M,M,68.00,RCTP 031100Z 05011KT 9999 FEW025 BKN180 20/15 Q1016 NOSIG RMK A3003
RCTP,2017-02-03 11:30,68.00,59.00,72.92,50.00,7.00,0.00,30.03,M,6.21,M,FEW,BKN,M,M,2500.00,18000.00,M,M,M,M,M,M,M,M,M,68.00,RCTP 031130Z 05007KT 9999 FEW025 BKN180 20/15 Q1017 NOSIG RMK A3004
RCTP,2017-02-03 12:00,68.00,59.00,72.92,40.00,7.00,0.00,30.03,M,6.21,M,FEW,BKN,M,M,2500.00,18000.00,M,M,M,M,M,M,M,M,M,68.00,RCTP 031200Z 04007KT 9999 FEW025 BKN180 20/15 Q1017 NOSIG RMK A3004
RCTP,2017-02-03 12:30,66.20,59.00,77.60,40.00,5.00,0.00,30.03,M,6.21,M,FEW,BKN,M,M,2000.00,18000.00,M,M,M,M,M,M,M,M,M,66.20,RCTP 031230Z 04005KT 9999 FEW020 BKN180 19/15 Q1017 NOSIG RMK A3005
RCTP,2017-02-03 13:00,66.20,59.00,77.60,30.00,5.00,0.00,30.03,M,6.21,M,FEW,BKN,M,M,2000.00,18000.00,M,M,M,M,M,M,M,M,M,66.20,RCTP 031300Z 03005KT 9999 FEW020 BKN180 19/15 Q1017 NOSIG RMK A3005
RCTP,2017-02-03 13:30,66.20,60.80,82.74,M,2.00,0.00,30.06,M,6.21,M,FEW,BKN,M,M,2000.00,18000.00,M,M,M,M,M,M,M,M,M,66.20,RCTP 031330Z VRB02KT 9999 FEW020 BKN180 19/16 Q1018 NOSIG RMK A3006
RCTP,2017-02-03 14:00,66.20,60.80,82.74,200.00,6.00,0.00,30.03,M,6.21,M,FEW,BKN,M,M,2000.00,18000.00,M,M,M,M,M,M,M,M,M,66.20,RCTP 031400Z 20006KT 150V230 9999 FEW020 BKN180 19/16 Q1017 NOSIG RMK R23 A3005
RCTP,2017-02-03 14:30,64.40,60.80,88.09,220.00,9.00,0.00,30.03,M,6.21,M,FEW,BKN,M,M,2000.00,18000.00,M,M,M,M,M,M,M,M,M,64.40,RCTP 031430Z 22009KT 9999 FEW020 BKN180 18/16 Q1017 NOSIG RMK A3004
RCTP,2017-02-03 15:00,64.40,60.80,88.09,240.00,5.00,0.00,30.03,M,6.21,M,FEW,BKN,M,M,2000.00,18000.00,M,M,M,M,M,M,M,M,M,64.40,RCTP 031500Z 24005KT 9999 FEW020 BKN180 18/16 Q1017 NOSIG RMK A3005
RCTP,2017-02-03 15:30,64.40,60.80,88.09,240.00,4.00,0.00,30.03,M,5.59,M,FEW,BKN,M,M,2000.00,18000.00,M,M,M,M,M,M,M,M,M,64.40,RCTP 031530Z 24004KT 9000 FEW020 BKN180 18/16 Q1017 NOSIG RMK A3005
RCTP,2017-02-03 16:00,62.60,60.80,93.83,230.00,5.00,0.00,30.03,M,4.97,M,FEW,BKN,M,M,2000.00,18000.00,M,M,M,M,M,M,M,M,M,62.60,RCTP 031600Z 23005KT 8000 FEW020 BKN180 17/16 Q1017 NOSIG RMK A3005
RCTP,2017-02-03 16:30,64.40,60.80,88.09,230.00,6.00,0.00,30.03,M,4.35,M,FEW,BKN,M,M,2000.00,18000.00,M,M,M,M,M,M,M,M,M,64.40,RCTP 031630Z 23006KT 7000 FEW020 BKN180 18/16 Q1017 NOSIG RMK A3004
RCTP,2017-02-03 17:00,62.60,60.80,93.83,220.00,7.00,0.00,30.03,M,4.35,M,FEW,BKN,M,M,2000.00,18000.00,M,M,M,M,M,M,M,M,M,62.60,RCTP 031700Z 22007KT 7000 FEW020 BKN180 17/16 Q1017 NOSIG RMK A3004
RCTP,2017-02-03 17:30,62.60,60.80,93.83,190.00,3.00,0.00,30.00,M,4.35,M,FEW,BKN,M,M,2000.00,18000.00,M,M,M,M,M,M,M,M,M,62.60,RCTP 031730Z 19003KT 160V220 7000 FEW020 BKN180 17/16 Q1016 NOSIG RMK A3002
RCTP,2017-02-03 18:00,62.60,60.80,93.83,190.00,4.00,0.00,30.00,M,4.35,M,FEW,BKN,M,M,2000.00,18000.00,M,M,M,M,M,M,M,M,M,62.60,RCTP 031800Z 19004KT 150V250 7000 FEW020 BKN180 17/16 Q1016 NOSIG RMK A3001
RCTP,2017-02-03 18:30,62.60,60.80,93.83,220.00,3.00,0.00,30.00,M,4.35,M,FEW,BKN,M,M,2000.00,18000.00,M,M,M,M,M,M,M,M,M,62.60,RCTP 031830Z 22003KT 7000 FEW020 BKN180 17/16 Q1016 NOSIG RMK A3001
RCTP,2017-02-03 19:00,62.60,60.80,93.83,160.00,3.00,0.00,29.97,M,4.35,M,FEW,BKN,M,M,2000.00,18000.00,M,M,M,M,M,M,M,M,M,62.60,RCTP 031900Z 16003KT 7000 FEW020 BKN180 17/16 Q1015 NOSIG RMK A3000
RCTP,2017-02-03 19:30,62.60,59.00,88.00,200.00,2.00,0.00,29.97,M,4.97,M,FEW,BKN,M,M,2000.00,18000.00,M,M,M,M,M,M,M,M,M,62.60,RCTP 031930Z 20002KT 8000 FEW020 BKN180 17/15 Q1015 NOSIG RMK A3000
RCTP,2017-02-03 20:00,62.60,60.80,93.83,210.00,3.00,0.00,29.97,M,4.97,M,FEW,BKN,M,M,2000.00,18000.00,M,M,M,M,M,M,M,M,M,62.60,RCTP 032000Z 21003KT 8000 FEW020 BKN180 17/16 Q1015 NOSIG RMK A2999
RCTP,2017-02-03 20:30,62.60,60.80,93.83,170.00,3.00,0.00,29.97,M,4.97,M,FEW,BKN,M,M,2000.00,18000.00,M,M,M,M,M,M,M,M,M,62.60,RCTP 032030Z 17003KT 8000 FEW020 BKN180 17/16 Q1015 NOSIG RMK A2999
RCTP,2017-02-03 21:00,62.60,60.80,93.83,140.00,4.00,0.00,29.97,M,4.35,M,FEW,BKN,M,M,2000.00,18000.00,M,M,M,M,M,M,M,M,M,62.60,RCTP 032100Z 14004KT 7000 FEW020 BKN180 17/16 Q1015 NOSIG RMK A2999
RCTP,2017-02-03 21:30,60.80,59.00,93.79,200.00,3.00,0.00,29.97,M,4.35,M,FEW,BKN,M,M,2000.00,18000.00,M,M,M,M,M,M,M,M,M,60.80,RCTP 032130Z 20003KT 7000 FEW020 BKN180 16/15 Q1015 NOSIG RMK A3000
RCTP,2017-02-03 22:00,62.60,60.80,93.83,130.00,2.00,0.00,29.97,M,4.35,M,FEW,BKN,M,M,2000.00,18000.00,M,M,M,M,M,M,M,M,M,62.60,RCTP 032200Z 13002KT 7000 FEW020 BKN180 17/16 Q1015 NOSIG RMK A3000
RCTP,2017-02-03 22:30,62.60,60.80,93.83,150.00,2.00,0.00,30.00,M,4.35,M,FEW,BKN,M,M,2000.00,18000.00,M,M,M,M,M,M,M,M,M,62.60,RCTP 032230Z 15002KT 7000 FEW020 BKN180 17/16 Q1016 NOSIG RMK A3001
RCTP,2017-02-03 23:00,60.80,59.00,93.79,220.00,6.00,0.00,30.00,M,4.35,M,FEW,BKN,M,M,2000.00,18000.00,M,M,M,M,M,M,M,M,M,60.80,RCTP 032300Z 22006KT 7000 FEW020 BKN180 16/15 Q1016 NOSIG RMK A3001
RCTP,2017-02-03 23:30,62.60,60.80,93.83,220.00,3.00,0.00,30.00,M,4.35,M,FEW,BKN,M,M,2000.00,18000.00,M,M,M,M,M,M,M,M,M,62.60,RCTP 032330Z 22003KT 7000 FEW020 BKN180 17/16 Q1016 NOSIG RMK A3002
RCTP,2017-02-04 00:00,64.40,60.80,88.09,210.00,7.00,0.00,30.00,M,4.35,M,FEW,BKN,M,M,2000.00,18000.00,M,M,M,M,M,M,M,M,M,64.40,RCTP 040000Z 21007KT 7000 FEW020 BKN180 18/16 Q1016 NOSIG RMK A3003
RCTP,2017-02-04 00:30,64.40,62.60,93.88,190.00,3.00,0.00,30.03,M,4.35,M,FEW,BKN,M,M,2000.00,18000.00,M,M,M,M,M,M,M,M,M,64.40,RCTP 040030Z 19003KT 7000 FEW020 BKN180 18/17 Q1017 NOSIG RMK A3004
RCTP,2017-02-04 01:00,66.20,62.60,88.18,190.00,5.00,0.00,30.03,M,4.35,M,FEW,BKN,M,M,2000.00,18000.00,M,M,M,M,M,M,M,M,M,66.20,RCTP 040100Z 19005KT 7000 FEW020 BKN180 19/17 Q1017 NOSIG RMK A3004
RCTP,2017-02-04 01:30,66.20,62.60,88.18,210.00,6.00,0.00,30.03,M,4.97,M,FEW,BKN,M,M,2000.00,18000.00,M,M,M,M,M,M,M,M,M,66.20,RCTP 040130Z 21006KT 8000 FEW020 BKN180 19/17 Q1017 NOSIG RMK A3004
RCTP,2017-02-04 02:00,68.00,62.60,82.86,210.00,6.00,0.00,30.03,M,4.97,M,FEW,BKN,M,M,2000.00,18000.00,M,M,M,M,M,M,M,M,M,68.00,RCTP 040200Z 21006KT 180V240 8000 FEW020 BKN180 20/17 Q1017 NOSIG RMK A3004
RCTP,2017-02-04 02:30,68.00,62.60,82.86,240.00,6.00,0.00,30.00,M,4.97,M,FEW,BKN,M,M,2000.00,18000.00,M,M,M,M,M,M,M,M,M,68.00,RCTP 040230Z 24006KT 8000 FEW020 BKN180 20/17 Q1016 NOSIG RMK A3003
RCTP,2017-02-04 03:00,69.80,62.60,77.90,240.00,6.00,0.00,30.00,M,6.21,M,FEW,BKN,M,M,2000.00,18000.00,M,M,M,M,M,M,M,M,M,69.80,RCTP 040300Z 24006KT 200V270 9999 FEW020 BKN180 21/17 Q1016 NOSIG RMK A3002
RCTP,2017-02-04 03:30,71.60,62.60,73.27,230.00,7.00,0.00,30.00,M,6.21,M,FEW,BKN,M,M,2000.00,18000.00,M,M,M,M,M,M,M,M,M,71.60,RCTP 040330Z 23007KT 190V270 9999 FEW020 BKN180 22/17 Q1016 NOSIG RMK A3001
RCTP,2017-02-04 04:00,73.40,64.40,73.44,240.00,6.00,0.00,29.97,M,6.21,M,FEW,BKN,M,M,2000.00,18000.00,M,M,M,M,M,M,M,M,M,73.40,RCTP 040400Z 24006KT 210V280 9999 FEW020 BKN180 23/18 Q1015 NOSIG RMK A2999
RCTP,2017-02-04 04:30,69.80,62.60,77.90,300.00,9.00,0.00,29.97,M,6.21,M,FEW,BKN,M,M,2000.00,18000.00,M,M,M,M,M,M,M,M,M,69.80,RCTP 040430Z 30009KT 9999 FEW020 BKN180 21/17 Q1015 NOSIG RMK A2998
RCTP,2017-02-04 05:00,69.80,62.60,77.90,300.00,8.00,0.00,29.94,M,6.21,M,FEW,BKN,M,M,2000.00,18000.00,M,M,M,M,M,M,M,M,M,69.80,RCTP 040500Z 30008KT 9999 FEW020 BKN180 21/17 Q1014 NOSIG RMK A2995
RCTP,2017-02-04 05:30,69.80,64.40,82.98,290.00,9.00,0.00,29.91,M,6.21,M,FEW,BKN,M,M,2000.00,18000.00,M,M,M,M,M,M,M,M,M,69.80,RCTP 040530Z 29009KT 260V320 9999 FEW020 BKN180 21/18 Q1013 NOSIG RMK A2994
RCTP,2017-02-04 06:00,68.00,62.60,82.86,300.00,9.00,0.00,29.91,M,6.21,M,FEW,BKN,M,M,1200.00,18000.00,M,M,M,M,M,M,M,M,M,68.00,RCTP 040600Z 30009KT 9999 FEW012 BKN180 20/17 Q1013 NOSIG RMK A2992
RCTP,2017-02-04 06:16,68.00,62.60,82.86,310.00,8.00,0.00,29.91,M,6.21,M,FEW,BKN,M,M,1200.00,18000.00,M,M,M,M,M,M,M,M,M,68.00,RCTP 040616Z 31008KT 9999 FEW012 BKN180 20/17 Q1013 NOSIG RMK R05 A2992
RCTP,2017-02-04 06:30,68.00,62.60,82.86,310.00,7.00,0.00,29.91,M,6.21,M,FEW,SCT,BKN,M,800.00,1000.00,18000.00,M,M,M,M,M,M,M,M,68.00,RCTP 040630Z 31007KT 280V340 9999 FEW008 SCT010 BKN180 20/17 Q1013 NOSIG RMK A2992
RCTP,2017-02-04 07:00,66.20,62.60,88.18,320.00,5.00,0.00,29.88,M,6.21,M,FEW,SCT,BKN,M,800.00,1000.00,18000.00,M,M,M,M,M,M,M,M,66.20,RCTP 040700Z 32005KT 290V350 9999 FEW008 SCT010 BKN180 19/17 Q1012 NOSIG RMK A2991
RCTP,2017-02-04 07:30,66.20,62.60,88.18,320.00,5.00,0.00,29.88,M,6.21,M,FEW,SCT,BKN,M,800.00,1000.00,18000.00,M,M,M,M,M,M,M,M,66.20,RCTP 040730Z 32005KT 280V350 9999 FEW008 SCT010 BKN180 19/17 Q1012 NOSIG RMK A2991
RCTP,2017-02-04 08:00,66.20,62.60,88.18,340.00,4.00,0.00,29.88,M,6.21,M,FEW,SCT,BKN,M,800.00,1000.00,18000.00,M,M,M,M,M,M,M,M,66.20,RCTP 040800Z 34004KT 300V020 9999 FEW008 SCT010 BKN180 19/17 Q1012 NOSIG RMK A2991
RCTP,2017-02-04 08:30,66.20,60.80,82.74,330.00,4.00,0.00,29.88,M,6.21,M,FEW,SCT,BKN,M,800.00,1000.00,18000.00,M,M,M,M,M,M,M,M,66.20,RCTP 040830Z 33004KT 290V010 9999 FEW008 SCT010 BKN180 19/16 Q1012 NOSIG RMK A2991
RCTP,2017-02-04 09:00,64.40,60.80,88.09,340.00,5.00,0.00,29.88,M,6.21,M,FEW,BKN,BKN,M,600.00,800.00,10000.00,M,M,M,M,M,M,M,M,64.40,RCTP 040900Z 34005KT 9999 FEW006 BKN008 BKN100 18/16 Q1012 NOSIG RMK A2991
RCTP,2017-02-04 09:30,64.40,60.80,88.09,350.00,4.00,0.00,29.91,M,6.21,M,FEW,BKN,BKN,M,600.00,800.00,8000.00,M,M,M,M,M,M,M,M,64.40,RCTP 040930Z 35004KT 9999 FEW006 BKN008 BKN080 18/16 Q1013 NOSIG RMK A2992
RCTP,2017-02-04 10:00,64.40,60.80,88.09,340.00,4.00,0.00,29.91,M,6.21,M,FEW,BKN,BKN,M,600.00,800.00,3000.00,M,M,M,M,M,M,M,M,64.40,RCTP 041000Z 34004KT 320V020 9999 FEW006 BKN008 BKN030 18/16 Q1013 NOSIG RMK A2993
RCTP,2017-02-04 10:30,64.40,60.80,88.09,330.00,3.00,0.00,29.91,M,6.21,M,FEW,BKN,BKN,M,600.00,800.00,1600.00,M,M,M,M,M,M,M,M,64.40,RCTP 041030Z 33003KT 310V010 9999 FEW006 BKN008 BKN016 18/16 Q1013 NOSIG RMK A2994
RCTP,2017-02-04 11:00,64.40,60.80,88.09,320.00,3.00,0.00,29.94,M,6.21,M,FEW,BKN,BKN,M,800.00,1000.00,1500.00,M,M,M,M,M,M,M,M,64.40,RCTP 041100Z 32003KT 9999 FEW008 BKN010 BKN015 18/16 Q1014 NOSIG RMK A2996
RCTP,2017-02-04 11:30,64.40,60.80,88.09,M,2.00,0.00,29.94,M,6.21,M,FEW,BKN,BKN,M,800.00,1000.00,1500.00,M,M,M,M,M,M,M,M,64.40,RCTP 041130Z VRB02KT 9999 FEW008 BKN010 BKN015 18/16 Q1014 NOSIG RMK A2996
RCTP,2017-02-04 12:00,64.40,60.80,88.09,360.00,3.00,0.00,29.94,M,5.59,M,FEW,BKN,BKN,M,800.00,1000.00,1500.00,M,M,M,M,M,M,M,M,64.40,RCTP 041200Z 36003KT 9000 FEW008 BKN010 BKN015 18/16 Q1014 NOSIG RMK A2996
RCTP,2017-02-04 12:30,62.60,60.80,93.83,M,1.00,0.00,29.94,M,5.59,M,FEW,BKN,BKN,M,800.00,1000.00,1500.00,M,M,M,M,M,M,M,M,62.60,RCTP 041230Z VRB01KT 9000 FEW008 BKN010 BKN015 17/16 Q1014 NOSIG RMK A2996
RCTP,2017-02-04 13:00,62.60,60.80,93.83,350.00,1.00,0.00,29.94,M,4.35,M,FEW,BKN,BKN,M,800.00,1000.00,1500.00,M,M,M,M,M,M,M,M,62.60,RCTP 041300Z 35001KT 7000 FEW008 BKN010 BKN015 17/16 Q1014 NOSIG RMK A2996
RCTP,2017-02-04 13:30,62.60,60.80,93.83,M,1.00,0.00,29.94,M,4.35,M,FEW,BKN,BKN,M,800.00,1000.00,2000.00,M,M,M,M,M,M,M,M,62.60,RCTP 041330Z VRB01KT 7000 FEW008 BKN010 BKN020 17/16 Q1014 NOSIG RMK A2996
RCTP,2017-02-04 14:00,62.60,60.80,93.83,20.00,2.00,0.00,29.94,M,3.73,M,FEW,SCT,BKN,M,800.00,1000.00,10000.00,M,M,M,M,M,M,M,M,62.60,RCTP 041400Z 02002KT 6000 FEW008 SCT010 BKN100 17/16 Q1014 NOSIG RMK A2995
RCTP,2017-02-04 14:30,62.60,60.80,93.83,340.00,3.00,0.00,29.94,M,3.73,M,FEW,BKN,M,M,1000.00,10000.00,M,M,M,M,M,M,M,M,M,62.60,RCTP 041430Z 34003KT 6000 FEW010 BKN100 17/16 Q1014 NOSIG RMK A2995
RCTP,2017-02-04 15:00,62.60,60.80,93.83,M,2.00,0.00,29.91,M,4.35,M,FEW,BKN,M,M,1000.00,10000.00,M,M,M,M,M,M,M,M,M,62.60,RCTP 041500Z VRB02KT 7000 FEW010 BKN100 17/16 Q1013 NOSIG RMK A2994
RCTP,2017-02-04 15:30,60.80,59.00,93.79,30.00,1.00,0.00,29.91,M,3.73,M,FEW,BKN,M,M,1000.00,10000.00,M,M,M,M,M,M,M,M,M,60.80,RCTP 041530Z 03001KT 6000 FEW010 BKN100 16/15 Q1013 NOSIG RMK A2994
RCTP,2017-02-04 16:00,60.80,59.00,93.79,290.00,1.00,0.00,29.91,M,3.73,M,FEW,BKN,M,M,1000.00,10000.00,M,M,M,M,M,M,M,M,M,60.80,RCTP 041600Z 29001KT 6000 FEW010 BKN100 16/15 Q1013 NOSIG RMK A2994
RCTP,2017-02-04 16:24,60.80,59.00,93.79,300.00,3.00,0.00,29.91,M,3.11,M,FEW,BKN,M,M,1000.00,10000.00,M,M,BR,M,M,M,M,M,M,60.80,RCTP 041624Z 30003KT 5000 BR FEW010 BKN100 16/15 Q1013 NOSIG RMK A2994
RCTP,2017-02-04 16:30,60.80,59.00,93.79,310.00,3.00,0.00,29.91,M,3.11,M,FEW,BKN,M,M,1000.00,10000.00,M,M,BR,M,M,M,M,M,M,60.80,RCTP 041630Z 31003KT 5000 BR FEW010 BKN100 16/15 Q1013 NOSIG RMK A2994
RCTP,2017-02-04 17:00,60.80,59.00,93.79,300.00,2.00,0.00,29.94,M,3.11,M,FEW,BKN,BKN,M,700.00,1000.00,10000.00,M,BR,M,M,M,M,M,M,60.80,RCTP 041700Z 30002KT 5000 BR FEW007 BKN010 BKN100 16/15 Q1014 NOSIG RMK A2995
RCTP,2017-02-04 17:20,62.60,60.80,93.83,280.00,3.00,0.00,29.91,M,3.11,M,FEW,BKN,BKN,M,600.00,800.00,10000.00,M,BR,M,M,M,M,M,M,62.60,RCTP 041720Z 28003KT 5000 BR FEW006 BKN008 BKN100 17/16 Q1013 NOSIG RMK A2994
RCTP,2017-02-04 17:30,62.60,60.80,93.83,M,2.00,0.00,29.91,M,3.11,M,FEW,BKN,BKN,M,600.00,800.00,10000.00,M,BR,M,M,M,M,M,M,62.60,RCTP 041730Z VRB02KT 5000 BR FEW006 BKN008 BKN100 17/16 Q1013 NOSIG RMK A2994
RCTP,2017-02-04 17:38,62.60,62.60,100.00,310.00,3.00,0.00,29.91,M,2.61,M,SCT,BKN,BKN,M,600.00,800.00,1600.00,M,BR,M,M,M,M,M,M,62.60,RCTP 041738Z 31003KT 4200 BR SCT006 BKN008 BKN016 17/17 Q1013 NOSIG RMK A2994
RCTP,2017-02-04 18:00,62.60,60.80,93.83,300.00,4.00,0.00,29.91,M,2.17,M,SCT,BKN,BKN,M,600.00,800.00,1600.00,M,BR,M,M,M,M,M,M,62.60,RCTP 041800Z 30004KT 260V320 3500 BR SCT006 BKN008 BKN016 17/16 Q1013 NOSIG RMK A2994
RCTP,2017-02-04 18:30,62.60,60.80,93.83,300.00,3.00,0.00,29.91,M,2.17,M,SCT,BKN,BKN,M,600.00,800.00,1600.00,M,BR,M,M,M,M,M,M,62.60,RCTP 041830Z 30003KT 3500 BR SCT006 BKN008 BKN016 17/16 Q1013 NOSIG RMK A2993
RCTP,2017-02-04 19:00,62.60,60.80,93.83,290.00,2.00,0.00,29.91,M,2.80,M,SCT,BKN,BKN,M,600.00,800.00,1600.00,M,BR,M,M,M,M,M,M,62.60,RCTP 041900Z 29002KT 4500 BR SCT006 BKN008 BKN016 17/16 Q1013 NOSIG RMK A2992
RCTP,2017-02-04 19:30,62.60,60.80,93.83,310.00,3.00,0.00,29.88,M,3.11,M,FEW,BKN,BKN,M,600.00,800.00,1600.00,M,BR,M,M,M,M,M,M,62.60,RCTP 041930Z 31003KT 5000 BR FEW006 BKN008 BKN016 17/16 Q1012 NOSIG RMK A2991
RCTP,2017-02-04 20:00,62.60,60.80,93.83,330.00,3.00,0.00,29.88,M,3.11,M,FEW,BKN,BKN,M,600.00,800.00,1600.00,M,BR,M,M,M,M,M,M,62.60,RCTP 042000Z 33003KT 310V020 5000 BR FEW006 BKN008 BKN016 17/16 Q1012 NOSIG RMK A2991
RCTP,2017-02-04 20:30,62.60,60.80,93.83,340.00,3.00,0.00,29.91,M,3.73,M,FEW,BKN,BKN,M,600.00,800.00,1600.00,M,M,M,M,M,M,M,M,62.60,RCTP 042030Z 34003KT 300V010 6000 FEW006 BKN008 BKN016 17/16 Q1013 NOSIG RMK A2992
RCTP,2017-02-04 21:00,62.60,60.80,93.83,330.00,3.00,0.00,29.91,M,3.73,M,FEW,BKN,BKN,M,600.00,800.00,1600.00,M,M,M,M,M,M,M,M,62.60,RCTP 042100Z 33003KT 6000 FEW006 BKN008 BKN016 17/16 Q1013 NOSIG RMK A2994
RCTP,2017-02-04 21:30,62.60,60.80,93.83,340.00,4.00,0.00,29.91,M,4.97,M,FEW,BKN,BKN,M,600.00,800.00,1600.00,M,M,M,M,M,M,M,M,62.60,RCTP 042130Z 34004KT 8000 FEW006 BKN008 BKN016 17/16 Q1013 NOSIG RMK A2994
RCTP,2017-02-04 22:00,62.60,60.80,93.83,360.00,4.00,0.00,29.94,M,4.97,M,FEW,BKN,BKN,M,600.00,800.00,1600.00,M,M,M,M,M,M,M,M,62.60,RCTP 042200Z 36004KT 320V040 8000 FEW006 BKN008 BKN016 17/16 Q1014 NOSIG RMK A2996
RCTP,2017-02-04 22:30,62.60,60.80,93.83,350.00,4.00,0.00,29.94,M,6.21,M,FEW,BKN,BKN,M,600.00,800.00,1600.00,M,M,M,M,M,M,M,M,62.60,RCTP 042230Z 35004KT 9999 FEW006 BKN008 BKN016 17/16 Q1014 NOSIG RMK A2996
RCTP,2017-02-04 23:00,62.60,60.80,93.83,10.00,4.00,0.00,29.94,M,6.21,M,FEW,BKN,BKN,M,600.00,800.00,1600.00,M,M,M,M,M,M,M,M,62.60,RCTP 042300Z 01004KT 340V070 9999 FEW006 BKN008 BKN016 17/16 Q1014 NOSIG RMK A2996
RCTP,2017-02-04 23:30,64.40,60.80,88.09,360.00,3.00,0.00,29.94,M,6.21,M,FEW,BKN,BKN,M,600.00,800.00,2000.00,M,M,M,M,M,M,M,M,64.40,RCTP 042330Z 36003KT 330V050 9999 FEW006 BKN008 BKN020 18/16 Q1014 NOSIG RMK A2997
RCTP,2017-02-04 23:37,64.40,60.80,88.09,350.00,3.00,0.00,29.97,M,6.21,M,SCT,BKN,BKN,M,800.00,1200.00,2000.00,M,M,M,M,M,M,M,M,64.40,RCTP 042337Z 35003KT 9999 SCT008 BKN012 BKN020 18/16 Q1015 NOSIG RMK A2998
RCTP,2017-02-05 00:00,64.40,60.80,88.09,350.00,4.00,0.00,29.97,M,6.21,M,FEW,BKN,BKN,M,600.00,900.00,1600.00,M,M,M,M,M,M,M,M,64.40,RCTP 050000Z 35004KT 320V020 9999 FEW006 BKN009 BKN016 18/16 Q1015 NOSIG RMK A2999
RCTP,2017-02-05 00:30,64.40,60.80,88.09,340.00,8.00,0.00,29.97,M,6.21,M,FEW,SCT,BKN,M,600.00,900.00,2000.00,M,M,M,M,M,M,M,M,64.40,RCTP 050030Z 34008KT 9999 FEW006 SCT009 BKN020 18/16 Q1015 NOSIG RMK A3000
RCTP,2017-02-05 01:00,66.20,60.80,82.74,10.00,6.00,0.00,30.00,M,6.21,M,FEW,BKN,BKN,M,900.00,2000.00,5000.00,M,M,M,M,M,M,M,M,66.20,RCTP 050100Z 01006KT 9999 FEW009 BKN020 BKN050 19/16 Q1016 NOSIG RMK A3001
RCTP,2017-02-05 01:30,66.20,60.80,82.74,40.00,4.00,0.00,29.97,M,6.21,M,SCT,BKN,BKN,M,1000.00,2000.00,8000.00,M,M,M,M,M,M,M,M,66.20,RCTP 050130Z 04004KT 360V070 9999 SCT010 BKN020 BKN080 19/16 Q1015 NOSIG RMK A3000
RCTP,2017-02-05 02:00,66.20,60.80,82.74,130.00,6.00,0.00,29.97,M,6.21,M,FEW,BKN,BKN,M,1200.00,8000.00,15000.00,M,M,M,M,M,M,M,M,66.20,RCTP 050200Z 13006KT 090V170 9999 FEW012 BKN080 BKN150 19/16 Q1015 NOSIG RMK A2999
RCTP,2017-02-05 02:30,69.80,60.80,73.09,110.00,5.00,0.00,29.97,M,6.21,M,FEW,SCT,BKN,M,1500.00,8000.00,15000.00,M,M,M,M,M,M,M,M,69.80,RCTP 050230Z 11005KT 040V140 9999 FEW015 SCT080 BKN150 21/16 Q1015 NOSIG RMK A2998
RCTP,2017-02-05 03:00,69.80,60.80,73.09,20.00,6.00,0.00,29.97,M,6.21,M,FEW,SCT,BKN,M,1500.00,8000.00,18000.00,M,M,M,M,M,M,M,M,69.80,RCTP 050300Z 02006KT 340V090 9999 FEW015 SCT080 BKN180 21/16 Q1015 NOSIG RMK A2998
RCTP,2017-02-05 03:30,68.00,60.80,77.75,20.00,9.00,0.00,29.94,M,6.21,M,FEW,SCT,BKN,M,1500.00,8000.00,18000.00,M,M,M,M,M,M,M,M,68.00,RCTP 050330Z 02009KT 9999 FEW015 SCT080 BKN180 20/16 Q1014 NOSIG RMK A2996
RCTP,2017-02-05 04:00,68.00,60.80,77.75,20.00,10.00,0.00,29.94,M,6.21,M,FEW,SCT,BKN,M,2000.00,8000.00,18000.00,M,M,M,M,M,M,M,M,68.00,RCTP 050400Z 02010KT 9999 FEW020 SCT080 BKN180 20/16 Q1014 NOSIG RMK A2996
RCTP,2017-02-05 04:30,68.00,60.80,77.75,20.00,10.00,0.00,29.94,M,6.21,M,SCT,BKN,M,M,2200.00,15000.00,M,M,M,M,M,M,M,M,M,68.00,RCTP 050430Z 02010KT 9999 SCT022 BKN150 20/16 Q1014 NOSIG RMK A2995
RCTP,2017-02-05 05:00,68.00,62.60,82.86,20.00,10.00,0.00,29.91,M,6.21,M,FEW,SCT,BKN,M,1500.00,3000.00,15000.00,M,M,M,M,M,M,M,M,68.00,RCTP 050500Z 02010KT 9999 FEW015 SCT030 BKN150 20/17 Q1013 NOSIG RMK A2994
RCTP,2017-02-05 05:22,68.00,62.60,82.86,30.00,11.00,0.00,29.91,M,6.21,M,FEW,BKN,BKN,M,900.00,1300.00,15000.00,M,M,M,M,M,M,M,M,68.00,RCTP 050522Z 03011KT 9999 FEW009 BKN013 BKN150 20/17 Q1013 NOSIG RMK A2994
RCTP,2017-02-05 05:30,68.00,62.60,82.86,30.00,11.00,0.00,29.91,M,6.21,M,FEW,BKN,BKN,M,800.00,1200.00,15000.00,M,M,M,M,M,M,M,M,68.00,RCTP 050530Z 03011KT 9999 FEW008 BKN012 BKN150 20/17 Q1013 NOSIG RMK A2994
RCTP,2017-02-05 05:42,66.20,62.60,88.18,30.00,11.00,0.00,29.91,M,6.21,M,SCT,BKN,BKN,M,600.00,800.00,1800.00,M,M,M,M,M,M,M,M,66.20,RCTP 050542Z 03011KT 9999 SCT006 BKN008 BKN018 19/17 Q1013 NOSIG RMK A2993
RCTP,2017-02-05 06:00,66.20,62.60,88.18,40.00,11.00,0.00,29.91,M,4.97,M,SCT,BKN,BKN,M,500.00,700.00,1200.00,M,M,M,M,M,M,M,M,66.20,RCTP 050600Z 04011KT 8000 SCT005 BKN007 BKN012 19/17 Q1013 NOSIG RMK A2993
RCTP,2017-02-05 06:16,66.20,62.60,88.18,30.00,13.00,0.00,29.91,M,3.11,M,SCT,BKN,BKN,M,300.00,500.00,1200.00,M,BR,M,M,M,M,M,M,66.20,RCTP 050616Z 03013KT 5000 BR SCT003 BKN005 BKN012 19/17 Q1013 NOSIG RMK A2992
RCTP,2017-02-05 06:30,66.20,62.60,88.18,40.00,14.00,0.00,29.88,M,3.11,M,SCT,BKN,BKN,M,300.00,500.00,1000.00,M,BR,M,M,M,M,M,M,66.20,RCTP 050630Z 04014KT 5000 BR SCT003 BKN005 BKN010 19/17 Q1012 NOSIG RMK A2991
RCTP,2017-02-05 07:00,66.20,62.60,88.18,40.00,12.00,0.00,29.91,M,3.73,M,SCT,BKN,BKN,M,300.00,500.00,1000.00,M,M,M,M,M,M,M,M,66.20,RCTP 050700Z 04012KT 6000 SCT003 BKN005 BKN010 19/17 Q1013 NOSIG RMK A2993
RCTP,2017-02-05 07:30,64.40,62.60,93.88,40.00,19.00,0.00,29.91,M,3.73,M,SCT,BKN,BKN,M,300.00,500.00,1000.00,M,M,M,M,M,M,M,M,64.40,RCTP 050730Z 04019KT 6000 SCT003 BKN005 BKN010 18/17 Q1013 NOSIG RMK A2993
RCTP,2017-02-05 08:00,64.40,62.60,93.88,40.00,20.00,0.00,29.91,M,4.35,M,SCT,BKN,BKN,M,400.00,600.00,1200.00,M,M,M,M,M,M,M,M,64.40,RCTP 050800Z 04020KT 7000 SCT004 BKN006 BKN012 18/17 Q1013 NOSIG RMK A2992
RCTP,2017-02-05 08:30,64.40,60.80,88.09,40.00,20.00,0.00,29.91,M,3.73,30.00,SCT,BKN,BKN,M,400.00,600.00,1200.00,M,M,M,M,M,M,M,M,64.40,RCTP 050830Z 04020G30KT 6000 SCT004 BKN006 BKN012 18/16 Q1013 NOSIG RMK A2993
RCTP,2017-02-05 08:50,64.40,60.80,88.09,40.00,22.00,0.00,29.91,M,3.11,M,SCT,BKN,BKN,M,400.00,600.00,1200.00,M,-DZ,M,M,M,M,M,M,64.40,RCTP 050850Z 04022KT 5000 -DZ SCT004 BKN006 BKN012 18/16 Q1013 NOSIG RMK A2994
RCTP,2017-02-05 09:00,64.40,60.80,88.09,40.00,21.00,0.00,29.94,M,2.80,M,SCT,BKN,BKN,M,500.00,700.00,1500.00,M,-DZ,M,M,M,M,M,M,64.40,RCTP 050900Z 04021KT 4500 -DZ SCT005 BKN007 BKN015 18/16 Q1014 NOSIG RMK A2995
RCTP,2017-02-05 09:50,62.60,59.00,88.00,40.00,23.00,0.00,29.94,M,2.80,M,SCT,BKN,BKN,M,600.00,800.00,1500.00,M,M,M,M,M,M,M,M,62.60,RCTP 050950Z 04023KT 4500 SCT006 BKN008 BKN015 17/15 Q1014 WS ALL RWY NOSIG RMK A2995
RCTP,2017-02-05 10:00,62.60,59.00,88.00,40.00,24.00,0.00,29.94,M,3.11,M,SCT,BKN,BKN,M,600.00,800.00,1500.00,M,BR,M,M,M,M,M,M,62.60,RCTP 051000Z 04024KT 5000 BR SCT006 BKN008 BKN015 17/15 Q1014 WS ALL RWY NOSIG RMK A2995
RCTP,2017-02-05 10:30,62.60,59.00,88.00,40.00,23.00,0.00,29.94,M,3.11,M,SCT,BKN,BKN,M,600.00,1000.00,1500.00,M,BR,M,M,M,M,M,M,62.60,RCTP 051030Z 04023KT 5000 BR SCT006 BKN010 BKN015 17/15 Q1014 NOSIG RMK A2996
RCTP,2017-02-05 11:00,64.40,59.00,82.62,40.00,25.00,0.00,29.97,M,3.11,M,SCT,BKN,BKN,M,800.00,1200.00,2000.00,M,BR,M,M,M,M,M,M,64.40,RCTP 051100Z 04025KT 5000 BR SCT008 BKN012 BKN020 18/15 Q1015 NOSIG RMK A2998
RCTP,2017-02-05 11:30,64.40,59.00,82.62,50.00,23.00,0.00,29.97,M,3.11,M,SCT,BKN,BKN,M,800.00,1200.00,2000.00,M,BR,M,M,M,M,M,M,64.40,RCTP 051130Z 05023KT 5000 BR SCT008 BKN012 BKN020 18/15 Q1015 NOSIG RMK A2999
RCTP,2017-02-05 12:00,64.40,59.00,82.62,50.00,23.00,0.00,29.97,M,3.73,M,SCT,BKN,BKN,M,800.00,1300.00,2500.00,M,M,M,M,M,M,M,M,64.40,RCTP 051200Z 05023KT 6000 SCT008 BKN013 BKN025 18/15 Q1015 NOSIG RMK A2999
RCTP,2017-02-05 12:30,64.40,59.00,82.62,50.00,22.00,0.00,29.97,M,3.73,M,FEW,BKN,BKN,M,800.00,1400.00,2500.00,M,M,M,M,M,M,M,M,64.40,RCTP 051230Z 05022KT 6000 FEW008 BKN014 BKN025 18/15 Q1015 NOSIG RMK A3000
RCTP,2017-02-05 13:00,64.40,59.00,82.62,50.00,21.00,0.00,29.97,M,4.35,M,FEW,BKN,BKN,M,800.00,1400.00,2500.00,M,M,M,M,M,M,M,M,64.40,RCTP 051300Z 05021KT 7000 FEW008 BKN014 BKN025 18/15 Q1015 NOSIG RMK A3000
RCTP,2017-02-05 13:30,64.40,59.00,82.62,50.00,23.00,0.00,30.00,M,4.35,M,FEW,BKN,BKN,M,800.00,1500.00,2500.00,M,M,M,M,M,M,M,M,64.40,RCTP 051330Z 05023KT 7000 FEW008 BKN015 BKN025 18/15 Q1016 NOSIG RMK A3001
RCTP,2017-02-05 13:41,64.40,57.20,77.45,50.00,24.00,0.00,30.00,M,4.35,M,FEW,BKN,BKN,M,800.00,1500.00,2500.00,M,M,M,M,M,M,M,M,64.40,RCTP 051341Z 05024KT 7000 FEW008 BKN015 BKN025 18/14 Q1016 WS ALL RWY NOSIG RMK A3001
RCTP,2017-02-05 14:00,64.40,57.20,77.45,50.00,23.00,0.00,30.00,M,4.97,M,FEW,BKN,BKN,M,800.00,1500.00,2500.00,M,M,M,M,M,M,M,M,64.40,RCTP 051400Z 05023KT 8000 FEW008 BKN015 BKN025 18/14 Q1016 WS ALL RWY NOSIG RMK A3001
RCTP,2017-02-05 14:30,62.60,57.20,82.50,40.00,21.00,0.00,30.00,M,4.97,M,FEW,BKN,BKN,M,800.00,1500.00,2500.00,M,M,M,M,M,M,M,M,62.60,RCTP 051430Z 04021KT 8000 FEW008 BKN015 BKN025 17/14 Q1016 NOSIG RMK A3002
RCTP,2017-02-05 15:00,62.60,57.20,82.50,50.00,21.00,0.00,30.00,M,4.97,32.00,FEW,BKN,BKN,M,800.00,1500.00,2500.00,M,M,M,M,M,M,M,M,62.60,RCTP 051500Z 05021G32KT 8000 FEW008 BKN015 BKN025 17/14 Q1016 NOSIG RMK A3001
RCTP,2017-02-05 15:30,62.60,57.20,82.50,40.00,22.00,0.00,30.00,M,4.97,M,FEW,BKN,BKN,M,800.00,1500.00,2500.00,M,M,M,M,M,M,M,M,62.60,RCTP 051530Z 04022KT 8000 FEW008 BKN015 BKN025 17/14 Q1016 NOSIG RMK A3001
RCTP,2017-02-05 16:00,62.60,57.20,82.50,50.00,23.00,0.00,29.97,M,4.97,M,FEW,BKN,BKN,M,800.00,1800.00,2500.00,M,M,M,M,M,M,M,M,62.60,RCTP 051600Z 05023KT 8000 FEW008 BKN018 BKN025 17/14 Q1015 NOSIG RMK A3000
RCTP,2017-02-05 16:30,62.60,57.20,82.50,50.00,24.00,0.00,29.97,M,4.97,M,FEW,BKN,BKN,M,800.00,2200.00,3200.00,M,M,M,M,M,M,M,M,62.60,RCTP 051630Z 05024KT 8000 FEW008 BKN022 BKN032 17/14 Q1015 NOSIG RMK A3000
RCTP,2017-02-05 17:00,62.60,57.20,82.50,50.00,20.00,0.00,29.97,M,4.97,M,FEW,BKN,M,M,1000.00,2200.00,M,M,M,M,M,M,M,M,M,62.60,RCTP 051700Z 05020KT 8000 FEW010 BKN022 17/14 Q1015 NOSIG RMK A2999
RCTP,2017-02-05 17:30,62.60,57.20,82.50,60.00,20.00,0.00,29.97,M,4.97,M,FEW,BKN,M,M,1000.00,2200.00,M,M,M,M,M,M,M,M,M,62.60,RCTP 051730Z 06020KT 8000 FEW010 BKN022 17/14 Q1015 NOSIG RMK A2999
RCTP,2017-02-05 18:00,62.60,57.20,82.50,50.00,19.00,0.00,29.94,M,4.35,M,FEW,BKN,BKN,M,1200.00,2200.00,4000.00,M,M,M,M,M,M,M,M,62.60,RCTP 051800Z 05019KT 7000 FEW012 BKN022 BKN040 17/14 Q1014 NOSIG RMK A2997
RCTP,2017-02-05 18:30,62.60,57.20,82.50,50.00,19.00,0.00,29.94,M,4.97,M,FEW,BKN,BKN,M,1200.00,2200.00,4000.00,M,M,M,M,M,M,M,M,62.60,RCTP 051830Z 05019KT 8000 FEW012 BKN022 BKN040 17/14 Q1014 NOSIG RMK A2997
RCTP,2017-02-05 19:00,62.60,57.20,82.50,50.00,15.00,0.00,29.94,M,4.97,M,FEW,BKN,BKN,M,1200.00,2500.00,4000.00,M,M,M,M,M,M,M,M,62.60,RCTP 051900Z 05015KT 8000 FEW012 BKN025 BKN040 17/14 Q1014 NOSIG RMK A2997
RCTP,2017-02-05 19:30,62.60,57.20,82.50,50.00,20.00,0.00,29.94,M,4.97,M,FEW,SCT,BKN,M,1200.00,2500.00,4000.00,M,M,M,M,M,M,M,M,62.60,RCTP 051930Z 05020KT 8000 FEW012 SCT025 BKN040 17/14 Q1014 NOSIG RMK A2996
RCTP,2017-02-05 20:00,62.60,55.40,77.29,50.00,25.00,0.00,29.94,M,6.21,M,FEW,SCT,M,M,1200.00,4000.00,M,M,M,M,M,M,M,M,M,62.60,RCTP 052000Z 05025KT 9999 FEW012 SCT040 17/13 Q1014 NOSIG RMK A2996
RCTP,2017-02-05 20:30,62.60,55.40,77.29,40.00,22.00,0.00,29.94,M,6.21,M,FEW,BKN,M,M,1200.00,4000.00,M,M,M,M,M,M,M,M,M,62.60,RCTP 052030Z 04022KT 9999 FEW012 BKN040 17/13 Q1014 NOSIG RMK A2996
RCTP,2017-02-05 21:00,62.60,55.40,77.29,50.00,22.00,0.00,29.94,M,6.21,M,FEW,BKN,M,M,1200.00,4000.00,M,M,M,M,M,M,M,M,M,62.60,RCTP 052100Z 05022KT 9999 FEW012 BKN040 17/13 Q1014 NOSIG RMK A2997
RCTP,2017-02-05 21:30,62.60,55.40,77.29,50.00,20.00,0.00,29.97,M,6.21,M,FEW,BKN,M,M,1200.00,4000.00,M,M,M,M,M,M,M,M,M,62.60,RCTP 052130Z 05020KT 9999 FEW012 BKN040 17/13 Q1015 NOSIG RMK A2999
RCTP,2017-02-05 22:00,62.60,55.40,77.29,50.00,23.00,0.00,29.97,M,6.21,M,FEW,SCT,M,M,1200.00,4000.00,M,M,M,M,M,M,M,M,M,62.60,RCTP 052200Z 05023KT 9999 FEW012 SCT040 17/13 Q1015 NOSIG RMK A2999
RCTP,2017-02-05 22:30,62.60,53.60,72.38,50.00,22.00,0.00,30.00,M,6.21,M,FEW,SCT,M,M,1200.00,4000.00,M,M,M,M,M,M,M,M,M,62.60,RCTP 052230Z 05022KT 9999 FEW012 SCT040 17/12 Q1016 NOSIG RMK A3001
RCTP,2017-02-05 23:00,62.60,53.60,72.38,50.00,24.00,0.00,30.00,M,6.21,M,FEW,SCT,M,M,1200.00,4000.00,M,M,M,M,M,M,M,M,M,62.60,RCTP 052300Z 05024KT 9999 FEW012 SCT040 17/12 Q1016 NOSIG RMK A3002
RCTP,2017-02-05 23:30,64.40,53.60,67.95,50.00,25.00,0.00,30.03,M,6.21,M,FEW,BKN,M,M,1200.00,4000.00,M,M,M,M,M,M,M,M,M,64.40,RCTP 052330Z 05025KT 9999 FEW012 BKN040 18/12 Q1017 NOSIG RMK A3004
RCTP,2017-02-06 00:00,64.40,53.60,67.95,50.00,26.00,0.00,30.06,M,6.21,M,FEW,BKN,M,M,1200.00,4000.00,M,M,M,M,M,M,M,M,M,64.40,RCTP 060000Z 05026KT 9999 FEW012 BKN040 18/12 Q1018 NOSIG RMK A3006
RCTP,2017-02-06 00:30,64.40,53.60,67.95,50.00,27.00,0.00,30.06,M,3.73,M,FEW,BKN,M,M,1500.00,4500.00,M,M,M,M,M,M,M,M,M,64.40,RCTP 060030Z 05027KT 6000 FEW015 BKN045 18/12 Q1018 NOSIG RMK A3007
RCTP,2017-02-06 01:00,64.40,53.60,67.95,50.00,25.00,0.00,30.06,M,3.73,M,FEW,BKN,M,M,1500.00,4700.00,M,M,M,M,M,M,M,M,M,64.40,RCTP 060100Z 05025KT 6000 FEW015 BKN047 18/12 Q1018 NOSIG RMK A3007
RCTP,2017-02-06 01:30,66.20,53.60,63.82,50.00,24.00,0.00,30.06,M,3.73,M,FEW,BKN,M,M,1500.00,5000.00,M,M,M,M,M,M,M,M,M,66.20,RCTP 060130Z 05024KT 6000 FEW015 BKN050 19/12 Q1018 NOSIG RMK A3008
RCTP,2017-02-06 02:00,66.20,53.60,63.82,50.00,26.00,0.00,30.09,M,4.35,M,FEW,BKN,M,M,1500.00,5000.00,M,M,M,M,M,M,M,M,M,66.20,RCTP 060200Z 05026KT 7000 FEW015 BKN050 19/12 Q1019 NOSIG RMK A3009
RCTP,2017-02-06 02:37,66.20,53.60,63.82,50.00,25.00,0.00,30.09,M,4.35,M,FEW,SCT,M,M,1500.00,5000.00,M,M,M,M,M,M,M,M,M,66.20,RCTP 060237Z 05025KT 7000 FEW015 SCT050 19/12 Q1019 WS ALL RWY NOSIG RMK A3009
RCTP,2017-02-06 03:00,66.20,53.60,63.82,50.00,25.00,0.00,30.06,M,4.97,M,FEW,SCT,M,M,1500.00,5000.00,M,M,M,M,M,M,M,M,M,66.20,RCTP 060300Z 05025KT 8000 FEW015 SCT050 19/12 Q1018 WS ALL RWY NOSIG RMK A3008
RCTP,2017-02-06 03:47,68.00,53.60,59.97,50.00,22.00,0.00,30.06,M,4.97,32.00,FEW,SCT,M,M,1500.00,4000.00,M,M,M,M,M,M,M,M,M,68.00,RCTP 060347Z 05022G32KT 8000 FEW015 SCT040 20/12 Q1018 WS ALL RWY NOSIG RMK A3006
RCTP,2017-02-06 04:00,68.00,53.60,59.97,60.00,22.00,0.00,30.06,M,4.97,M,FEW,SCT,M,M,1500.00,4000.00,M,M,M,M,M,M,M,M,M,68.00,RCTP 060400Z 06022KT 8000 FEW015 SCT040 20/12 Q1018 WS ALL RWY NOSIG RMK A3006
RCTP,2017-02-06 04:30,68.00,53.60,59.97,60.00,22.00,0.00,30.03,M,5.59,M,FEW,SCT,M,M,2000.00,4000.00,M,M,M,M,M,M,M,M,M,68.00,RCTP 060430Z 06022KT 9000 FEW020 SCT040 20/12 Q1017 WS ALL RWY NOSIG RMK A3004
RCTP,2017-02-06 05:00,68.00,53.60,59.97,40.00,24.00,0.00,30.00,M,6.21,M,FEW,SCT,M,M,2000.00,4000.00,M,M,M,M,M,M,M,M,M,68.00,RCTP 060500Z 04024KT 9999 FEW020 SCT040 20/12 Q1016 WS ALL RWY NOSIG RMK A3003
RCTP,2017-02-06 05:30,68.00,53.60,59.97,40.00,27.00,0.00,30.00,M,6.21,M,FEW,SCT,M,M,2000.00,4000.00,M,M,M,M,M,M,M,M,M,68.00,RCTP 060530Z 04027KT 9999 FEW020 SCT040 20/12 Q1016 WS ALL RWY NOSIG RMK A3002
RCTP,2017-02-06 06:00,66.20,53.60,63.82,40.00,28.00,0.00,30.00,M,6.21,M,FEW,SCT,M,M,2000.00,4000.00,M,M,M,M,M,M,M,M,M,66.20,RCTP 060600Z 04028KT 9999 FEW020 SCT040 19/12 Q1016 NOSIG RMK A3002
RCTP,2017-02-06 07:00,66.20,53.60,63.82,40.00,27.00,0.00,30.00,M,6.21,38.00,BKN,M,M,M,3600.00,M,M,M,M,M,M,M,M,M,M,66.20,RCTP 060700Z 04027G38KT 9999 BKN036 19/12 Q1016 NOSIG RMK A3002
RCTP,2017-02-06 07:30,66.20,51.80,59.74,40.00,27.00,0.00,30.00,M,5.59,M,BKN,M,M,M,3700.00,M,M,M,M,M,M,M,M,M,M,66.20,RCTP 060730Z 04027KT 9000 BKN037 19/11 Q1016 NOSIG RMK A3002
RCTP,2017-02-06 08:30,64.40,53.60,67.95,40.00,25.00,0.00,30.03,M,6.21,M,BKN,M,M,M,4000.00,M,M,M,M,M,M,M,M,M,M,64.40,RCTP 060830Z 04025KT 9999 BKN040 18/12 Q1017 NOSIG RMK A3004
RCTP,2017-02-06 08:48,64.40,51.80,63.60,50.00,26.00,0.00,30.00,M,6.21,M,BKN,M,M,M,4000.00,M,M,M,M,M,M,M,M,M,M,64.40,RCTP 060848Z 05026KT 9999 BKN040 18/11 Q1016 WS ALL RWY NOSIG RMK A3003
RCTP,2017-02-06 09:00,62.60,51.80,67.75,50.00,25.00,0.00,30.03,M,6.21,35.00,BKN,M,M,M,4000.00,M,M,M,M,M,M,M,M,M,M,62.60,RCTP 060900Z 05025G35KT 9999 BKN040 17/11 Q1017 WS ALL RWY NOSIG RMK A3004
RCTP,2017-02-06 09:30,62.60,51.80,67.75,50.00,25.00,0.00,30.03,M,6.21,35.00,SCT,M,M,M,4200.00,M,M,M,M,M,M,M,M,M,M,62.60,RCTP 060930Z 05025G35KT 9999 SCT042 17/11 Q1017 WS ALL RWY NOSIG RMK A3005
RCTP,2017-02-06 10:00,62.60,51.80,67.75,50.00,24.00,0.00,30.06,M,6.21,M,FEW,M,M,M,4200.00,M,M,M,M,M,M,M,M,M,M,62.60,RCTP 061000Z 05024KT 9999 FEW042 17/11 Q1018 WS ALL RWY NOSIG RMK A3006
RCTP,2017-02-06 10:20,62.60,51.80,67.75,50.00,23.00,0.00,30.06,M,6.21,M,FEW,M,M,M,4200.00,M,M,M,M,M,M,M,M,M,M,62.60,RCTP 061020Z 05023KT 9999 FEW042 17/11 Q1018 NOSIG RMK A3006
RCTP,2017-02-06 10:30,62.60,51.80,67.75,50.00,23.00,0.00,30.06,M,6.21,M,FEW,M,M,M,3500.00,M,M,M,M,M,M,M,M,M,M,62.60,RCTP 061030Z 05023KT 9999 FEW035 17/11 Q1018 NOSIG RMK A3006
RCTP,2017-02-06 11:00,60.80,50.00,67.54,50.00,24.00,0.00,30.06,M,6.21,M,FEW,M,M,M,3500.00,M,M,M,M,M,M,M,M,M,M,60.80,RCTP 061100Z 05024KT 9999 FEW035 16/10 Q1018 NOSIG RMK A3007
RCTP,2017-02-06 11:30,60.80,50.00,67.54,50.00,24.00,0.00,30.06,M,6.21,M,FEW,M,M,M,2500.00,M,M,M,M,M,M,M,M,M,M,60.80,RCTP 061130Z 05024KT 9999 FEW025 16/10 Q1018 NOSIG RMK A3007
RCTP,2017-02-06 12:00,62.60,50.00,63.38,50.00,22.00,0.00,30.06,M,6.21,M,FEW,M,M,M,2500.00,M,M,M,M,M,M,M,M,M,M,62.60,RCTP 061200Z 05022KT 9999 FEW025 17/10 Q1018 NOSIG RMK A3007
RCTP,2017-02-06 12:30,62.60,48.20,59.26,60.00,24.00,0.00,30.06,M,6.21,M,FEW,SCT,M,M,2500.00,4300.00,M,M,M,M,M,M,M,M,M,62.60,RCTP 061230Z 06024KT 9999 FEW025 SCT043 17/09 Q1018 NOSIG RMK A3007
RCTP,2017-02-06 12:41,62.60,48.20,59.26,60.00,24.00,0.00,30.06,M,6.21,M,FEW,SCT,M,M,2500.00,4300.00,M,M,M,M,M,M,M,M,M,62.60,RCTP 061241Z 06024KT 9999 FEW025 SCT043 17/09 Q1018 WS ALL RWY NOSIG RMK A3007
RCTP,2017-02-06 13:00,62.60,48.20,59.26,60.00,23.00,0.00,30.06,M,6.21,M,FEW,M,M,M,2500.00,M,M,M,M,M,M,M,M,M,M,62.60,RCTP 061300Z 06023KT 9999 FEW025 17/09 Q1018 WS ALL RWY NOSIG RMK A3007
RCTP,2017-02-06 13:30,62.60,48.20,59.26,50.00,22.00,0.00,30.06,M,6.21,35.00,FEW,M,M,M,2500.00,M,M,M,M,M,M,M,M,M,M,62.60,RCTP 061330Z 05022G35KT 9999 FEW025 17/09 Q1018 WS ALL RWY NOSIG RMK A3007
RCTP,2017-02-06 14:00,62.60,48.20,59.26,60.00,22.00,0.00,30.06,M,6.21,M,FEW,M,M,M,2500.00,M,M,M,M,M,M,M,M,M,M,62.60,RCTP 061400Z 06022KT 9999 FEW025 17/09 Q1018 WS ALL RWY NOSIG RMK A3007
RCTP,2017-02-06 14:34,62.60,48.20,59.26,60.00,25.00,0.00,30.06,M,6.21,M,FEW,M,M,M,2500.00,M,M,M,M,M,M,M,M,M,M,62.60,RCTP 061434Z 06025KT 9999 FEW025 17/09 Q1018 WS ALL RWY NOSIG RMK A3007
RCTP,2017-02-06 15:00,62.60,48.20,59.26,60.00,22.00,0.00,30.06,M,6.21,M,FEW,SCT,M,M,2500.00,4000.00,M,M,M,M,M,M,M,M,M,62.60,RCTP 061500Z 06022KT 9999 FEW025 SCT040 17/09 Q1018 WS ALL RWY NOSIG RMK A3007
RCTP,2017-02-06 15:30,62.60,50.00,63.38,60.00,21.00,0.00,30.06,M,6.21,M,FEW,BKN,M,M,2500.00,4000.00,M,M,M,M,M,M,M,M,M,62.60,RCTP 061530Z 06021KT 9999 FEW025 BKN040 17/10 Q1018 WS ALL RWY NOSIG RMK A3008
RCTP,2017-02-06 16:00,62.60,50.00,63.38,60.00,22.00,0.00,30.06,M,4.35,M,FEW,BKN,M,M,2500.00,4000.00,M,M,M,M,M,M,M,M,M,62.60,RCTP 061600Z 06022KT 7000 FEW025 BKN040 17/10 Q1018 NOSIG RMK A3008
RCTP,2017-02-06 16:30,62.60,48.20,59.26,60.00,22.00,0.00,30.06,M,4.97,M,FEW,BKN,M,M,2500.00,4000.00,M,M,M,M,M,M,M,M,M,62.60,RCTP 061630Z 06022KT 8000 FEW025 BKN040 17/09 Q1018 NOSIG RMK A3008
RCTP,2017-02-06 17:00,62.60,48.20,59.26,50.00,20.00,0.00,30.06,M,4.97,M,FEW,BKN,M,M,2500.00,4500.00,M,M,M,M,M,M,M,M,M,62.60,RCTP 061700Z 05020KT 8000 FEW025 BKN045 17/09 Q1018 NOSIG RMK A3008
RCTP,2017-02-06 17:48,62.60,50.00,63.38,50.00,20.00,0.00,30.06,M,5.59,M,BKN,M,M,M,4000.00,M,M,M,M,M,M,M,M,M,M,62.60,RCTP 061748Z 05020KT 9000 BKN040 17/10 Q1018 NOSIG RMK A3008
RCTP,2017-02-06 18:00,62.60,50.00,63.38,50.00,22.00,0.00,30.06,M,5.59,M,BKN,M,M,M,4200.00,M,M,M,M,M,M,M,M,M,M,62.60,RCTP 061800Z 05022KT 9000 BKN042 17/10 Q1018 NOSIG RMK A3008
RCTP,2017-02-06 18:30,60.80,50.00,67.54,50.00,20.00,0.00,30.06,M,4.97,M,BKN,M,M,M,4200.00,M,M,M,M,M,M,M,M,M,M,60.80,RCTP 061830Z 05020KT 8000 BKN042 16/10 Q1018 NOSIG RMK A3007
RCTP,2017-02-06 19:00,60.80,50.00,67.54,50.00,18.00,0.00,30.06,M,4.97,M,SCT,M,M,M,4000.00,M,M,M,M,M,M,M,M,M,M,60.80,RCTP 061900Z 05018KT 8000 SCT040 16/10 Q1018 NOSIG RMK A3006
RCTP,2017-02-06 19:30,60.80,50.00,67.54,50.00,19.00,0.00,30.06,M,6.21,M,SCT,M,M,M,4000.00,M,M,M,M,M,M,M,M,M,M,60.80,RCTP 061930Z 05019KT 9999 SCT040 16/10 Q1018 NOSIG RMK A3006
RCTP,2017-02-06 20:00,60.80,51.80,72.20,40.00,21.00,0.00,30.03,M,6.21,M,FEW,M,M,M,4000.00,M,M,M,M,M,M,M,M,M,M,60.80,RCTP 062000Z 04021KT 9999 FEW040 16/11 Q1017 NOSIG RMK A3005
RCTP,2017-02-06 20:30,60.80,50.00,67.54,50.00,19.00,0.00,30.06,M,6.21,M,FEW,M,M,M,4000.00,M,M,M,M,M,M,M,M,M,M,60.80,RCTP 062030Z 05019KT 9999 FEW040 16/10 Q1018 NOSIG RMK A3006
RCTP,2017-02-06 21:00,60.80,50.00,67.54,50.00,19.00,0.00,30.03,M,6.21,29.00,FEW,M,M,M,4000.00,M,M,M,M,M,M,M,M,M,M,60.80,RCTP 062100Z 05019G29KT 9999 FEW040 16/10 Q1017 NOSIG RMK A3005
RCTP,2017-02-06 21:30,60.80,50.00,67.54,50.00,20.00,0.00,30.06,M,6.21,M,M,M,M,M,M,M,M,M,M,M,M,M,M,M,M,60.80,RCTP 062130Z 05020KT CAVOK 16/10 Q1018 NOSIG RMK A3006
RCTP,2017-02-06 22:00,60.80,50.00,67.54,60.00,20.00,0.00,30.06,M,6.21,M,M,M,M,M,M,M,M,M,M,M,M,M,M,M,M,60.80,RCTP 062200Z 06020KT CAVOK 16/10 Q1018 NOSIG RMK A3007
RCTP,2017-02-06 22:30,60.80,50.00,67.54,60.00,19.00,0.00,30.06,M,6.21,M,FEW,M,M,M,4500.00,M,M,M,M,M,M,M,M,M,M,60.80,RCTP 062230Z 06019KT 9999 FEW045 16/10 Q1018 NOSIG RMK A3007
RCTP,2017-02-06 23:00,60.80,50.00,67.54,50.00,17.00,0.00,30.06,M,6.21,M,FEW,M,M,M,4200.00,M,M,M,M,M,M,M,M,M,M,60.80,RCTP 062300Z 05017KT 9999 FEW042 16/10 Q1018 NOSIG RMK A3007
RCTP,2017-02-06 23:30,62.60,50.00,63.38,50.00,19.00,0.00,30.06,M,6.21,M,M,M,M,M,M,M,M,M,M,M,M,M,M,M,M,62.60,RCTP 062330Z 05019KT CAVOK 17/10 Q1018 NOSIG RMK A3007
RCTP,2017-02-07 00:00,64.40,50.00,59.50,50.00,19.00,0.00,30.06,M,6.21,M,M,M,M,M,M,M,M,M,M,M,M,M,M,M,M,64.40,RCTP 070000Z 05019KT CAVOK 18/10 Q1018 NOSIG RMK A3008
RCTP,2017-02-07 00:30,66.20,50.00,55.88,60.00,20.00,0.00,30.09,M,6.21,M,FEW,M,M,M,2500.00,M,M,M,M,M,M,M,M,M,M,66.20,RCTP 070030Z 06020KT 9999 FEW025 19/10 Q1019 NOSIG RMK A3009
RCTP,2017-02-07 01:00,66.20,50.00,55.88,60.00,21.00,0.00,30.09,M,6.21,M,FEW,M,M,M,2500.00,M,M,M,M,M,M,M,M,M,M,66.20,RCTP 070100Z 06021KT 9999 FEW025 19/10 Q1019 NOSIG RMK A3010
RCTP,2017-02-07 04:05,68.00,53.60,59.97,40.00,21.00,0.00,30.06,M,6.21,31.00,FEW,M,M,M,2500.00,M,M,M,M,M,M,M,M,M,M,68.00,RCTP 070405Z 04021G31KT 9999 FEW025 20/12 Q1018 WS ALL RWY NOSIG RMK A3006
RCTP,2017-02-07 04:30,68.00,53.60,59.97,40.00,24.00,0.00,30.03,M,6.21,M,FEW,BKN,M,M,2500.00,5000.00,M,M,M,M,M,M,M,M,M,68.00,RCTP 070430Z 04024KT 9999 FEW025 BKN050 20/12 Q1017 WS ALL RWY NOSIG RMK A3005
RCTP,2017-02-07 05:00,68.00,53.60,59.97,40.00,24.00,0.00,30.00,M,6.21,M,FEW,BKN,M,M,2500.00,5000.00,M,M,M,M,M,M,M,M,M,68.00,RCTP 070500Z 04024KT 9999 FEW025 BKN050 20/12 Q1016 WS ALL RWY NOSIG RMK A3003
RCTP,2017-02-07 05:30,69.80,53.60,56.38,40.00,24.00,0.00,30.00,M,6.21,M,FEW,BKN,M,M,2500.00,5000.00,M,M,M,M,M,M,M,M,M,69.80,RCTP 070530Z 04024KT 9999 FEW025 BKN050 21/12 Q1016 WS ALL RWY NOSIG RMK A3002
RCTP,2017-02-07 06:00,68.00,53.60,59.97,40.00,23.00,0.00,30.00,M,6.21,M,FEW,BKN,M,M,2500.00,5000.00,M,M,M,M,M,M,M,M,M,68.00,RCTP 070600Z 04023KT 9999 FEW025 BKN050 20/12 Q1016 WS ALL RWY NOSIG RMK A3001
RCTP,2017-02-07 06:30,68.00,53.60,59.97,40.00,23.00,0.00,30.00,M,6.21,M,FEW,SCT,M,M,2500.00,4000.00,M,M,M,M,M,M,M,M,M,68.00,RCTP 070630Z 04023KT 9999 FEW025 SCT040 20/12 Q1016 WS ALL RWY NOSIG RMK A3001
RCTP,2017-02-07 07:00,68.00,55.40,64.04,40.00,22.00,0.00,29.97,M,6.21,M,FEW,SCT,M,M,2500.00,4000.00,M,M,M,M,M,M,M,M,M,68.00,RCTP 070700Z 04022KT 9999 FEW025 SCT040 20/13 Q1015 WS ALL RWY NOSIG RMK A3000
RCTP,2017-02-07 07:30,66.20,53.60,63.82,40.00,24.00,0.00,29.97,M,6.21,M,FEW,SCT,M,M,2500.00,4000.00,M,M,M,M,M,M,M,M,M,66.20,RCTP 070730Z 04024KT 9999 FEW025 SCT040 19/12 Q1015 NOSIG RMK A3000
RCTP,2017-02-07 08:00,66.20,53.60,63.82,40.00,23.00,0.00,29.97,M,6.21,33.00,FEW,M,M,M,2500.00,M,M,M,M,M,M,M,M,M,M,66.20,RCTP 070800Z 04023G33KT 9999 FEW025 19/12 Q1015 NOSIG RMK A3000
RCTP,2017-02-07 08:30,66.20,53.60,63.82,50.00,21.00,0.00,29.97,M,6.21,M,FEW,M,M,M,2500.00,M,M,M,M,M,M,M,M,M,M,66.20,RCTP 070830Z 05021KT 9999 FEW025 19/12 Q1015 NOSIG RMK A3000
RCTP,2017-02-07 09:00,64.40,53.60,67.95,50.00,19.00,0.00,30.00,M,6.21,M,FEW,M,M,M,2500.00,M,M,M,M,M,M,M,M,M,M,64.40,RCTP 070900Z 05019KT 9999 FEW025 18/12 Q1016 NOSIG RMK A3001
RCTP,2017-02-07 09:30,64.40,51.80,63.60,70.00,17.00,0.00,29.97,M,6.21,29.00,FEW,M,M,M,2500.00,M,M,M,M,M,M,M,M,M,M,64.40,RCTP 070930Z 07017G29KT 9999 FEW025 18/11 Q1015 NOSIG RMK A3000
RCTP,2017-02-07 10:00,64.40,51.80,63.60,70.00,16.00,0.00,29.97,M,6.21,M,FEW,M,M,M,2500.00,M,M,M,M,M,M,M,M,M,M,64.40,RCTP 071000Z 07016KT 9999 FEW025 18/11 Q1015 NOSIG RMK A3000
RCTP,2017-02-07 10:30,64.40,53.60,67.95,60.00,14.00,0.00,29.97,M,6.21,M,FEW,M,M,M,2500.00,M,M,M,M,M,M,M,M,M,M,64.40,RCTP 071030Z 06014KT 9999 FEW025 18/12 Q1015 NOSIG RMK A3000
RCTP,2017-02-07 11:00,64.40,53.60,67.95,70.00,14.00,0.00,29.97,M,6.21,M,FEW,M,M,M,2500.00,M,M,M,M,M,M,M,M,M,M,64.40,RCTP 071100Z 07014KT 9999 FEW025 18/12 Q1015 NOSIG RMK A3000
RCTP,2017-02-07 11:30,62.60,53.60,72.38,70.00,14.00,0.00,29.97,M,6.21,M,FEW,M,M,M,2500.00,M,M,M,M,M,M,M,M,M,M,62.60,RCTP 071130Z 07014KT 9999 FEW025 17/12 Q1015 NOSIG RMK A3000
RCTP,2017-02-07 12:00,64.40,53.60,67.95,70.00,16.00,0.00,29.97,M,6.21,M,FEW,M,M,M,2500.00,M,M,M,M,M,M,M,M,M,M,64.40,RCTP 071200Z 07016KT 9999 FEW025 18/12 Q1015 NOSIG RMK A2999
RCTP,2017-02-07 12:30,64.40,53.60,67.95,70.00,15.00,0.00,29.97,M,6.21,M,FEW,M,M,M,2500.00,M,M,M,M,M,M,M,M,M,M,64.40,RCTP 071230Z 07015KT 9999 FEW025 18/12 Q1015 NOSIG RMK A2999
RCTP,2017-02-07 13:00,62.60,53.60,72.38,50.00,14.00,0.00,29.97,M,6.21,M,FEW,M,M,M,2500.00,M,M,M,M,M,M,M,M,M,M,62.60,RCTP 071300Z 05014KT 9999 FEW025 17/12 Q1015 NOSIG RMK A2999
RCTP,2017-02-07 13:30,62.60,55.40,77.29,50.00,16.00,0.00,29.97,M,6.21,M,FEW,M,M,M,2500.00,M,M,M,M,M,M,M,M,M,M,62.60,RCTP 071330Z 05016KT 9999 FEW025 17/13 Q1015 NOSIG RMK A2999
RCTP,2017-02-07 14:00,64.40,55.40,72.56,50.00,16.00,0.00,29.97,M,6.21,M,FEW,M,M,M,2500.00,M,M,M,M,M,M,M,M,M,M,64.40,RCTP 071400Z 05016KT 9999 FEW025 18/13 Q1015 NOSIG RMK A3000
RCTP,2017-02-07 14:30,64.40,55.40,72.56,50.00,14.00,0.00,29.97,M,6.21,M,FEW,M,M,M,2500.00,M,M,M,M,M,M,M,M,M,M,64.40,RCTP 071430Z 05014KT 9999 FEW025 18/13 Q1015 NOSIG RMK A2999
RCTP,2017-02-07 15:00,62.60,55.40,77.29,40.00,13.00,0.00,29.97,M,6.21,M,FEW,M,M,M,2500.00,M,M,M,M,M,M,M,M,M,M,62.60,RCTP 071500Z 04013KT 9999 FEW025 17/13 Q1015 NOSIG RMK A2999
RCTP,2017-02-07 15:30,62.60,57.20,82.50,40.00,15.00,0.00,29.97,M,6.21,M,FEW,SCT,M,M,2500.00,12000.00,M,M,M,M,M,M,M,M,M,62.60,RCTP 071530Z 04015KT 9999 FEW025 SCT120 17/14 Q1015 NOSIG RMK A2999
RCTP,2017-02-07 16:00,64.40,57.20,77.45,50.00,16.00,0.00,29.97,M,6.21,M,FEW,BKN,M,M,2500.00,12000.00,M,M,M,M,M,M,M,M,M,64.40,RCTP 071600Z 05016KT 9999 FEW025 BKN120 18/14 Q1015 NOSIG RMK A2999
RCTP,2017-02-07 16:30,64.40,57.20,77.45,50.00,15.00,0.00,29.97,M,6.21,M,FEW,BKN,M,M,2500.00,12000.00,M,M,M,M,M,M,M,M,M,64.40,RCTP 071630Z 05015KT 9999 FEW025 BKN120 18/14 Q1015 NOSIG RMK A2998
RCTP,2017-02-07 17:00,64.40,57.20,77.45,50.00,11.00,0.00,29.97,M,6.21,M,FEW,BKN,M,M,2500.00,12000.00,M,M,M,M,M,M,M,M,M,64.40,RCTP 071700Z 05011KT 9999 FEW025 BKN120 18/14 Q1015 NOSIG RMK A2998
RCTP,2017-02-07 17:30,64.40,57.20,77.45,60.00,10.00,0.00,29.94,M,6.21,M,FEW,BKN,M,M,2500.00,12000.00,M,M,M,M,M,M,M,M,M,64.40,RCTP 071730Z 06010KT 9999 FEW025 BKN120 18/14 Q1014 NOSIG RMK A2996
RCTP,2017-02-07 18:00,64.40,57.20,77.45,50.00,5.00,0.00,29.94,M,6.21,M,FEW,BKN,M,M,2500.00,12000.00,M,M,M,M,M,M,M,M,M,64.40,RCTP 071800Z 05005KT 030V100 9999 FEW025 BKN120 18/14 Q1014 NOSIG RMK A2996
RCTP,2017-02-07 18:30,64.40,57.20,77.45,50.00,6.00,0.00,29.94,M,6.21,M,FEW,M,M,M,2500.00,M,M,M,M,M,M,M,M,M,M,64.40,RCTP 071830Z 05006KT 030V100 9999 FEW025 18/14 Q1014 NOSIG RMK A2996
RCTP,2017-02-07 19:00,62.60,59.00,88.00,50.00,6.00,0.00,29.94,M,6.21,M,FEW,M,M,M,2500.00,M,M,M,M,M,M,M,M,M,M,62.60,RCTP 071900Z 05006KT 9999 FEW025 17/15 Q1014 NOSIG RMK A2995
RCTP,2017-02-07 19:30,60.80,57.20,87.92,40.00,4.00,0.00,29.94,M,6.21,M,FEW,M,M,M,2500.00,M,M,M,M,M,M,M,M,M,M,60.80,RCTP 071930Z 04004KT 9999 FEW025 16/14 Q1014 NOSIG RMK A2995
RCTP,2017-02-07 20:00,60.80,57.20,87.92,40.00,5.00,0.00,29.94,M,6.21,M,FEW,M,M,M,2500.00,M,M,M,M,M,M,M,M,M,M,60.80,RCTP 072000Z 04005KT 9999 FEW025 16/14 Q1014 NOSIG RMK A2995
RCTP,2017-02-07 20:30,60.80,59.00,93.79,10.00,6.00,0.00,29.94,M,6.21,M,FEW,BKN,M,M,2000.00,3500.00,M,M,M,M,M,M,M,M,M,60.80,RCTP 072030Z 01006KT 9999 FEW020 BKN035 16/15 Q1014 NOSIG RMK A2996
RCTP,2017-02-07 21:00,62.60,60.80,93.83,10.00,10.00,0.00,29.94,M,6.21,M,FEW,BKN,M,M,2000.00,3500.00,M,M,M,M,M,M,M,M,M,62.60,RCTP 072100Z 01010KT 9999 FEW020 BKN035 17/16 Q1014 NOSIG RMK A2996
RCTP,2017-02-07 21:30,62.60,60.80,93.83,10.00,13.00,0.00,29.94,M,6.21,M,FEW,SCT,BKN,M,2000.00,3500.00,8000.00,M,M,M,M,M,M,M,M,62.60,RCTP 072130Z 01013KT 9999 FEW020 SCT035 BKN080 17/16 Q1014 NOSIG RMK A2996
RCTP,2017-02-07 22:00,62.60,59.00,88.00,20.00,12.00,0.00,29.94,M,6.21,M,FEW,BKN,BKN,M,2000.00,4500.00,8000.00,M,M,M,M,M,M,M,M,62.60,RCTP 072200Z 02012KT 9999 FEW020 BKN045 BKN080 17/15 Q1014 NOSIG RMK A2997
RCTP,2017-02-07 23:00,62.60,59.00,88.00,20.00,10.00,0.00,29.97,M,6.21,M,FEW,BKN,BKN,M,1500.00,4000.00,10000.00,M,M,M,M,M,M,M,M,62.60,RCTP 072300Z 02010KT 9999 FEW015 BKN040 BKN100 17/15 Q1015 NOSIG RMK A2999
RCTP,2017-02-07 23:30,62.60,59.00,88.00,10.00,11.00,0.00,29.97,M,6.21,M,FEW,BKN,BKN,M,1200.00,1800.00,4000.00,M,M,M,M,M,M,M,M,62.60,RCTP 072330Z 01011KT 9999 FEW012 BKN018 BKN040 17/15 Q1015 NOSIG RMK A3000
RCTP,2017-02-08 00:00,62.60,57.20,82.50,10.00,13.00,0.00,30.00,M,6.21,M,FEW,BKN,BKN,M,1200.00,1800.00,4000.00,M,M,M,M,M,M,M,M,62.60,RCTP 080000Z 01013KT 330V030 9999 FEW012 BKN018 BKN040 17/14 Q1016 NOSIG RMK A3001
RCTP,2017-02-08 00:30,62.60,59.00,88.00,20.00,12.00,0.00,30.00,M,6.21,M,FEW,BKN,BKN,M,1200.00,2200.00,4000.00,M,M,M,M,M,M,M,M,62.60,RCTP 080030Z 02012KT 9999 FEW012 BKN022 BKN040 17/15 Q1016 NOSIG RMK A3001
RCTP,2017-02-08 01:00,62.60,59.00,88.00,40.00,9.00,0.00,29.97,M,6.21,M,FEW,SCT,BKN,M,1200.00,2200.00,4000.00,M,M,M,M,M,M,M,M,62.60,RCTP 080100Z 04009KT 9999 FEW012 SCT022 BKN040 17/15 Q1015 NOSIG RMK A2999
RCTP,2017-02-08 01:30,62.60,59.00,88.00,10.00,10.00,0.00,30.00,M,6.21,M,SCT,SCT,BKN,M,1200.00,2200.00,4000.00,M,M,M,M,M,M,M,M,62.60,RCTP 080130Z 01010KT 9999 SCT012 SCT022 BKN040 17/15 Q1016 NOSIG RMK A3001
RCTP,2017-02-08 02:00,64.40,59.00,82.62,360.00,9.00,0.00,30.00,M,6.21,M,FEW,BKN,M,M,1200.00,4000.00,M,M,M,M,M,M,M,M,M,64.40,RCTP 080200Z 36009KT 330V030 9999 FEW012 BKN040 18/15 Q1016 NOSIG RMK A3002
RCTP,2017-02-08 02:30,64.40,59.00,82.62,360.00,9.00,0.00,30.00,M,6.21,M,FEW,SCT,BKN,M,1200.00,2000.00,4000.00,M,M,M,M,M,M,M,M,64.40,RCTP 080230Z 36009KT 340V040 9999 FEW012 SCT020 BKN040 18/15 Q1016 NOSIG RMK A3002
RCTP,2017-02-08 03:00,64.40,59.00,82.62,30.00,13.00,0.00,29.97,M,6.21,M,FEW,BKN,M,M,1100.00,4700.00,M,M,M,M,M,M,M,M,M,64.40,RCTP 080300Z 03013KT 9999 FEW011 BKN047 18/15 Q1015 NOSIG RMK A2999
RCTP,2017-02-08 03:30,66.20,60.80,82.74,40.00,11.00,0.00,29.97,M,6.21,M,FEW,BKN,M,M,2000.00,5000.00,M,M,M,M,M,M,M,M,M,66.20,RCTP 080330Z 04011KT 9999 FEW020 BKN050 19/16 Q1015 NOSIG RMK A3000
RCTP,2017-02-08 04:00,66.20,60.80,82.74,360.00,9.00,0.00,30.00,M,6.21,M,SCT,BKN,M,M,1300.00,5000.00,M,M,M,M,M,M,M,M,M,66.20,RCTP 080400Z 36009KT 9999 SCT013 BKN050 19/16 Q1016 NOSIG RMK A3001
RCTP,2017-02-08 04:30,64.40,59.00,82.62,360.00,9.00,0.00,29.97,M,6.21,M,BKN,BKN,M,M,1300.00,2100.00,M,M,M,M,M,M,M,M,M,64.40,RCTP 080430Z 36009KT 9999 BKN013 BKN021 18/15 Q1015 NOSIG RMK A3000
RCTP,2017-02-08 05:00,64.40,57.20,77.45,350.00,11.00,0.00,29.97,M,6.21,M,BKN,BKN,M,M,1300.00,2400.00,M,M,M,M,M,M,M,M,M,64.40,RCTP 080500Z 35011KT 9999 BKN013 BKN024 18/14 Q1015 NOSIG RMK A3000
RCTP,2017-02-08 05:30,62.60,57.20,82.50,330.00,9.00,0.00,29.97,M,6.21,M,BKN,BKN,M,M,1300.00,2100.00,M,M,M,M,M,M,M,M,M,62.60,RCTP 080530Z 33009KT 9999 BKN013 BKN021 17/14 Q1015 NOSIG RMK A2998
RCTP,2017-02-08 06:00,62.60,57.20,82.50,350.00,11.00,0.00,29.97,M,6.21,M,BKN,M,M,M,1600.00,M,M,M,M,M,M,M,M,M,M,62.60,RCTP 080600Z 35011KT 9999 BKN016 17/14 Q1015 NOSIG RMK A2998
RCTP,2017-02-08 06:30,62.60,57.20,82.50,350.00,10.00,0.00,29.97,M,6.21,M,SCT,BKN,M,M,1300.00,1700.00,M,M,M,M,M,M,M,M,M,62.60,RCTP 080630Z 35010KT 9999 SCT013 BKN017 17/14 Q1015 NOSIG RMK A2998
RCTP,2017-02-08 07:00,62.60,55.40,77.29,360.00,10.00,0.00,29.97,M,6.21,M,FEW,BKN,BKN,M,1200.00,1500.00,2000.00,M,M,M,M,M,M,M,M,62.60,RCTP 080700Z 36010KT 9999 FEW012 BKN015 BKN020 17/13 Q1015 NOSIG RMK A2998
RCTP,2017-02-08 07:30,62.60,57.20,82.50,10.00,9.00,0.00,29.94,M,6.21,M,FEW,BKN,BKN,M,1200.00,1500.00,2000.00,M,M,M,M,M,M,M,M,62.60,RCTP 080730Z 01009KT 9999 FEW012 BKN015 BKN020 17/14 Q1014 NOSIG RMK A2997
RCTP,2017-02-08 08:00,62.60,57.20,82.50,10.00,9.00,0.00,29.94,M,6.21,M,FEW,BKN,BKN,M,1000.00,1200.00,2000.00,M,M,M,M,M,M,M,M,62.60,RCTP 080800Z 01009KT 9999 FEW010 BKN012 BKN020 17/14 Q1014 NOSIG RMK A2997
RCTP,2017-02-08 08:20,62.60,57.20,82.50,350.00,7.00,0.00,29.97,M,6.21,M,FEW,BKN,BKN,M,1000.00,1200.00,2000.00,M,-RA,M,M,M,M,M,M,62.60,RCTP 080820Z 35007KT 310V010 9999 -RA FEW010 BKN012 BKN020 17/14 Q1015 NOSIG RMK A2998
RCTP,2017-02-08 08:30,62.60,57.20,82.50,10.00,7.00,0.00,29.97,M,6.21,M,FEW,BKN,BKN,M,1000.00,1200.00,2000.00,M,-RA,M,M,M,M,M,M,62.60,RCTP 080830Z 01007KT 330V030 9999 -RA FEW010 BKN012 BKN020 17/14 Q1015 NOSIG RMK A2998
RCTP,2017-02-08 09:00,60.80,57.20,87.92,20.00,7.00,0.00,29.97,M,6.21,M,FEW,BKN,BKN,M,1000.00,1200.00,2000.00,M,-RA,M,M,M,M,M,M,60.80,RCTP 080900Z 02007KT 9999 -RA FEW010 BKN012 BKN020 16/14 Q1015 NOSIG RMK A2998
RCTP,2017-02-08 09:10,60.80,57.20,87.92,360.00,7.00,0.00,29.97,M,6.21,M,FEW,BKN,BKN,M,1000.00,1200.00,2000.00,M,M,M,M,M,M,M,M,60.80,RCTP 080910Z 36007KT 9999 FEW010 BKN012 BKN020 16/14 Q1015 NOSIG RMK A2998
RCTP,2017-02-08 09:30,60.80,57.20,87.92,10.00,8.00,0.00,29.97,M,6.21,M,FEW,BKN,BKN,M,1000.00,1200.00,2000.00,M,M,M,M,M,M,M,M,60.80,RCTP 080930Z 01008KT 9999 FEW010 BKN012 BKN020 16/14 Q1015 NOSIG RMK A2998
RCTP,2017-02-08 10:00,60.80,57.20,87.92,10.00,8.00,0.00,29.97,M,6.21,M,FEW,BKN,BKN,M,1000.00,1200.00,2000.00,M,M,M,M,M,M,M,M,60.80,RCTP 081000Z 01008KT 9999 FEW010 BKN012 BKN020 16/14 Q1015 NOSIG RMK A2998
RCTP,2017-02-08 10:30,60.80,57.20,87.92,10.00,8.00,0.00,29.97,M,6.21,M,FEW,BKN,BKN,M,1000.00,1200.00,2000.00,M,M,M,M,M,M,M,M,60.80,RCTP 081030Z 01008KT 9999 FEW010 BKN012 BKN020 16/14 Q1015 NOSIG RMK A2999
RCTP,2017-02-08 11:00,60.80,57.20,87.92,20.00,9.00,0.00,29.97,M,4.97,M,FEW,BKN,BKN,M,800.00,1200.00,1600.00,M,-RA,M,M,M,M,M,M,60.80,RCTP 081100Z 02009KT 8000 -RA FEW008 BKN012 BKN016 16/14 Q1015 NOSIG RMK A3000
RCTP,2017-02-08 11:30,60.80,57.20,87.92,360.00,8.00,0.00,30.00,M,6.21,M,FEW,BKN,BKN,M,700.00,1000.00,1600.00,M,-RA,M,M,M,M,M,M,60.80,RCTP 081130Z 36008KT 9999 -RA FEW007 BKN010 BKN016 16/14 Q1016 NOSIG RMK A3002
RCTP,2017-02-08 12:00,60.80,57.20,87.92,10.00,10.00,0.00,30.00,M,6.21,M,FEW,BKN,BKN,M,700.00,1000.00,1600.00,M,M,M,M,M,M,M,M,60.80,RCTP 081200Z 01010KT 9999 FEW007 BKN010 BKN016 16/14 Q1016 NOSIG RMK A3001 RA AMT 0.2MM
RCTP,2017-02-08 12:30,60.80,57.20,87.92,20.00,9.00,0.00,30.00,M,6.21,M,FEW,BKN,BKN,M,700.00,1000.00,1500.00,M,M,M,M,M,M,M,M,60.80,RCTP 081230Z 02009KT 9999 FEW007 BKN010 BKN015 16/14 Q1016 NOSIG RMK A3003
RCTP,2017-02-08 13:00,60.80,57.20,87.92,20.00,11.00,0.00,30.03,M,6.21,M,FEW,BKN,BKN,M,700.00,1000.00,1500.00,M,M,M,M,M,M,M,M,60.80,RCTP 081300Z 02011KT 9999 FEW007 BKN010 BKN015 16/14 Q1017 NOSIG RMK A3004
RCTP,2017-02-08 13:30,60.80,57.20,87.92,20.00,10.00,0.00,30.03,M,6.21,M,FEW,BKN,BKN,M,700.00,1000.00,1500.00,M,M,M,M,M,M,M,M,60.80,RCTP 081330Z 02010KT 9999 FEW007 BKN010 BKN015 16/14 Q1017 NOSIG RMK A3005
RCTP,2017-02-08 14:00,59.00,57.20,93.74,20.00,13.00,0.00,30.06,M,6.21,M,SCT,BKN,BKN,M,600.00,800.00,1500.00,M,M,M,M,M,M,M,M,59.00,RCTP 081400Z 02013KT 9999 SCT006 BKN008 BKN015 15/14 Q1018 TEMPO SCT005 BKN007 BKN011 RMK A3006
RCTP,2017-02-08 14:12,59.00,57.20,93.74,10.00,14.00,0.00,30.06,M,4.35,M,SCT,BKN,BKN,M,500.00,700.00,1200.00,M,-RA,M,M,M,M,M,M,59.00,RCTP 081412Z 01014KT 7000 -RA SCT005 BKN007 BKN012 15/14 Q1018 NOSIG RMK A3006
RCTP,2017-02-08 14:30,57.20,55.40,93.69,20.00,16.00,0.00,30.06,M,4.97,M,SCT,BKN,BKN,M,500.00,700.00,1200.00,M,-RA,M,M,M,M,M,M,57.20,RCTP 081430Z 02016KT 8000 -RA SCT005 BKN007 BKN012 14/13 Q1018 NOSIG RMK A3006
RCTP,2017-02-08 14:54,57.20,55.40,93.69,10.00,15.00,0.00,30.06,M,6.21,M,SCT,BKN,BKN,M,600.00,1000.00,1500.00,M,M,M,M,M,M,M,M,57.20,RCTP 081454Z 01015KT 9999 SCT006 BKN010 BKN015 14/13 Q1018 NOSIG RMK A3007
RCTP,2017-02-08 15:00,57.20,55.40,93.69,10.00,16.00,0.00,30.06,M,6.21,M,SCT,BKN,BKN,M,600.00,1000.00,1500.00,M,M,M,M,M,M,M,M,57.20,RCTP 081500Z 01016KT 9999 SCT006 BKN010 BKN015 14/13 Q1018 NOSIG RMK A3007
RCTP,2017-02-08 15:26,57.20,55.40,93.69,10.00,17.00,0.00,30.06,M,5.59,M,SCT,BKN,BKN,M,600.00,800.00,1500.00,M,-RA,M,M,M,M,M,M,57.20,RCTP 081526Z 01017KT 9000 -RA SCT006 BKN008 BKN015 14/13 Q1018 NOSIG RMK A3007
RCTP,2017-02-08 15:30,57.20,55.40,93.69,10.00,16.00,0.00,30.06,M,4.97,M,SCT,BKN,BKN,M,500.00,800.00,1500.00,M,-RA,M,M,M,M,M,M,57.20,RCTP 081530Z 01016KT 8000 -RA SCT005 BKN008 BKN015 14/13 Q1018 NOSIG RMK A3007
RCTP,2017-02-08 16:00,55.40,53.60,93.65,20.00,17.00,0.00,30.09,M,3.73,M,SCT,BKN,BKN,M,500.00,800.00,1500.00,M,-RA,M,M,M,M,M,M,55.40,RCTP 081600Z 02017KT 6000 -RA SCT005 BKN008 BKN015 13/12 Q1019 NOSIG RMK A3009 RA AMT 0.2MM
RCTP,2017-02-08 16:25,55.40,53.60,93.65,10.00,17.00,0.00,30.09,M,2.49,27.00,SCT,BKN,BKN,M,300.00,500.00,1500.00,M,RA,M,M,M,M,M,M,55.40,RCTP 081625Z 01017G27KT 4000 RA SCT003 BKN005 BKN015 13/12 Q1019 TEMPO 3000 RA RMK A3009
RCTP,2017-02-08 16:30,55.40,53.60,93.65,10.00,18.00,0.00,30.09,M,2.61,M,SCT,BKN,BKN,M,300.00,600.00,1200.00,M,RA,M,M,M,M,M,M,55.40,RCTP 081630Z 01018KT 4200 RA SCT003 BKN006 BKN012 13/12 Q1019 TEMPO 3000 RA RMK A3009
RCTP,2017-02-08 16:40,55.40,53.60,93.65,20.00,16.00,0.00,30.09,M,3.11,M,SCT,BKN,BKN,M,500.00,700.00,1500.00,M,-RA,M,M,M,M,M,M,55.40,RCTP 081640Z 02016KT 5000 -RA SCT005 BKN007 BKN015 13/12 Q1019 RERA TEMPO 3000 RA RMK A3010
RCTP,2017-02-08 17:00,55.40,53.60,93.65,20.00,16.00,0.00,30.09,M,3.11,M,SCT,BKN,BKN,M,500.00,700.00,1500.00,M,-RA,M,M,M,M,M,M,55.40,RCTP 081700Z 02016KT 5000 -RA SCT005 BKN007 BKN015 13/12 Q1019 RERA TEMPO 3000 RA RMK A3010 RA AMT 1.8MM
RCTP,2017-02-08 17:30,55.40,53.60,93.65,20.00,17.00,0.00,30.09,M,5.59,M,SCT,BKN,BKN,M,600.00,900.00,1500.00,M,-RA,M,M,M,M,M,M,55.40,RCTP 081730Z 02017KT 9000 -RA SCT006 BKN009 BKN015 13/12 Q1019 NOSIG RMK A3009
RCTP,2017-02-08 18:00,53.60,51.80,93.60,30.00,19.00,0.00,30.09,M,5.59,M,SCT,BKN,BKN,M,600.00,1000.00,1500.00,M,-RA,M,M,M,M,M,M,53.60,RCTP 081800Z 03019KT 9000 -RA SCT006 BKN010 BKN015 12/11 Q1019 NOSIG RMK A3009 RA AMT 0.4MM
RCTP,2017-02-08 18:30,53.60,50.00,87.56,30.00,16.00,0.00,30.09,M,6.21,M,SCT,BKN,BKN,M,600.00,1000.00,1500.00,M,-RA,M,M,M,M,M,M,53.60,RCTP 081830Z 03016KT 9999 -RA SCT006 BKN010 BKN015 12/10 Q1019 NOSIG RMK A3009
RCTP,2017-02-08 19:00,53.60,50.00,87.56,30.00,18.00,0.00,30.09,M,3.73,M,SCT,BKN,BKN,M,600.00,1000.00,1500.00,M,-RA,M,M,M,M,M,M,53.60,RCTP 081900Z 03018KT 6000 -RA SCT006 BKN010 BKN015 12/10 Q1019 NOSIG RMK A3009 RA AMT 0.2MM
RCTP,2017-02-08 19:12,53.60,50.00,87.56,30.00,19.00,0.00,30.09,M,2.80,M,BKN,BKN,BKN,M,600.00,1000.00,1500.00,M,-RA,M,M,M,M,M,M,53.60,RCTP 081912Z 03019KT 4500 -RA BKN006 BKN010 BKN015 12/10 Q1019 NOSIG RMK A3009
RCTP,2017-02-08 19:38,51.80,50.00,93.55,20.00,20.00,0.00,30.09,M,1.86,M,SCT,BKN,BKN,M,300.00,600.00,1500.00,M,-RA,M,M,M,M,M,M,51.80,RCTP 081938Z 02020KT 3000 -RA SCT003 BKN006 BKN015 11/10 Q1019 NOSIG RMK A3010
RCTP,2017-02-08 20:00,51.80,50.00,93.55,30.00,19.00,0.00,30.09,M,2.49,M,SCT,BKN,BKN,M,300.00,600.00,1500.00,M,-RA,M,M,M,M,M,M,51.80,RCTP 082000Z 03019KT 4000 -RA SCT003 BKN006 BKN015 11/10 Q1019 NOSIG RMK A3011 RA AMT 0.2MM
RCTP,2017-02-08 20:30,51.80,50.00,93.55,20.00,20.00,0.00,30.09,M,2.49,M,FEW,BKN,BKN,M,300.00,600.00,2000.00,M,-RA,M,M,M,M,M,M,51.80,RCTP 082030Z 02020KT 4000 -RA FEW003 BKN006 BKN020 11/10 Q1019 NOSIG RMK A3011
RCTP,2017-02-08 21:00,50.00,48.20,93.50,30.00,18.00,0.00,30.09,M,6.21,M,FEW,BKN,BKN,M,300.00,600.00,1000.00,M,M,M,M,M,M,M,M,43.44,RCTP 082100Z 03018KT 9999 FEW003 BKN006 BKN010 10/09 Q1019 NOSIG RMK A3011 RA AMT 0.4MM
RCTP,2017-02-08 21:20,51.80,48.20,87.47,30.00,18.00,0.00,30.12,M,6.21,M,FEW,BKN,M,M,600.00,1700.00,M,M,M,M,M,M,M,M,M,51.80,RCTP 082120Z 03018KT 9999 FEW006 BKN017 11/09 Q1020 NOSIG RMK A3012
RCTP,2017-02-08 21:30,51.80,46.40,81.74,30.00,17.00,0.00,30.12,M,6.21,M,FEW,BKN,M,M,600.00,1600.00,M,M,M,M,M,M,M,M,M,51.80,RCTP 082130Z 03017KT 9999 FEW006 BKN016 11/08 Q1020 NOSIG RMK A3012
RCTP,2017-02-08 22:00,51.80,46.40,81.74,30.00,17.00,0.00,30.12,M,6.21,M,FEW,BKN,M,M,1000.00,2000.00,M,M,M,M,M,M,M,M,M,51.80,RCTP 082200Z 03017KT 9999 FEW010 BKN020 11/08 Q1020 NOSIG RMK A3012
RCTP,2017-02-08 22:30,51.80,46.40,81.74,30.00,15.00,0.00,30.12,M,6.21,M,FEW,BKN,BKN,M,1000.00,2200.00,3000.00,M,M,M,M,M,M,M,M,51.80,RCTP 082230Z 03015KT 9999 FEW010 BKN022 BKN030 11/08 Q1020 NOSIG RMK A3013
RCTP,2017-02-08 23:00,51.80,46.40,81.74,30.00,17.00,0.00,30.12,M,6.21,M,FEW,BKN,BKN,M,1500.00,2500.00,3100.00,M,M,M,M,M,M,M,M,51.80,RCTP 082300Z 03017KT 9999 FEW015 BKN025 BKN031 11/08 Q1020 NOSIG RMK A3014
RCTP,2017-02-08 23:30,51.80,46.40,81.74,30.00,16.00,0.00,30.12,M,6.21,M,FEW,BKN,BKN,M,1500.00,2200.00,3100.00,M,M,M,M,M,M,M,M,51.80,RCTP 082330Z 03016KT 9999 FEW015 BKN022 BKN031 11/08 Q1020 NOSIG RMK A3014
RCTP,2017-02-09 00:00,51.80,46.40,81.74,30.00,17.00,0.00,30.15,M,6.21,M,FEW,BKN,BKN,M,700.00,2100.00,3000.00,M,M,M,M,M,M,M,M,51.80,RCTP 090000Z 03017KT 9999 FEW007 BKN021 BKN030 11/08 Q1021 NOSIG RMK A3015
RCTP,2017-02-09 00:30,51.80,44.60,76.34,30.00,16.00,0.00,30.15,M,6.21,M,FEW,BKN,BKN,M,1200.00,2200.00,3000.00,M,M,M,M,M,M,M,M,51.80,RCTP 090030Z 03016KT 9999 FEW012 BKN022 BKN030 11/07 Q1021 NOSIG RMK A3015
RCTP,2017-02-09 01:00,51.80,44.60,76.34,30.00,15.00,0.00,30.15,M,6.21,M,FEW,BKN,BKN,M,1200.00,2500.00,3500.00,M,M,M,M,M,M,M,M,51.80,RCTP 090100Z 03015KT 9999 FEW012 BKN025 BKN035 11/07 Q1021 NOSIG RMK A3017
RCTP,2017-02-09 01:30,51.80,44.60,76.34,30.00,13.00,0.00,30.18,M,6.21,M,FEW,BKN,BKN,M,1200.00,2500.00,3500.00,M,M,M,M,M,M,M,M,51.80,RCTP 090130Z 03013KT 9999 FEW012 BKN025 BKN035 11/07 Q1022 NOSIG RMK A3018
RCTP,2017-02-09 02:00,53.60,44.60,71.45,30.00,15.00,0.00,30.18,M,6.21,M,FEW,BKN,BKN,M,1200.00,2500.00,3500.00,M,M,M,M,M,M,M,M,53.60,RCTP 090200Z 03015KT 9999 FEW012 BKN025 BKN035 12/07 Q1022 NOSIG RMK A3018
RCTP,2017-02-09 02:30,51.80,44.60,76.34,20.00,14.00,0.00,30.18,M,6.21,M,FEW,BKN,BKN,M,1200.00,2500.00,3200.00,M,M,M,M,M,M,M,M,51.80,RCTP 090230Z 02014KT 9999 FEW012 BKN025 BKN032 11/07 Q1022 NOSIG RMK A3019
RCTP,2017-02-09 03:00,51.80,42.80,71.26,20.00,16.00,0.00,30.18,M,6.21,M,FEW,BKN,BKN,M,1200.00,2500.00,3200.00,M,M,M,M,M,M,M,M,51.80,RCTP 090300Z 02016KT 9999 FEW012 BKN025 BKN032 11/06 Q1022 NOSIG RMK A3018
RCTP,2017-02-09 03:30,51.80,42.80,71.26,20.00,16.00,0.00,30.15,M,6.21,M,FEW,BKN,BKN,M,1200.00,2500.00,3200.00,M,M,M,M,M,M,M,M,51.80,RCTP 090330Z 02016KT 9999 FEW012 BKN025 BKN032 11/06 Q1021 NOSIG RMK A3017
RCTP,2017-02-09 04:00,51.80,42.80,71.26,20.00,14.00,0.00,30.15,M,6.21,M,FEW,BKN,M,M,1500.00,2800.00,M,M,M,M,M,M,M,M,M,51.80,RCTP 090400Z 02014KT 9999 FEW015 BKN028 11/06 Q1021 NOSIG RMK A3016
RCTP,2017-02-09 04:30,51.80,42.80,71.26,30.00,15.00,0.00,30.12,M,6.21,M,FEW,BKN,M,M,1500.00,2800.00,M,M,M,M,M,M,M,M,M,51.80,RCTP 090430Z 03015KT 9999 FEW015 BKN028 11/06 Q1020 NOSIG RMK A3013
RCTP,2017-02-09 05:00,51.80,42.80,71.26,20.00,14.00,0.00,30.12,M,6.21,M,FEW,BKN,M,M,1500.00,2800.00,M,M,M,M,M,M,M,M,M,51.80,RCTP 090500Z 02014KT 9999 FEW015 BKN028 11/06 Q1020 NOSIG RMK A3013
RCTP,2017-02-09 05:30,51.80,41.00,66.48,20.00,15.00,0.00,30.09,M,6.21,M,FEW,BKN,M,M,1800.00,3000.00,M,M,M,M,M,M,M,M,M,51.80,RCTP 090530Z 02015KT 9999 FEW018 BKN030 11/05 Q1019 NOSIG RMK A3011
RCTP,2017-02-09 06:00,51.80,41.00,66.48,30.00,17.00,0.00,30.09,M,6.21,M,FEW,BKN,M,M,1800.00,3000.00,M,M,M,M,M,M,M,M,M,51.80,RCTP 090600Z 03017KT 9999 FEW018 BKN030 11/05 Q1019 NOSIG RMK A3011
RCTP,2017-02-09 06:30,51.80,41.00,66.48,30.00,17.00,0.00,30.12,M,6.21,M,FEW,BKN,M,M,1800.00,3000.00,M,M,M,M,M,M,M,M,M,51.80,RCTP 090630Z 03017KT 9999 FEW018 BKN030 11/05 Q1020 NOSIG RMK A3012
RCTP,2017-02-09 07:00,51.80,41.00,66.48,30.00,17.00,0.00,30.12,M,6.21,M,FEW,BKN,M,M,1800.00,3000.00,M,M,M,M,M,M,M,M,M,51.80,RCTP 090700Z 03017KT 9999 FEW018 BKN030 11/05 Q1020 NOSIG RMK A3012
RCTP,2017-02-09 07:30,51.80,41.00,66.48,30.00,17.00,0.00,30.12,M,6.21,M,FEW,BKN,M,M,1800.00,3000.00,M,M,M,M,M,M,M,M,M,51.80,RCTP 090730Z 03017KT 9999 FEW018 BKN030 11/05 Q1020 NOSIG RMK A3013
RCTP,2017-02-09 08:00,51.80,41.00,66.48,40.00,16.00,0.00,30.12,M,6.21,M,FEW,BKN,M,M,1800.00,3000.00,M,M,M,M,M,M,M,M,M,51.80,RCTP 090800Z 04016KT 9999 FEW018 BKN030 11/05 Q1020 NOSIG RMK A3013
RCTP,2017-02-09 08:30,51.80,41.00,66.48,40.00,16.00,0.00,30.12,M,6.21,M,FEW,BKN,M,M,1800.00,3500.00,M,M,M,M,M,M,M,M,M,51.80,RCTP 090830Z 04016KT 9999 FEW018 BKN035 11/05 Q1020 NOSIG RMK A3013
RCTP,2017-02-09 09:00,51.80,41.00,66.48,30.00,15.00,0.00,30.12,M,6.21,M,FEW,BKN,M,M,1600.00,3500.00,M,M,M,M,M,M,M,M,M,51.80,RCTP 090900Z 03015KT 9999 FEW016 BKN035 11/05 Q1020 NOSIG RMK A3014
RCTP,2017-02-09 09:30,51.80,39.20,61.99,40.00,16.00,0.00,30.15,M,6.21,M,FEW,BKN,M,M,1600.00,3500.00,M,M,M,M,M,M,M,M,M,51.80,RCTP 090930Z 04016KT 9999 FEW016 BKN035 11/04 Q1021 NOSIG RMK A3015
RCTP,2017-02-09 10:00,50.00,39.20,66.27,40.00,17.00,0.00,30.15,M,6.21,M,FEW,BKN,M,M,1600.00,3500.00,M,M,M,M,M,M,M,M,M,43.66,RCTP 091000Z 04017KT 9999 FEW016 BKN035 10/04 Q1021 NOSIG RMK A3015
RCTP,2017-02-09 10:30,50.00,37.40,61.76,50.00,17.00,0.00,30.15,M,6.21,M,FEW,BKN,BKN,M,1600.00,3200.00,8000.00,M,M,M,M,M,M,M,M,43.66,RCTP 091030Z 05017KT 9999 FEW016 BKN032 BKN080 10/03 Q1021 NOSIG RMK A3016
RCTP,2017-02-09 11:00,50.00,39.20,66.27,50.00,16.00,0.00,30.15,M,6.21,M,FEW,SCT,M,M,1600.00,3200.00,M,M,M,M,M,M,M,M,M,43.88,RCTP 091100Z 05016KT 9999 FEW016 SCT032 10/04 Q1021 NOSIG RMK A3016
RCTP,2017-02-09 11:30,50.00,37.40,61.76,50.00,16.00,0.00,30.15,M,6.21,M,FEW,BKN,M,M,1600.00,3500.00,M,M,M,M,M,M,M,M,M,43.88,RCTP 091130Z 05016KT 9999 FEW016 BKN035 10/03 Q1021 NOSIG RMK A3017
RCTP,2017-02-09 12:00,50.00,37.40,61.76,60.00,12.00,0.00,30.15,M,6.21,M,FEW,BKN,M,M,1600.00,3500.00,M,M,M,M,M,M,M,M,M,44.91,RCTP 091200Z 06012KT 9999 FEW016 BKN035 10/03 Q1021 NOSIG RMK A3017
RCTP,2017-02-09 12:30,50.00,39.20,66.27,80.00,10.00,0.00,30.18,M,6.21,M,BKN,M,M,M,3200.00,M,M,M,M,M,M,M,M,M,M,45.54,RCTP 091230Z 08010KT 9999 BKN032 10/04 Q1022 NOSIG RMK A3018
RCTP,2017-02-09 13:00,48.20,39.20,70.88,80.00,10.00,0.00,30.18,M,6.21,M,SCT,BKN,M,M,3200.00,7500.00,M,M,M,M,M,M,M,M,M,43.28,RCTP 091300Z 08010KT 9999 SCT032 BKN075 09/04 Q1022 NOSIG RMK A3019
RCTP,2017-02-09 13:58,50.00,39.20,66.27,80.00,10.00,0.00,30.18,M,6.21,M,BKN,BKN,M,M,3600.00,7500.00,M,M,M,M,M,M,M,M,M,45.54,RCTP 091358Z 08010KT 9999 BKN036 BKN075 10/04 Q1022 WS ALL RWY NOSIG RMK A3020
RCTP,2017-02-09 14:00,50.00,39.20,66.27,80.00,10.00,0.00,30.18,M,6.21,M,BKN,BKN,M,M,3600.00,7500.00,M,M,M,M,M,M,M,M,M,45.54,RCTP 091400Z 08010KT 9999 BKN036 BKN075 10/04 Q1022 WS ALL RWY NOSIG RMK A3020
RCTP,2017-02-09 14:30,50.00,37.40,61.76,90.00,10.00,0.00,30.18,M,6.21,M,BKN,M,M,M,3600.00,M,M,M,M,M,M,M,M,M,M,45.54,RCTP 091430Z 09010KT 9999 BKN036 10/03 Q1022 NOSIG RMK A3020
RCTP,2017-02-09 14:38,51.80,37.40,57.77,80.00,10.00,0.00,30.18,M,6.21,M,BKN,M,M,M,3600.00,M,M,M,M,M,M,M,M,M,M,51.80,RCTP 091438Z 08010KT 9999 BKN036 11/03 Q1022 WS ALL RWY NOSIG RMK A3020
RCTP,2017-02-09 15:00,51.80,39.20,61.99,40.00,10.00,0.00,30.18,M,6.21,M,BKN,M,M,M,3300.00,M,M,M,M,M,M,M,M,M,M,51.80,RCTP 091500Z 04010KT 9999 BKN033 11/04 Q1022 NOSIG RMK A3020
RCTP,2017-02-09 15:30,50.00,37.40,61.76,40.00,16.00,0.00,30.18,M,6.21,M,BKN,M,M,M,3300.00,M,M,M,M,M,M,M,M,M,M,43.88,RCTP 091530Z 04016KT 9999 BKN033 10/03 Q1022 NOSIG RMK A3020
RCTP,2017-02-09 16:00,51.80,39.20,61.99,40.00,19.00,0.00,30.18,M,6.21,M,BKN,M,M,M,3500.00,M,M,M,M,M,M,M,M,M,M,51.80,RCTP 091600Z 04019KT 9999 BKN035 11/04 Q1022 NOSIG RMK A3019
RCTP,2017-02-09 16:30,51.80,37.40,57.77,40.00,17.00,0.00,30.18,M,6.21,M,BKN,M,M,M,3500.00,M,M,M,M,M,M,M,M,M,M,51.80,RCTP 091630Z 04017KT 9999 BKN035 11/03 Q1022 NOSIG RMK A3020
RCTP,2017-02-09 17:00,51.80,37.40,57.77,40.00,17.00,0.00,30.18,M,6.21,M,BKN,M,M,M,3500.00,M,M,M,M,M,M,M,M,M,M,51.80,RCTP 091700Z 04017KT 9999 BKN035 11/03 Q1022 NOSIG RMK A3020
RCTP,2017-02-09 17:30,51.80,37.40,57.77,70.00,10.00,0.00,30.18,M,6.21,M,BKN,M,M,M,3500.00,M,M,M,M,M,M,M,M,M,M,51.80,RCTP 091730Z 07010KT 9999 BKN035 11/03 Q1022 NOSIG RMK A3020
RCTP,2017-02-09 18:00,51.80,39.20,61.99,40.00,13.00,0.00,30.18,M,6.21,M,FEW,BKN,M,M,2000.00,3500.00,M,M,M,M,M,M,M,M,M,51.80,RCTP 091800Z 04013KT 9999 FEW020 BKN035 11/04 Q1022 NOSIG RMK A3020
RCTP,2017-02-09 19:00,51.80,37.40,57.77,40.00,16.00,0.00,30.18,M,6.21,M,FEW,BKN,M,M,2000.00,4000.00,M,M,M,M,M,M,M,M,M,51.80,RCTP 091900Z 04016KT 9999 FEW020 BKN040 11/03 Q1022 NOSIG RMK A3018
RCTP,2017-02-09 19:30,51.80,37.40,57.77,40.00,17.00,0.00,30.15,M,6.21,M,FEW,BKN,M,M,2000.00,4000.00,M,M,M,M,M,M,M,M,M,51.80,RCTP 091930Z 04017KT 9999 FEW020 BKN040 11/03 Q1021 NOSIG RMK A3017
RCTP,2017-02-09 20:00,50.00,37.40,61.76,40.00,17.00,0.00,30.15,M,6.21,M,FEW,BKN,M,M,2000.00,3500.00,M,M,M,M,M,M,M,M,M,43.66,RCTP 092000Z 04017KT 9999 FEW020 BKN035 10/03 Q1021 NOSIG RMK A3015
RCTP,2017-02-09 20:30,50.00,37.40,61.76,40.00,17.00,0.00,30.15,M,6.21,M,FEW,BKN,M,M,2000.00,3500.00,M,M,M,M,M,M,M,M,M,43.66,RCTP 092030Z 04017KT 9999 FEW020 BKN035 10/03 Q1021 NOSIG RMK A3015
RCTP,2017-02-09 21:00,51.80,37.40,57.77,40.00,17.00,0.00,30.15,M,6.21,M,FEW,BKN,M,M,2000.00,3500.00,M,M,M,M,M,M,M,M,M,51.80,RCTP 092100Z 04017KT 9999 FEW020 BKN035 11/03 Q1021 NOSIG RMK A3017
RCTP,2017-02-09 22:00,50.00,35.60,57.52,30.00,19.00,0.00,30.18,M,6.21,M,FEW,BKN,M,M,2000.00,3500.00,M,M,M,M,M,M,M,M,M,43.24,RCTP 092200Z 03019KT 9999 FEW020 BKN035 10/02 Q1022 WS ALL RWY NOSIG RMK A3020
RCTP,2017-02-09 22:30,51.80,46.40,81.74,30.00,15.00,0.00,30.12,M,6.21,M,FEW,BKN,BKN,M,1000.00,2200.00,3000.00,M,M,M,M,M,M,M,M,51.80,RCTP 092230Z 03015KT 9999 FEW010 BKN022 BKN030 11/08 Q1020 NOSIG RMK A3013
RCTP,2017-02-09 23:00,50.00,37.40,61.76,30.00,18.00,0.00,30.21,M,6.21,M,FEW,BKN,BKN,M,2000.00,3500.00,8000.00,M,M,M,M,M,M,M,M,43.44,RCTP 092300Z 03018KT 9999 FEW020 BKN035 BKN080 10/03 Q1023 NOSIG RMK A3023
RCTP,2017-02-09 23:30,50.00,35.60,57.52,30.00,19.00,0.00,30.24,M,6.21,30.00,FEW,SCT,BKN,M,2000.00,3500.00,5000.00,M,M,M,M,M,M,M,M,43.24,RCTP 092330Z 03019G30KT 9999 FEW020 SCT035 BKN050 10/02 Q1024 NOSIG RMK A3024
RCTP,2017-02-10 00:00,50.00,35.60,57.52,40.00,20.00,0.00,30.24,M,6.21,M,FEW,SCT,M,M,2000.00,4000.00,M,M,M,M,M,M,M,M,M,43.05,RCTP 100000Z 04020KT 9999 FEW020 SCT040 10/02 Q1024 NOSIG RMK A3025
RCTP,2017-02-10 00:30,51.80,35.60,53.81,40.00,19.00,0.00,30.24,M,6.21,M,FEW,SCT,M,M,2000.00,4000.00,M,M,M,M,M,M,M,M,M,51.80,RCTP 100030Z 04019KT 9999 FEW020 SCT040 11/02 Q1024 NOSIG RMK A3025
RCTP,2017-02-10 01:00,53.60,37.40,54.07,30.00,20.00,0.00,30.24,M,6.21,M,FEW,SCT,M,M,2000.00,4000.00,M,M,M,M,M,M,M,M,M,53.60,RCTP 100100Z 03020KT 9999 FEW020 SCT040 12/03 Q1024 NOSIG RMK A3025
RCTP,2017-02-10 01:22,51.80,35.60,53.81,40.00,21.00,0.00,30.24,M,6.21,M,FEW,SCT,BKN,M,2000.00,4000.00,12000.00,M,M,M,M,M,M,M,M,51.80,RCTP 100122Z 04021KT 9999 FEW020 SCT040 BKN120 11/02 Q1024 NOSIG RMK A3026
RCTP,2017-02-10 01:30,53.60,35.60,50.36,30.00,21.00,0.00,30.24,M,6.21,M,FEW,SCT,BKN,M,2000.00,4000.00,12000.00,M,M,M,M,M,M,M,M,53.60,RCTP 100130Z 03021KT 9999 FEW020 SCT040 BKN120 12/02 Q1024 NOSIG RMK A3026
RCTP,2017-02-10 02:00,53.60,37.40,54.07,40.00,19.00,0.00,30.27,M,6.21,M,FEW,SCT,BKN,M,1600.00,4000.00,12000.00,M,M,M,M,M,M,M,M,53.60,RCTP 100200Z 04019KT 9999 FEW016 SCT040 BKN120 12/03 Q1025 NOSIG RMK A3027
RCTP,2017-02-10 02:30,53.60,37.40,54.07,40.00,18.00,0.00,30.27,M,4.97,M,FEW,BKN,BKN,M,1600.00,4000.00,12000.00,M,M,M,M,M,M,M,M,53.60,RCTP 100230Z 04018KT 8000 FEW016 BKN040 BKN120 12/03 Q1025 NOSIG RMK A3027
RCTP,2017-02-10 03:00,53.60,39.20,58.02,40.00,21.00,0.00,30.24,M,5.59,M,FEW,BKN,BKN,M,1600.00,4000.00,12000.00,M,M,M,M,M,M,M,M,53.60,RCTP 100300Z 04021KT 9000 FEW016 BKN040 BKN120 12/04 Q1024 NOSIG RMK A3026
RCTP,2017-02-10 03:30,53.60,39.20,58.02,30.00,20.00,0.00,30.24,M,5.59,M,FEW,BKN,BKN,M,1600.00,3500.00,12000.00,M,M,M,M,M,M,M,M,53.60,RCTP 100330Z 03020KT 9000 FEW016 BKN035 BKN120 12/04 Q1024 NOSIG RMK A3026
RCTP,2017-02-10 04:00,51.80,39.20,61.99,30.00,18.00,0.00,30.24,M,4.97,M,FEW,BKN,BKN,M,1600.00,3500.00,12000.00,M,M,M,M,M,M,M,M,51.80,RCTP 100400Z 03018KT 8000 FEW016 BKN035 BKN120 11/04 Q1024 NOSIG RMK A3025
RCTP,2017-02-10 04:30,53.60,39.20,58.02,30.00,19.00,0.00,30.21,M,4.97,M,FEW,BKN,BKN,M,1600.00,3500.00,10000.00,M,M,M,M,M,M,M,M,53.60,RCTP 100430Z 03019KT 8000 FEW016 BKN035 BKN100 12/04 Q1023 NOSIG RMK A3023
RCTP,2017-02-10 05:00,53.60,39.20,58.02,30.00,18.00,0.00,30.21,M,4.97,M,FEW,BKN,BKN,M,1200.00,3500.00,10000.00,M,M,M,M,M,M,M,M,53.60,RCTP 100500Z 03018KT 8000 FEW012 BKN035 BKN100 12/04 Q1023 NOSIG RMK A3021
RCTP,2017-02-10 05:30,55.40,41.00,58.27,30.00,20.00,0.00,30.18,M,4.35,M,FEW,BKN,BKN,M,1200.00,3500.00,12000.00,M,M,M,M,M,M,M,M,55.40,RCTP 100530Z 03020KT 7000 FEW012 BKN035 BKN120 13/05 Q1022 NOSIG RMK A3020
RCTP,2017-02-10 06:00,53.60,41.00,62.23,30.00,19.00,0.00,30.18,M,4.35,M,FEW,SCT,BKN,M,1200.00,3500.00,7000.00,M,M,M,M,M,M,M,M,53.60,RCTP 100600Z 03019KT 7000 FEW012 SCT035 BKN070 12/05 Q1022 NOSIG RMK A3020
RCTP,2017-02-10 06:30,53.60,39.20,58.02,30.00,21.00,0.00,30.18,M,4.35,M,FEW,SCT,BKN,M,1200.00,3500.00,7000.00,M,M,M,M,M,M,M,M,53.60,RCTP 100630Z 03021KT 7000 FEW012 SCT035 BKN070 12/04 Q1022 NOSIG RMK A3019
RCTP,2017-02-10 07:00,53.60,41.00,62.23,40.00,20.00,0.00,30.18,M,4.35,M,FEW,SCT,BKN,M,1200.00,3500.00,7000.00,M,M,M,M,M,M,M,M,53.60,RCTP 100700Z 04020KT 7000 FEW012 SCT035 BKN070 12/05 Q1022 NOSIG RMK A3019
RCTP,2017-02-10 07:30,53.60,39.20,58.02,40.00,19.00,0.00,30.18,M,4.35,M,FEW,SCT,BKN,M,1200.00,3500.00,7000.00,M,M,M,M,M,M,M,M,53.60,RCTP 100730Z 04019KT 7000 FEW012 SCT035 BKN070 12/04 Q1022 NOSIG RMK A3020
RCTP,2017-02-10 08:00,53.60,39.20,58.02,40.00,18.00,0.00,30.18,M,4.97,M,FEW,SCT,BKN,M,1200.00,3500.00,7000.00,M,M,M,M,M,M,M,M,53.60,RCTP 100800Z 04018KT 8000 FEW012 SCT035 BKN070 12/04 Q1022 NOSIG RMK A3020
RCTP,2017-02-10 08:30,53.60,39.20,58.02,40.00,18.00,0.00,30.21,M,4.97,M,FEW,SCT,BKN,M,1200.00,3500.00,7000.00,M,M,M,M,M,M,M,M,53.60,RCTP 100830Z 04018KT 8000 FEW012 SCT035 BKN070 12/04 Q1023 NOSIG RMK A3021
RCTP,2017-02-10 09:00,53.60,39.20,58.02,50.00,19.00,0.00,30.21,M,4.97,M,FEW,SCT,BKN,M,1200.00,3500.00,7000.00,M,M,M,M,M,M,M,M,53.60,RCTP 100900Z 05019KT 8000 FEW012 SCT035 BKN070 12/04 Q1023 NOSIG RMK A3022
RCTP,2017-02-10 09:30,53.60,39.20,58.02,50.00,17.00,0.00,30.21,M,4.97,M,FEW,SCT,BKN,M,1200.00,3500.00,7000.00,M,M,M,M,M,M,M,M,53.60,RCTP 100930Z 05017KT 8000 FEW012 SCT035 BKN070 12/04 Q1023 NOSIG RMK A3023
RCTP,2017-02-10 10:00,51.80,39.20,61.99,50.00,17.00,0.00,30.21,M,4.97,M,FEW,SCT,BKN,M,1200.00,3500.00,7000.00,M,M,M,M,M,M,M,M,51.80,RCTP 101000Z 05017KT 8000 FEW012 SCT035 BKN070 11/04 Q1023 NOSIG RMK A3023
RCTP,2017-02-10 10:30,53.60,39.20,58.02,60.00,16.00,0.00,30.24,M,4.97,M,FEW,SCT,BKN,M,1200.00,3500.00,7000.00,M,M,M,M,M,M,M,M,53.60,RCTP 101030Z 06016KT 8000 FEW012 SCT035 BKN070 12/04 Q1024 NOSIG RMK A3024
RCTP,2017-02-10 11:00,53.60,39.20,58.02,60.00,17.00,0.00,30.24,M,4.97,M,FEW,SCT,BKN,M,1200.00,4000.00,7000.00,M,M,M,M,M,M,M,M,53.60,RCTP 101100Z 06017KT 8000 FEW012 SCT040 BKN070 12/04 Q1024 NOSIG RMK A3025
RCTP,2017-02-10 11:30,53.60,37.40,54.07,70.00,16.00,0.00,30.24,M,5.59,M,FEW,SCT,BKN,M,1200.00,4000.00,7000.00,M,M,M,M,M,M,M,M,53.60,RCTP 101130Z 07016KT 9000 FEW012 SCT040 BKN070 12/03 Q1024 NOSIG RMK A3025
RCTP,2017-02-10 12:00,51.80,37.40,57.77,80.00,14.00,0.00,30.24,M,5.59,M,FEW,SCT,BKN,M,1200.00,4000.00,7000.00,M,M,M,M,M,M,M,M,51.80,RCTP 101200Z 08014KT 9000 FEW012 SCT040 BKN070 11/03 Q1024 NOSIG RMK A3026
RCTP,2017-02-10 12:30,53.60,37.40,54.07,70.00,15.00,0.00,30.27,M,6.21,M,FEW,SCT,BKN,M,1600.00,4000.00,12000.00,M,M,M,M,M,M,M,M,53.60,RCTP 101230Z 07015KT 9999 FEW016 SCT040 BKN120 12/03 Q1025 NOSIG RMK A3027
RCTP,2017-02-10 13:00,53.60,37.40,54.07,70.00,15.00,0.00,30.27,M,6.21,M,FEW,BKN,M,M,2000.00,12000.00,M,M,M,M,M,M,M,M,M,53.60,RCTP 101300Z 07015KT 9999 FEW020 BKN120 12/03 Q1025 NOSIG RMK A3027
RCTP,2017-02-10 13:30,53.60,37.40,54.07,70.00,14.00,0.00,30.27,M,6.21,M,FEW,SCT,BKN,M,2000.00,4000.00,12000.00,M,M,M,M,M,M,M,M,53.60,RCTP 101330Z 07014KT 9999 FEW020 SCT040 BKN120 12/03 Q1025 NOSIG RMK A3028
RCTP,2017-02-10 14:00,53.60,37.40,54.07,70.00,16.00,0.00,30.27,M,6.21,M,FEW,SCT,BKN,M,2000.00,4000.00,12000.00,M,M,M,M,M,M,M,M,53.60,RCTP 101400Z 07016KT 9999 FEW020 SCT040 BKN120 12/03 Q1025 NOSIG RMK A3028
RCTP,2017-02-10 14:30,53.60,37.40,54.07,70.00,16.00,0.00,30.27,M,6.21,M,FEW,SCT,BKN,M,2000.00,7000.00,12000.00,M,M,M,M,M,M,M,M,53.60,RCTP 101430Z 07016KT 9999 FEW020 SCT070 BKN120 12/03 Q1025 NOSIG RMK A3028
RCTP,2017-02-10 15:00,53.60,37.40,54.07,70.00,15.00,0.00,30.27,M,6.21,M,FEW,SCT,BKN,M,2000.00,5000.00,12000.00,M,M,M,M,M,M,M,M,53.60,RCTP 101500Z 07015KT 9999 FEW020 SCT050 BKN120 12/03 Q1025 NOSIG RMK A3028
RCTP,2017-02-10 15:30,53.60,37.40,54.07,70.00,15.00,0.00,30.27,M,6.21,M,FEW,SCT,BKN,M,2000.00,5000.00,12000.00,M,M,M,M,M,M,M,M,53.60,RCTP 101530Z 07015KT 9999 FEW020 SCT050 BKN120 12/03 Q1025 NOSIG RMK A3028
RCTP,2017-02-10 16:00,53.60,37.40,54.07,70.00,15.00,0.00,30.27,M,6.21,M,FEW,BKN,M,M,2000.00,12000.00,M,M,M,M,M,M,M,M,M,53.60,RCTP 101600Z 07015KT 9999 FEW020 BKN120 12/03 Q1025 NOSIG RMK A3028
RCTP,2017-02-10 16:30,53.60,37.40,54.07,70.00,16.00,0.00,30.27,M,6.21,M,FEW,SCT,BKN,M,2000.00,5000.00,12000.00,M,M,M,M,M,M,M,M,53.60,RCTP 101630Z 07016KT 9999 FEW020 SCT050 BKN120 12/03 Q1025 NOSIG RMK A3029
RCTP,2017-02-10 17:00,53.60,37.40,54.07,70.00,15.00,0.00,30.27,M,6.21,M,FEW,BKN,BKN,M,2000.00,5000.00,12000.00,M,M,M,M,M,M,M,M,53.60,RCTP 101700Z 07015KT 9999 FEW020 BKN050 BKN120 12/03 Q1025 NOSIG RMK A3028
RCTP,2017-02-10 17:30,53.60,37.40,54.07,70.00,15.00,0.00,30.27,M,6.21,M,FEW,BKN,BKN,M,2000.00,5000.00,10000.00,M,M,M,M,M,M,M,M,53.60,RCTP 101730Z 07015KT 9999 FEW020 BKN050 BKN100 12/03 Q1025 NOSIG RMK A3028
RCTP,2017-02-10 18:00,53.60,37.40,54.07,70.00,16.00,0.00,30.27,M,6.21,M,FEW,BKN,BKN,M,2000.00,5000.00,10000.00,M,M,M,M,M,M,M,M,53.60,RCTP 101800Z 07016KT 9999 FEW020 BKN050 BKN100 12/03 Q1025 NOSIG RMK A3028
RCTP,2017-02-10 18:30,53.60,37.40,54.07,70.00,16.00,0.00,30.27,M,6.21,M,FEW,BKN,BKN,M,2000.00,5000.00,10000.00,M,M,M,M,M,M,M,M,53.60,RCTP 101830Z 07016KT 9999 FEW020 BKN050 BKN100 12/03 Q1025 NOSIG RMK A3028
RCTP,2017-02-10 19:00,53.60,37.40,54.07,70.00,15.00,0.00,30.27,M,6.21,M,FEW,BKN,BKN,M,2000.00,5000.00,11000.00,M,M,M,M,M,M,M,M,53.60,RCTP 101900Z 07015KT 9999 FEW020 BKN050 BKN110 12/03 Q1025 NOSIG RMK A3028
RCTP,2017-02-10 19:30,53.60,37.40,54.07,70.00,15.00,0.00,30.27,M,6.21,M,FEW,BKN,BKN,M,2000.00,5000.00,11000.00,M,M,M,M,M,M,M,M,53.60,RCTP 101930Z 07015KT 9999 FEW020 BKN050 BKN110 12/03 Q1025 NOSIG RMK A3027
RCTP,2017-02-10 20:00,53.60,37.40,54.07,70.00,16.00,0.00,30.27,M,6.21,M,FEW,BKN,BKN,M,2000.00,4500.00,11000.00,M,M,M,M,M,M,M,M,53.60,RCTP 102000Z 07016KT 9999 FEW020 BKN045 BKN110 12/03 Q1025 NOSIG RMK A3027
RCTP,2017-02-10 20:30,53.60,37.40,54.07,70.00,16.00,0.00,30.27,M,6.21,M,FEW,BKN,BKN,M,2000.00,4500.00,11000.00,M,M,M,M,M,M,M,M,53.60,RCTP 102030Z 07016KT 9999 FEW020 BKN045 BKN110 12/03 Q1025 NOSIG RMK A3027
RCTP,2017-02-10 21:00,53.60,37.40,54.07,70.00,16.00,0.00,30.27,M,6.21,M,FEW,BKN,BKN,M,2000.00,5000.00,11000.00,M,M,M,M,M,M,M,M,53.60,RCTP 102100Z 07016KT 9999 FEW020 BKN050 BKN110 12/03 Q1025 NOSIG RMK A3028
RCTP,2017-02-10 21:30,53.60,37.40,54.07,70.00,16.00,0.00,30.27,M,6.21,M,FEW,BKN,BKN,M,2000.00,5000.00,11000.00,M,M,M,M,M,M,M,M,53.60,RCTP 102130Z 07016KT 9999 FEW020 BKN050 BKN110 12/03 Q1025 NOSIG RMK A3028
RCTP,2017-02-10 22:00,53.60,37.40,54.07,50.00,16.00,0.00,30.30,M,6.21,M,FEW,BKN,BKN,M,2000.00,4500.00,11000.00,M,M,M,M,M,M,M,M,53.60,RCTP 102200Z 05016KT 9999 FEW020 BKN045 BKN110 12/03 Q1026 NOSIG RMK A3030
RCTP,2017-02-10 22:30,53.60,35.60,50.36,60.00,17.00,0.00,30.30,M,6.21,M,FEW,BKN,BKN,M,2000.00,4500.00,11000.00,M,M,M,M,M,M,M,M,53.60,RCTP 102230Z 06017KT 9999 FEW020 BKN045 BKN110 12/02 Q1026 NOSIG RMK A3030
RCTP,2017-02-10 23:00,53.60,37.40,54.07,50.00,18.00,0.00,30.30,M,6.21,M,FEW,SCT,BKN,M,2000.00,4500.00,11000.00,M,M,M,M,M,M,M,M,53.60,RCTP 102300Z 05018KT 9999 FEW020 SCT045 BKN110 12/03 Q1026 NOSIG RMK A3032
RCTP,2017-02-11 00:30,53.60,37.40,54.07,40.00,20.00,0.00,30.33,M,6.21,M,FEW,BKN,BKN,M,2000.00,4500.00,11000.00,M,M,M,M,M,M,M,M,53.60,RCTP 110030Z 04020KT 9999 FEW020 BKN045 BKN110 12/03 Q1027 NOSIG RMK A3034
RCTP,2017-02-11 01:00,53.60,35.60,50.36,50.00,20.00,0.00,30.33,M,6.21,M,FEW,SCT,BKN,M,2000.00,4000.00,5000.00,M,M,M,M,M,M,M,M,53.60,RCTP 110100Z 05020KT 9999 FEW020 SCT040 BKN050 12/02 Q1027 NOSIG RMK A3035
RCTP,2017-02-11 01:30,53.60,37.40,54.07,50.00,20.00,0.00,30.36,M,6.21,M,FEW,BKN,BKN,M,2000.00,4500.00,14000.00,M,M,M,M,M,M,M,M,53.60,RCTP 110130Z 05020KT 9999 FEW020 BKN045 BKN140 12/03 Q1028 NOSIG RMK A3036
RCTP,2017-02-11 02:00,55.40,37.40,50.64,60.00,22.00,0.00,30.36,M,6.21,M,FEW,SCT,BKN,M,2000.00,4500.00,14000.00,M,M,M,M,M,M,M,M,55.40,RCTP 110200Z 06022KT 9999 FEW020 SCT045 BKN140 13/03 Q1028 NOSIG RMK A3036
RCTP,2017-02-11 02:30,55.40,39.20,54.34,50.00,21.00,0.00,30.36,M,6.21,M,FEW,SCT,BKN,M,2000.00,4000.00,14000.00,M,M,M,M,M,M,M,M,55.40,RCTP 110230Z 05021KT 9999 FEW020 SCT040 BKN140 13/04 Q1028 NOSIG RMK A3036
RCTP,2017-02-11 03:00,57.20,39.20,50.91,50.00,21.00,0.00,30.33,M,6.21,M,FEW,SCT,BKN,M,2000.00,4000.00,14000.00,M,M,M,M,M,M,M,M,57.20,RCTP 110300Z 05021KT 9999 FEW020 SCT040 BKN140 14/04 Q1027 NOSIG RMK A3035
RCTP,2017-02-11 04:00,59.00,39.20,47.72,50.00,23.00,0.00,30.33,M,6.21,M,FEW,SCT,BKN,M,2000.00,4500.00,14000.00,M,M,M,M,M,M,M,M,59.00,RCTP 110400Z 05023KT 9999 FEW020 SCT045 BKN140 15/04 Q1027 NOSIG RMK A3033
RCTP,2017-02-11 04:30,59.00,39.20,47.72,50.00,24.00,0.00,30.30,M,6.21,M,FEW,SCT,BKN,M,2000.00,4500.00,20000.00,M,M,M,M,M,M,M,M,59.00,RCTP 110430Z 05024KT 9999 FEW020 SCT045 BKN200 15/04 Q1026 NOSIG RMK A3032
RCTP,2017-02-11 05:00,59.00,41.00,51.18,40.00,24.00,0.00,30.30,M,6.21,M,FEW,SCT,BKN,M,2000.00,4000.00,13000.00,M,M,M,M,M,M,M,M,59.00,RCTP 110500Z 04024KT 9999 FEW020 SCT040 BKN130 15/05 Q1026 NOSIG RMK A3030
RCTP,2017-02-11 05:30,59.00,41.00,51.18,40.00,22.00,0.00,30.27,M,6.21,M,FEW,SCT,BKN,M,2000.00,4500.00,13000.00,M,M,M,M,M,M,M,M,59.00,RCTP 110530Z 04022KT 9999 FEW020 SCT045 BKN130 15/05 Q1025 NOSIG RMK A3029
RCTP,2017-02-11 06:30,57.20,41.00,54.60,40.00,23.00,0.00,30.27,M,6.21,M,FEW,BKN,BKN,M,2000.00,4500.00,12000.00,M,M,M,M,M,M,M,M,57.20,RCTP 110630Z 04023KT 9999 FEW020 BKN045 BKN120 14/05 Q1025 NOSIG RMK A3028
RCTP,2017-02-11 07:00,57.20,41.00,54.60,40.00,22.00,0.00,30.27,M,6.21,M,FEW,BKN,BKN,M,2000.00,4500.00,12000.00,M,M,M,M,M,M,M,M,57.20,RCTP 110700Z 04022KT 9999 FEW020 BKN045 BKN120 14/05 Q1025 NOSIG RMK A3029
RCTP,2017-02-11 07:30,55.40,41.00,58.27,50.00,21.00,0.00,30.27,M,6.21,M,FEW,BKN,BKN,M,2000.00,4500.00,12000.00,M,M,M,M,M,M,M,M,55.40,RCTP 110730Z 05021KT 9999 FEW020 BKN045 BKN120 13/05 Q1025 NOSIG RMK A3029
RCTP,2017-02-11 08:00,55.40,41.00,58.27,40.00,21.00,0.00,30.27,M,6.21,M,FEW,BKN,BKN,M,2000.00,4500.00,12000.00,M,M,M,M,M,M,M,M,55.40,RCTP 110800Z 04021KT 9999 FEW020 BKN045 BKN120 13/05 Q1025 NOSIG RMK A3029
RCTP,2017-02-11 08:30,55.40,41.00,58.27,50.00,22.00,0.00,30.30,M,6.21,M,FEW,SCT,BKN,M,2000.00,4500.00,12000.00,M,M,M,M,M,M,M,M,55.40,RCTP 110830Z 05022KT 9999 FEW020 SCT045 BKN120 13/05 Q1026 NOSIG RMK A3030
RCTP,2017-02-11 09:00,55.40,39.20,54.34,50.00,21.00,0.00,30.30,M,6.21,M,FEW,SCT,M,M,2000.00,4500.00,M,M,M,M,M,M,M,M,M,55.40,RCTP 110900Z 05021KT 9999 FEW020 SCT045 13/04 Q1026 NOSIG RMK A3031
RCTP,2017-02-11 09:30,53.60,39.20,58.02,60.00,18.00,0.00,30.30,M,6.21,M,FEW,M,M,M,2000.00,M,M,M,M,M,M,M,M,M,M,53.60,RCTP 110930Z 06018KT 9999 FEW020 12/04 Q1026 NOSIG RMK A3031
RCTP,2017-02-11 10:00,53.60,39.20,58.02,60.00,16.00,0.00,30.30,M,6.21,M,FEW,M,M,M,2000.00,M,M,M,M,M,M,M,M,M,M,53.60,RCTP 111000Z 06016KT 9999 FEW020 12/04 Q1026 NOSIG RMK A3032
RCTP,2017-02-11 10:30,53.60,39.20,58.02,70.00,16.00,0.00,30.30,M,6.21,M,FEW,M,M,M,2000.00,M,M,M,M,M,M,M,M,M,M,53.60,RCTP 111030Z 07016KT 9999 FEW020 12/04 Q1026 NOSIG RMK A3032
RCTP,2017-02-11 11:00,53.60,37.40,54.07,60.00,13.00,0.00,30.33,M,6.21,M,FEW,M,M,M,2000.00,M,M,M,M,M,M,M,M,M,M,53.60,RCTP 111100Z 06013KT 9999 FEW020 12/03 Q1027 NOSIG RMK A3033
RCTP,2017-02-11 11:30,51.80,37.40,57.77,60.00,14.00,0.00,30.33,M,6.21,M,FEW,M,M,M,2000.00,M,M,M,M,M,M,M,M,M,M,51.80,RCTP 111130Z 06014KT 9999 FEW020 11/03 Q1027 NOSIG RMK A3033
RCTP,2017-02-11 12:30,53.60,41.00,62.23,60.00,15.00,0.00,30.33,M,6.21,M,FEW,BKN,M,M,2000.00,13000.00,M,M,M,M,M,M,M,M,M,53.60,RCTP 111230Z 06015KT 9999 FEW020 BKN130 12/05 Q1027 NOSIG RMK A3033
RCTP,2017-02-11 13:00,53.60,41.00,62.23,60.00,15.00,0.00,30.33,M,6.21,M,FEW,BKN,M,M,2000.00,12000.00,M,M,M,M,M,M,M,M,M,53.60,RCTP 111300Z 06015KT 9999 FEW020 BKN120 12/05 Q1027 NOSIG RMK A3033
RCTP,2017-02-11 13:30,53.60,41.00,62.23,60.00,16.00,0.00,30.33,M,6.21,M,FEW,BKN,M,M,2000.00,13000.00,M,M,M,M,M,M,M,M,M,53.60,RCTP 111330Z 06016KT 9999 FEW020 BKN130 12/05 Q1027 NOSIG RMK A3033
RCTP,2017-02-11 14:00,53.60,41.00,62.23,60.00,15.00,0.00,30.33,M,6.21,M,FEW,BKN,M,M,2000.00,13000.00,M,M,M,M,M,M,M,M,M,53.60,RCTP 111400Z 06015KT 9999 FEW020 BKN130 12/05 Q1027 NOSIG RMK A3033
RCTP,2017-02-11 14:30,53.60,39.20,58.02,70.00,14.00,0.00,30.33,M,6.21,M,FEW,SCT,M,M,2000.00,13000.00,M,M,M,M,M,M,M,M,M,53.60,RCTP 111430Z 07014KT 9999 FEW020 SCT130 12/04 Q1027 NOSIG RMK A3034
RCTP,2017-02-11 15:00,53.60,39.20,58.02,70.00,13.00,0.00,30.33,M,6.21,M,FEW,M,M,M,2000.00,M,M,M,M,M,M,M,M,M,M,53.60,RCTP 111500Z 07013KT 9999 FEW020 12/04 Q1027 NOSIG RMK A3034
RCTP,2017-02-11 15:30,53.60,39.20,58.02,70.00,12.00,0.00,30.33,M,6.21,M,FEW,M,M,M,2000.00,M,M,M,M,M,M,M,M,M,M,53.60,RCTP 111530Z 07012KT 9999 FEW020 12/04 Q1027 NOSIG RMK A3033
RCTP,2017-02-11 16:00,53.60,39.20,58.02,70.00,12.00,0.00,30.33,M,6.21,M,FEW,BKN,M,M,2000.00,13000.00,M,M,M,M,M,M,M,M,M,53.60,RCTP 111600Z 07012KT 9999 FEW020 BKN130 12/04 Q1027 NOSIG RMK A3033
RCTP,2017-02-11 16:30,53.60,41.00,62.23,60.00,12.00,0.00,30.33,M,6.21,M,FEW,BKN,M,M,2000.00,13000.00,M,M,M,M,M,M,M,M,M,53.60,RCTP 111630Z 06012KT 9999 FEW020 BKN130 12/05 Q1027 NOSIG RMK A3033
RCTP,2017-02-11 17:00,53.60,41.00,62.23,50.00,9.00,0.00,30.33,M,6.21,M,FEW,BKN,M,M,2000.00,13000.00,M,M,M,M,M,M,M,M,M,53.60,RCTP 111700Z 05009KT 9999 FEW020 BKN130 12/05 Q1027 NOSIG RMK A3033
RCTP,2017-02-11 17:30,53.60,41.00,62.23,60.00,8.00,0.00,30.30,M,6.21,M,FEW,BKN,M,M,2000.00,12000.00,M,M,M,M,M,M,M,M,M,53.60,RCTP 111730Z 06008KT 9999 FEW020 BKN120 12/05 Q1026 NOSIG RMK A3031
RCTP,2017-02-11 18:00,53.60,41.00,62.23,60.00,14.00,0.00,30.30,M,6.21,M,FEW,BKN,M,M,2000.00,12000.00,M,M,M,M,M,M,M,M,M,53.60,RCTP 111800Z 06014KT 9999 FEW020 BKN120 12/05 Q1026 NOSIG RMK A3031
RCTP,2017-02-11 18:30,55.40,42.80,62.46,60.00,13.00,0.00,30.30,M,6.21,M,FEW,BKN,M,M,2000.00,12000.00,M,M,M,M,M,M,M,M,M,55.40,RCTP 111830Z 06013KT 9999 FEW020 BKN120 13/06 Q1026 NOSIG RMK A3030
RCTP,2017-02-11 19:00,55.40,42.80,62.46,70.00,13.00,0.00,30.30,M,6.21,M,FEW,BKN,M,M,2000.00,12000.00,M,M,M,M,M,M,M,M,M,55.40,RCTP 111900Z 07013KT 9999 FEW020 BKN120 13/06 Q1026 NOSIG RMK A3030
RCTP,2017-02-11 19:30,53.60,42.80,66.70,60.00,13.00,0.00,30.30,M,6.21,M,FEW,BKN,M,M,2000.00,12000.00,M,M,M,M,M,M,M,M,M,53.60,RCTP 111930Z 06013KT 9999 FEW020 BKN120 12/06 Q1026 NOSIG RMK A3030
RCTP,2017-02-11 20:00,55.40,42.80,62.46,60.00,11.00,0.00,30.30,M,6.21,M,FEW,BKN,M,M,2000.00,5000.00,M,M,M,M,M,M,M,M,M,55.40,RCTP 112000Z 06011KT 9999 FEW020 BKN050 13/06 Q1026 NOSIG RMK A3030
RCTP,2017-02-11 20:30,55.40,41.00,58.27,70.00,13.00,0.00,30.30,M,6.21,M,FEW,SCT,M,M,2000.00,5000.00,M,M,M,M,M,M,M,M,M,55.40,RCTP 112030Z 07013KT 9999 FEW020 SCT050 13/05 Q1026 NOSIG RMK A3030
RCTP,2017-02-11 21:00,53.60,42.80,66.70,60.00,13.00,0.00,30.30,M,6.21,M,FEW,M,M,M,2000.00,M,M,M,M,M,M,M,M,M,M,53.60,RCTP 112100Z 06013KT 9999 FEW020 12/06 Q1026 NOSIG RMK A3030
RCTP,2017-02-11 21:30,55.40,42.80,62.46,70.00,12.00,0.00,30.30,M,6.21,M,FEW,SCT,M,M,2000.00,10000.00,M,M,M,M,M,M,M,M,M,55.40,RCTP 112130Z 07012KT 9999 FEW020 SCT100 13/06 Q1026 NOSIG RMK A3031
RCTP,2017-02-11 22:00,53.60,44.60,71.45,50.00,11.00,0.00,30.30,M,6.21,M,FEW,SCT,M,M,2000.00,10000.00,M,M,M,M,M,M,M,M,M,53.60,RCTP 112200Z 05011KT 9999 FEW020 SCT100 12/07 Q1026 NOSIG RMK A3031
RCTP,2017-02-11 22:30,53.60,44.60,71.45,60.00,9.00,0.00,30.30,M,6.21,M,FEW,SCT,M,M,2000.00,12000.00,M,M,M,M,M,M,M,M,M,53.60,RCTP 112230Z 06009KT 9999 FEW020 SCT120 12/07 Q1026 NOSIG RMK A3032
RCTP,2017-02-11 23:00,55.40,46.40,71.64,50.00,12.00,0.00,30.33,M,6.21,M,FEW,SCT,M,M,2000.00,12000.00,M,M,M,M,M,M,M,M,M,55.40,RCTP 112300Z 05012KT 9999 FEW020 SCT120 13/08 Q1027 NOSIG RMK A3033
RCTP,2017-02-11 23:30,57.20,44.60,62.69,60.00,17.00,0.00,30.33,M,6.21,M,FEW,SCT,BKN,M,1500.00,4000.00,13000.00,M,M,M,M,M,M,M,M,57.20,RCTP 112330Z 06017KT 9999 FEW015 SCT040 BKN130 14/07 Q1027 NOSIG RMK A3033
RCTP,2017-02-12 00:00,57.20,46.40,67.12,50.00,20.00,0.00,30.33,M,6.21,M,FEW,SCT,BKN,M,1500.00,4000.00,13000.00,M,M,M,M,M,M,M,M,57.20,RCTP 120000Z 05020KT 9999 FEW015 SCT040 BKN130 14/08 Q1027 NOSIG RMK A3034
RCTP,2017-02-12 00:30,59.00,46.40,62.92,50.00,18.00,0.00,30.33,M,6.21,M,FEW,SCT,BKN,M,1500.00,3000.00,14000.00,M,M,M,M,M,M,M,M,59.00,RCTP 120030Z 05018KT 9999 FEW015 SCT030 BKN140 15/08 Q1027 NOSIG RMK A3034
RCTP,2017-02-12 01:00,60.80,46.40,59.01,50.00,19.00,0.00,30.33,M,6.21,M,FEW,SCT,BKN,M,1500.00,4000.00,14000.00,M,M,M,M,M,M,M,M,60.80,RCTP 120100Z 05019KT 9999 FEW015 SCT040 BKN140 16/08 Q1027 NOSIG RMK A3034
RCTP,2017-02-12 01:30,62.60,46.40,55.37,50.00,20.00,0.00,30.33,M,6.21,M,FEW,SCT,BKN,M,1500.00,4000.00,14000.00,M,M,M,M,M,M,M,M,62.60,RCTP 120130Z 05020KT 9999 FEW015 SCT040 BKN140 17/08 Q1027 NOSIG RMK A3034
RCTP,2017-02-12 02:00,60.80,46.40,59.01,40.00,19.00,0.00,30.33,M,6.21,M,FEW,BKN,M,M,2000.00,4000.00,M,M,M,M,M,M,M,M,M,60.80,RCTP 120200Z 04019KT 9999 FEW020 BKN040 16/08 Q1027 NOSIG RMK A3034
RCTP,2017-02-12 03:16,62.60,46.40,55.37,60.00,15.00,0.00,30.33,M,6.21,M,FEW,BKN,M,M,2000.00,4000.00,M,M,M,M,M,M,M,M,M,62.60,RCTP 120316Z 06015KT 9999 FEW020 BKN040 17/08 Q1027 WS ALL RWY NOSIG RMK A3034
RCTP,2017-02-12 03:30,62.60,46.40,55.37,50.00,16.00,0.00,30.33,M,6.21,M,FEW,BKN,M,M,2000.00,4000.00,M,M,M,M,M,M,M,M,M,62.60,RCTP 120330Z 05016KT 9999 FEW020 BKN040 17/08 Q1027 WS ALL RWY NOSIG RMK A3033
RCTP,2017-02-12 04:00,62.60,46.40,55.37,50.00,18.00,0.00,30.30,M,6.21,M,FEW,BKN,M,M,2000.00,4000.00,M,M,M,M,M,M,M,M,M,62.60,RCTP 120400Z 05018KT 9999 FEW020 BKN040 17/08 Q1026 NOSIG RMK A3032
RCTP,2017-02-12 04:30,62.60,44.60,51.72,60.00,17.00,0.00,30.30,M,6.21,M,FEW,BKN,M,M,2000.00,4000.00,M,M,M,M,M,M,M,M,M,62.60,RCTP 120430Z 06017KT 9999 FEW020 BKN040 17/07 Q1026 NOSIG RMK A3031
RCTP,2017-02-12 05:00,62.60,46.40,55.37,60.00,17.00,0.00,30.30,M,6.21,M,FEW,BKN,M,M,2000.00,4000.00,M,M,M,M,M,M,M,M,M,62.60,RCTP 120500Z 06017KT 9999 FEW020 BKN040 17/08 Q1026 NOSIG RMK A3030
RCTP,2017-02-12 05:30,60.80,46.40,59.01,40.00,18.00,0.00,30.27,M,6.21,M,FEW,BKN,M,M,2000.00,4000.00,M,M,M,M,M,M,M,M,M,60.80,RCTP 120530Z 04018KT 9999 FEW020 BKN040 16/08 Q1025 NOSIG RMK A3028
RCTP,2017-02-12 06:00,62.60,46.40,55.37,60.00,17.00,0.00,30.27,M,6.21,M,FEW,BKN,M,M,2000.00,4000.00,M,M,M,M,M,M,M,M,M,62.60,RCTP 120600Z 06017KT 9999 FEW020 BKN040 17/08 Q1025 NOSIG RMK A3027
RCTP,2017-02-12 06:30,62.60,46.40,55.37,50.00,17.00,0.00,30.24,M,6.21,M,BKN,M,M,M,3900.00,M,M,M,M,M,M,M,M,M,M,62.60,RCTP 120630Z 05017KT 9999 BKN039 17/08 Q1024 NOSIG RMK A3026
RCTP,2017-02-12 07:00,62.60,46.40,55.37,70.00,15.00,0.00,30.27,M,6.21,M,BKN,M,M,M,3800.00,M,M,M,M,M,M,M,M,M,M,62.60,RCTP 120700Z 07015KT 040V110 9999 BKN038 17/08 Q1025 NOSIG RMK A3027
RCTP,2017-02-12 07:30,62.60,46.40,55.37,70.00,16.00,0.00,30.27,M,6.21,M,BKN,M,M,M,3800.00,M,M,M,M,M,M,M,M,M,M,62.60,RCTP 120730Z 07016KT 9999 BKN038 17/08 Q1025 NOSIG RMK A3027
RCTP,2017-02-12 08:30,60.80,46.40,59.01,50.00,16.00,0.00,30.27,M,6.21,M,SCT,BKN,M,M,3800.00,10000.00,M,M,M,M,M,M,M,M,M,60.80,RCTP 120830Z 05016KT 9999 SCT038 BKN100 16/08 Q1025 NOSIG RMK A3028
RCTP,2017-02-12 09:00,60.80,46.40,59.01,70.00,16.00,0.00,30.27,M,6.21,M,FEW,BKN,M,M,3800.00,10000.00,M,M,M,M,M,M,M,M,M,60.80,RCTP 120900Z 07016KT 9999 FEW038 BKN100 16/08 Q1025 NOSIG RMK A3028
RCTP,2017-02-12 09:30,59.00,46.40,62.92,70.00,14.00,0.00,30.27,M,6.21,M,FEW,BKN,M,M,2800.00,10000.00,M,M,M,M,M,M,M,M,M,59.00,RCTP 120930Z 07014KT 9999 FEW028 BKN100 15/08 Q1025 NOSIG RMK A3029
RCTP,2017-02-12 10:00,59.00,46.40,62.92,70.00,14.00,0.00,30.27,M,6.21,M,FEW,BKN,M,M,2500.00,9000.00,M,M,M,M,M,M,M,M,M,59.00,RCTP 121000Z 07014KT 9999 FEW025 BKN090 15/08 Q1025 NOSIG RMK A3028
RCTP,2017-02-12 10:30,59.00,46.40,62.92,70.00,12.00,0.00,30.27,M,6.21,M,FEW,BKN,M,M,2500.00,10000.00,M,M,M,M,M,M,M,M,M,59.00,RCTP 121030Z 07012KT 9999 FEW025 BKN100 15/08 Q1025 NOSIG RMK A3029
RCTP,2017-02-12 11:00,59.00,46.40,62.92,70.00,14.00,0.00,30.27,M,6.21,M,FEW,BKN,M,M,2500.00,10000.00,M,M,M,M,M,M,M,M,M,59.00,RCTP 121100Z 07014KT 040V100 9999 FEW025 BKN100 15/08 Q1025 NOSIG RMK A3029
RCTP,2017-02-12 11:30,59.00,46.40,62.92,60.00,14.00,0.00,30.30,M,6.21,M,FEW,BKN,M,M,2000.00,11000.00,M,M,M,M,M,M,M,M,M,59.00,RCTP 121130Z 06014KT 040V100 9999 FEW020 BKN110 15/08 Q1026 NOSIG RMK A3030
RCTP,2017-02-12 12:00,59.00,46.40,62.92,60.00,13.00,0.00,30.30,M,6.21,M,FEW,BKN,M,M,2000.00,11000.00,M,M,M,M,M,M,M,M,M,59.00,RCTP 121200Z 06013KT 9999 FEW020 BKN110 15/08 Q1026 NOSIG RMK A3030
RCTP,2017-02-12 12:30,59.00,46.40,62.92,60.00,14.00,0.00,30.30,M,6.21,M,FEW,BKN,M,M,2000.00,11000.00,M,M,M,M,M,M,M,M,M,59.00,RCTP 121230Z 06014KT 9999 FEW020 BKN110 15/08 Q1026 NOSIG RMK A3031
RCTP,2017-02-12 13:00,59.00,46.40,62.92,70.00,13.00,0.00,30.30,M,6.21,M,FEW,SCT,BKN,M,2000.00,4000.00,10000.00,M,M,M,M,M,M,M,M,59.00,RCTP 121300Z 07013KT 9999 FEW020 SCT040 BKN100 15/08 Q1026 NOSIG RMK A3031
RCTP,2017-02-12 13:30,59.00,46.40,62.92,70.00,14.00,0.00,30.30,M,6.21,M,FEW,SCT,BKN,M,2000.00,4500.00,10000.00,M,M,M,M,M,M,M,M,59.00,RCTP 121330Z 07014KT 9999 FEW020 SCT045 BKN100 15/08 Q1026 NOSIG RMK A3031
RCTP,2017-02-12 14:00,59.00,46.40,62.92,60.00,11.00,0.00,30.30,M,6.21,M,FEW,BKN,M,M,2000.00,10000.00,M,M,M,M,M,M,M,M,M,59.00,RCTP 121400Z 06011KT 9999 FEW020 BKN100 15/08 Q1026 NOSIG RMK A3032
RCTP,2017-02-12 14:30,59.00,46.40,62.92,70.00,13.00,0.00,30.30,M,6.21,M,FEW,BKN,M,M,2000.00,10000.00,M,M,M,M,M,M,M,M,M,59.00,RCTP 121430Z 07013KT 9999 FEW020 BKN100 15/08 Q1026 NOSIG RMK A3032
RCTP,2017-02-12 15:00,59.00,46.40,62.92,60.00,13.00,0.00,30.30,M,6.21,M,FEW,SCT,BKN,M,2000.00,4000.00,10000.00,M,M,M,M,M,M,M,M,59.00,RCTP 121500Z 06013KT 9999 FEW020 SCT040 BKN100 15/08 Q1026 NOSIG RMK A3031
RCTP,2017-02-12 15:30,59.00,46.40,62.92,70.00,13.00,0.00,30.30,M,6.21,M,FEW,SCT,BKN,M,2000.00,4000.00,10000.00,M,M,M,M,M,M,M,M,59.00,RCTP 121530Z 07013KT 9999 FEW020 SCT040 BKN100 15/08 Q1026 NOSIG RMK A3032
RCTP,2017-02-12 16:00,59.00,46.40,62.92,70.00,13.00,0.00,30.30,M,6.21,M,FEW,SCT,BKN,M,2000.00,4500.00,10000.00,M,M,M,M,M,M,M,M,59.00,RCTP 121600Z 07013KT 9999 FEW020 SCT045 BKN100 15/08 Q1026 NOSIG RMK A3032
RCTP,2017-02-12 16:30,59.00,46.40,62.92,70.00,14.00,0.00,30.30,M,6.21,M,FEW,SCT,BKN,M,2000.00,4000.00,10000.00,M,M,M,M,M,M,M,M,59.00,RCTP 121630Z 07014KT 9999 FEW020 SCT040 BKN100 15/08 Q1026 NOSIG RMK A3031
RCTP,2017-02-12 17:00,59.00,46.40,62.92,70.00,12.00,0.00,30.30,M,6.21,M,FEW,SCT,BKN,M,2000.00,4000.00,10000.00,M,M,M,M,M,M,M,M,59.00,RCTP 121700Z 07012KT 9999 FEW020 SCT040 BKN100 15/08 Q1026 NOSIG RMK A3031
RCTP,2017-02-12 17:30,57.20,46.40,67.12,70.00,7.00,0.00,30.30,M,6.21,M,FEW,SCT,BKN,M,2000.00,7000.00,10000.00,M,M,M,M,M,M,M,M,57.20,RCTP 121730Z 07007KT 9999 FEW020 SCT070 BKN100 14/08 Q1026 NOSIG RMK A3030
RCTP,2017-02-12 18:00,57.20,48.20,71.83,70.00,7.00,0.00,30.30,M,6.21,M,FEW,BKN,M,M,3600.00,7000.00,M,M,M,M,M,M,M,M,M,57.20,RCTP 121800Z 07007KT 9999 FEW036 BKN070 14/09 Q1026 NOSIG RMK A3030
RCTP,2017-02-12 18:30,57.20,48.20,71.83,60.00,9.00,0.00,30.30,M,6.21,M,SCT,BKN,M,M,3600.00,7000.00,M,M,M,M,M,M,M,M,M,57.20,RCTP 121830Z 06009KT 9999 SCT036 BKN070 14/09 Q1026 NOSIG RMK A3030
RCTP,2017-02-12 19:00,57.20,48.20,71.83,70.00,7.00,0.00,30.30,M,6.21,M,SCT,BKN,M,M,3600.00,7000.00,M,M,M,M,M,M,M,M,M,57.20,RCTP 121900Z 07007KT 9999 SCT036 BKN070 14/09 Q1026 NOSIG RMK A3030
RCTP,2017-02-12 19:30,57.20,48.20,71.83,70.00,8.00,0.00,30.30,M,6.21,M,FEW,BKN,M,M,3600.00,7000.00,M,M,M,M,M,M,M,M,M,57.20,RCTP 121930Z 07008KT 9999 FEW036 BKN070 14/09 Q1026 NOSIG RMK A3030
RCTP,2017-02-12 20:00,57.20,48.20,71.83,60.00,8.00,0.00,30.30,M,6.21,M,FEW,BKN,M,M,3800.00,8000.00,M,M,M,M,M,M,M,M,M,57.20,RCTP 122000Z 06008KT 9999 FEW038 BKN080 14/09 Q1026 NOSIG RMK A3030
RCTP,2017-02-12 20:30,59.00,48.20,67.33,60.00,7.00,0.00,30.30,M,6.21,M,FEW,BKN,M,M,3800.00,7000.00,M,M,M,M,M,M,M,M,M,59.00,RCTP 122030Z 06007KT 9999 FEW038 BKN070 15/09 Q1026 NOSIG RMK A3030
RCTP,2017-02-12 21:00,59.00,48.20,67.33,60.00,7.00,0.00,30.30,M,6.21,M,SCT,BKN,M,M,4000.00,6000.00,M,M,M,M,M,M,M,M,M,59.00,RCTP 122100Z 06007KT 9999 SCT040 BKN060 15/09 Q1026 NOSIG RMK A3031
RCTP,2017-02-12 21:30,59.00,46.40,62.92,70.00,9.00,0.00,30.30,M,6.21,M,FEW,BKN,M,M,4000.00,6000.00,M,M,M,M,M,M,M,M,M,59.00,RCTP 122130Z 07009KT 9999 FEW040 BKN060 15/08 Q1026 NOSIG RMK A3032
RCTP,2017-02-12 22:00,57.20,46.40,67.12,70.00,10.00,0.00,30.33,M,6.21,M,SCT,BKN,M,M,4000.00,6000.00,M,M,M,M,M,M,M,M,M,57.20,RCTP 122200Z 07010KT 9999 SCT040 BKN060 14/08 Q1027 NOSIG RMK A3033
RCTP,2017-02-12 22:30,57.20,46.40,67.12,60.00,10.00,0.00,30.33,M,6.21,M,SCT,M,M,M,4000.00,M,M,M,M,M,M,M,M,M,M,57.20,RCTP 122230Z 06010KT 9999 SCT040 14/08 Q1027 NOSIG RMK A3033
RCTP,2017-02-12 23:00,59.00,46.40,62.92,70.00,10.00,0.00,30.33,M,6.21,M,FEW,M,M,M,4200.00,M,M,M,M,M,M,M,M,M,M,59.00,RCTP 122300Z 07010KT 9999 FEW042 15/08 Q1027 NOSIG RMK A3034
RCTP,2017-02-12 23:30,60.80,46.40,59.01,70.00,13.00,0.00,30.33,M,6.21,M,FEW,M,M,M,4200.00,M,M,M,M,M,M,M,M,M,M,60.80,RCTP 122330Z 07013KT 9999 FEW042 16/08 Q1027 NOSIG RMK A3035
RCTP,2017-02-13 00:00,60.80,46.40,59.01,60.00,14.00,0.00,30.33,M,6.21,M,FEW,M,M,M,4200.00,M,M,M,M,M,M,M,M,M,M,60.80,RCTP 130000Z 06014KT 9999 FEW042 16/08 Q1027 NOSIG RMK A3035
RCTP,2017-02-13 00:30,62.60,48.20,59.26,60.00,14.00,0.00,30.36,M,6.21,M,FEW,M,M,M,3000.00,M,M,M,M,M,M,M,M,M,M,62.60,RCTP 130030Z 06014KT 9999 FEW030 17/09 Q1028 NOSIG RMK A3036
RCTP,2017-02-13 01:00,64.40,48.20,55.63,60.00,17.00,0.00,30.36,M,6.21,M,FEW,M,M,M,3000.00,M,M,M,M,M,M,M,M,M,M,64.40,RCTP 130100Z 06017KT 9999 FEW030 18/09 Q1028 NOSIG RMK A3037
RCTP,2017-02-13 02:00,66.20,48.20,52.25,80.00,20.00,0.00,30.36,M,6.21,M,FEW,M,M,M,2500.00,M,M,M,M,M,M,M,M,M,M,66.20,RCTP 130200Z 08020KT 9999 FEW025 19/09 Q1028 NOSIG RMK A3037
RCTP,2017-02-13 02:30,66.20,48.20,52.25,80.00,21.00,0.00,30.36,M,6.21,M,FEW,M,M,M,2500.00,M,M,M,M,M,M,M,M,M,M,66.20,RCTP 130230Z 08021KT 9999 FEW025 19/09 Q1028 NOSIG RMK A3036
RCTP,2017-02-13 04:00,68.00,50.00,52.51,70.00,17.00,0.00,30.33,M,6.21,M,FEW,M,M,M,2500.00,M,M,M,M,M,M,M,M,M,M,68.00,RCTP 130400Z 07017KT 040V100 9999 FEW025 20/10 Q1027 NOSIG RMK A3034
RCTP,2017-02-13 04:30,69.80,50.00,49.37,60.00,19.00,0.00,30.33,M,6.21,M,FEW,M,M,M,2500.00,M,M,M,M,M,M,M,M,M,M,69.80,RCTP 130430Z 06019KT 9999 FEW025 21/10 Q1027 NOSIG RMK A3033
RCTP,2017-02-13 05:00,69.80,50.00,49.37,60.00,18.00,0.00,30.30,M,6.21,M,FEW,M,M,M,2500.00,M,M,M,M,M,M,M,M,M,M,69.80,RCTP 130500Z 06018KT 9999 FEW025 21/10 Q1026 NOSIG RMK A3031
RCTP,2017-02-13 05:30,69.80,50.00,49.37,80.00,19.00,0.00,30.30,M,6.21,M,FEW,SCT,M,M,2500.00,4000.00,M,M,M,M,M,M,M,M,M,69.80,RCTP 130530Z 08019KT 9999 FEW025 SCT040 21/10 Q1026 NOSIG RMK A3031
RCTP,2017-02-13 06:00,68.00,50.00,52.51,70.00,19.00,0.00,30.30,M,6.21,M,FEW,SCT,M,M,2500.00,4000.00,M,M,M,M,M,M,M,M,M,68.00,RCTP 130600Z 07019KT 9999 FEW025 SCT040 20/10 Q1026 NOSIG RMK A3031
RCTP,2017-02-13 06:30,68.00,50.00,52.51,60.00,19.00,0.00,30.30,M,6.21,M,FEW,SCT,M,M,2000.00,4000.00,M,M,M,M,M,M,M,M,M,68.00,RCTP 130630Z 06019KT 9999 FEW020 SCT040 20/10 Q1026 NOSIG RMK A3031
RCTP,2017-02-13 07:10,68.00,50.00,52.51,80.00,18.00,0.00,30.30,M,6.21,M,FEW,SCT,M,M,2000.00,4000.00,M,M,M,M,M,M,M,M,M,68.00,RCTP 130710Z 08018KT 9999 FEW020 SCT040 20/10 Q1026 NOSIG RMK A3031
RCTP,2017-02-13 07:30,66.20,50.00,55.88,60.00,20.00,0.00,30.30,M,6.21,M,FEW,SCT,M,M,2000.00,4000.00,M,M,M,M,M,M,M,M,M,66.20,RCTP 130730Z 06020KT 9999 FEW020 SCT040 19/10 Q1026 NOSIG RMK A3031
RCTP,2017-02-13 09:04,64.40,50.00,59.50,70.00,18.00,0.00,30.33,M,6.21,M,FEW,SCT,M,M,2000.00,3500.00,M,M,M,M,M,M,M,M,M,64.40,RCTP 130904Z 07018KT 9999 FEW020 SCT035 18/10 Q1027 WS ALL RWY NOSIG RMK A3033
RCTP,2017-02-13 09:30,62.60,50.00,63.38,60.00,17.00,0.00,30.33,M,6.21,M,FEW,SCT,M,M,2000.00,3500.00,M,M,M,M,M,M,M,M,M,62.60,RCTP 130930Z 06017KT 9999 FEW020 SCT035 17/10 Q1027 WS ALL RWY NOSIG RMK A3033
RCTP,2017-02-13 10:00,62.60,50.00,63.38,70.00,14.00,0.00,30.33,M,6.21,M,FEW,SCT,M,M,2000.00,4000.00,M,M,M,M,M,M,M,M,M,62.60,RCTP 131000Z 07014KT 9999 FEW020 SCT040 17/10 Q1027 NOSIG RMK A3034
RCTP,2017-02-13 10:30,60.80,50.00,67.54,70.00,16.00,0.00,30.33,M,6.21,M,FEW,SCT,M,M,2000.00,4000.00,M,M,M,M,M,M,M,M,M,60.80,RCTP 131030Z 07016KT 9999 FEW020 SCT040 16/10 Q1027 NOSIG RMK A3034
RCTP,2017-02-13 11:00,60.80,48.20,63.15,70.00,15.00,0.00,30.33,M,6.21,M,FEW,SCT,M,M,2000.00,4000.00,M,M,M,M,M,M,M,M,M,60.80,RCTP 131100Z 07015KT 9999 FEW020 SCT040 16/09 Q1027 NOSIG RMK A3035
RCTP,2017-02-13 11:30,60.80,48.20,63.15,60.00,12.00,0.00,30.36,M,6.21,M,FEW,SCT,M,M,2000.00,4000.00,M,M,M,M,M,M,M,M,M,60.80,RCTP 131130Z 06012KT 9999 FEW020 SCT040 16/09 Q1028 NOSIG RMK A3036
RCTP,2017-02-13 12:00,60.80,48.20,63.15,60.00,12.00,0.00,30.36,M,6.21,M,FEW,SCT,M,M,2000.00,4000.00,M,M,M,M,M,M,M,M,M,60.80,RCTP 131200Z 06012KT 9999 FEW020 SCT040 16/09 Q1028 NOSIG RMK A3037
RCTP,2017-02-13 12:30,60.80,50.00,67.54,60.00,13.00,0.00,30.36,M,6.21,M,FEW,SCT,M,M,2000.00,4000.00,M,M,M,M,M,M,M,M,M,60.80,RCTP 131230Z 06013KT 9999 FEW020 SCT040 16/10 Q1028 NOSIG RMK A3038
RCTP,2017-02-13 13:00,60.80,50.00,67.54,60.00,12.00,0.00,30.36,M,6.21,M,FEW,M,M,M,2000.00,M,M,M,M,M,M,M,M,M,M,60.80,RCTP 131300Z 06012KT 9999 FEW020 16/10 Q1028 NOSIG RMK A3038
RCTP,2017-02-13 13:30,60.80,48.20,63.15,60.00,13.00,0.00,30.36,M,6.21,M,FEW,M,M,M,2000.00,M,M,M,M,M,M,M,M,M,M,60.80,RCTP 131330Z 06013KT 9999 FEW020 16/09 Q1028 NOSIG RMK A3038
RCTP,2017-02-13 14:00,60.80,48.20,63.15,60.00,14.00,0.00,30.36,M,6.21,M,FEW,M,M,M,2000.00,M,M,M,M,M,M,M,M,M,M,60.80,RCTP 131400Z 06014KT 9999 FEW020 16/09 Q1028 NOSIG RMK A3038
RCTP,2017-02-13 14:30,60.80,48.20,63.15,60.00,14.00,0.00,30.39,M,6.21,M,FEW,M,M,M,2000.00,M,M,M,M,M,M,M,M,M,M,60.80,RCTP 131430Z 06014KT 9999 FEW020 16/09 Q1029 NOSIG RMK A3039
RCTP,2017-02-13 15:00,60.80,48.20,63.15,70.00,13.00,0.00,30.39,M,6.21,M,FEW,M,M,M,2000.00,M,M,M,M,M,M,M,M,M,M,60.80,RCTP 131500Z 07013KT 9999 FEW020 16/09 Q1029 NOSIG RMK A3039
RCTP,2017-02-13 15:30,59.00,48.20,67.33,60.00,13.00,0.00,30.39,M,6.21,M,FEW,M,M,M,2000.00,M,M,M,M,M,M,M,M,M,M,59.00,RCTP 131530Z 06013KT 9999 FEW020 15/09 Q1029 NOSIG RMK A3039
RCTP,2017-02-13 16:00,59.00,48.20,67.33,60.00,14.00,0.00,30.39,M,6.21,M,FEW,M,M,M,2000.00,M,M,M,M,M,M,M,M,M,M,59.00,RCTP 131600Z 06014KT 9999 FEW020 15/09 Q1029 NOSIG RMK A3039
RCTP,2017-02-13 16:30,59.00,48.20,67.33,50.00,13.00,0.00,30.39,M,6.21,M,FEW,M,M,M,2000.00,M,M,M,M,M,M,M,M,M,M,59.00,RCTP 131630Z 05013KT 9999 FEW020 15/09 Q1029 NOSIG RMK A3039
RCTP,2017-02-13 17:00,59.00,48.20,67.33,60.00,13.00,0.00,30.36,M,6.21,M,FEW,M,M,M,2000.00,M,M,M,M,M,M,M,M,M,M,59.00,RCTP 131700Z 06013KT 9999 FEW020 15/09 Q1028 NOSIG RMK A3038
RCTP,2017-02-13 17:30,59.00,48.20,67.33,60.00,13.00,0.00,30.36,M,6.21,M,FEW,M,M,M,2000.00,M,M,M,M,M,M,M,M,M,M,59.00,RCTP 131730Z 06013KT 9999 FEW020 15/09 Q1028 NOSIG RMK A3038
RCTP,2017-02-13 19:30,60.80,46.40,59.01,60.00,15.00,0.00,30.36,M,6.21,M,FEW,M,M,M,2000.00,M,M,M,M,M,M,M,M,M,M,60.80,RCTP 131930Z 06015KT 9999 FEW020 16/08 Q1028 NOSIG RMK A3036
RCTP,2017-02-13 20:00,59.00,46.40,62.92,60.00,13.00,0.00,30.36,M,6.21,M,FEW,M,M,M,2000.00,M,M,M,M,M,M,M,M,M,M,59.00,RCTP 132000Z 06013KT 9999 FEW020 15/08 Q1028 NOSIG RMK A3036
RCTP,2017-02-13 20:30,59.00,46.40,62.92,60.00,14.00,0.00,30.36,M,6.21,M,FEW,M,M,M,2000.00,M,M,M,M,M,M,M,M,M,M,59.00,RCTP 132030Z 06014KT 9999 FEW020 15/08 Q1028 NOSIG RMK A3037
RCTP,2017-02-13 21:00,59.00,44.60,58.77,60.00,14.00,0.00,30.36,M,6.21,M,FEW,M,M,M,2000.00,M,M,M,M,M,M,M,M,M,M,59.00,RCTP 132100Z 06014KT 9999 FEW020 15/07 Q1028 NOSIG RMK A3038
RCTP,2017-02-13 21:30,59.00,44.60,58.77,60.00,12.00,0.00,30.36,M,6.21,M,FEW,M,M,M,2000.00,M,M,M,M,M,M,M,M,M,M,59.00,RCTP 132130Z 06012KT 9999 FEW020 15/07 Q1028 NOSIG RMK A3038
RCTP,2017-02-13 22:00,59.00,44.60,58.77,70.00,12.00,0.00,30.39,M,6.21,M,FEW,M,M,M,2000.00,M,M,M,M,M,M,M,M,M,M,59.00,RCTP 132200Z 07012KT 9999 FEW020 15/07 Q1029 NOSIG RMK A3039
RCTP,2017-02-13 22:30,59.00,44.60,58.77,70.00,13.00,0.00,30.39,M,6.21,M,FEW,M,M,M,2000.00,M,M,M,M,M,M,M,M,M,M,59.00,RCTP 132230Z 07013KT 9999 FEW020 15/07 Q1029 NOSIG RMK A3040
RCTP,2017-02-13 23:00,59.00,44.60,58.77,60.00,11.00,0.00,30.39,M,6.21,M,FEW,M,M,M,2000.00,M,M,M,M,M,M,M,M,M,M,59.00,RCTP 132300Z 06011KT 9999 FEW020 15/07 Q1029 NOSIG RMK A3041
RCTP,2017-02-13 23:30,60.80,44.60,55.12,60.00,11.00,0.00,30.42,M,6.21,M,M,M,M,M,M,M,M,M,M,M,M,M,M,M,M,60.80,RCTP 132330Z 06011KT CAVOK 16/07 Q1030 NOSIG RMK A3042
RCTP,2017-02-14 00:00,62.60,44.60,51.72,50.00,12.00,0.00,30.42,M,6.21,M,M,M,M,M,M,M,M,M,M,M,M,M,M,M,M,62.60,RCTP 140000Z 05012KT CAVOK 17/07 Q1030 NOSIG RMK A3043
RCTP,2017-02-14 00:30,62.60,44.60,51.72,50.00,13.00,0.00,30.42,M,6.21,M,M,M,M,M,M,M,M,M,M,M,M,M,M,M,M,62.60,RCTP 140030Z 05013KT CAVOK 17/07 Q1030 NOSIG RMK A3043
RCTP,2017-02-14 01:00,64.40,44.60,48.55,50.00,14.00,0.00,30.42,M,6.21,M,M,M,M,M,M,M,M,M,M,M,M,M,M,M,M,64.40,RCTP 140100Z 05014KT CAVOK 18/07 Q1030 NOSIG RMK A3043
RCTP,2017-02-14 02:00,66.20,44.60,45.60,70.00,17.00,0.00,30.42,M,6.21,M,M,M,M,M,M,M,M,M,M,M,M,M,M,M,M,66.20,RCTP 140200Z 07017KT CAVOK 19/07 Q1030 NOSIG RMK A3043
RCTP,2017-02-14 02:30,68.00,44.60,42.85,60.00,19.00,0.00,30.42,M,6.21,M,M,M,M,M,M,M,M,M,M,M,M,M,M,M,M,68.00,RCTP 140230Z 06019KT CAVOK 20/07 Q1030 NOSIG RMK A3043
RCTP,2017-02-14 03:00,68.00,46.40,45.88,60.00,18.00,0.00,30.42,M,6.21,M,M,M,M,M,M,M,M,M,M,M,M,M,M,M,M,68.00,RCTP 140300Z 06018KT CAVOK 20/08 Q1030 NOSIG RMK A3042
RCTP,2017-02-14 03:30,69.80,46.40,43.13,60.00,19.00,0.00,30.39,M,6.21,M,M,M,M,M,M,M,M,M,M,M,M,M,M,M,M,69.80,RCTP 140330Z 06019KT CAVOK 21/08 Q1029 NOSIG RMK A3040
RCTP,2017-02-14 04:00,69.80,48.20,46.16,50.00,19.00,0.00,30.39,M,6.21,M,M,M,M,M,M,M,M,M,M,M,M,M,M,M,M,69.80,RCTP 140400Z 05019KT CAVOK 21/09 Q1029 NOSIG RMK A3039
RCTP,2017-02-14 05:31,69.80,48.20,46.16,40.00,21.00,0.00,30.33,M,6.21,M,M,M,M,M,M,M,M,M,M,M,M,M,M,M,M,69.80,RCTP 140531Z 04021KT CAVOK 21/09 Q1027 WS ALL RWY NOSIG RMK A3035
RCTP,2017-02-14 06:00,68.00,50.00,52.51,40.00,22.00,0.00,30.33,M,6.21,M,M,M,M,M,M,M,M,M,M,M,M,M,M,M,M,68.00,RCTP 140600Z 04022KT CAVOK 20/10 Q1027 WS ALL RWY NOSIG RMK A3034
RCTP,2017-02-14 06:30,69.80,48.20,46.16,60.00,17.00,0.00,30.33,M,6.21,M,M,M,M,M,M,M,M,M,M,M,M,M,M,M,M,69.80,RCTP 140630Z 06017KT CAVOK 21/09 Q1027 NOSIG RMK A3034
RCTP,2017-02-14 07:00,69.80,46.40,43.13,70.00,17.00,0.00,30.33,M,6.21,M,M,M,M,M,M,M,M,M,M,M,M,M,M,M,M,69.80,RCTP 140700Z 07017KT CAVOK 21/08 Q1027 NOSIG RMK A3034
RCTP,2017-02-14 08:30,66.20,46.40,48.83,60.00,18.00,0.00,30.33,M,6.21,M,M,M,M,M,M,M,M,M,M,M,M,M,M,M,M,66.20,RCTP 140830Z 06018KT CAVOK 19/08 Q1027 NOSIG RMK A3034
RCTP,2017-02-14 09:00,64.40,46.40,51.98,70.00,19.00,0.00,30.33,M,6.21,M,M,M,M,M,M,M,M,M,M,M,M,M,M,M,M,64.40,RCTP 140900Z 07019KT CAVOK 18/08 Q1027 NOSIG RMK A3035
RCTP,2017-02-14 09:30,64.40,46.40,51.98,70.00,16.00,0.00,30.33,M,6.21,M,M,M,M,M,M,M,M,M,M,M,M,M,M,M,M,64.40,RCTP 140930Z 07016KT CAVOK 18/08 Q1027 NOSIG RMK A3035
RCTP,2017-02-14 10:00,62.60,46.40,55.37,70.00,17.00,0.00,30.33,M,6.21,M,M,M,M,M,M,M,M,M,M,M,M,M,M,M,M,62.60,RCTP 141000Z 07017KT CAVOK 17/08 Q1027 NOSIG RMK A3035
RCTP,2017-02-14 10:30,62.60,46.40,55.37,70.00,16.00,0.00,30.33,M,6.21,M,M,M,M,M,M,M,M,M,M,M,M,M,M,M,M,62.60,RCTP 141030Z 07016KT CAVOK 17/08 Q1027 NOSIG RMK A3035
RCTP,2017-02-14 11:00,60.80,46.40,59.01,60.00,15.00,0.00,30.36,M,6.21,M,M,M,M,M,M,M,M,M,M,M,M,M,M,M,M,60.80,RCTP 141100Z 06015KT CAVOK 16/08 Q1028 NOSIG RMK A3036
RCTP,2017-02-14 11:30,60.80,46.40,59.01,60.00,16.00,0.00,30.36,M,6.21,M,M,M,M,M,M,M,M,M,M,M,M,M,M,M,M,60.80,RCTP 141130Z 06016KT CAVOK 16/08 Q1028 NOSIG RMK A3036
RCTP,2017-02-14 12:00,60.80,46.40,59.01,60.00,15.00,0.00,30.36,M,6.21,M,M,M,M,M,M,M,M,M,M,M,M,M,M,M,M,60.80,RCTP 141200Z 06015KT CAVOK 16/08 Q1028 NOSIG RMK A3037
RCTP,2017-02-14 12:30,62.60,44.60,51.72,70.00,16.00,0.00,30.36,M,6.21,M,M,M,M,M,M,M,M,M,M,M,M,M,M,M,M,62.60,RCTP 141230Z 07016KT CAVOK 17/07 Q1028 NOSIG RMK A3037
RCTP,2017-02-14 13:00,62.60,46.40,55.37,70.00,18.00,0.00,30.36,M,6.21,M,M,M,M,M,M,M,M,M,M,M,M,M,M,M,M,62.60,RCTP 141300Z 07018KT CAVOK 17/08 Q1028 NOSIG RMK A3036
RCTP,2017-02-14 13:30,62.60,46.40,55.37,70.00,15.00,0.00,30.36,M,6.21,M,M,M,M,M,M,M,M,M,M,M,M,M,M,M,M,62.60,RCTP 141330Z 07015KT CAVOK 17/08 Q1028 NOSIG RMK A3037
RCTP,2017-02-14 14:00,62.60,46.40,55.37,70.00,14.00,0.00,30.36,M,6.21,M,M,M,M,M,M,M,M,M,M,M,M,M,M,M,M,62.60,RCTP 141400Z 07014KT CAVOK 17/08 Q1028 NOSIG RMK A3036
RCTP,2017-02-14 14:30,62.60,46.40,55.37,70.00,14.00,0.00,30.36,M,6.21,M,M,M,M,M,M,M,M,M,M,M,M,M,M,M,M,62.60,RCTP 141430Z 07014KT CAVOK 17/08 Q1028 NOSIG RMK A3036
RCTP,2017-02-14 15:00,62.60,46.40,55.37,80.00,12.00,0.00,30.36,M,6.21,22.00,M,M,M,M,M,M,M,M,M,M,M,M,M,M,M,62.60,RCTP 141500Z 08012G22KT CAVOK 17/08 Q1028 NOSIG RMK A3036
RCTP,2017-02-14 15:30,62.60,44.60,51.72,70.00,11.00,0.00,30.33,M,6.21,M,M,M,M,M,M,M,M,M,M,M,M,M,M,M,M,62.60,RCTP 141530Z 07011KT CAVOK 17/07 Q1027 NOSIG RMK A3035
RCTP,2017-02-14 16:00,62.60,46.40,55.37,80.00,12.00,0.00,30.33,M,6.21,M,M,M,M,M,M,M,M,M,M,M,M,M,M,M,M,62.60,RCTP 141600Z 08012KT CAVOK 17/08 Q1027 NOSIG RMK A3034
RCTP,2017-02-14 16:30,62.60,46.40,55.37,80.00,11.00,0.00,30.33,M,6.21,M,FEW,M,M,M,3000.00,M,M,M,M,M,M,M,M,M,M,62.60,RCTP 141630Z 08011KT 9999 FEW030 17/08 Q1027 NOSIG RMK A3033
RCTP,2017-02-14 17:00,62.60,48.20,59.26,80.00,12.00,0.00,30.33,M,6.21,M,FEW,SCT,M,M,3000.00,8000.00,M,M,M,M,M,M,M,M,M,62.60,RCTP 141700Z 08012KT 9999 FEW030 SCT080 17/09 Q1027 NOSIG RMK A3033
RCTP,2017-02-14 17:30,62.60,48.20,59.26,90.00,15.00,0.00,30.30,M,6.21,M,FEW,SCT,M,M,3000.00,8000.00,M,M,M,M,M,M,M,M,M,62.60,RCTP 141730Z 09015KT 9999 FEW030 SCT080 17/09 Q1026 NOSIG RMK A3031
RCTP,2017-02-14 18:00,62.60,50.00,63.38,90.00,14.00,0.00,30.30,M,6.21,M,FEW,BKN,M,M,3000.00,8000.00,M,M,M,M,M,M,M,M,M,62.60,RCTP 141800Z 09014KT 9999 FEW030 BKN080 17/10 Q1026 NOSIG RMK A3030
RCTP,2017-02-14 19:00,62.60,50.00,63.38,100.00,11.00,0.00,30.27,M,6.21,M,FEW,SCT,M,M,3000.00,8000.00,M,M,M,M,M,M,M,M,M,62.60,RCTP 141900Z 10011KT 9999 FEW030 SCT080 17/10 Q1025 NOSIG RMK A3029
RCTP,2017-02-14 19:30,62.60,50.00,63.38,100.00,8.00,0.00,30.27,M,6.21,M,FEW,M,M,M,3000.00,M,M,M,M,M,M,M,M,M,M,62.60,RCTP 141930Z 10008KT 9999 FEW030 17/10 Q1025 NOSIG RMK A3029
RCTP,2017-02-14 20:00,62.60,50.00,63.38,100.00,11.00,0.00,30.27,M,6.21,M,FEW,M,M,M,3000.00,M,M,M,M,M,M,M,M,M,M,62.60,RCTP 142000Z 10011KT 9999 FEW030 17/10 Q1025 NOSIG RMK A3028
RCTP,2017-02-14 20:30,62.60,50.00,63.38,100.00,11.00,0.00,30.27,M,6.21,M,FEW,M,M,M,3000.00,M,M,M,M,M,M,M,M,M,M,62.60,RCTP 142030Z 10011KT 9999 FEW030 17/10 Q1025 NOSIG RMK A3027
RCTP,2017-02-14 21:00,62.60,50.00,63.38,110.00,12.00,0.00,30.27,M,6.21,M,FEW,M,M,M,3000.00,M,M,M,M,M,M,M,M,M,M,62.60,RCTP 142100Z 11012KT 9999 FEW030 17/10 Q1025 NOSIG RMK A3028
RCTP,2017-02-14 21:30,62.60,50.00,63.38,120.00,9.00,0.00,30.27,M,6.21,M,FEW,SCT,M,M,3000.00,6000.00,M,M,M,M,M,M,M,M,M,62.60,RCTP 142130Z 12009KT 9999 FEW030 SCT060 17/10 Q1025 NOSIG RMK A3028
RCTP,2017-02-14 22:00,60.80,50.00,67.54,140.00,3.00,0.00,30.30,M,6.21,M,FEW,SCT,M,M,3000.00,6000.00,M,M,M,M,M,M,M,M,M,60.80,RCTP 142200Z 14003KT 9999 FEW030 SCT060 16/10 Q1026 NOSIG RMK A3030
RCTP,2017-02-14 22:30,59.00,50.00,72.01,170.00,3.00,0.00,30.30,M,6.21,M,FEW,M,M,M,3000.00,M,M,M,M,M,M,M,M,M,M,59.00,RCTP 142230Z 17003KT 9999 FEW030 15/10 Q1026 NOSIG RMK A3030
RCTP,2017-02-14 23:00,62.60,51.80,67.75,140.00,7.00,0.00,30.30,M,6.21,M,FEW,M,M,M,3000.00,M,M,M,M,M,M,M,M,M,M,62.60,RCTP 142300Z 14007KT 9999 FEW030 17/11 Q1026 NOSIG RMK A3031
RCTP,2017-02-14 23:30,64.40,51.80,63.60,140.00,5.00,0.00,30.30,M,6.21,M,FEW,M,M,M,3000.00,M,M,M,M,M,M,M,M,M,M,64.40,RCTP 142330Z 14005KT 100V180 9999 FEW030 18/11 Q1026 NOSIG RMK A3032
RCTP,2017-02-15 00:00,66.20,53.60,63.82,130.00,4.00,0.00,30.33,M,6.21,M,FEW,M,M,M,3000.00,M,M,M,M,M,M,M,M,M,M,66.20,RCTP 150000Z 13004KT 090V180 9999 FEW030 19/12 Q1027 NOSIG RMK A3033
RCTP,2017-02-15 00:30,68.00,53.60,59.97,120.00,5.00,0.00,30.33,M,6.21,M,FEW,M,M,M,2500.00,M,M,M,M,M,M,M,M,M,M,68.00,RCTP 150030Z 12005KT 090V160 9999 FEW025 20/12 Q1027 NOSIG RMK A3033
RCTP,2017-02-15 01:00,69.80,53.60,56.38,130.00,7.00,0.00,30.33,M,6.21,M,FEW,M,M,M,2500.00,M,M,M,M,M,M,M,M,M,M,69.80,RCTP 150100Z 13007KT 090V160 9999 FEW025 21/12 Q1027 NOSIG RMK A3033
RCTP,2017-02-15 01:30,71.60,51.80,49.64,130.00,6.00,0.00,30.33,M,6.21,M,FEW,M,M,M,2500.00,M,M,M,M,M,M,M,M,M,M,71.60,RCTP 150130Z 13006KT 080V160 9999 FEW025 22/11 Q1027 NOSIG RMK A3033
RCTP,2017-02-15 02:00,73.40,51.80,46.71,M,2.00,0.00,30.33,M,6.21,M,FEW,M,M,M,2500.00,M,M,M,M,M,M,M,M,M,M,73.40,RCTP 150200Z VRB02KT 9999 FEW025 23/11 Q1027 NOSIG RMK A3033
RCTP,2017-02-15 02:30,71.60,53.60,53.03,290.00,7.00,0.00,30.30,M,6.21,M,FEW,M,M,M,2500.00,M,M,M,M,M,M,M,M,M,M,71.60,RCTP 150230Z 29007KT 9999 FEW025 22/12 Q1026 NOSIG RMK A3032
RCTP,2017-02-15 03:00,71.60,53.60,53.03,310.00,7.00,0.00,30.30,M,6.21,M,FEW,M,M,M,2500.00,M,M,M,M,M,M,M,M,M,M,71.60,RCTP 150300Z 31007KT 270V340 9999 FEW025 22/12 Q1026 NOSIG RMK A3032
RCTP,2017-02-15 03:30,73.40,53.60,49.90,310.00,7.00,0.00,30.30,M,6.21,M,FEW,M,M,M,3000.00,M,M,M,M,M,M,M,M,M,M,73.40,RCTP 150330Z 31007KT 9999 FEW030 23/12 Q1026 NOSIG RMK A3031
RCTP,2017-02-15 04:00,73.40,55.40,53.29,310.00,8.00,0.00,30.30,M,6.21,M,FEW,M,M,M,3000.00,M,M,M,M,M,M,M,M,M,M,73.40,RCTP 150400Z 31008KT 9999 FEW030 23/13 Q1026 NOSIG RMK A3030
RCTP,2017-02-15 04:30,71.60,55.40,56.63,310.00,9.00,0.00,30.27,M,6.21,M,FEW,M,M,M,3000.00,M,M,M,M,M,M,M,M,M,M,71.60,RCTP 150430Z 31009KT 9999 FEW030 22/13 Q1025 NOSIG RMK A3028
RCTP,2017-02-15 05:00,71.60,55.40,56.63,320.00,8.00,0.00,30.24,M,6.21,M,FEW,M,M,M,3000.00,M,M,M,M,M,M,M,M,M,M,71.60,RCTP 150500Z 32008KT 9999 FEW030 22/13 Q1024 NOSIG RMK A3026
RCTP,2017-02-15 05:30,73.40,55.40,53.29,320.00,8.00,0.00,30.24,M,6.21,M,FEW,M,M,M,3000.00,M,M,M,M,M,M,M,M,M,M,73.40,RCTP 150530Z 32008KT 290V360 9999 FEW030 23/13 Q1024 NOSIG RMK A3025
RCTP,2017-02-15 06:00,73.40,55.40,53.29,320.00,8.00,0.00,30.24,M,6.21,M,FEW,M,M,M,3000.00,M,M,M,M,M,M,M,M,M,M,73.40,RCTP 150600Z 32008KT 290V360 9999 FEW030 23/13 Q1024 NOSIG RMK A3024
RCTP,2017-02-15 06:30,73.40,55.40,53.29,310.00,8.00,0.00,30.21,M,6.21,M,FEW,M,M,M,3000.00,M,M,M,M,M,M,M,M,M,M,73.40,RCTP 150630Z 31008KT 270V330 9999 FEW030 23/13 Q1023 NOSIG RMK A3023
RCTP,2017-02-15 07:00,71.60,55.40,56.63,330.00,7.00,0.00,30.21,M,6.21,M,FEW,SCT,M,M,3000.00,8000.00,M,M,M,M,M,M,M,M,M,71.60,RCTP 150700Z 33007KT 9999 FEW030 SCT080 22/13 Q1023 NOSIG RMK A3022
RCTP,2017-02-15 07:30,71.60,57.20,60.44,330.00,5.00,0.00,30.21,M,6.21,M,FEW,SCT,M,M,3000.00,8000.00,M,M,M,M,M,M,M,M,M,71.60,RCTP 150730Z 33005KT 9999 FEW030 SCT080 22/14 Q1023 NOSIG RMK A3021
RCTP,2017-02-15 08:00,71.60,55.40,56.63,10.00,5.00,0.00,30.21,M,6.21,M,FEW,SCT,M,M,3000.00,8000.00,M,M,M,M,M,M,M,M,M,71.60,RCTP 150800Z 01005KT 340V040 9999 FEW030 SCT080 22/13 Q1023 NOSIG RMK A3021
RCTP,2017-02-15 08:30,71.60,53.60,53.03,20.00,5.00,0.00,30.21,M,6.21,M,FEW,BKN,M,M,3000.00,8000.00,M,M,M,M,M,M,M,M,M,71.60,RCTP 150830Z 02005KT 340V040 9999 FEW030 BKN080 22/12 Q1023 NOSIG RMK A3021
RCTP,2017-02-15 09:00,71.60,55.40,56.63,20.00,4.00,0.00,30.21,M,6.21,M,FEW,BKN,M,M,2000.00,6000.00,M,M,M,M,M,M,M,M,M,71.60,RCTP 150900Z 02004KT 350V050 9999 FEW020 BKN060 22/13 Q1023 NOSIG RMK A3022
RCTP,2017-02-15 09:30,69.80,59.00,68.55,300.00,4.00,0.00,30.21,M,6.21,M,FEW,BKN,M,M,2000.00,6000.00,M,M,M,M,M,M,M,M,M,69.80,RCTP 150930Z 30004KT 9999 FEW020 BKN060 21/15 Q1023 NOSIG RMK A3022
RCTP,2017-02-15 10:00,68.00,59.00,72.92,290.00,3.00,0.00,30.21,M,6.21,M,FEW,BKN,M,M,2000.00,6000.00,M,M,M,M,M,M,M,M,M,68.00,RCTP 151000Z 29003KT 9999 FEW020 BKN060 20/15 Q1023 NOSIG RMK A3022
RCTP,2017-02-15 10:30,66.20,59.00,77.60,300.00,3.00,0.00,30.21,M,6.21,M,FEW,BKN,M,M,2000.00,6000.00,M,M,M,M,M,M,M,M,M,66.20,RCTP 151030Z 30003KT 9999 FEW020 BKN060 19/15 Q1023 NOSIG RMK A3022
RCTP,2017-02-15 11:00,64.40,57.20,77.45,M,2.00,0.00,30.21,M,6.21,M,FEW,SCT,M,M,2000.00,6000.00,M,M,M,M,M,M,M,M,M,64.40,RCTP 151100Z VRB02KT 9999 FEW020 SCT060 18/14 Q1023 NOSIG RMK A3022
RCTP,2017-02-15 11:30,66.20,59.00,77.60,210.00,4.00,0.00,30.21,M,6.21,M,FEW,SCT,M,M,2000.00,6000.00,M,M,M,M,M,M,M,M,M,66.20,RCTP 151130Z 21004KT 150V270 9999 FEW020 SCT060 19/15 Q1023 NOSIG RMK A3023
RCTP,2017-02-15 12:00,64.40,59.00,82.62,210.00,4.00,0.00,30.24,M,6.21,M,FEW,SCT,M,M,2000.00,6000.00,M,M,M,M,M,M,M,M,M,64.40,RCTP 151200Z 21004KT 170V230 9999 FEW020 SCT060 18/15 Q1024 NOSIG RMK A3024
RCTP,2017-02-15 12:30,64.40,59.00,82.62,250.00,2.00,0.00,30.21,M,6.21,M,FEW,SCT,M,M,2000.00,6000.00,M,M,M,M,M,M,M,M,M,64.40,RCTP 151230Z 25002KT 9999 FEW020 SCT060 18/15 Q1023 NOSIG RMK A3022
RCTP,2017-02-15 13:00,62.60,59.00,88.00,250.00,4.00,0.00,30.21,M,6.21,M,FEW,SCT,M,M,2000.00,6000.00,M,M,M,M,M,M,M,M,M,62.60,RCTP 151300Z 25004KT 9999 FEW020 SCT060 17/15 Q1023 NOSIG RMK A3022
RCTP,2017-02-15 13:30,60.80,57.20,87.92,M,2.00,0.00,30.21,M,4.97,M,FEW,SCT,M,M,2000.00,6000.00,M,M,M,M,M,M,M,M,M,60.80,RCTP 151330Z VRB02KT 8000 FEW020 SCT060 16/14 Q1023 NOSIG RMK A3022
RCTP,2017-02-15 14:00,60.80,59.00,93.79,230.00,2.00,0.00,30.21,M,4.97,M,FEW,M,M,M,2000.00,M,M,M,M,M,M,M,M,M,M,60.80,RCTP 151400Z 23002KT 8000 FEW020 16/15 Q1023 NOSIG RMK A3022
RCTP,2017-02-15 14:30,60.80,59.00,93.79,240.00,3.00,0.00,30.21,M,4.97,M,FEW,M,M,M,2000.00,M,M,M,M,M,M,M,M,M,M,60.80,RCTP 151430Z 24003KT 8000 FEW020 16/15 Q1023 NOSIG RMK A3021
RCTP,2017-02-15 15:00,60.80,57.20,87.92,230.00,5.00,0.00,30.18,M,3.73,M,FEW,M,M,M,2000.00,M,M,M,M,M,M,M,M,M,M,60.80,RCTP 151500Z 23005KT 6000 FEW020 16/14 Q1022 NOSIG RMK A3020
RCTP,2017-02-15 15:30,60.80,57.20,87.92,220.00,5.00,0.00,30.18,M,3.73,M,FEW,M,M,M,2000.00,M,M,M,M,M,M,M,M,M,M,60.80,RCTP 151530Z 22005KT 6000 FEW020 16/14 Q1022 NOSIG RMK A3020
RCTP,2017-02-15 16:00,60.80,57.20,87.92,220.00,5.00,0.00,30.18,M,3.73,M,FEW,M,M,M,2000.00,M,M,M,M,M,M,M,M,M,M,60.80,RCTP 151600Z 22005KT 180V240 6000 FEW020 16/14 Q1022 NOSIG RMK A3019
RCTP,2017-02-15 16:30,59.00,57.20,93.74,220.00,5.00,0.00,30.18,M,3.73,M,FEW,M,M,M,2000.00,M,M,M,M,M,M,M,M,M,M,59.00,RCTP 151630Z 22005KT 6000 FEW020 15/14 Q1022 NOSIG RMK A3018
RCTP,2017-02-15 17:00,59.00,57.20,93.74,210.00,5.00,0.00,30.18,M,3.73,M,FEW,M,M,M,2000.00,M,M,M,M,M,M,M,M,M,M,59.00,RCTP 151700Z 21005KT 6000 FEW020 15/14 Q1022 NOSIG RMK A3018
RCTP,2017-02-15 17:30,57.20,55.40,93.69,240.00,5.00,0.00,30.15,M,3.73,M,FEW,SCT,M,M,2000.00,7000.00,M,M,M,M,M,M,M,M,M,57.20,RCTP 151730Z 24005KT 6000 FEW020 SCT070 14/13 Q1021 NOSIG RMK A3017
RCTP,2017-02-15 17:46,59.00,57.20,93.74,240.00,6.00,0.00,30.15,M,3.73,M,FEW,SCT,M,M,2000.00,7000.00,M,M,M,M,M,M,M,M,M,59.00,RCTP 151746Z 24006KT 6000 FEW020 SCT070 15/14 Q1021 NOSIG RMK R23 A3016
RCTP,2017-02-15 18:00,57.20,57.20,100.00,240.00,6.00,0.00,30.15,M,3.73,M,FEW,SCT,M,M,2000.00,7000.00,M,M,M,M,M,M,M,M,M,57.20,RCTP 151800Z 24006KT 6000 FEW020 SCT070 14/14 Q1021 NOSIG RMK A3016
RCTP,2017-02-15 18:30,57.20,57.20,100.00,230.00,11.00,0.00,30.15,M,2.49,M,FEW,M,M,M,2000.00,M,M,M,BR,M,M,M,M,M,M,57.20,RCTP 151830Z 23011KT 4000 BR FEW020 14/14 Q1021 NOSIG RMK A3017
RCTP,2017-02-15 18:44,57.20,57.20,100.00,230.00,10.00,0.00,30.15,M,1.74,M,FEW,BKN,M,M,300.00,500.00,M,M,BR,M,M,M,M,M,M,57.20,RCTP 151844Z 23010KT 2800 BR FEW003 BKN005 14/14 Q1021 NOSIG RMK A3016
RCTP,2017-02-15 19:00,57.20,57.20,100.00,230.00,10.00,0.00,30.15,M,0.99,M,SCT,BKN,M,M,200.00,300.00,M,M,BR,M,M,M,M,M,M,57.20,RCTP 151900Z 23010KT 1600 BR SCT002 BKN003 14/14 Q1021 NOSIG RMK A3015
RCTP,2017-02-15 19:30,57.20,57.20,100.00,230.00,13.00,0.00,30.15,M,0.99,M,SCT,BKN,M,M,200.00,300.00,M,M,BR,M,M,M,M,M,M,57.20,RCTP 151930Z 23013KT 1600 BR SCT002 BKN003 14/14 Q1021 NOSIG RMK A3016
RCTP,2017-02-15 20:00,59.00,57.20,93.74,210.00,8.00,0.00,30.15,M,1.37,M,SCT,BKN,M,M,300.00,500.00,M,M,BR,M,M,M,M,M,M,59.00,RCTP 152000Z 21008KT 2200 BR SCT003 BKN005 15/14 Q1021 NOSIG RMK A3015
RCTP,2017-02-15 20:30,59.00,57.20,93.74,210.00,9.00,0.00,30.15,M,1.99,M,SCT,BKN,M,M,500.00,700.00,M,M,BR,M,M,M,M,M,M,59.00,RCTP 152030Z 21009KT 3200 BR SCT005 BKN007 15/14 Q1021 NOSIG RMK A3015
RCTP,2017-02-15 20:55,59.00,57.20,93.74,200.00,8.00,0.00,30.15,M,1.99,M,SCT,M,M,M,500.00,M,M,M,BR,M,M,M,M,M,M,59.00,RCTP 152055Z 20008KT 3200 BR SCT005 15/14 Q1021 NOSIG RMK A3015
RCTP,2017-02-15 21:00,57.20,57.20,100.00,200.00,8.00,0.00,30.15,M,1.99,M,FEW,M,M,M,500.00,M,M,M,BR,M,M,M,M,M,M,57.20,RCTP 152100Z 20008KT 3200 BR FEW005 14/14 Q1021 NOSIG RMK A3015
RCTP,2017-02-15 21:30,57.20,55.40,93.69,180.00,6.00,0.00,30.15,M,1.99,M,FEW,M,M,M,500.00,M,M,M,BR,M,M,M,M,M,M,57.20,RCTP 152130Z 18006KT 3200 BR FEW005 14/13 Q1021 NOSIG RMK A3016
RCTP,2017-02-15 22:00,57.20,55.40,93.69,190.00,6.00,0.00,30.15,M,1.99,M,FEW,M,M,M,500.00,M,M,M,BR,M,M,M,M,M,M,57.20,RCTP 152200Z 19006KT 160V220 3200 BR FEW005 14/13 Q1021 NOSIG RMK A3016
RCTP,2017-02-15 22:30,55.40,55.40,100.00,200.00,7.00,0.00,30.15,M,1.99,M,FEW,SCT,M,M,1000.00,1300.00,M,M,BR,M,M,M,M,M,M,55.40,RCTP 152230Z 20007KT 3200 BR FEW010 SCT013 13/13 Q1021 NOSIG RMK A3016
RCTP,2017-02-15 23:00,55.40,55.40,100.00,220.00,5.00,0.00,30.15,M,1.99,M,FEW,SCT,M,M,1000.00,1300.00,M,M,BR,M,M,M,M,M,M,55.40,RCTP 152300Z 22005KT 3200 BR FEW010 SCT013 13/13 Q1021 NOSIG RMK A3017
RCTP,2017-02-15 23:30,59.00,57.20,93.74,210.00,6.00,0.00,30.18,M,1.99,M,FEW,SCT,M,M,1000.00,1300.00,M,M,BR,M,M,M,M,M,M,59.00,RCTP 152330Z 21006KT 3200 BR FEW010 SCT013 15/14 Q1022 NOSIG RMK A3018
RCTP,2017-02-16 00:00,60.80,59.00,93.79,240.00,6.00,0.00,30.18,M,2.61,M,FEW,SCT,M,M,1000.00,1300.00,M,M,BR,M,M,M,M,M,M,60.80,RCTP 160000Z 24006KT 4200 BR FEW010 SCT013 16/15 Q1022 NOSIG RMK A3018
RCTP,2017-02-16 00:30,62.60,57.20,82.50,210.00,6.00,0.00,30.18,M,2.80,M,FEW,SCT,M,M,800.00,1200.00,M,M,BR,M,M,M,M,M,M,62.60,RCTP 160030Z 21006KT 170V250 4500 BR FEW008 SCT012 17/14 Q1022 BECMG 5000 BR RMK A3019
RCTP,2017-02-16 00:53,64.40,57.20,77.45,220.00,5.00,0.00,30.18,M,3.11,M,FEW,SCT,M,M,800.00,1200.00,M,M,BR,M,M,M,M,M,M,64.40,RCTP 160053Z 22005KT 190V250 5000 BR FEW008 SCT012 18/14 Q1022 NOSIG RMK A3020
RCTP,2017-02-16 01:00,64.40,57.20,77.45,220.00,6.00,0.00,30.18,M,3.11,M,SCT,M,M,M,1200.00,M,M,M,BR,M,M,M,M,M,M,64.40,RCTP 160100Z 22006KT 180V250 5000 BR SCT012 18/14 Q1022 NOSIG RMK A3020
RCTP,2017-02-16 01:30,66.20,57.20,72.74,220.00,7.00,0.00,30.18,M,3.73,M,FEW,M,M,M,1200.00,M,M,M,M,M,M,M,M,M,M,66.20,RCTP 160130Z 22007KT 180V250 6000 FEW012 19/14 Q1022 NOSIG RMK A3020
RCTP,2017-02-16 02:00,68.00,57.20,68.35,230.00,5.00,0.00,30.18,M,4.35,M,FEW,M,M,M,1200.00,M,M,M,M,M,M,M,M,M,M,68.00,RCTP 160200Z 23005KT 190V290 7000 FEW012 20/14 Q1022 NOSIG RMK A3020
RCTP,2017-02-16 02:30,68.00,57.20,68.35,220.00,5.00,0.00,30.18,M,4.35,M,FEW,M,M,M,1200.00,M,M,M,M,M,M,M,M,M,M,68.00,RCTP 160230Z 22005KT 140V280 7000 FEW012 20/14 Q1022 NOSIG RMK A3019
RCTP,2017-02-16 03:00,69.80,57.20,64.26,M,5.00,0.00,30.18,M,4.35,M,FEW,M,M,M,1200.00,M,M,M,M,M,M,M,M,M,M,69.80,RCTP 160300Z VRB05KT 7000 FEW012 21/14 Q1022 NOSIG RMK A3018
RCTP,2017-02-16 03:30,69.80,59.00,68.55,300.00,9.00,0.00,30.15,M,4.97,M,FEW,M,M,M,1200.00,M,M,M,M,M,M,M,M,M,M,69.80,RCTP 160330Z 30009KT 8000 FEW012 21/15 Q1021 NOSIG RMK A3016
RCTP,2017-02-16 04:00,68.00,57.20,68.35,290.00,10.00,0.00,30.15,M,4.97,M,FEW,M,M,M,1200.00,M,M,M,M,M,M,M,M,M,M,68.00,RCTP 160400Z 29010KT 260V320 8000 FEW012 20/14 Q1021 NOSIG RMK A3016
RCTP,2017-02-16 04:30,68.00,59.00,72.92,290.00,10.00,0.00,30.12,M,5.59,M,FEW,M,M,M,1200.00,M,M,M,M,M,M,M,M,M,M,68.00,RCTP 160430Z 29010KT 9000 FEW012 20/15 Q1020 NOSIG RMK A3014
RCTP,2017-02-16 05:00,69.80,59.00,68.55,290.00,9.00,0.00,30.12,M,5.59,M,FEW,M,M,M,1200.00,M,M,M,M,M,M,M,M,M,M,69.80,RCTP 160500Z 29009KT 9000 FEW012 21/15 Q1020 NOSIG RMK A3013
RCTP,2017-02-16 05:30,68.00,57.20,68.35,300.00,12.00,0.00,30.12,M,5.59,M,FEW,M,M,M,1200.00,M,M,M,M,M,M,M,M,M,M,68.00,RCTP 160530Z 30012KT 9000 FEW012 20/14 Q1020 NOSIG RMK A3012
RCTP,2017-02-16 06:00,68.00,57.20,68.35,290.00,9.00,0.00,30.09,M,5.59,M,FEW,M,M,M,1200.00,M,M,M,M,M,M,M,M,M,M,68.00,RCTP 160600Z 29009KT 9000 FEW012 20/14 Q1019 NOSIG RMK A3010
RCTP,2017-02-16 06:30,71.60,59.00,64.48,290.00,6.00,0.00,30.09,M,5.59,M,FEW,M,M,M,1200.00,M,M,M,M,M,M,M,M,M,M,71.60,RCTP 160630Z 29006KT 9000 FEW012 22/15 Q1019 NOSIG RMK A3010
RCTP,2017-02-16 07:00,69.80,57.20,64.26,310.00,6.00,0.00,30.09,M,6.21,M,FEW,M,M,M,1200.00,M,M,M,M,M,M,M,M,M,M,69.80,RCTP 160700Z 31006KT 270V340 9999 FEW012 21/14 Q1019 NOSIG RMK A3009
RCTP,2017-02-16 07:30,69.80,57.20,64.26,340.00,5.00,0.00,30.09,M,6.21,M,FEW,M,M,M,1200.00,M,M,M,M,M,M,M,M,M,M,69.80,RCTP 160730Z 34005KT 300V010 9999 FEW012 21/14 Q1019 NOSIG RMK A3009
RCTP,2017-02-16 08:00,69.80,57.20,64.26,330.00,4.00,0.00,30.09,M,6.21,M,FEW,M,M,M,1200.00,M,M,M,M,M,M,M,M,M,M,69.80,RCTP 160800Z 33004KT 300V020 9999 FEW012 21/14 Q1019 NOSIG RMK A3009
RCTP,2017-02-16 08:30,71.60,57.20,60.44,350.00,2.00,0.00,30.09,M,6.21,M,FEW,M,M,M,1200.00,M,M,M,M,M,M,M,M,M,M,71.60,RCTP 160830Z 35002KT 9999 FEW012 22/14 Q1019 NOSIG RMK A3009
RCTP,2017-02-16 09:00,71.60,57.20,60.44,350.00,2.00,0.00,30.09,M,6.21,M,FEW,M,M,M,1200.00,M,M,M,M,M,M,M,M,M,M,71.60,RCTP 160900Z 35002KT 9999 FEW012 22/14 Q1019 NOSIG RMK A3009
RCTP,2017-02-16 09:30,69.80,55.40,60.21,M,2.00,0.00,30.09,M,6.21,M,FEW,M,M,M,1200.00,M,M,M,M,M,M,M,M,M,M,69.80,RCTP 160930Z VRB02KT 9999 FEW012 21/13 Q1019 NOSIG RMK A3010
RCTP,2017-02-16 10:00,66.20,57.20,72.74,340.00,2.00,0.00,30.09,M,6.21,M,FEW,M,M,M,1200.00,M,M,M,M,M,M,M,M,M,M,66.20,RCTP 161000Z 34002KT 9999 FEW012 19/14 Q1019 NOSIG RMK A3010
RCTP,2017-02-16 10:30,64.40,57.20,77.45,M,1.00,0.00,30.09,M,6.21,M,FEW,M,M,M,1200.00,M,M,M,M,M,M,M,M,M,M,64.40,RCTP 161030Z VRB01KT 9999 FEW012 18/14 Q1019 NOSIG RMK A3010
RCTP,2017-02-16 11:00,62.60,55.40,77.29,M,3.00,0.00,30.09,M,6.21,M,FEW,M,M,M,1200.00,M,M,M,M,M,M,M,M,M,M,62.60,RCTP 161100Z VRB03KT 9999 FEW012 17/13 Q1019 NOSIG RMK A3010
RCTP,2017-02-16 11:30,60.80,53.60,77.14,140.00,3.00,0.00,30.09,M,6.21,M,FEW,M,M,M,1200.00,M,M,M,M,M,M,M,M,M,M,60.80,RCTP 161130Z 14003KT 110V220 9999 FEW012 16/12 Q1019 NOSIG RMK A3011
RCTP,2017-02-16 12:00,62.60,53.60,72.38,M,2.00,0.00,30.12,M,6.21,M,FEW,M,M,M,1200.00,M,M,M,M,M,M,M,M,M,M,62.60,RCTP 161200Z VRB02KT 9999 FEW012 17/12 Q1020 NOSIG RMK A3012
RCTP,2017-02-16 12:30,60.80,51.80,72.20,150.00,4.00,0.00,30.12,M,6.21,M,FEW,M,M,M,1200.00,M,M,M,M,M,M,M,M,M,M,60.80,RCTP 161230Z 15004KT 120V190 9999 FEW012 16/11 Q1020 NOSIG RMK A3012
RCTP,2017-02-16 13:00,64.40,51.80,63.60,160.00,6.00,0.00,30.12,M,6.21,M,FEW,M,M,M,1200.00,M,M,M,M,M,M,M,M,M,M,64.40,RCTP 161300Z 16006KT 120V210 9999 FEW012 18/11 Q1020 NOSIG RMK A3012
RCTP,2017-02-16 13:30,66.20,50.00,55.88,150.00,7.00,0.00,30.12,M,6.21,M,FEW,M,M,M,1200.00,M,M,M,M,M,M,M,M,M,M,66.20,RCTP 161330Z 15007KT 9999 FEW012 19/10 Q1020 NOSIG RMK A3013
RCTP,2017-02-16 14:00,66.20,51.80,59.74,150.00,8.00,0.00,30.12,M,6.21,M,FEW,SCT,M,M,1200.00,15000.00,M,M,M,M,M,M,M,M,M,66.20,RCTP 161400Z 15008KT 130V210 9999 FEW012 SCT150 19/11 Q1020 NOSIG RMK A3013
RCTP,2017-02-16 14:30,66.20,51.80,59.74,160.00,8.00,0.00,30.12,M,6.21,M,FEW,SCT,M,M,1200.00,15000.00,M,M,M,M,M,M,M,M,M,66.20,RCTP 161430Z 16008KT 130V200 9999 FEW012 SCT150 19/11 Q1020 NOSIG RMK A3013
RCTP,2017-02-16 15:00,66.20,51.80,59.74,160.00,8.00,0.00,30.12,M,6.21,M,FEW,SCT,M,M,1200.00,15000.00,M,M,M,M,M,M,M,M,M,66.20,RCTP 161500Z 16008KT 140V200 9999 FEW012 SCT150 19/11 Q1020 NOSIG RMK A3012
RCTP,2017-02-16 15:30,64.40,51.80,63.60,160.00,7.00,0.00,30.12,M,6.21,M,FEW,SCT,M,M,1200.00,15000.00,M,M,M,M,M,M,M,M,M,64.40,RCTP 161530Z 16007KT 140V200 9999 FEW012 SCT150 18/11 Q1020 NOSIG RMK A3012
RCTP,2017-02-16 16:00,64.40,51.80,63.60,150.00,7.00,0.00,30.12,M,6.21,M,FEW,M,M,M,1200.00,M,M,M,M,M,M,M,M,M,M,64.40,RCTP 161600Z 15007KT 130V200 9999 FEW012 18/11 Q1020 NOSIG RMK A3013
RCTP,2017-02-16 16:30,64.40,51.80,63.60,160.00,6.00,0.00,30.12,M,6.21,M,FEW,M,M,M,1200.00,M,M,M,M,M,M,M,M,M,M,64.40,RCTP 161630Z 16006KT 120V200 9999 FEW012 18/11 Q1020 NOSIG RMK A3012
RCTP,2017-02-16 17:00,62.60,51.80,67.75,160.00,5.00,0.00,30.12,M,6.21,M,FEW,M,M,M,1200.00,M,M,M,M,M,M,M,M,M,M,62.60,RCTP 161700Z 16005KT 130V200 9999 FEW012 17/11 Q1020 NOSIG RMK A3012
RCTP,2017-02-16 17:30,60.80,51.80,72.20,150.00,4.00,0.00,30.12,M,6.21,M,FEW,M,M,M,1200.00,M,M,M,M,M,M,M,M,M,M,60.80,RCTP 161730Z 15004KT 9999 FEW012 16/11 Q1020 NOSIG RMK A3012
RCTP,2017-02-16 18:00,59.00,51.80,76.98,160.00,3.00,0.00,30.09,M,6.21,M,FEW,M,M,M,1200.00,M,M,M,M,M,M,M,M,M,M,59.00,RCTP 161800Z 16003KT 130V190 9999 FEW012 15/11 Q1019 NOSIG RMK A3011
RCTP,2017-02-16 18:30,60.80,53.60,77.14,170.00,4.00,0.00,30.09,M,6.21,M,FEW,M,M,M,1200.00,M,M,M,M,M,M,M,M,M,M,60.80,RCTP 161830Z 17004KT 140V210 9999 FEW012 16/12 Q1019 NOSIG RMK A3011
RCTP,2017-02-16 19:00,60.80,53.60,77.14,160.00,5.00,0.00,30.12,M,6.21,M,FEW,M,M,M,1200.00,M,M,M,M,M,M,M,M,M,M,60.80,RCTP 161900Z 16005KT 140V210 9999 FEW012 16/12 Q1020 NOSIG RMK A3012
RCTP,2017-02-16 19:30,59.00,53.60,82.25,M,2.00,0.00,30.12,M,6.21,M,FEW,M,M,M,1200.00,M,M,M,M,M,M,M,M,M,M,59.00,RCTP 161930Z VRB02KT 9999 FEW012 15/12 Q1020 NOSIG RMK A3012
RCTP,2017-02-16 20:00,60.80,55.40,82.37,150.00,6.00,0.00,30.09,M,6.21,M,FEW,M,M,M,1200.00,M,M,M,M,M,M,M,M,M,M,60.80,RCTP 162000Z 15006KT 9999 FEW012 16/13 Q1019 NOSIG RMK A3011
RCTP,2017-02-16 20:30,60.80,55.40,82.37,150.00,5.00,0.00,30.09,M,6.21,M,FEW,M,M,M,1200.00,M,M,M,M,M,M,M,M,M,M,60.80,RCTP 162030Z 15005KT 9999 FEW012 16/13 Q1019 NOSIG RMK A3011
RCTP,2017-02-16 21:00,60.80,55.40,82.37,160.00,6.00,0.00,30.12,M,6.21,M,FEW,M,M,M,1200.00,M,M,M,M,M,M,M,M,M,M,60.80,RCTP 162100Z 16006KT 9999 FEW012 16/13 Q1020 NOSIG RMK A3012
RCTP,2017-02-16 21:30,60.80,55.40,82.37,150.00,6.00,0.00,30.12,M,6.21,M,FEW,M,M,M,1200.00,M,M,M,M,M,M,M,M,M,M,60.80,RCTP 162130Z 15006KT 9999 FEW012 16/13 Q1020 NOSIG RMK A3013
RCTP,2017-02-16 22:00,60.80,53.60,77.14,150.00,9.00,0.00,30.12,M,6.21,M,FEW,M,M,M,1200.00,M,M,M,M,M,M,M,M,M,M,60.80,RCTP 162200Z 15009KT 9999 FEW012 16/12 Q1020 NOSIG RMK A3013
RCTP,2017-02-16 22:30,60.80,53.60,77.14,150.00,8.00,0.00,30.12,M,6.21,M,FEW,M,M,M,1200.00,M,M,M,M,M,M,M,M,M,M,60.80,RCTP 162230Z 15008KT 9999 FEW012 16/12 Q1020 NOSIG RMK A3014
RCTP,2017-02-16 23:00,62.60,51.80,67.75,160.00,9.00,0.00,30.15,M,6.21,M,FEW,M,M,M,1200.00,M,M,M,M,M,M,M,M,M,M,62.60,RCTP 162300Z 16009KT 140V200 9999 FEW012 17/11 Q1021 NOSIG RMK A3015
RCTP,2017-02-16 23:30,64.40,53.60,67.95,160.00,8.00,0.00,30.15,M,6.21,M,FEW,M,M,M,1200.00,M,M,M,M,M,M,M,M,M,M,64.40,RCTP 162330Z 16008KT 9999 FEW012 18/12 Q1021 NOSIG RMK A3016
RCTP,2017-02-17 00:00,66.20,53.60,63.82,170.00,7.00,0.00,30.15,M,6.21,M,FEW,M,M,M,1200.00,M,M,M,M,M,M,M,M,M,M,66.20,RCTP 170000Z 17007KT 9999 FEW012 19/12 Q1021 NOSIG RMK A3017
RCTP,2017-02-17 00:30,68.00,55.40,64.04,160.00,6.00,0.00,30.18,M,6.21,M,FEW,M,M,M,1200.00,M,M,M,M,M,M,M,M,M,M,68.00,RCTP 170030Z 16006KT 9999 FEW012 20/13 Q1022 NOSIG RMK A3019
RCTP,2017-02-17 01:00,71.60,55.40,56.63,170.00,5.00,0.00,30.18,M,6.21,M,FEW,M,M,M,1200.00,M,M,M,M,M,M,M,M,M,M,71.60,RCTP 170100Z 17005KT 9999 FEW012 22/13 Q1022 NOSIG RMK A3019
RCTP,2017-02-17 01:30,75.20,55.40,50.17,160.00,3.00,0.00,30.18,M,6.21,M,FEW,M,M,M,1200.00,M,M,M,M,M,M,M,M,M,M,75.20,RCTP 170130Z 16003KT 9999 FEW012 24/13 Q1022 NOSIG RMK A3020
RCTP,2017-02-17 02:00,77.00,55.40,47.25,130.00,3.00,0.00,30.18,M,6.21,M,FEW,M,M,M,1200.00,M,M,M,M,M,M,M,M,M,M,77.00,RCTP 170200Z 13003KT 9999 FEW012 25/13 Q1022 NOSIG RMK A3020
RCTP,2017-02-17 02:30,77.00,53.60,44.25,120.00,2.00,0.00,30.18,M,6.21,M,FEW,M,M,M,1200.00,M,M,M,M,M,M,M,M,M,M,77.00,RCTP 170230Z 12002KT 9999 FEW012 25/12 Q1022 NOSIG RMK A3019
RCTP,2017-02-17 03:00,78.80,55.40,44.52,350.00,5.00,0.00,30.18,M,6.21,M,FEW,M,M,M,1200.00,M,M,M,M,M,M,M,M,M,M,78.80,RCTP 170300Z 35005KT 9999 FEW012 26/13 Q1022 NOSIG RMK A3018
RCTP,2017-02-17 03:14,77.00,55.40,47.25,310.00,7.00,0.00,30.15,M,6.21,M,FEW,M,M,M,1200.00,M,M,M,M,M,M,M,M,M,M,77.00,RCTP 170314Z 31007KT 9999 FEW012 25/13 Q1021 NOSIG RMK R05 A3017
RCTP,2017-02-17 03:30,77.00,55.40,47.25,320.00,7.00,0.00,30.15,M,6.21,M,FEW,M,M,M,1200.00,M,M,M,M,M,M,M,M,M,M,77.00,RCTP 170330Z 32007KT 9999 FEW012 25/13 Q1021 NOSIG RMK A3017
RCTP,2017-02-17 04:00,77.00,55.40,47.25,320.00,8.00,0.00,30.15,M,6.21,M,FEW,M,M,M,2000.00,M,M,M,M,M,M,M,M,M,M,77.00,RCTP 170400Z 32008KT 9999 FEW020 25/13 Q1021 NOSIG RMK A3015
RCTP,2017-02-17 04:30,77.00,57.20,50.43,320.00,9.00,0.00,30.12,M,6.21,M,FEW,SCT,M,M,2000.00,20000.00,M,M,M,M,M,M,M,M,M,77.00,RCTP 170430Z 32009KT 9999 FEW020 SCT200 25/14 Q1020 NOSIG RMK A3014
RCTP,2017-02-17 05:00,77.00,59.00,53.80,310.00,8.00,0.00,30.12,M,6.21,M,FEW,SCT,M,M,2000.00,20000.00,M,M,M,M,M,M,M,M,M,77.00,RCTP 170500Z 31008KT 9999 FEW020 SCT200 25/15 Q1020 NOSIG RMK A3013
RCTP,2017-02-17 05:30,77.00,59.00,53.80,320.00,8.00,0.00,30.12,M,6.21,M,FEW,SCT,M,M,2000.00,20000.00,M,M,M,M,M,M,M,M,M,77.00,RCTP 170530Z 32008KT 9999 FEW020 SCT200 25/15 Q1020 NOSIG RMK A3012
RCTP,2017-02-17 06:00,75.20,59.00,57.12,310.00,8.00,0.00,30.09,M,6.21,M,FEW,SCT,M,M,2000.00,20000.00,M,M,M,M,M,M,M,M,M,75.20,RCTP 170600Z 31008KT 9999 FEW020 SCT200 24/15 Q1019 NOSIG RMK A3011
RCTP,2017-02-17 06:30,75.20,59.00,57.12,310.00,9.00,0.00,30.09,M,6.21,M,FEW,SCT,M,M,2000.00,20000.00,M,M,M,M,M,M,M,M,M,75.20,RCTP 170630Z 31009KT 9999 FEW020 SCT200 24/15 Q1019 NOSIG RMK A3011
RCTP,2017-02-17 07:00,73.40,59.00,60.67,310.00,8.00,0.00,30.09,M,6.21,M,FEW,SCT,M,M,2000.00,20000.00,M,M,M,M,M,M,M,M,M,73.40,RCTP 170700Z 31008KT 9999 FEW020 SCT200 23/15 Q1019 NOSIG RMK A3011
RCTP,2017-02-17 07:30,73.40,59.00,60.67,310.00,7.00,0.00,30.09,M,6.21,M,FEW,SCT,M,M,2000.00,20000.00,M,M,M,M,M,M,M,M,M,73.40,RCTP 170730Z 31007KT 9999 FEW020 SCT200 23/15 Q1019 NOSIG RMK A3011
RCTP,2017-02-17 08:00,71.60,59.00,64.48,340.00,7.00,0.00,30.12,M,6.21,M,FEW,BKN,M,M,2000.00,6000.00,M,M,M,M,M,M,M,M,M,71.60,RCTP 170800Z 34007KT 9999 FEW020 BKN060 22/15 Q1020 NOSIG RMK A3012
RCTP,2017-02-17 08:30,69.80,57.20,64.26,360.00,6.00,0.00,30.12,M,6.21,M,FEW,BKN,M,M,2000.00,6000.00,M,M,M,M,M,M,M,M,M,69.80,RCTP 170830Z 36006KT 9999 FEW020 BKN060 21/14 Q1020 NOSIG RMK A3012
RCTP,2017-02-17 09:00,69.80,59.00,68.55,10.00,4.00,0.00,30.12,M,6.21,M,FEW,SCT,M,M,2000.00,6000.00,M,M,M,M,M,M,M,M,M,69.80,RCTP 170900Z 01004KT 9999 FEW020 SCT060 21/15 Q1020 NOSIG RMK A3012
RCTP,2017-02-17 09:30,69.80,59.00,68.55,30.00,4.00,0.00,30.12,M,6.21,M,FEW,SCT,M,M,2000.00,20000.00,M,M,M,M,M,M,M,M,M,69.80,RCTP 170930Z 03004KT 9999 FEW020 SCT200 21/15 Q1020 NOSIG RMK A3012
RCTP,2017-02-17 10:00,66.20,57.20,72.74,30.00,4.00,0.00,30.12,M,6.21,M,FEW,SCT,M,M,2000.00,7000.00,M,M,M,M,M,M,M,M,M,66.20,RCTP 171000Z 03004KT 9999 FEW020 SCT070 19/14 Q1020 NOSIG RMK A3013
RCTP,2017-02-17 10:30,64.40,57.20,77.45,40.00,6.00,0.00,30.12,M,6.21,M,FEW,SCT,M,M,2000.00,7000.00,M,M,M,M,M,M,M,M,M,64.40,RCTP 171030Z 04006KT 9999 FEW020 SCT070 18/14 Q1020 NOSIG RMK A3013
RCTP,2017-02-17 11:00,64.40,57.20,77.45,60.00,4.00,0.00,30.12,M,6.21,M,FEW,SCT,M,M,2000.00,7000.00,M,M,M,M,M,M,M,M,M,64.40,RCTP 171100Z 06004KT 040V100 9999 FEW020 SCT070 18/14 Q1020 NOSIG RMK A3014
RCTP,2017-02-17 11:30,64.40,57.20,77.45,40.00,5.00,0.00,30.12,M,6.21,M,FEW,SCT,M,M,2000.00,7000.00,M,M,M,M,M,M,M,M,M,64.40,RCTP 171130Z 04005KT 9999 FEW020 SCT070 18/14 Q1020 NOSIG RMK A3014
RCTP,2017-02-17 12:00,68.00,59.00,72.92,90.00,5.00,0.00,30.15,M,6.21,M,FEW,SCT,M,M,2000.00,7000.00,M,M,M,M,M,M,M,M,M,68.00,RCTP 171200Z 09005KT 9999 FEW020 SCT070 20/15 Q1021 NOSIG RMK A3015
RCTP,2017-02-17 12:30,66.20,59.00,77.60,120.00,3.00,0.00,30.15,M,6.21,M,FEW,SCT,M,M,2000.00,7000.00,M,M,M,M,M,M,M,M,M,66.20,RCTP 171230Z 12003KT 9999 FEW020 SCT070 19/15 Q1021 NOSIG RMK A3015
RCTP,2017-02-17 13:00,64.40,59.00,82.62,30.00,4.00,0.00,30.15,M,6.21,M,FEW,M,M,M,2500.00,M,M,M,M,M,M,M,M,M,M,64.40,RCTP 171300Z 03004KT 9999 FEW025 18/15 Q1021 NOSIG RMK A3016
RCTP,2017-02-17 13:30,64.40,59.00,82.62,30.00,4.00,0.00,30.15,M,6.21,M,FEW,M,M,M,2500.00,M,M,M,M,M,M,M,M,M,M,64.40,RCTP 171330Z 03004KT 9999 FEW025 18/15 Q1021 NOSIG RMK A3016
RCTP,2017-02-17 14:00,66.20,59.00,77.60,20.00,5.00,0.00,30.15,M,6.21,M,FEW,BKN,M,M,2500.00,7000.00,M,M,M,M,M,M,M,M,M,66.20,RCTP 171400Z 02005KT 9999 FEW025 BKN070 19/15 Q1021 NOSIG RMK A3017
RCTP,2017-02-17 14:30,64.40,59.00,82.62,30.00,8.00,0.00,30.18,M,6.21,M,FEW,BKN,M,M,2500.00,7000.00,M,M,M,M,M,M,M,M,M,64.40,RCTP 171430Z 03008KT 9999 FEW025 BKN070 18/15 Q1022 NOSIG RMK A3018
RCTP,2017-02-17 15:00,64.40,60.80,88.09,20.00,7.00,0.00,30.18,M,6.21,M,FEW,BKN,M,M,2500.00,7000.00,M,M,M,M,M,M,M,M,M,64.40,RCTP 171500Z 02007KT 9999 FEW025 BKN070 18/16 Q1022 NOSIG RMK A3018
RCTP,2017-02-17 15:30,64.40,62.60,93.88,20.00,8.00,0.00,30.15,M,4.97,M,FEW,BKN,M,M,1500.00,6000.00,M,M,M,M,M,M,M,M,M,64.40,RCTP 171530Z 02008KT 8000 FEW015 BKN060 18/17 Q1021 NOSIG RMK A3017
RCTP,2017-02-17 16:00,64.40,62.60,93.88,30.00,10.00,0.00,30.15,M,3.73,M,SCT,M,M,M,600.00,M,M,M,M,M,M,M,M,M,M,64.40,RCTP 171600Z 03010KT 6000 SCT006 18/17 Q1021 NOSIG RMK A3017
RCTP,2017-02-17 16:30,64.40,62.60,93.88,30.00,8.00,0.00,30.15,M,3.73,M,SCT,M,M,M,600.00,M,M,M,M,M,M,M,M,M,M,64.40,RCTP 171630Z 03008KT 6000 SCT006 18/17 Q1021 NOSIG RMK A3017
RCTP,2017-02-17 17:00,64.40,62.60,93.88,20.00,7.00,0.00,30.15,M,3.73,M,FEW,M,M,M,600.00,M,M,M,M,M,M,M,M,M,M,64.40,RCTP 171700Z 02007KT 6000 FEW006 18/17 Q1021 NOSIG RMK A3017
RCTP,2017-02-17 17:30,62.60,62.60,100.00,10.00,6.00,0.00,30.15,M,3.73,M,SCT,SCT,M,M,600.00,3000.00,M,M,M,M,M,M,M,M,M,62.60,RCTP 171730Z 01006KT 6000 SCT006 SCT030 17/17 Q1021 NOSIG RMK A3017
RCTP,2017-02-17 17:49,64.40,62.60,93.88,20.00,9.00,0.00,30.15,M,1.86,M,SCT,BKN,BKN,M,300.00,500.00,3000.00,M,BR,M,M,M,M,M,M,64.40,RCTP 171749Z 02009KT 3000 BR SCT003 BKN005 BKN030 18/17 Q1021 NOSIG RMK A3017
RCTP,2017-02-17 18:00,64.40,62.60,93.88,30.00,10.00,0.00,30.15,M,1.55,M,SCT,BKN,BKN,M,300.00,500.00,3000.00,M,BR,M,M,M,M,M,M,64.40,RCTP 171800Z 03010KT 2500 BR SCT003 BKN005 BKN030 18/17 Q1021 NOSIG RMK A3016
RCTP,2017-02-17 18:30,62.60,62.60,100.00,20.00,11.00,0.00,30.15,M,1.55,M,SCT,BKN,BKN,M,300.00,500.00,3000.00,M,BR,M,M,M,M,M,M,62.60,RCTP 171830Z 02011KT 2500 BR SCT003 BKN005 BKN030 17/17 Q1021 NOSIG RMK A3016
RCTP,2017-02-17 19:00,64.40,60.80,88.09,20.00,13.00,0.00,30.15,M,1.55,M,FEW,BKN,BKN,M,300.00,600.00,1500.00,M,BR,M,M,M,M,M,M,64.40,RCTP 171900Z 02013KT 2500 BR FEW003 BKN006 BKN015 18/16 Q1021 NOSIG RMK A3016
RCTP,2017-02-17 19:30,64.40,60.80,88.09,20.00,12.00,0.00,30.15,M,1.55,M,FEW,BKN,BKN,M,300.00,600.00,1500.00,M,BR,M,M,M,M,M,M,64.40,RCTP 171930Z 02012KT 2500 BR FEW003 BKN006 BKN015 18/16 Q1021 NOSIG RMK A3016
RCTP,2017-02-17 20:00,62.60,60.80,93.83,10.00,12.00,0.00,30.15,M,1.86,M,FEW,BKN,BKN,M,500.00,800.00,1500.00,M,BR,M,M,M,M,M,M,62.60,RCTP 172000Z 01012KT 3000 BR FEW005 BKN008 BKN015 17/16 Q1021 NOSIG RMK A3017
RCTP,2017-02-17 20:30,62.60,60.80,93.83,10.00,11.00,0.00,30.15,M,1.86,M,FEW,BKN,BKN,M,500.00,800.00,1500.00,M,BR,M,M,M,M,M,M,62.60,RCTP 172030Z 01011KT 3000 BR FEW005 BKN008 BKN015 17/16 Q1021 NOSIG RMK A3017
RCTP,2017-02-17 21:00,62.60,60.80,93.83,20.00,13.00,0.00,30.15,M,1.86,M,FEW,BKN,BKN,M,500.00,1000.00,2000.00,M,BR,M,M,M,M,M,M,62.60,RCTP 172100Z 02013KT 3000 BR FEW005 BKN010 BKN020 17/16 Q1021 NOSIG RMK A3017
RCTP,2017-02-17 21:30,62.60,60.80,93.83,20.00,12.00,0.00,30.15,M,2.17,M,FEW,BKN,BKN,M,500.00,1200.00,2000.00,M,BR,M,M,M,M,M,M,62.60,RCTP 172130Z 02012KT 3500 BR FEW005 BKN012 BKN020 17/16 Q1021 NOSIG RMK A3017
RCTP,2017-02-17 22:00,62.60,60.80,93.83,20.00,13.00,0.00,30.18,M,2.17,M,FEW,BKN,BKN,M,500.00,1200.00,2000.00,M,BR,M,M,M,M,M,M,62.60,RCTP 172200Z 02013KT 3500 BR FEW005 BKN012 BKN020 17/16 Q1022 NOSIG RMK A3019
RCTP,2017-02-17 22:30,62.60,59.00,88.00,20.00,12.00,0.00,30.18,M,2.17,M,SCT,BKN,BKN,M,800.00,1200.00,2000.00,M,BR,M,M,M,M,M,M,62.60,RCTP 172230Z 02012KT 3500 BR SCT008 BKN012 BKN020 17/15 Q1022 NOSIG RMK A3020
RCTP,2017-02-17 23:00,62.60,59.00,88.00,30.00,15.00,0.00,30.21,M,2.17,M,SCT,BKN,BKN,M,800.00,1200.00,2000.00,M,BR,M,M,M,M,M,M,62.60,RCTP 172300Z 03015KT 3500 BR SCT008 BKN012 BKN020 17/15 Q1023 NOSIG RMK A3022
RCTP,2017-02-17 23:30,62.60,60.80,93.83,30.00,11.00,0.00,30.21,M,2.17,M,SCT,BKN,BKN,M,800.00,1300.00,2000.00,M,BR,M,M,M,M,M,M,62.60,RCTP 172330Z 03011KT 3500 BR SCT008 BKN013 BKN020 17/16 Q1023 NOSIG RMK A3022
RCTP,2017-02-18 00:00,64.40,60.80,88.09,30.00,10.00,0.00,30.21,M,2.17,M,SCT,BKN,BKN,M,800.00,1200.00,2000.00,M,BR,M,M,M,M,M,M,64.40,RCTP 180000Z 03010KT 3500 BR SCT008 BKN012 BKN020 18/16 Q1023 NOSIG RMK A3022
RCTP,2017-02-18 00:30,64.40,60.80,88.09,20.00,12.00,0.00,30.21,M,2.17,M,SCT,BKN,BKN,M,800.00,1200.00,2000.00,M,BR,M,M,M,M,M,M,64.40,RCTP 180030Z 02012KT 3500 BR SCT008 BKN012 BKN020 18/16 Q1023 NOSIG RMK A3023
RCTP,2017-02-18 01:00,64.40,60.80,88.09,20.00,11.00,0.00,30.21,M,2.49,M,FEW,BKN,BKN,M,800.00,1200.00,2500.00,M,BR,M,M,M,M,M,M,64.40,RCTP 180100Z 02011KT 4000 BR FEW008 BKN012 BKN025 18/16 Q1023 NOSIG RMK A3023
RCTP,2017-02-18 01:30,64.40,60.80,88.09,10.00,14.00,0.00,30.24,M,2.49,M,FEW,BKN,BKN,M,800.00,1200.00,2500.00,M,BR,M,M,M,M,M,M,64.40,RCTP 180130Z 01014KT 4000 BR FEW008 BKN012 BKN025 18/16 Q1024 NOSIG RMK A3024
RCTP,2017-02-18 02:00,64.40,59.00,82.62,30.00,14.00,0.00,30.21,M,2.80,M,FEW,BKN,BKN,M,1000.00,1400.00,2500.00,M,BR,M,M,M,M,M,M,64.40,RCTP 180200Z 03014KT 4500 BR FEW010 BKN014 BKN025 18/15 Q1023 NOSIG RMK A3023
RCTP,2017-02-18 02:30,66.20,60.80,82.74,30.00,16.00,0.00,30.21,M,2.80,M,FEW,BKN,BKN,M,800.00,1200.00,3000.00,M,BR,M,M,M,M,M,M,66.20,RCTP 180230Z 03016KT 4500 BR FEW008 BKN012 BKN030 19/16 Q1023 NOSIG RMK A3023
RCTP,2017-02-18 03:00,66.20,59.00,77.60,20.00,17.00,0.00,30.21,M,2.80,M,FEW,BKN,BKN,M,800.00,1200.00,3000.00,M,BR,M,M,M,M,M,M,66.20,RCTP 180300Z 02017KT 4500 BR FEW008 BKN012 BKN030 19/15 Q1023 NOSIG RMK A3022
RCTP,2017-02-18 03:30,66.20,59.00,77.60,20.00,18.00,0.00,30.21,M,2.80,M,FEW,BKN,BKN,M,800.00,1200.00,3000.00,M,BR,M,M,M,M,M,M,66.20,RCTP 180330Z 02018KT 4500 BR FEW008 BKN012 BKN030 19/15 Q1023 NOSIG RMK A3021
RCTP,2017-02-18 04:00,66.20,60.80,82.74,20.00,20.00,0.00,30.18,M,2.80,M,FEW,BKN,BKN,M,800.00,1200.00,3000.00,M,BR,M,M,M,M,M,M,66.20,RCTP 180400Z 02020KT 4500 BR FEW008 BKN012 BKN030 19/16 Q1022 NOSIG RMK A3020
RCTP,2017-02-18 04:30,64.40,59.00,82.62,20.00,20.00,0.00,30.18,M,2.80,M,FEW,BKN,BKN,M,800.00,1400.00,4000.00,M,BR,M,M,M,M,M,M,64.40,RCTP 180430Z 02020KT 4500 BR FEW008 BKN014 BKN040 18/15 Q1022 BECMG 5000 BR RMK A3018
RCTP,2017-02-18 05:30,68.00,60.80,77.75,30.00,21.00,0.00,30.15,M,3.11,M,FEW,SCT,BKN,M,1000.00,1500.00,10000.00,M,BR,M,M,M,M,M,M,68.00,RCTP 180530Z 03021KT 5000 BR FEW010 SCT015 BKN100 20/16 Q1021 NOSIG RMK A3015
RCTP,2017-02-18 06:00,68.00,60.80,77.75,20.00,21.00,0.00,30.15,M,3.73,M,FEW,SCT,BKN,M,1000.00,3000.00,20000.00,M,M,M,M,M,M,M,M,68.00,RCTP 180600Z 02021KT 6000 FEW010 SCT030 BKN200 20/16 Q1021 NOSIG RMK A3015
RCTP,2017-02-18 06:30,68.00,60.80,77.75,30.00,22.00,0.00,30.12,M,3.73,M,FEW,SCT,M,M,1000.00,3000.00,M,M,M,M,M,M,M,M,M,68.00,RCTP 180630Z 03022KT 6000 FEW010 SCT030 20/16 Q1020 NOSIG RMK A3014
RCTP,2017-02-18 07:00,68.00,60.80,77.75,30.00,19.00,0.00,30.15,M,4.35,M,FEW,SCT,M,M,1000.00,3000.00,M,M,M,M,M,M,M,M,M,68.00,RCTP 180700Z 03019KT 7000 FEW010 SCT030 20/16 Q1021 NOSIG RMK A3015
RCTP,2017-02-18 07:30,68.00,60.80,77.75,30.00,17.00,0.00,30.15,M,4.35,M,FEW,SCT,M,M,1000.00,3000.00,M,M,M,M,M,M,M,M,M,68.00,RCTP 180730Z 03017KT 7000 FEW010 SCT030 20/16 Q1021 NOSIG RMK A3015
RCTP,2017-02-18 08:00,66.20,60.80,82.74,30.00,19.00,0.00,30.15,M,4.35,M,FEW,SCT,M,M,1000.00,3000.00,M,M,M,M,M,M,M,M,M,66.20,RCTP 180800Z 03019KT 7000 FEW010 SCT030 19/16 Q1021 NOSIG RMK A3015
RCTP,2017-02-18 08:30,66.20,60.80,82.74,30.00,18.00,0.00,30.15,M,4.35,M,FEW,BKN,M,M,1000.00,2600.00,M,M,M,M,M,M,M,M,M,66.20,RCTP 180830Z 03018KT 7000 FEW010 BKN026 19/16 Q1021 NOSIG RMK A3017
RCTP,2017-02-18 09:00,66.20,60.80,82.74,40.00,19.00,0.00,30.18,M,4.35,M,FEW,BKN,M,M,1000.00,2700.00,M,M,M,M,M,M,M,M,M,66.20,RCTP 180900Z 04019KT 7000 FEW010 BKN027 19/16 Q1022 NOSIG RMK A3019
RCTP,2017-02-18 10:00,64.40,60.80,88.09,40.00,18.00,0.00,30.18,M,4.35,M,FEW,BKN,M,M,1000.00,2700.00,M,M,M,M,M,M,M,M,M,64.40,RCTP 181000Z 04018KT 7000 FEW010 BKN027 18/16 Q1022 NOSIG RMK A3020
RCTP,2017-02-18 10:30,64.40,59.00,82.62,40.00,17.00,0.00,30.21,M,3.73,M,FEW,BKN,M,M,1000.00,2400.00,M,M,M,M,M,M,M,M,M,64.40,RCTP 181030Z 04017KT 6000 FEW010 BKN024 18/15 Q1023 NOSIG RMK A3021
RCTP,2017-02-18 11:00,64.40,59.00,82.62,50.00,20.00,0.00,30.21,M,4.35,M,FEW,BKN,M,M,1000.00,2400.00,M,M,M,M,M,M,M,M,M,64.40,RCTP 181100Z 05020KT 7000 FEW010 BKN024 18/15 Q1023 NOSIG RMK A3021
RCTP,2017-02-18 11:30,64.40,59.00,82.62,50.00,19.00,0.00,30.21,M,4.97,M,FEW,BKN,M,M,1000.00,2500.00,M,M,M,M,M,M,M,M,M,64.40,RCTP 181130Z 05019KT 8000 FEW010 BKN025 18/15 Q1023 NOSIG RMK A3021
RCTP,2017-02-18 12:00,64.40,59.00,82.62,50.00,19.00,0.00,30.21,M,5.59,M,FEW,SCT,M,M,1000.00,2500.00,M,M,M,M,M,M,M,M,M,64.40,RCTP 181200Z 05019KT 9000 FEW010 SCT025 18/15 Q1023 NOSIG RMK A3021
RCTP,2017-02-18 12:30,64.40,59.00,82.62,50.00,19.00,0.00,30.21,M,6.21,M,FEW,SCT,M,M,1200.00,2000.00,M,M,M,M,M,M,M,M,M,64.40,RCTP 181230Z 05019KT 9999 FEW012 SCT020 18/15 Q1023 NOSIG RMK A3021
RCTP,2017-02-18 13:00,64.40,59.00,82.62,50.00,15.00,0.00,30.18,M,6.21,M,FEW,M,M,M,2000.00,M,M,M,M,M,M,M,M,M,M,64.40,RCTP 181300Z 05015KT 9999 FEW020 18/15 Q1022 NOSIG RMK A3020
RCTP,2017-02-18 13:30,64.40,57.20,77.45,70.00,16.00,0.00,30.18,M,6.21,M,FEW,M,M,M,2000.00,M,M,M,M,M,M,M,M,M,M,64.40,RCTP 181330Z 07016KT 9999 FEW020 18/14 Q1022 NOSIG RMK A3020
RCTP,2017-02-18 14:00,64.40,57.20,77.45,70.00,15.00,0.00,30.18,M,6.21,M,FEW,M,M,M,2000.00,M,M,M,M,M,M,M,M,M,M,64.40,RCTP 181400Z 07015KT 9999 FEW020 18/14 Q1022 NOSIG RMK A3020
RCTP,2017-02-18 14:30,64.40,57.20,77.45,60.00,15.00,0.00,30.18,M,6.21,M,FEW,M,M,M,2000.00,M,M,M,M,M,M,M,M,M,M,64.40,RCTP 181430Z 06015KT 9999 FEW020 18/14 Q1022 NOSIG RMK A3019
RCTP,2017-02-18 15:00,64.40,55.40,72.56,60.00,16.00,0.00,30.18,M,6.21,M,FEW,M,M,M,2000.00,M,M,M,M,M,M,M,M,M,M,64.40,RCTP 181500Z 06016KT 9999 FEW020 18/13 Q1022 NOSIG RMK A3019
RCTP,2017-02-18 15:30,64.40,55.40,72.56,70.00,13.00,0.00,30.18,M,6.21,M,FEW,M,M,M,2000.00,M,M,M,M,M,M,M,M,M,M,64.40,RCTP 181530Z 07013KT 9999 FEW020 18/13 Q1022 NOSIG RMK A3020
RCTP,2017-02-18 16:00,64.40,55.40,72.56,60.00,15.00,0.00,30.18,M,6.21,M,FEW,M,M,M,2000.00,M,M,M,M,M,M,M,M,M,M,64.40,RCTP 181600Z 06015KT 9999 FEW020 18/13 Q1022 NOSIG RMK A3018
RCTP,2017-02-18 16:30,64.40,55.40,72.56,70.00,16.00,0.00,30.18,M,6.21,M,FEW,M,M,M,2000.00,M,M,M,M,M,M,M,M,M,M,64.40,RCTP 181630Z 07016KT 9999 FEW020 18/13 Q1022 NOSIG RMK A3018
RCTP,2017-02-18 17:00,64.40,55.40,72.56,60.00,15.00,0.00,30.15,M,6.21,M,FEW,M,M,M,2000.00,M,M,M,M,M,M,M,M,M,M,64.40,RCTP 181700Z 06015KT 9999 FEW020 18/13 Q1021 NOSIG RMK A3017
RCTP,2017-02-18 17:30,64.40,55.40,72.56,60.00,17.00,0.00,30.15,M,6.21,M,FEW,M,M,M,2000.00,M,M,M,M,M,M,M,M,M,M,64.40,RCTP 181730Z 06017KT 9999 FEW020 18/13 Q1021 NOSIG RMK A3017
RCTP,2017-02-18 18:00,64.40,55.40,72.56,70.00,19.00,0.00,30.15,M,6.21,M,FEW,M,M,M,2000.00,M,M,M,M,M,M,M,M,M,M,64.40,RCTP 181800Z 07019KT 9999 FEW020 18/13 Q1021 NOSIG RMK A3016
RCTP,2017-02-18 18:30,64.40,55.40,72.56,60.00,15.00,0.00,30.15,M,6.21,M,FEW,M,M,M,2000.00,M,M,M,M,M,M,M,M,M,M,64.40,RCTP 181830Z 06015KT 9999 FEW020 18/13 Q1021 NOSIG RMK A3015
RCTP,2017-02-18 19:00,62.60,55.40,77.29,60.00,14.00,0.00,30.12,M,6.21,M,FEW,M,M,M,2000.00,M,M,M,M,M,M,M,M,M,M,62.60,RCTP 181900Z 06014KT 9999 FEW020 17/13 Q1020 NOSIG RMK A3013
RCTP,2017-02-18 19:30,64.40,55.40,72.56,60.00,16.00,0.00,30.12,M,6.21,M,FEW,M,M,M,2000.00,M,M,M,M,M,M,M,M,M,M,64.40,RCTP 181930Z 06016KT 9999 FEW020 18/13 Q1020 NOSIG RMK A3012
RCTP,2017-02-18 20:00,64.40,55.40,72.56,60.00,15.00,0.00,30.09,M,6.21,M,FEW,M,M,M,2000.00,M,M,M,M,M,M,M,M,M,M,64.40,RCTP 182000Z 06015KT 9999 FEW020 18/13 Q1019 NOSIG RMK A3010
RCTP,2017-02-18 20:30,64.40,55.40,72.56,60.00,15.00,0.00,30.09,M,6.21,M,FEW,M,M,M,2000.00,M,M,M,M,M,M,M,M,M,M,64.40,RCTP 182030Z 06015KT 9999 FEW020 18/13 Q1019 NOSIG RMK A3010
RCTP,2017-02-18 21:00,64.40,55.40,72.56,60.00,15.00,0.00,30.06,M,6.21,M,FEW,M,M,M,2000.00,M,M,M,M,M,M,M,M,M,M,64.40,RCTP 182100Z 06015KT 9999 FEW020 18/13 Q1018 NOSIG RMK A3008
RCTP,2017-02-18 21:30,64.40,55.40,72.56,70.00,14.00,0.00,30.06,M,6.21,M,FEW,M,M,M,2000.00,M,M,M,M,M,M,M,M,M,M,64.40,RCTP 182130Z 07014KT 9999 FEW020 18/13 Q1018 NOSIG RMK A3008
RCTP,2017-02-18 22:30,66.20,55.40,68.15,80.00,10.00,0.00,30.09,M,6.21,M,FEW,M,M,M,2000.00,M,M,M,M,M,M,M,M,M,M,66.20,RCTP 182230Z 08010KT 9999 FEW020 19/13 Q1019 NOSIG RMK A3009
RCTP,2017-02-18 23:00,66.20,55.40,68.15,80.00,10.00,0.00,30.06,M,6.21,M,M,M,M,M,M,M,M,M,M,M,M,M,M,M,M,66.20,RCTP 182300Z 08010KT CAVOK 19/13 Q1018 NOSIG RMK A3008
RCTP,2017-02-18 23:30,68.00,55.40,64.04,90.00,15.00,0.00,30.06,M,6.21,M,M,M,M,M,M,M,M,M,M,M,M,M,M,M,M,68.00,RCTP 182330Z 09015KT CAVOK 20/13 Q1018 NOSIG RMK A3008
RCTP,2017-02-19 00:00,69.80,57.20,64.26,100.00,25.00,0.00,30.09,M,6.21,M,M,M,M,M,M,M,M,M,M,M,M,M,M,M,M,69.80,RCTP 190000Z 10025KT CAVOK 21/14 Q1019 NOSIG RMK A3009
RCTP,2017-02-19 00:30,71.60,57.20,60.44,110.00,12.00,0.00,30.09,M,6.21,M,FEW,M,M,M,2000.00,M,M,M,M,M,M,M,M,M,M,71.60,RCTP 190030Z 11012KT 9999 FEW020 22/14 Q1019 NOSIG RMK A3010
RCTP,2017-02-19 01:00,73.40,57.20,56.88,120.00,10.00,0.00,30.09,M,6.21,M,FEW,M,M,M,2000.00,M,M,M,M,M,M,M,M,M,M,73.40,RCTP 190100Z 12010KT 9999 FEW020 23/14 Q1019 NOSIG RMK A3010
RCTP,2017-02-19 01:30,75.20,57.20,53.55,100.00,10.00,0.00,30.09,M,6.21,M,FEW,M,M,M,2000.00,M,M,M,M,M,M,M,M,M,M,75.20,RCTP 190130Z 10010KT 9999 FEW020 24/14 Q1019 NOSIG RMK A3009
RCTP,2017-02-19 02:00,75.20,57.20,53.55,110.00,11.00,0.00,30.06,M,6.21,M,FEW,M,M,M,2000.00,M,M,M,M,M,M,M,M,M,M,75.20,RCTP 190200Z 11011KT 9999 FEW020 24/14 Q1018 NOSIG RMK A3008
RCTP,2017-02-19 02:30,77.00,55.40,47.25,140.00,7.00,0.00,30.06,M,6.21,M,FEW,M,M,M,2000.00,M,M,M,M,M,M,M,M,M,M,77.00,RCTP 190230Z 14007KT 110V170 9999 FEW020 25/13 Q1018 NOSIG RMK A3007
RCTP,2017-02-19 02:52,78.80,57.20,47.52,150.00,6.00,0.00,30.06,M,6.21,M,FEW,M,M,M,2000.00,M,M,M,M,M,M,M,M,M,M,78.80,RCTP 190252Z 15006KT 110V210 9999 FEW020 26/14 Q1018 NOSIG RMK R23 A3006
RCTP,2017-02-19 03:00,78.80,57.20,47.52,140.00,6.00,0.00,30.03,M,6.21,M,FEW,M,M,M,2000.00,M,M,M,M,M,M,M,M,M,M,78.80,RCTP 190300Z 14006KT 110V190 9999 FEW020 26/14 Q1017 NOSIG RMK A3005
RCTP,2017-02-19 03:30,80.60,57.20,44.80,290.00,9.00,0.00,30.03,M,6.21,M,FEW,M,M,M,2000.00,M,M,M,M,M,M,M,M,M,M,80.81,RCTP 190330Z 29009KT 9999 FEW020 27/14 Q1017 NOSIG RMK A3004
RCTP,2017-02-19 04:00,77.00,62.60,61.13,300.00,9.00,0.00,30.00,M,6.21,M,FEW,M,M,M,2000.00,M,M,M,M,M,M,M,M,M,M,77.00,RCTP 190400Z 30009KT 9999 FEW020 25/17 Q1016 NOSIG RMK A3002
RCTP,2017-02-19 04:30,77.00,59.00,53.80,270.00,12.00,0.00,29.97,M,6.21,M,FEW,M,M,M,2000.00,M,M,M,M,M,M,M,M,M,M,77.00,RCTP 190430Z 27012KT 9999 FEW020 25/15 Q1015 NOSIG RMK A3000
RCTP,2017-02-19 05:00,77.00,59.00,53.80,280.00,11.00,0.00,29.97,M,6.21,M,FEW,M,M,M,2000.00,M,M,M,M,M,M,M,M,M,M,77.00,RCTP 190500Z 28011KT 9999 FEW020 25/15 Q1015 NOSIG RMK A2999
RCTP,2017-02-19 05:30,77.00,59.00,53.80,290.00,9.00,0.00,29.94,M,6.21,M,FEW,M,M,M,2000.00,M,M,M,M,M,M,M,M,M,M,77.00,RCTP 190530Z 29009KT 9999 FEW020 25/15 Q1014 NOSIG RMK A2997
RCTP,2017-02-19 06:00,75.20,59.00,57.12,290.00,10.00,0.00,29.94,M,6.21,M,FEW,M,M,M,2000.00,M,M,M,M,M,M,M,M,M,M,75.20,RCTP 190600Z 29010KT 9999 FEW020 24/15 Q1014 NOSIG RMK A2996
RCTP,2017-02-19 06:30,73.40,60.80,64.69,300.00,9.00,0.00,29.94,M,6.21,M,FEW,M,M,M,2000.00,M,M,M,M,M,M,M,M,M,M,73.40,RCTP 190630Z 30009KT 9999 FEW020 23/16 Q1014 NOSIG RMK A2996
RCTP,2017-02-19 07:00,71.60,60.80,68.75,290.00,7.00,0.00,29.94,M,6.21,M,FEW,M,M,M,2000.00,M,M,M,M,M,M,M,M,M,M,71.60,RCTP 190700Z 29007KT 9999 FEW020 22/16 Q1014 NOSIG RMK A2995
RCTP,2017-02-19 07:30,71.60,60.80,68.75,300.00,9.00,0.00,29.94,M,6.21,M,FEW,M,M,M,2500.00,M,M,M,M,M,M,M,M,M,M,71.60,RCTP 190730Z 30009KT 9999 FEW025 22/16 Q1014 NOSIG RMK A2995
RCTP,2017-02-19 08:00,66.20,60.80,82.74,310.00,8.00,0.00,29.94,M,5.59,M,FEW,M,M,M,2500.00,M,M,M,M,M,M,M,M,M,M,66.20,RCTP 190800Z 31008KT 9000 FEW025 19/16 Q1014 NOSIG RMK A2995
RCTP,2017-02-19 08:30,66.20,60.80,82.74,310.00,9.00,0.00,29.94,M,5.59,M,FEW,M,M,M,2500.00,M,M,M,M,M,M,M,M,M,M,66.20,RCTP 190830Z 31009KT 9000 FEW025 19/16 Q1014 NOSIG RMK A2995
RCTP,2017-02-19 09:00,64.40,60.80,88.09,310.00,6.00,0.00,29.94,M,4.97,M,FEW,SCT,M,M,2000.00,7000.00,M,M,M,M,M,M,M,M,M,64.40,RCTP 190900Z 31006KT 8000 FEW020 SCT070 18/16 Q1014 NOSIG RMK A2995
RCTP,2017-02-19 09:11,64.40,60.80,88.09,290.00,5.00,0.00,29.94,M,3.73,M,FEW,BKN,M,M,300.00,500.00,M,M,M,M,M,M,M,M,M,64.40,RCTP 190911Z 29005KT 6000 FEW003 BKN005 18/16 Q1014 NOSIG RMK A2996
RCTP,2017-02-19 09:30,62.60,59.00,88.00,300.00,5.00,0.00,29.94,M,3.73,M,FEW,BKN,M,M,500.00,1500.00,M,M,M,M,M,M,M,M,M,62.60,RCTP 190930Z 30005KT 6000 FEW005 BKN015 17/15 Q1014 NOSIG RMK A2996
RCTP,2017-02-19 10:00,62.60,59.00,88.00,290.00,4.00,0.00,29.94,M,3.11,M,SCT,SCT,M,M,1000.00,8000.00,M,M,BR,M,M,M,M,M,M,62.60,RCTP 191000Z 29004KT 5000 BR SCT010 SCT080 17/15 Q1014 NOSIG RMK A2996
RCTP,2017-02-19 10:30,60.80,59.00,93.79,260.00,3.00,0.00,29.94,M,3.11,M,SCT,SCT,M,M,1000.00,6000.00,M,M,BR,M,M,M,M,M,M,60.80,RCTP 191030Z 26003KT 5000 BR SCT010 SCT060 16/15 Q1014 NOSIG RMK A2996
RCTP,2017-02-19 11:00,60.80,59.00,93.79,250.00,3.00,0.00,29.94,M,3.11,M,SCT,M,M,M,1000.00,M,M,M,BR,M,M,M,M,M,M,60.80,RCTP 191100Z 25003KT 5000 BR SCT010 16/15 Q1014 NOSIG RMK A2996
RCTP,2017-02-19 11:30,60.80,59.00,93.79,270.00,3.00,0.00,29.94,M,3.11,M,SCT,M,M,M,1000.00,M,M,M,BR,M,M,M,M,M,M,60.80,RCTP 191130Z 27003KT 250V310 5000 BR SCT010 16/15 Q1014 NOSIG RMK A2996
RCTP,2017-02-19 12:00,60.80,59.00,93.79,300.00,3.00,0.00,29.94,M,3.11,M,SCT,M,M,M,1000.00,M,M,M,BR,M,M,M,M,M,M,60.80,RCTP 191200Z 30003KT 5000 BR SCT010 16/15 Q1014 NOSIG RMK A2997
RCTP,2017-02-19 12:13,60.80,59.00,93.79,270.00,3.00,0.00,30.00,M,2.49,M,SCT,M,M,M,1000.00,M,M,M,BR,M,M,M,M,M,M,60.80,RCTP 191213Z 27003KT 4000 BR SCT010 16/15 Q1016 NOSIG RMK A3001
RCTP,2017-02-19 12:30,60.80,59.00,93.79,280.00,3.00,0.00,30.00,M,2.49,M,SCT,M,M,M,1000.00,M,M,M,BR,M,M,M,M,M,M,60.80,RCTP 191230Z 28003KT 220V330 4000 BR SCT010 16/15 Q1016 NOSIG RMK A3001
RCTP,2017-02-19 13:00,60.80,59.00,93.79,280.00,3.00,0.00,30.00,M,2.49,M,SCT,M,M,M,1000.00,M,M,M,BR,M,M,M,M,M,M,60.80,RCTP 191300Z 28003KT 4000 BR SCT010 16/15 Q1016 NOSIG RMK A3001
RCTP,2017-02-19 13:30,60.80,59.00,93.79,300.00,2.00,0.00,30.00,M,2.49,M,SCT,M,M,M,1000.00,M,M,M,BR,M,M,M,M,M,M,60.80,RCTP 191330Z 30002KT 4000 BR SCT010 16/15 Q1016 NOSIG RMK A3001
RCTP,2017-02-19 14:00,60.80,59.00,93.79,M,1.00,0.00,29.97,M,2.49,M,SCT,M,M,M,1000.00,M,M,M,BR,M,M,M,M,M,M,60.80,RCTP 191400Z VRB01KT 4000 BR SCT010 16/15 Q1015 NOSIG RMK A2999
RCTP,2017-02-19 14:09,59.00,57.20,93.74,80.00,4.00,0.00,29.97,M,2.49,M,SCT,M,M,M,1000.00,M,M,M,BR,M,M,M,M,M,M,59.00,RCTP 191409Z 08004KT 040V110 4000 BR SCT010 15/14 Q1015 NOSIG RMK R05 A2998
RCTP,2017-02-19 14:30,59.00,57.20,93.74,M,2.00,0.00,29.97,M,2.49,M,SCT,M,M,M,1000.00,M,M,M,BR,M,M,M,M,M,M,59.00,RCTP 191430Z VRB02KT 4000 BR SCT010 15/14 Q1015 NOSIG RMK A2999
RCTP,2017-02-19 15:00,59.00,57.20,93.74,M,1.00,0.00,29.94,M,2.49,M,SCT,M,M,M,1000.00,M,M,M,BR,M,M,M,M,M,M,59.00,RCTP 191500Z VRB01KT 4000 BR SCT010 15/14 Q1014 NOSIG RMK A2997
RCTP,2017-02-19 15:30,59.00,57.20,93.74,340.00,3.00,0.00,29.94,M,1.99,M,SCT,M,M,M,1000.00,M,M,M,BR,M,M,M,M,M,M,59.00,RCTP 191530Z 34003KT 3200 BR SCT010 15/14 Q1014 NOSIG RMK A2997
RCTP,2017-02-19 16:00,59.00,57.20,93.74,M,1.00,0.00,29.94,M,1.99,M,SCT,M,M,M,1000.00,M,M,M,BR,M,M,M,M,M,M,59.00,RCTP 191600Z VRB01KT 3200 BR SCT010 15/14 Q1014 NOSIG RMK A2996
RCTP,2017-02-19 16:30,57.20,57.20,100.00,20.00,3.00,0.00,29.94,M,1.62,M,SCT,M,M,M,1000.00,M,M,M,BR,M,M,M,M,M,M,57.20,RCTP 191630Z 02003KT 310V090 2600 BR SCT010 14/14 Q1014 NOSIG RMK A2997
RCTP,2017-02-19 17:00,59.00,57.20,93.74,M,1.00,0.00,29.94,M,1.62,M,SCT,M,M,M,1000.00,M,M,M,BR,M,M,M,M,M,M,59.00,RCTP 191700Z VRB01KT 2600 BR SCT010 15/14 Q1014 NOSIG RMK A2995
RCTP,2017-02-19 17:30,60.80,59.00,93.79,130.00,4.00,0.00,29.94,M,1.86,M,FEW,SCT,BKN,M,2000.00,8000.00,12000.00,M,BR,M,M,M,M,M,M,60.80,RCTP 191730Z 13004KT 3000 BR FEW020 SCT080 BKN120 16/15 Q1014 NOSIG RMK A2995
RCTP,2017-02-19 18:00,60.80,59.00,93.79,290.00,4.00,0.00,29.94,M,2.17,M,FEW,BKN,M,M,1200.00,8000.00,M,M,BR,M,M,M,M,M,M,60.80,RCTP 191800Z 29004KT 3500 BR FEW012 BKN080 16/15 Q1014 NOSIG RMK A2995
RCTP,2017-02-19 18:30,60.80,59.00,93.79,310.00,3.00,0.00,29.94,M,2.05,M,SCT,BKN,M,M,1200.00,8000.00,M,M,-DZ BR,M,M,M,M,M,M,60.80,RCTP 191830Z 31003KT 3300 -DZ BR SCT012 BKN080 16/15 Q1014 NOSIG RMK A2996
RCTP,2017-02-19 19:00,60.80,59.00,93.79,310.00,3.00,0.00,29.94,M,1.74,M,SCT,SCT,M,M,1200.00,8000.00,M,M,-DZ BR,M,M,M,M,M,M,60.80,RCTP 191900Z 31003KT 2800 -DZ BR SCT012 SCT080 16/15 Q1014 NOSIG RMK A2996
RCTP,2017-02-19 19:30,60.80,59.00,93.79,320.00,4.00,0.00,29.94,M,1.55,M,SCT,SCT,M,M,800.00,8000.00,M,M,BR,M,M,M,M,M,M,60.80,RCTP 191930Z 32004KT 2500 BR SCT008 SCT080 16/15 Q1014 NOSIG RMK A2997
RCTP,2017-02-19 20:00,60.80,59.00,93.79,350.00,3.00,0.00,29.94,M,1.55,M,SCT,BKN,M,M,600.00,1000.00,M,M,BR,M,M,M,M,M,M,60.80,RCTP 192000Z 35003KT 2500 BR SCT006 BKN010 16/15 Q1014 NOSIG RMK A2997
RCTP,2017-02-19 20:30,60.80,59.00,93.79,10.00,3.00,0.00,29.94,M,1.55,M,SCT,BKN,M,M,500.00,800.00,M,M,-RA BR,M,M,M,M,M,M,60.80,RCTP 192030Z 01003KT 2500 -RA BR SCT005 BKN008 16/15 Q1014 NOSIG RMK A2997
RCTP,2017-02-19 21:00,60.80,59.00,93.79,20.00,5.00,0.00,29.94,M,1.74,M,SCT,BKN,M,M,500.00,800.00,M,M,-RA BR,M,M,M,M,M,M,60.80,RCTP 192100Z 02005KT 2800 -RA BR SCT005 BKN008 16/15 Q1014 NOSIG RMK A2997 RA AMT 0.4MM
RCTP,2017-02-19 21:29,60.80,60.80,100.00,170.00,4.00,0.00,29.97,M,1.74,M,SCT,BKN,SCT,BKN,500.00,800.00,1000.00,2000.00,TSRA,M,M,M,M,M,M,60.80,RCTP 192129Z 17004KT 2800 TSRA SCT005 BKN008 SCT010CB BKN020 16/16 Q1015 NOSIG RMK A3000
RCTP,2017-02-19 21:30,60.80,59.00,93.79,170.00,5.00,0.00,29.97,M,1.37,M,SCT,BKN,SCT,BKN,500.00,800.00,1000.00,2000.00,TSRA,M,M,M,M,M,M,60.80,RCTP 192130Z 17005KT 2200 TSRA SCT005 BKN008 SCT010CB BKN020 16/15 Q1015 NOSIG RMK TS SW MOV NE A3000
RCTP,2017-02-19 21:41,60.80,60.80,100.00,140.00,5.00,0.00,29.97,M,1.55,M,SCT,BKN,SCT,BKN,500.00,800.00,1000.00,2000.00,+TSRA,M,M,M,M,M,M,60.80,RCTP 192141Z 14005KT 110V240 2500 +TSRA SCT005 BKN008 SCT010CB BKN020 16/16 Q1015 TEMPO 3000 TSRA RMK TS OVHD MOV NE A3000
RCTP,2017-02-19 21:52,60.80,60.80,100.00,150.00,3.00,0.00,29.97,M,2.17,M,FEW,BKN,SCT,BKN,600.00,1500.00,2000.00,5000.00,-TSRA,M,M,M,M,M,M,60.80,RCTP 192152Z 15003KT 100V210 3500 -TSRA FEW006 BKN015 SCT020CB BKN050 16/16 Q1015 RESHRA NOSIG RMK TS N MOV NE A3000
RCTP,2017-02-19 22:00,60.80,60.80,100.00,130.00,3.00,0.00,29.97,M,2.17,M,SCT,FEW,BKN,BKN,800.00,1500.00,2000.00,5000.00,-TSRA,M,M,M,M,M,M,60.80,RCTP 192200Z 13003KT 3500 -TSRA SCT008 FEW015CB BKN020 BKN050 16/16 Q1015 RESHRA NOSIG RMK TS NE MOV NE A3000 RA AMT 8.2MM
RCTP,2017-02-19 22:14,60.80,60.80,100.00,130.00,3.00,0.00,29.97,M,2.17,M,SCT,FEW,BKN,BKN,1000.00,2000.00,2500.00,6000.00,-SHRA,M,M,M,M,M,M,60.80,RCTP 192214Z 13003KT 3500 -SHRA SCT010 FEW020CB BKN025 BKN060 16/16 Q1015 RETS NOSIG RMK CB N-NE A3000
RCTP,2017-02-19 22:30,62.60,60.80,93.83,50.00,3.00,0.00,29.97,M,1.99,M,FEW,FEW,BKN,BKN,800.00,2000.00,3000.00,6000.00,-SHRA,M,M,M,M,M,M,62.60,RCTP 192230Z 05003KT 350V120 3200 -SHRA FEW008 FEW020CB BKN030 BKN060 17/16 Q1015 RETS NOSIG RMK CB N-NE A3000
RCTP,2017-02-19 22:51,62.60,60.80,93.83,340.00,3.00,0.00,30.00,M,1.37,M,SCT,BKN,BKN,M,1500.00,3000.00,6000.00,M,-SHRA,M,M,M,M,M,M,62.60,RCTP 192251Z 34003KT 300V030 2200 -SHRA SCT015 BKN030 BKN060 17/16 Q1016 NOSIG RMK A3001
RCTP,2017-02-19 23:00,62.60,60.80,93.83,70.00,3.00,0.00,29.97,M,1.55,M,SCT,BKN,BKN,M,2000.00,3000.00,6000.00,M,-SHRA,M,M,M,M,M,M,62.60,RCTP 192300Z 07003KT 020V120 2500 -SHRA SCT020 BKN030 BKN060 17/16 Q1015 NOSIG RMK A3000 RA AMT 0.2MM
RCTP,2017-02-19 23:30,62.60,60.80,93.83,110.00,6.00,0.00,30.00,M,1.86,M,FEW,BKN,BKN,M,1800.00,4000.00,7000.00,M,BR,M,M,M,M,M,M,62.60,RCTP 192330Z 11006KT 3000 BR FEW018 BKN040 BKN070 17/16 Q1016 NOSIG RMK A3001
RCTP,2017-02-19 23:50,62.60,60.80,93.83,90.00,4.00,0.00,30.00,M,2.17,M,SCT,BKN,BKN,M,1500.00,4000.00,7000.00,M,-RA,M,M,M,M,M,M,62.60,RCTP 192350Z 09004KT 060V130 3500 -RA SCT015 BKN040 BKN070 17/16 Q1016 NOSIG RMK A3001
RCTP,2017-02-20 00:00,62.60,60.80,93.83,100.00,4.00,0.00,30.00,M,2.17,M,SCT,BKN,BKN,M,1500.00,4000.00,7000.00,M,-RA,M,M,M,M,M,M,62.60,RCTP 200000Z 10004KT 060V130 3500 -RA SCT015 BKN040 BKN070 17/16 Q1016 NOSIG RMK A3001 RA AMT 0.2MM
RCTP,2017-02-20 00:14,64.40,62.60,93.88,80.00,5.00,0.00,30.00,M,4.35,M,SCT,BKN,BKN,M,1500.00,6000.00,9000.00,M,M,M,M,M,M,M,M,64.40,RCTP 200014Z 08005KT 7000 SCT015 BKN060 BKN090 18/17 Q1016 NOSIG RMK A3001
RCTP,2017-02-20 00:26,66.20,62.60,88.18,60.00,5.00,0.00,30.00,M,3.73,M,SCT,BKN,BKN,M,1500.00,6000.00,9000.00,M,-RA,M,M,M,M,M,M,66.20,RCTP 200026Z 06005KT 6000 -RA SCT015 BKN060 BKN090 19/17 Q1016 NOSIG RMK A3001
RCTP,2017-02-20 00:30,66.20,62.60,88.18,50.00,5.00,0.00,30.00,M,3.73,M,SCT,BKN,BKN,M,1500.00,5000.00,9000.00,M,-RA,M,M,M,M,M,M,66.20,RCTP 200030Z 05005KT 6000 -RA SCT015 BKN050 BKN090 19/17 Q1016 NOSIG RMK A3001
RCTP,2017-02-20 01:00,66.20,62.60,88.18,60.00,6.00,0.00,30.00,M,4.97,M,FEW,BKN,BKN,M,1500.00,5000.00,8000.00,M,M,M,M,M,M,M,M,66.20,RCTP 200100Z 06006KT 8000 FEW015 BKN050 BKN080 19/17 Q1016 NOSIG RMK A3001 RA AMT 0.2MM
RCTP,2017-02-20 01:30,69.80,62.60,77.90,80.00,7.00,0.00,29.97,M,6.21,M,FEW,BKN,BKN,M,1500.00,5000.00,8000.00,M,M,M,M,M,M,M,M,69.80,RCTP 200130Z 08007KT 9999 FEW015 BKN050 BKN080 21/17 Q1015 NOSIG RMK A2999
RCTP,2017-02-20 02:00,71.60,62.60,73.27,60.00,5.00,0.00,29.97,M,6.21,M,FEW,BKN,M,M,1500.00,5000.00,M,M,M,M,M,M,M,M,M,71.60,RCTP 200200Z 06005KT 030V090 9999 FEW015 BKN050 22/17 Q1015 NOSIG RMK A2999
RCTP,2017-02-20 02:30,73.40,62.60,68.94,50.00,5.00,0.00,29.97,M,6.21,M,FEW,BKN,M,M,1500.00,5000.00,M,M,M,M,M,M,M,M,M,73.40,RCTP 200230Z 05005KT 360V090 9999 FEW015 BKN050 23/17 Q1015 NOSIG RMK A2998
RCTP,2017-02-20 03:00,73.40,64.40,73.44,10.00,6.00,0.00,29.97,M,6.21,M,FEW,BKN,M,M,1500.00,5000.00,M,M,M,M,M,M,M,M,M,73.40,RCTP 200300Z 01006KT 340V040 9999 FEW015 BKN050 23/18 Q1015 NOSIG RMK A2998
RCTP,2017-02-20 03:30,71.60,62.60,73.27,20.00,8.00,0.00,29.94,M,6.21,M,FEW,BKN,M,M,1500.00,5000.00,M,M,M,M,M,M,M,M,M,71.60,RCTP 200330Z 02008KT 9999 FEW015 BKN050 22/17 Q1014 NOSIG RMK A2997
RCTP,2017-02-20 04:00,73.40,62.60,68.94,10.00,8.00,0.00,29.94,M,6.21,M,FEW,BKN,M,M,1500.00,5000.00,M,M,M,M,M,M,M,M,M,73.40,RCTP 200400Z 01008KT 320V040 9999 FEW015 BKN050 23/17 Q1014 NOSIG RMK A2997
RCTP,2017-02-20 04:22,68.00,62.60,82.86,320.00,12.00,0.00,29.94,M,3.11,M,FEW,BKN,M,M,1500.00,5000.00,M,M,-RA,M,M,M,M,M,M,68.00,RCTP 200422Z 32012KT 300V360 5000 -RA FEW015 BKN050 20/17 Q1014 TEMPO 3000 RA RMK A2997
RCTP,2017-02-20 04:30,66.20,60.80,82.74,320.00,12.00,0.00,29.97,M,4.35,M,FEW,BKN,M,M,1500.00,4000.00,M,M,-SHRA,M,M,M,M,M,M,66.20,RCTP 200430Z 32012KT 7000 -SHRA FEW015 BKN040 19/16 Q1015 TEMPO 4000 SHRA RMK A2999
RCTP,2017-02-20 04:41,64.40,60.80,88.09,320.00,8.00,0.00,29.97,M,2.49,M,FEW,BKN,BKN,M,1000.00,2200.00,4000.00,M,SHRA,M,M,M,M,M,M,64.40,RCTP 200441Z 32008KT 4000 SHRA FEW010 BKN022 BKN040 18/16 Q1015 TEMPO 3000 SHRA RMK A3000
RCTP,2017-02-20 04:55,66.20,62.60,88.18,350.00,7.00,0.00,29.97,M,3.73,M,FEW,SCT,BKN,M,1000.00,2200.00,4000.00,M,-SHRA,M,M,M,M,M,M,66.20,RCTP 200455Z 35007KT 6000 -SHRA FEW010 SCT022 BKN040 19/17 Q1015 RESHRA NOSIG RMK A3000
RCTP,2017-02-20 05:00,66.20,62.60,88.18,340.00,8.00,0.00,29.97,M,4.35,M,FEW,BKN,M,M,1500.00,4000.00,M,M,M,M,M,M,M,M,M,66.20,RCTP 200500Z 34008KT 7000 FEW015 BKN040 19/17 Q1015 RESHRA NOSIG RMK A3000 RA AMT 0.6MM
RCTP,2017-02-20 05:10,66.20,62.60,88.18,340.00,10.00,0.00,29.97,M,3.11,M,FEW,BKN,M,M,800.00,4000.00,M,M,BR,M,M,M,M,M,M,66.20,RCTP 200510Z 34010KT 5000 BR FEW008 BKN040 19/17 Q1015 NOSIG RMK A2999
RCTP,2017-02-20 05:30,66.20,62.60,88.18,350.00,8.00,0.00,29.97,M,3.11,M,SCT,BKN,M,M,700.00,4000.00,M,M,BR,M,M,M,M,M,M,66.20,RCTP 200530Z 35008KT 5000 BR SCT007 BKN040 19/17 Q1015 NOSIG RMK A2999
RCTP,2017-02-20 05:42,66.20,62.60,88.18,340.00,9.00,0.00,29.97,M,3.11,M,SCT,BKN,BKN,M,500.00,700.00,4000.00,M,BR,M,M,M,M,M,M,66.20,RCTP 200542Z 34009KT 5000 BR SCT005 BKN007 BKN040 19/17 Q1015 NOSIG RMK A2999
RCTP,2017-02-20 06:00,64.40,62.60,93.88,360.00,7.00,0.00,29.97,M,3.73,M,SCT,BKN,BKN,M,500.00,700.00,4000.00,M,M,M,M,M,M,M,M,64.40,RCTP 200600Z 36007KT 6000 SCT005 BKN007 BKN040 18/17 Q1015 NOSIG RMK A2999
RCTP,2017-02-20 06:30,64.40,60.80,88.09,30.00,4.00,0.00,29.97,M,3.73,M,SCT,BKN,BKN,M,500.00,700.00,4000.00,M,M,M,M,M,M,M,M,64.40,RCTP 200630Z 03004KT 6000 SCT005 BKN007 BKN040 18/16 Q1015 NOSIG RMK A2999
RCTP,2017-02-20 07:00,66.20,62.60,88.18,20.00,6.00,0.00,29.97,M,3.73,M,SCT,BKN,BKN,M,800.00,3500.00,5000.00,M,M,M,M,M,M,M,M,66.20,RCTP 200700Z 02006KT 6000 SCT008 BKN035 BKN050 19/17 Q1015 NOSIG RMK A2998
RCTP,2017-02-20 07:30,66.20,60.80,82.74,20.00,6.00,0.00,29.97,M,3.73,M,SCT,BKN,BKN,M,800.00,3500.00,5000.00,M,M,M,M,M,M,M,M,66.20,RCTP 200730Z 02006KT 6000 SCT008 BKN035 BKN050 19/16 Q1015 NOSIG RMK A2998
RCTP,2017-02-20 08:00,66.20,60.80,82.74,40.00,6.00,0.00,29.97,M,3.73,M,SCT,BKN,BKN,M,800.00,3500.00,5000.00,M,M,M,M,M,M,M,M,66.20,RCTP 200800Z 04006KT 6000 SCT008 BKN035 BKN050 19/16 Q1015 NOSIG RMK A2998
RCTP,2017-02-20 08:30,66.20,60.80,82.74,40.00,5.00,0.00,29.97,M,3.73,M,SCT,BKN,BKN,M,800.00,3200.00,5000.00,M,M,M,M,M,M,M,M,66.20,RCTP 200830Z 04005KT 6000 SCT008 BKN032 BKN050 19/16 Q1015 NOSIG RMK A2999
RCTP,2017-02-20 09:00,68.00,62.60,82.86,50.00,5.00,0.00,29.97,M,3.73,M,FEW,BKN,BKN,M,800.00,3200.00,6000.00,M,M,M,M,M,M,M,M,68.00,RCTP 200900Z 05005KT 6000 FEW008 BKN032 BKN060 20/17 Q1015 NOSIG RMK A2999
RCTP,2017-02-20 09:30,66.20,62.60,88.18,20.00,6.00,0.00,29.97,M,2.80,M,FEW,BKN,BKN,M,800.00,3000.00,6000.00,M,BR,M,M,M,M,M,M,66.20,RCTP 200930Z 02006KT 4500 BR FEW008 BKN030 BKN060 19/17 Q1015 NOSIG RMK A2999
RCTP,2017-02-20 10:00,66.20,62.60,88.18,50.00,6.00,0.00,29.97,M,2.80,M,FEW,SCT,BKN,M,1200.00,2800.00,4000.00,M,BR,M,M,M,M,M,M,66.20,RCTP 201000Z 05006KT 4500 BR FEW012 SCT028 BKN040 19/17 Q1015 NOSIG RMK A3000
RCTP,2017-02-20 10:30,66.20,62.60,88.18,40.00,8.00,0.00,30.00,M,3.73,M,FEW,BKN,M,M,1200.00,4500.00,M,M,M,M,M,M,M,M,M,66.20,RCTP 201030Z 04008KT 6000 FEW012 BKN045 19/17 Q1016 NOSIG RMK A3001
RCTP,2017-02-20 11:00,66.20,62.60,88.18,40.00,7.00,0.00,30.00,M,3.73,M,FEW,BKN,M,M,1200.00,4500.00,M,M,M,M,M,M,M,M,M,66.20,RCTP 201100Z 04007KT 6000 FEW012 BKN045 19/17 Q1016 NOSIG RMK A3002
RCTP,2017-02-20 11:30,66.20,62.60,88.18,50.00,6.00,0.00,30.00,M,4.35,M,FEW,BKN,M,M,1200.00,5000.00,M,M,M,M,M,M,M,M,M,66.20,RCTP 201130Z 05006KT 7000 FEW012 BKN050 19/17 Q1016 NOSIG RMK A3003
RCTP,2017-02-20 12:00,66.20,62.60,88.18,M,2.00,0.00,30.03,M,4.35,M,FEW,BKN,M,M,1200.00,5000.00,M,M,M,M,M,M,M,M,M,66.20,RCTP 201200Z VRB02KT 7000 FEW012 BKN050 19/17 Q1017 NOSIG RMK A3004
RCTP,2017-02-20 12:30,66.20,62.60,88.18,20.00,4.00,0.00,30.03,M,3.73,M,FEW,BKN,M,M,1200.00,5000.00,M,M,M,M,M,M,M,M,M,66.20,RCTP 201230Z 02004KT 6000 FEW012 BKN050 19/17 Q1017 NOSIG RMK A3005
RCTP,2017-02-20 13:20,64.40,62.60,93.88,30.00,14.00,0.00,30.09,M,2.80,M,SCT,BKN,BKN,M,500.00,700.00,2000.00,M,BR,M,M,M,M,M,M,64.40,RCTP 201320Z 03014KT 4500 BR SCT005 BKN007 BKN020 18/17 Q1019 NOSIG RMK A3009
RCTP,2017-02-20 13:30,64.40,62.60,93.88,30.00,13.00,0.00,30.09,M,2.17,M,SCT,BKN,BKN,M,500.00,700.00,2000.00,M,BR,M,M,M,M,M,M,64.40,RCTP 201330Z 03013KT 3500 BR SCT005 BKN007 BKN020 18/17 Q1019 TEMPO 3000 BR RMK A3010
RCTP,2017-02-20 14:00,64.40,62.60,93.88,20.00,15.00,0.00,30.09,M,1.86,M,SCT,BKN,BKN,M,500.00,700.00,2000.00,M,BR,M,M,M,M,M,M,64.40,RCTP 201400Z 02015KT 3000 BR SCT005 BKN007 BKN020 18/17 Q1019 NOSIG RMK A3011
RCTP,2017-02-20 14:14,62.60,60.80,93.83,30.00,20.00,0.00,30.12,M,1.74,M,SCT,BKN,BKN,M,300.00,500.00,1200.00,M,-DZ BR,M,M,M,M,M,M,62.60,RCTP 201414Z 03020KT 2800 -DZ BR SCT003 BKN005 BKN012 17/16 Q1020 NOSIG RMK A3012
RCTP,2017-02-20 14:30,62.60,60.80,93.83,30.00,17.00,0.00,30.12,M,1.74,M,SCT,BKN,BKN,M,300.00,500.00,1200.00,M,-DZ BR,M,M,M,M,M,M,62.60,RCTP 201430Z 03017KT 2800 -DZ BR SCT003 BKN005 BKN012 17/16 Q1020 NOSIG RMK A3012
RCTP,2017-02-20 15:00,62.60,62.60,100.00,40.00,17.00,0.00,30.12,M,2.36,28.00,SCT,BKN,BKN,M,300.00,500.00,1200.00,M,-DZ BR,M,M,M,M,M,M,62.60,RCTP 201500Z 04017G28KT 3800 -DZ BR SCT003 BKN005 BKN012 17/17 Q1020 NOSIG RMK A3012
RCTP,2017-02-20 15:22,62.60,62.60,100.00,40.00,20.00,0.00,30.12,M,3.11,30.00,SCT,BKN,BKN,M,400.00,600.00,1200.00,M,BR,M,M,M,M,M,M,62.60,RCTP 201522Z 04020G30KT 5000 BR SCT004 BKN006 BKN012 17/17 Q1020 NOSIG RMK A3013
RCTP,2017-02-20 15:30,62.60,62.60,100.00,40.00,21.00,0.00,30.12,M,3.11,M,SCT,BKN,BKN,M,400.00,600.00,1200.00,M,BR,M,M,M,M,M,M,62.60,RCTP 201530Z 04021KT 5000 BR SCT004 BKN006 BKN012 17/17 Q1020 NOSIG RMK A3013
RCTP,2017-02-20 16:00,62.60,62.60,100.00,40.00,21.00,0.00,30.12,M,3.11,M,SCT,BKN,BKN,M,500.00,800.00,1400.00,M,BR,M,M,M,M,M,M,62.60,RCTP 201600Z 04021KT 5000 BR SCT005 BKN008 BKN014 17/17 Q1020 NOSIG RMK A3014
RCTP,2017-02-20 16:30,62.60,60.80,93.83,40.00,22.00,0.00,30.12,M,3.73,M,SCT,BKN,BKN,M,600.00,900.00,2000.00,M,M,M,M,M,M,M,M,62.60,RCTP 201630Z 04022KT 6000 SCT006 BKN009 BKN020 17/16 Q1020 NOSIG RMK A3014
RCTP,2017-02-20 17:00,62.60,60.80,93.83,40.00,23.00,0.00,30.15,M,3.73,M,SCT,BKN,BKN,M,500.00,800.00,2000.00,M,M,M,M,M,M,M,M,62.60,RCTP 201700Z 04023KT 6000 SCT005 BKN008 BKN020 17/16 Q1021 NOSIG RMK A3015
RCTP,2017-02-20 17:30,62.60,60.80,93.83,40.00,23.00,0.00,30.15,M,4.35,M,SCT,BKN,BKN,M,700.00,1000.00,2000.00,M,M,M,M,M,M,M,M,62.60,RCTP 201730Z 04023KT 7000 SCT007 BKN010 BKN020 17/16 Q1021 NOSIG RMK A3015
RCTP,2017-02-20 17:57,62.60,59.00,88.00,40.00,24.00,0.00,30.15,M,4.35,M,SCT,BKN,BKN,M,700.00,1000.00,2000.00,M,M,M,M,M,M,M,M,62.60,RCTP 201757Z 04024KT 7000 SCT007 BKN010 BKN020 17/15 Q1021 WS ALL RWY NOSIG RMK A3015
RCTP,2017-02-20 18:00,62.60,59.00,88.00,40.00,23.00,0.00,30.15,M,4.35,M,SCT,BKN,BKN,M,700.00,1000.00,2000.00,M,M,M,M,M,M,M,M,62.60,RCTP 201800Z 04023KT 7000 SCT007 BKN010 BKN020 17/15 Q1021 WS ALL RWY NOSIG RMK A3015
RCTP,2017-02-20 18:30,62.60,59.00,88.00,40.00,25.00,0.00,30.15,M,3.73,M,SCT,BKN,BKN,M,700.00,1000.00,2000.00,M,M,M,M,M,M,M,M,62.60,RCTP 201830Z 04025KT 6000 SCT007 BKN010 BKN020 17/15 Q1021 WS ALL RWY NOSIG RMK A3015
RCTP,2017-02-20 19:00,62.60,59.00,88.00,40.00,22.00,0.00,30.15,M,3.73,M,SCT,BKN,BKN,M,700.00,900.00,2000.00,M,M,M,M,M,M,M,M,62.60,RCTP 201900Z 04022KT 6000 SCT007 BKN009 BKN020 17/15 Q1021 NOSIG RMK A3015
RCTP,2017-02-20 19:30,62.60,59.00,88.00,40.00,22.00,0.00,30.15,M,3.73,M,SCT,BKN,BKN,M,700.00,900.00,2000.00,M,M,M,M,M,M,M,M,62.60,RCTP 201930Z 04022KT 6000 SCT007 BKN009 BKN020 17/15 Q1021 NOSIG RMK A3015
RCTP,2017-02-20 21:30,60.80,59.00,93.79,50.00,24.00,0.00,30.15,M,3.73,M,SCT,BKN,BKN,M,700.00,900.00,2000.00,M,M,M,M,M,M,M,M,60.80,RCTP 202130Z 05024KT 6000 SCT007 BKN009 BKN020 16/15 Q1021 WS ALL RWY NOSIG RMK A3016
RCTP,2017-02-20 22:00,60.80,59.00,93.79,50.00,23.00,0.00,30.15,M,5.59,M,SCT,BKN,M,M,900.00,1800.00,M,M,M,M,M,M,M,M,M,60.80,RCTP 202200Z 05023KT 9000 SCT009 BKN018 16/15 Q1021 NOSIG RMK A3017
RCTP,2017-02-20 22:30,60.80,59.00,93.79,50.00,22.00,0.00,30.15,M,5.59,M,FEW,BKN,M,M,900.00,2000.00,M,M,M,M,M,M,M,M,M,60.80,RCTP 202230Z 05022KT 9000 FEW009 BKN020 16/15 Q1021 NOSIG RMK A3017
RCTP,2017-02-20 23:00,62.60,57.20,82.50,50.00,20.00,0.00,30.18,M,5.59,M,FEW,BKN,BKN,M,900.00,2000.00,3000.00,M,M,M,M,M,M,M,M,62.60,RCTP 202300Z 05020KT 9000 FEW009 BKN020 BKN030 17/14 Q1022 NOSIG RMK A3019
RCTP,2017-02-20 23:30,62.60,57.20,82.50,50.00,20.00,0.00,30.18,M,5.59,M,FEW,BKN,BKN,M,900.00,1800.00,3000.00,M,M,M,M,M,M,M,M,62.60,RCTP 202330Z 05020KT 9000 FEW009 BKN018 BKN030 17/14 Q1022 NOSIG RMK A3020
RCTP,2017-02-21 00:00,64.40,59.00,82.62,50.00,21.00,0.00,30.18,M,5.59,M,FEW,BKN,BKN,M,900.00,1800.00,3000.00,M,M,M,M,M,M,M,M,64.40,RCTP 210000Z 05021KT 9000 FEW009 BKN018 BKN030 18/15 Q1022 NOSIG RMK A3020
RCTP,2017-02-21 02:27,68.00,59.00,72.92,60.00,30.00,0.00,30.15,M,6.21,M,FEW,BKN,M,M,900.00,2200.00,M,M,M,M,M,M,M,M,M,68.00,RCTP 210227Z 06030KT 9999 FEW009 BKN022 20/15 Q1021 WS ALL RWY NOSIG RMK A3017
RCTP,2017-02-21 02:30,68.00,59.00,72.92,60.00,27.00,0.00,30.15,M,6.21,M,FEW,BKN,M,M,900.00,2200.00,M,M,M,M,M,M,M,M,M,68.00,RCTP 210230Z 06027KT 9999 FEW009 BKN022 20/15 Q1021 WS ALL RWY NOSIG RMK A3017
RCTP,2017-02-21 03:00,68.00,59.00,72.92,50.00,22.00,0.00,30.15,M,6.21,M,FEW,BKN,M,M,900.00,2200.00,M,M,M,M,M,M,M,M,M,68.00,RCTP 210300Z 05022KT 9999 FEW009 BKN022 20/15 Q1021 WS ALL RWY NOSIG RMK A3015
RCTP,2017-02-21 04:30,73.40,60.80,64.69,60.00,27.00,0.00,30.09,M,6.21,M,FEW,SCT,M,M,1200.00,2200.00,M,M,M,M,M,M,M,M,M,73.40,RCTP 210430Z 06027KT 9999 FEW012 SCT022 23/16 Q1019 NOSIG RMK A3011
RCTP,2017-02-21 05:00,71.60,60.80,68.75,60.00,20.00,0.00,30.09,M,6.21,M,FEW,SCT,M,M,1200.00,2500.00,M,M,M,M,M,M,M,M,M,71.60,RCTP 210500Z 06020KT 9999 FEW012 SCT025 22/16 Q1019 NOSIG RMK A3010
RCTP,2017-02-21 05:30,73.40,60.80,64.69,50.00,25.00,0.00,30.06,M,6.21,M,FEW,SCT,M,M,1200.00,2500.00,M,M,M,M,M,M,M,M,M,73.40,RCTP 210530Z 05025KT 9999 FEW012 SCT025 23/16 Q1018 NOSIG RMK A3007
RCTP,2017-02-21 06:46,73.40,60.80,64.69,50.00,21.00,0.00,30.03,M,6.21,M,FEW,SCT,M,M,1500.00,2500.00,M,M,M,M,M,M,M,M,M,73.40,RCTP 210646Z 05021KT 9999 FEW015 SCT025 23/16 Q1017 WS ALL RWY NOSIG RMK A3004
RCTP,2017-02-21 07:00,73.40,62.60,68.94,50.00,22.00,0.00,30.00,M,6.21,M,FEW,SCT,BKN,M,1500.00,2500.00,20000.00,M,M,M,M,M,M,M,M,73.40,RCTP 210700Z 05022KT 9999 FEW015 SCT025 BKN200 23/17 Q1016 WS ALL RWY NOSIG RMK A3003
RCTP,2017-02-21 07:30,71.60,62.60,73.27,50.00,18.00,0.00,30.00,M,6.21,M,FEW,SCT,M,M,2000.00,20000.00,M,M,M,M,M,M,M,M,M,71.60,RCTP 210730Z 05018KT 020V080 9999 FEW020 SCT200 22/17 Q1016 NOSIG RMK A3002
RCTP,2017-02-21 08:00,73.40,62.60,68.94,60.00,18.00,0.00,30.00,M,6.21,29.00,FEW,BKN,M,M,2000.00,20000.00,M,M,M,M,M,M,M,M,M,73.40,RCTP 210800Z 06018G29KT 9999 FEW020 BKN200 23/17 Q1016 NOSIG RMK A3002
RCTP,2017-02-21 08:40,71.60,62.60,73.27,70.00,16.00,0.00,30.00,M,6.21,M,FEW,SCT,BKN,M,2000.00,6000.00,20000.00,M,M,M,M,M,M,M,M,71.60,RCTP 210840Z 07016KT 9999 FEW020 SCT060 BKN200 22/17 Q1016 NOSIG RMK A3002
RCTP,2017-02-21 09:30,71.60,62.60,73.27,80.00,15.00,0.00,30.00,M,6.21,M,FEW,SCT,BKN,M,2000.00,6000.00,20000.00,M,M,M,M,M,M,M,M,71.60,RCTP 210930Z 08015KT 9999 FEW020 SCT060 BKN200 22/17 Q1016 NOSIG RMK A3001
RCTP,2017-02-21 10:10,71.60,62.60,73.27,90.00,16.00,0.00,29.97,M,6.21,31.00,FEW,BKN,M,M,2000.00,8000.00,M,M,M,M,M,M,M,M,M,71.60,RCTP 211010Z 09016G31KT 060V120 9999 FEW020 BKN080 22/17 Q1015 WS ALL RWY NOSIG RMK A2999
RCTP,2017-02-21 10:30,71.60,62.60,73.27,100.00,20.00,0.00,29.97,M,6.21,M,FEW,BKN,M,M,2000.00,8000.00,M,M,M,M,M,M,M,M,M,71.60,RCTP 211030Z 10020KT 9999 FEW020 BKN080 22/17 Q1015 WS ALL RWY NOSIG RMK A2998
RCTP,2017-02-21 10:50,71.60,62.60,73.27,100.00,18.00,0.00,29.97,M,6.21,M,FEW,BKN,M,M,2000.00,8000.00,M,M,M,M,M,M,M,M,M,71.60,RCTP 211050Z 10018KT 9999 FEW020 BKN080 22/17 Q1015 NOSIG RMK A2999
RCTP,2017-02-21 11:00,71.60,62.60,73.27,100.00,18.00,0.00,29.97,M,6.21,M,FEW,BKN,M,M,2000.00,8000.00,M,M,M,M,M,M,M,M,M,71.60,RCTP 211100Z 10018KT 9999 FEW020 BKN080 22/17 Q1015 NOSIG RMK A2999
RCTP,2017-02-21 11:30,71.60,62.60,73.27,100.00,14.00,0.00,29.97,M,6.21,M,FEW,SCT,M,M,2000.00,8000.00,M,M,M,M,M,M,M,M,M,71.60,RCTP 211130Z 10014KT 9999 FEW020 SCT080 22/17 Q1015 NOSIG RMK A3000
RCTP,2017-02-21 12:00,73.40,62.60,68.94,120.00,10.00,0.00,30.00,M,6.21,M,FEW,BKN,M,M,2000.00,8000.00,M,M,M,M,M,M,M,M,M,73.40,RCTP 211200Z 12010KT 070V140 9999 FEW020 BKN080 23/17 Q1016 NOSIG RMK A3001
RCTP,2017-02-21 12:30,71.60,62.60,73.27,140.00,6.00,0.00,30.00,M,6.21,M,FEW,BKN,M,M,2000.00,5000.00,M,M,M,M,M,M,M,M,M,71.60,RCTP 211230Z 14006KT 100V170 9999 FEW020 BKN050 22/17 Q1016 NOSIG RMK A3003
RCTP,2017-02-21 13:00,73.40,62.60,68.94,220.00,3.00,0.00,30.00,M,6.21,M,FEW,SCT,BKN,M,2000.00,5000.00,9000.00,M,M,M,M,M,M,M,M,73.40,RCTP 211300Z 22003KT 160V280 9999 FEW020 SCT050 BKN090 23/17 Q1016 NOSIG RMK A3003
RCTP,2017-02-21 13:30,68.00,62.60,82.86,260.00,4.00,0.00,30.03,M,6.21,M,FEW,SCT,BKN,M,2000.00,5000.00,9000.00,M,M,M,M,M,M,M,M,68.00,RCTP 211330Z 26004KT 9999 FEW020 SCT050 BKN090 20/17 Q1017 NOSIG RMK A3004
RCTP,2017-02-21 14:00,66.20,62.60,88.18,250.00,4.00,0.00,30.00,M,6.21,M,FEW,SCT,BKN,M,2000.00,5000.00,9000.00,M,M,M,M,M,M,M,M,66.20,RCTP 211400Z 25004KT 9999 FEW020 SCT050 BKN090 19/17 Q1016 NOSIG RMK A3003
RCTP,2017-02-21 14:30,64.40,62.60,93.88,260.00,5.00,0.00,30.00,M,5.59,M,FEW,SCT,BKN,M,2000.00,5000.00,9000.00,M,M,M,M,M,M,M,M,64.40,RCTP 211430Z 26005KT 9000 FEW020 SCT050 BKN090 18/17 Q1016 NOSIG RMK A3003
RCTP,2017-02-21 15:00,64.40,62.60,93.88,250.00,6.00,0.00,30.00,M,4.35,M,FEW,SCT,BKN,M,2000.00,5000.00,9000.00,M,M,M,M,M,M,M,M,64.40,RCTP 211500Z 25006KT 7000 FEW020 SCT050 BKN090 18/17 Q1016 NOSIG RMK R23 A3002
RCTP,2017-02-21 15:30,64.40,62.60,93.88,240.00,6.00,0.00,30.00,M,3.73,M,FEW,SCT,BKN,M,2000.00,5000.00,9000.00,M,M,M,M,M,M,M,M,64.40,RCTP 211530Z 24006KT 6000 FEW020 SCT050 BKN090 18/17 Q1016 TEMPO 5000 BR RMK A3002
RCTP,2017-02-21 15:51,64.40,62.60,93.88,260.00,5.00,0.00,30.00,M,3.11,M,FEW,BKN,M,M,500.00,9000.00,M,M,BR,M,M,M,M,M,M,64.40,RCTP 211551Z 26005KT 5000 BR FEW005 BKN090 18/17 Q1016 NOSIG RMK A3003
RCTP,2017-02-21 16:00,64.40,62.60,93.88,270.00,5.00,0.00,30.00,M,3.11,M,SCT,SCT,M,M,400.00,9000.00,M,M,BR,M,M,M,M,M,M,64.40,RCTP 211600Z 27005KT 5000 BR SCT004 SCT090 18/17 Q1016 TEMPO 4000 BR RMK A3002
RCTP,2017-02-21 16:22,64.40,62.60,93.88,220.00,5.00,0.00,30.00,M,2.80,M,SCT,SCT,M,M,400.00,9000.00,M,M,BR,M,M,M,M,M,M,64.40,RCTP 211622Z 22005KT 190V250 4500 BR SCT004 SCT090 18/17 Q1016 NOSIG RMK A3002
RCTP,2017-02-21 16:36,62.60,62.60,100.00,240.00,6.00,0.00,30.00,M,2.61,M,FEW,BKN,M,M,200.00,400.00,M,M,BR,M,M,M,M,M,M,62.60,RCTP 211636Z 24006KT 180V260 4200 BR FEW002 BKN004 17/17 Q1016 NOSIG RMK A3002
RCTP,2017-02-21 17:00,62.60,62.60,100.00,230.00,7.00,0.00,30.00,M,1.86,M,FEW,BKN,BKN,M,200.00,300.00,600.00,M,BR,M,M,M,M,M,M,62.60,RCTP 211700Z 23007KT 3000 BR FEW002 BKN003 BKN006 17/17 Q1016 TEMPO 2000 BR RMK A3002
RCTP,2017-02-21 17:30,64.40,62.60,93.88,260.00,5.00,0.00,30.00,M,1.74,M,SCT,BKN,BKN,M,200.00,300.00,600.00,M,BR,M,M,M,M,M,M,64.40,RCTP 211730Z 26005KT 2800 BR SCT002 BKN003 BKN006 18/17 Q1016 NOSIG RMK A3001
RCTP,2017-02-21 18:00,62.60,60.80,93.83,280.00,8.00,0.00,30.00,M,1.86,M,SCT,BKN,BKN,M,200.00,300.00,600.00,M,BR,M,M,M,M,M,M,62.60,RCTP 211800Z 28008KT 3000 BR SCT002 BKN003 BKN006 17/16 Q1016 NOSIG RMK A3002
RCTP,2017-02-21 18:30,60.80,60.80,100.00,310.00,8.00,0.00,30.00,M,1.86,M,SCT,BKN,BKN,M,200.00,300.00,600.00,M,BR,M,M,M,M,M,M,60.80,RCTP 211830Z 31008KT 3000 BR SCT002 BKN003 BKN006 16/16 Q1016 TEMPO 2000 BR RMK A3002
RCTP,2017-02-21 18:41,60.80,60.80,100.00,330.00,6.00,0.00,30.00,M,1.55,M,SCT,BKN,BKN,M,200.00,300.00,600.00,M,BR,M,M,M,M,M,M,60.80,RCTP 211841Z 33006KT 290V010 2500 BR SCT002 BKN003 BKN006 16/16 Q1016 NOSIG RMK A3002
RCTP,2017-02-21 19:00,60.80,59.00,93.79,360.00,5.00,0.00,30.00,M,1.55,M,SCT,BKN,BKN,M,200.00,300.00,600.00,M,BR,M,M,M,M,M,M,60.80,RCTP 211900Z 36005KT 320V040 2500 BR SCT002 BKN003 BKN006 16/15 Q1016 NOSIG RMK R05 A3001
RCTP,2017-02-21 19:30,60.80,59.00,93.79,360.00,4.00,0.00,30.00,M,1.37,M,SCT,BKN,BKN,M,200.00,300.00,600.00,M,BR,M,M,M,M,M,M,60.80,RCTP 211930Z 36004KT 310V030 2200 BR SCT002 BKN003 BKN006 16/15 Q1016 NOSIG RMK A3001
RCTP,2017-02-21 20:00,60.80,59.00,93.79,270.00,5.00,0.00,30.00,M,1.12,M,SCT,BKN,BKN,M,200.00,300.00,600.00,M,BR,M,M,M,M,M,M,60.80,RCTP 212000Z 27005KT 210V020 1800 BR SCT002 BKN003 BKN006 16/15 Q1016 TEMPO 1500 -RA BR RMK A3002
RCTP,2017-02-21 20:10,60.80,59.00,93.79,290.00,6.00,0.00,30.00,M,0.93,M,SCT,BKN,BKN,M,200.00,300.00,600.00,M,-RA BR,M,M,M,M,M,M,60.80,RCTP 212010Z 29006KT 1500 -RA BR SCT002 BKN003 BKN006 16/15 Q1016 NOSIG RMK A3002
RCTP,2017-02-21 20:30,60.80,59.00,93.79,280.00,8.00,0.00,30.00,M,0.93,M,SCT,BKN,BKN,M,100.00,300.00,500.00,M,-RA BR,M,M,M,M,M,M,60.80,RCTP 212030Z 28008KT 180V350 1500 -RA BR SCT001 BKN003 BKN005 16/15 Q1016 NOSIG RMK A3003
RCTP,2017-02-21 20:44,60.80,59.00,93.79,300.00,9.00,0.00,30.03,M,1.24,M,SCT,BKN,BKN,M,100.00,300.00,500.00,M,-RA BR,M,M,M,M,M,M,60.80,RCTP 212044Z 30009KT 2000 -RA BR SCT001 BKN003 BKN005 16/15 Q1017 NOSIG RMK R23 A3004
RCTP,2017-02-21 20:53,60.80,60.80,100.00,300.00,10.00,0.00,30.03,M,1.86,M,SCT,BKN,BKN,M,200.00,300.00,600.00,M,BR,M,M,M,M,M,M,60.80,RCTP 212053Z 30010KT 3000 BR SCT002 BKN003 BKN006 16/16 Q1017 NOSIG RMK A3005
RCTP,2017-02-21 21:00,60.80,59.00,93.79,300.00,11.00,0.00,30.03,M,2.17,M,SCT,BKN,BKN,M,200.00,400.00,600.00,M,BR,M,M,M,M,M,M,60.80,RCTP 212100Z 30011KT 3500 BR SCT002 BKN004 BKN006 16/15 Q1017 NOSIG RMK A3005
RCTP,2017-02-21 21:30,57.20,57.20,100.00,330.00,10.00,0.00,30.06,M,2.80,M,SCT,BKN,BKN,M,200.00,400.00,600.00,M,BR,M,M,M,M,M,M,57.20,RCTP 212130Z 33010KT 4500 BR SCT002 BKN004 BKN006 14/14 Q1018 NOSIG RMK A3007
RCTP,2017-02-21 21:39,57.20,57.20,100.00,340.00,8.00,0.00,30.06,M,2.80,M,SCT,BKN,BKN,M,200.00,400.00,600.00,M,BR,M,M,M,M,M,M,57.20,RCTP 212139Z 34008KT 310V010 4500 BR SCT002 BKN004 BKN006 14/14 Q1018 NOSIG RMK R05 A3007
RCTP,2017-02-21 22:00,59.00,57.20,93.74,350.00,5.00,0.00,30.06,M,3.11,M,SCT,BKN,BKN,M,300.00,500.00,800.00,M,BR,M,M,M,M,M,M,59.00,RCTP 212200Z 35005KT 320V070 5000 BR SCT003 BKN005 BKN008 15/14 Q1018 NOSIG RMK A3008
RCTP,2017-02-21 22:13,59.00,57.20,93.74,360.00,4.00,0.00,30.06,M,3.11,M,SCT,BKN,BKN,M,300.00,500.00,800.00,M,-RA,M,M,M,M,M,M,59.00,RCTP 212213Z 36004KT 330V040 5000 -RA SCT003 BKN005 BKN008 15/14 Q1018 TEMPO 4000 -RA RMK A3008
RCTP,2017-02-21 22:24,59.00,57.20,93.74,M,3.00,0.00,30.06,M,2.80,M,SCT,BKN,BKN,M,300.00,500.00,800.00,M,-RA,M,M,M,M,M,M,59.00,RCTP 212224Z VRB03KT 4500 -RA SCT003 BKN005 BKN008 15/14 Q1018 NOSIG RMK A3008
RCTP,2017-02-21 22:30,59.00,57.20,93.74,M,3.00,0.00,30.06,M,2.80,M,SCT,BKN,BKN,M,300.00,500.00,800.00,M,-RA,M,M,M,M,M,M,59.00,RCTP 212230Z VRB03KT 4500 -RA SCT003 BKN005 BKN008 15/14 Q1018 NOSIG RMK A3007
RCTP,2017-02-21 23:00,59.00,57.20,93.74,170.00,6.00,0.00,30.06,M,2.80,M,SCT,BKN,BKN,M,300.00,500.00,1200.00,M,-RA BR,M,M,M,M,M,M,59.00,RCTP 212300Z 17006KT 120V210 4500 -RA BR SCT003 BKN005 BKN012 15/14 Q1018 NOSIG RMK A3007 RA AMT 0.20MM
RCTP,2017-02-21 23:10,59.00,57.20,93.74,140.00,6.00,0.00,30.06,M,2.49,M,SCT,BKN,BKN,M,300.00,500.00,4000.00,M,BR,M,M,M,M,M,M,59.00,RCTP 212310Z 14006KT 060V220 4000 BR SCT003 BKN005 BKN040 15/14 Q1018 NOSIG RMK A3006
RCTP,2017-02-21 23:30,60.80,59.00,93.79,140.00,7.00,0.00,30.03,M,2.49,M,FEW,SCT,BKN,M,300.00,500.00,4000.00,M,BR,M,M,M,M,M,M,60.80,RCTP 212330Z 14007KT 090V160 4000 BR FEW003 SCT005 BKN040 16/15 Q1017 NOSIG RMK A3005
RCTP,2017-02-22 00:00,62.60,60.80,93.83,150.00,9.00,0.00,30.06,M,2.80,M,FEW,SCT,BKN,M,500.00,800.00,4000.00,M,BR,M,M,M,M,M,M,62.60,RCTP 220000Z 15009KT 080V170 4500 BR FEW005 SCT008 BKN040 17/16 Q1018 NOSIG RMK A3006
RCTP,2017-02-22 00:30,64.40,60.80,88.09,140.00,8.00,0.00,30.03,M,3.11,M,SCT,BKN,BKN,M,800.00,4000.00,12000.00,M,BR,M,M,M,M,M,M,64.40,RCTP 220030Z 14008KT 070V160 5000 BR SCT008 BKN040 BKN120 18/16 Q1017 TEMPO 3000 -SHRA RMK A3004
RCTP,2017-02-22 00:36,64.40,60.80,88.09,110.00,8.00,0.00,30.00,M,2.49,M,SCT,SCT,BKN,M,800.00,1200.00,5000.00,M,-SHRA BR,M,M,M,M,M,M,64.40,RCTP 220036Z 11008KT 070V150 4000 -SHRA BR SCT008 SCT012 BKN050 18/16 Q1016 NOSIG RMK A3003
RCTP,2017-02-22 01:00,66.20,62.60,88.18,130.00,9.00,0.00,30.00,M,2.80,M,SCT,SCT,BKN,M,1000.00,1800.00,4000.00,M,-SHRA BR,M,M,M,M,M,M,66.20,RCTP 220100Z 13009KT 080V150 4500 -SHRA BR SCT010 SCT018 BKN040 19/17 Q1016 NOSIG RMK A3002 RA AMT 0.2MM
RCTP,2017-02-22 01:11,68.00,62.60,82.86,130.00,8.00,0.00,30.00,M,3.73,M,SCT,SCT,BKN,M,1200.00,4000.00,10000.00,M,-SHRA,M,M,M,M,M,M,68.00,RCTP 220111Z 13008KT 080V150 6000 -SHRA SCT012 SCT040 BKN100 20/17 Q1016 NOSIG RMK A3002
RCTP,2017-02-22 01:30,69.80,64.40,82.98,130.00,7.00,0.00,30.00,M,4.97,M,SCT,SCT,BKN,M,1200.00,4000.00,10000.00,M,M,M,M,M,M,M,M,69.80,RCTP 220130Z 13007KT 070V170 8000 SCT012 SCT040 BKN100 21/18 Q1016 NOSIG RMK A3002
RCTP,2017-02-22 02:00,71.60,66.20,83.09,70.00,6.00,0.00,29.97,M,4.97,M,SCT,SCT,BKN,M,1200.00,3500.00,10000.00,M,M,M,M,M,M,M,M,71.60,RCTP 220200Z 07006KT 030V120 8000 SCT012 SCT035 BKN100 22/19 Q1015 NOSIG RMK A3000
RCTP,2017-02-22 02:30,64.40,60.80,88.09,10.00,8.00,0.00,29.97,M,3.73,M,SCT,SCT,BKN,M,1200.00,5000.00,9000.00,M,M,M,M,M,M,M,M,64.40,RCTP 220230Z 01008KT 6000 SCT012 SCT050 BKN090 18/16 Q1015 NOSIG RMK A2999
RCTP,2017-02-22 02:54,66.20,62.60,88.18,30.00,3.00,0.00,29.97,M,3.11,M,SCT,SCT,BKN,M,1200.00,3500.00,9000.00,M,-SHRA BR,M,M,M,M,M,M,66.20,RCTP 220254Z 03003KT 270V080 5000 -SHRA BR SCT012 SCT035 BKN090 19/17 Q1015 NOSIG RMK A2999
RCTP,2017-02-22 03:00,68.00,64.40,88.26,M,1.00,0.00,29.97,M,3.11,M,SCT,SCT,BKN,M,1200.00,3500.00,8000.00,M,-SHRA BR,M,M,M,M,M,M,68.00,RCTP 220300Z VRB01KT 5000 -SHRA BR SCT012 SCT035 BKN080 20/18 Q1015 NOSIG RMK A2999
RCTP,2017-02-22 03:31,66.20,62.60,88.18,290.00,7.00,0.00,29.97,M,1.86,M,SCT,SCT,BKN,M,1200.00,3000.00,7000.00,M,SHRA BR,M,M,M,M,M,M,66.20,RCTP 220331Z 29007KT 3000 SHRA BR SCT012 SCT030 BKN070 19/17 Q1015 TEMPO 2000 SHRA RMK A2999
RCTP,2017-02-22 03:38,64.40,62.60,93.88,310.00,9.00,0.00,29.97,M,1.86,M,SCT,BKN,BKN,M,1200.00,3000.00,5000.00,M,-SHRA BR,M,M,M,M,M,M,64.40,RCTP 220338Z 31009KT 3000 -SHRA BR SCT012 BKN030 BKN050 18/17 Q1015 RESHRA TEMPO 2000 SHRA RMK A3000
RCTP,2017-02-22 04:00,62.60,60.80,93.83,290.00,11.00,0.00,30.00,M,1.55,M,SCT,BKN,BKN,M,300.00,2000.00,4000.00,M,-SHRA BR,M,M,M,M,M,M,62.60,RCTP 220400Z 29011KT 2500 -SHRA BR SCT003 BKN020 BKN040 17/16 Q1016 RESHRA NOSIG RMK R23 A3003
RCTP,2017-02-22 04:06,62.60,62.60,100.00,290.00,14.00,0.00,30.00,M,1.55,M,SCT,BKN,BKN,M,300.00,500.00,2000.00,M,-SHRA BR,M,M,M,M,M,M,62.60,RCTP 220406Z 29014KT 2500 -SHRA BR SCT003 BKN005 BKN020 17/17 Q1016 NOSIG RMK A3003
RCTP,2017-02-22 04:22,62.60,62.60,100.00,290.00,12.00,0.00,30.03,M,1.55,M,SCT,BKN,BKN,M,200.00,300.00,2000.00,M,SHRA BR,M,M,M,M,M,M,62.60,RCTP 220422Z 29012KT 2500 SHRA BR SCT002 BKN003 BKN020 17/17 Q1017 NOSIG RMK A3004
RCTP,2017-02-22 04:30,62.60,62.60,100.00,280.00,10.00,0.00,30.00,M,1.24,M,SCT,BKN,BKN,M,200.00,300.00,2000.00,M,SHRA BR,M,M,M,M,M,M,62.60,RCTP 220430Z 28010KT 2000 SHRA BR SCT002 BKN003 BKN020 17/17 Q1016 NOSIG RMK A3003
RCTP,2017-02-22 04:51,62.60,62.60,100.00,M,3.00,0.00,29.97,M,1.86,M,SCT,BKN,BKN,M,200.00,300.00,2000.00,M,-SHRA BR,M,M,M,M,M,M,62.60,RCTP 220451Z VRB03KT 3000 -SHRA BR SCT002 BKN003 BKN020 17/17 Q1015 RESHRA NOSIG RMK A3000
RCTP,2017-02-22 05:00,62.60,62.60,100.00,M,3.00,0.00,29.97,M,2.17,M,SCT,BKN,BKN,M,200.00,300.00,2000.00,M,-SHRA BR,M,M,M,M,M,M,62.60,RCTP 220500Z VRB03KT 3500 -SHRA BR SCT002 BKN003 BKN020 17/17 Q1015 RESHRA TEMPO 2000 SHRA BR RMK A3000 RA AMT 4.6MM
RCTP,2017-02-22 05:30,64.40,64.40,100.00,M,3.00,0.00,29.97,M,2.36,M,SCT,BKN,BKN,M,200.00,300.00,3500.00,M,-SHRA BR,M,M,M,M,M,M,64.40,RCTP 220530Z VRB03KT 3800 -SHRA BR SCT002 BKN003 BKN035 18/18 Q1015 TEMPO 2000 SHRA BR RMK A2999
RCTP,2017-02-22 05:42,64.40,62.60,93.88,280.00,4.00,0.00,30.00,M,1.74,M,SCT,BKN,BKN,M,200.00,300.00,1500.00,M,SHRA BR,M,M,M,M,M,M,64.40,RCTP 220542Z 28004KT 240V010 2800 SHRA BR SCT002 BKN003 BKN015 18/17 Q1016 NOSIG RMK A3001
RCTP,2017-02-22 06:00,64.40,62.60,93.88,300.00,3.00,0.00,29.97,M,1.55,M,SCT,BKN,BKN,M,200.00,300.00,1500.00,M,SHRA BR,M,M,M,M,M,M,64.40,RCTP 220600Z 30003KT 260V010 2500 SHRA BR SCT002 BKN003 BKN015 18/17 Q1015 NOSIG RMK A2999 RA AMT 3.8MM
RCTP,2017-02-22 06:15,64.40,64.40,100.00,M,2.00,0.00,29.97,M,1.55,M,SCT,BKN,BKN,M,300.00,1200.00,4000.00,M,SHRA BR,M,M,M,M,M,M,64.40,RCTP 220615Z VRB02KT 2500 SHRA BR SCT003 BKN012 BKN040 18/18 Q1015 NOSIG RMK A2999
RCTP,2017-02-22 06:30,64.40,64.40,100.00,130.00,4.00,0.00,29.97,M,1.24,M,SCT,BKN,BKN,M,300.00,1000.00,2000.00,M,SHRA BR,M,M,M,M,M,M,64.40,RCTP 220630Z 13004KT 080V210 2000 SHRA BR SCT003 BKN010 BKN020 18/18 Q1015 NOSIG RMK A2999
RCTP,2017-02-22 07:00,66.20,64.40,93.92,150.00,9.00,0.00,29.94,M,1.74,20.00,SCT,BKN,BKN,M,500.00,1200.00,3000.00,M,SHRA BR,M,M,M,M,M,M,66.20,RCTP 220700Z 15009G20KT 100V190 2800 SHRA BR SCT005 BKN012 BKN030 19/18 Q1014 NOSIG RMK A2997 RA AMT 5.2MM
RCTP,2017-02-22 07:24,66.20,64.40,93.92,150.00,12.00,0.00,29.94,M,3.11,25.00,SCT,BKN,BKN,M,1200.00,2000.00,7000.00,M,-SHRA BR,M,M,M,M,M,M,66.20,RCTP 220724Z 15012G25KT 5000 -SHRA BR SCT012 BKN020 BKN070 19/18 Q1014 RESHRA NOSIG RMK A2996
RCTP,2017-02-22 07:30,66.20,64.40,93.92,150.00,12.00,0.00,29.94,M,3.11,25.00,SCT,BKN,BKN,M,1200.00,2000.00,7000.00,M,-SHRA BR,M,M,M,M,M,M,66.20,RCTP 220730Z 15012G25KT 5000 -SHRA BR SCT012 BKN020 BKN070 19/18 Q1014 RESHRA NOSIG RMK A2996
RCTP,2017-02-22 07:54,68.00,64.40,88.26,150.00,10.00,0.00,29.94,M,6.21,22.00,SCT,BKN,BKN,M,1200.00,4000.00,7000.00,M,M,M,M,M,M,M,M,68.00,RCTP 220754Z 15010G22KT 9999 SCT012 BKN040 BKN070 20/18 Q1014 NOSIG RMK A2995
RCTP,2017-02-22 08:00,68.00,64.40,88.26,150.00,9.00,0.00,29.94,M,6.21,M,SCT,BKN,BKN,M,1200.00,4000.00,7000.00,M,M,M,M,M,M,M,M,68.00,RCTP 220800Z 15009KT 9999 SCT012 BKN040 BKN070 20/18 Q1014 NOSIG RMK A2995 RA AMT 2.2MM
RCTP,2017-02-22 08:30,68.00,64.40,88.26,140.00,7.00,0.00,29.91,M,6.21,M,FEW,SCT,BKN,M,1200.00,4000.00,7000.00,M,M,M,M,M,M,M,M,68.00,RCTP 220830Z 14007KT 110V200 9999 FEW012 SCT040 BKN070 20/18 Q1013 NOSIG RMK A2994
RCTP,2017-02-22 09:00,68.00,64.40,88.26,130.00,6.00,0.00,29.91,M,6.21,M,SCT,BKN,M,M,2000.00,6000.00,M,M,M,M,M,M,M,M,M,68.00,RCTP 220900Z 13006KT 050V180 9999 SCT020 BKN060 20/18 Q1013 NOSIG RMK A2992
RCTP,2017-02-22 09:30,69.80,64.40,82.98,150.00,3.00,0.00,29.91,M,6.21,M,SCT,BKN,M,M,2000.00,6000.00,M,M,M,M,M,M,M,M,M,69.80,RCTP 220930Z 15003KT 110V210 9999 SCT020 BKN060 21/18 Q1013 NOSIG RMK A2992
RCTP,2017-02-22 10:00,68.00,64.40,88.26,M,3.00,0.00,29.91,M,6.21,M,SCT,BKN,M,M,2500.00,6000.00,M,M,M,M,M,M,M,M,M,68.00,RCTP 221000Z VRB03KT 9999 SCT025 BKN060 20/18 Q1013 NOSIG RMK A2993
RCTP,2017-02-22 10:08,68.00,64.40,88.26,M,2.00,0.00,29.91,M,6.21,M,SCT,BKN,BKN,M,1200.00,2000.00,6000.00,M,-SHRA,M,M,M,M,M,M,68.00,RCTP 221008Z VRB02KT 9999 -SHRA SCT012 BKN020 BKN060 20/18 Q1013 NOSIG RMK A2992
RCTP,2017-02-22 10:30,68.00,64.40,88.26,170.00,6.00,0.00,29.91,M,6.21,M,SCT,BKN,BKN,M,1200.00,2200.00,8000.00,M,-SHRA,M,M,M,M,M,M,68.00,RCTP 221030Z 17006KT 9999 -SHRA SCT012 BKN022 BKN080 20/18 Q1013 NOSIG RMK A2992
RCTP,2017-02-22 11:00,68.00,64.40,88.26,170.00,7.00,0.00,29.91,M,6.21,M,FEW,SCT,BKN,M,1200.00,2000.00,10000.00,M,VCSH,M,M,M,M,M,M,68.00,RCTP 221100Z 17007KT 9999 VCSH FEW012 SCT020 BKN100 20/18 Q1013 NOSIG RMK A2993 RA AMT 0.2MM
RCTP,2017-02-22 11:30,68.00,64.40,88.26,170.00,7.00,0.00,29.94,M,6.21,M,FEW,SCT,BKN,M,1200.00,5000.00,10000.00,M,M,M,M,M,M,M,M,68.00,RCTP 221130Z 17007KT 140V220 9999 FEW012 SCT050 BKN100 20/18 Q1014 NOSIG RMK A2995
RCTP,2017-02-22 12:00,68.00,64.40,88.26,170.00,9.00,0.00,29.94,M,6.21,M,FEW,SCT,BKN,M,1200.00,5000.00,9000.00,M,M,M,M,M,M,M,M,68.00,RCTP 221200Z 17009KT 9999 FEW012 SCT050 BKN090 20/18 Q1014 NOSIG RMK A2995
RCTP,2017-02-22 12:30,68.00,64.40,88.26,160.00,9.00,0.00,29.94,M,6.21,M,FEW,SCT,BKN,M,1200.00,5000.00,9000.00,M,M,M,M,M,M,M,M,68.00,RCTP 221230Z 16009KT 140V200 9999 FEW012 SCT050 BKN090 20/18 Q1014 NOSIG RMK A2995
RCTP,2017-02-22 13:00,68.00,64.40,88.26,150.00,6.00,0.00,29.94,M,6.21,M,FEW,SCT,M,M,1200.00,9000.00,M,M,M,M,M,M,M,M,M,68.00,RCTP 221300Z 15006KT 120V210 9999 FEW012 SCT090 20/18 Q1014 NOSIG RMK A2997
RCTP,2017-02-22 13:30,68.00,64.40,88.26,160.00,8.00,0.00,29.94,M,6.21,M,FEW,SCT,M,M,1200.00,9000.00,M,M,M,M,M,M,M,M,M,68.00,RCTP 221330Z 16008KT 9999 FEW012 SCT090 20/18 Q1014 NOSIG RMK A2997
RCTP,2017-02-22 14:00,68.00,64.40,88.26,M,4.00,0.00,29.97,M,6.21,M,FEW,SCT,M,M,1200.00,9000.00,M,M,M,M,M,M,M,M,M,68.00,RCTP 221400Z VRB04KT 9999 FEW012 SCT090 20/18 Q1015 NOSIG RMK A2999
RCTP,2017-02-22 14:30,66.20,64.40,93.92,340.00,7.00,0.00,30.00,M,6.21,M,FEW,BKN,BKN,M,1200.00,1800.00,9000.00,M,M,M,M,M,M,M,M,66.20,RCTP 221430Z 34007KT 9999 FEW012 BKN018 BKN090 19/18 Q1016 NOSIG RMK A3002
RCTP,2017-02-22 14:51,64.40,64.40,100.00,360.00,11.00,0.00,30.00,M,3.73,M,FEW,BKN,BKN,M,300.00,500.00,1500.00,M,M,M,M,M,M,M,M,64.40,RCTP 221451Z 36011KT 6000 FEW003 BKN005 BKN015 18/18 Q1016 NOSIG RMK A3003
RCTP,2017-02-22 15:00,64.40,62.60,93.88,10.00,10.00,0.00,30.00,M,3.73,M,FEW,BKN,BKN,M,300.00,500.00,900.00,M,M,M,M,M,M,M,M,64.40,RCTP 221500Z 01010KT 6000 FEW003 BKN005 BKN009 18/17 Q1016 NOSIG RMK A3003
RCTP,2017-02-22 15:17,64.40,62.60,93.88,20.00,13.00,0.00,30.00,M,2.49,M,SCT,BKN,BKN,M,200.00,300.00,800.00,M,BR,M,M,M,M,M,M,64.40,RCTP 221517Z 02013KT 4000 BR SCT002 BKN003 BKN008 18/17 Q1016 TEMPO 2500 BR RMK A3003
RCTP,2017-02-22 15:30,62.60,60.80,93.83,20.00,14.00,0.00,30.00,M,2.17,M,SCT,BKN,BKN,M,200.00,300.00,800.00,M,BR,M,M,M,M,M,M,62.60,RCTP 221530Z 02014KT 3500 BR SCT002 BKN003 BKN008 17/16 Q1016 TEMPO 2500 BR RMK A3003
RCTP,2017-02-22 16:01,62.60,60.80,93.83,30.00,11.00,0.00,30.00,M,1.55,M,SCT,BKN,BKN,FEW,200.00,300.00,800.00,1200.00,-SHRA BR,M,M,M,M,M,M,62.60,RCTP 221601Z 03011KT 2500 -SHRA BR SCT002 BKN003 BKN008 FEW012TCU 17/16 Q1016 TEMPO 1500 SHRA BR RMK TCU W A3003
RCTP,2017-02-22 16:10,62.60,60.80,93.83,40.00,11.00,0.00,30.03,M,1.37,M,SCT,BKN,BKN,FEW,200.00,300.00,800.00,1200.00,SHRA BR,M,M,M,M,M,M,62.60,RCTP 221610Z 04011KT 2200 SHRA BR SCT002 BKN003 BKN008 FEW012TCU 17/16 Q1017 TEMPO 1500 SHRA BR RMK TCU N A3004
RCTP,2017-02-22 16:36,62.60,62.60,100.00,50.00,9.00,0.00,30.03,M,2.80,M,SCT,BKN,BKN,M,200.00,300.00,800.00,M,-SHRA BR,M,M,M,M,M,M,62.60,RCTP 221636Z 05009KT 4500 -SHRA BR SCT002 BKN003 BKN008 17/17 Q1017 RESHRA NOSIG RMK A3004
RCTP,2017-02-22 17:00,62.60,62.60,100.00,60.00,11.00,0.00,30.00,M,2.80,M,SCT,BKN,BKN,M,300.00,400.00,800.00,M,-SHRA BR,M,M,M,M,M,M,62.60,RCTP 221700Z 06011KT 4500 -SHRA BR SCT003 BKN004 BKN008 17/17 Q1016 RESHRA NOSIG RMK A3002 RA AMT 2.6MM
RCTP,2017-02-22 17:30,64.40,62.60,93.88,40.00,8.00,0.00,30.00,M,1.86,M,SCT,BKN,BKN,M,300.00,400.00,800.00,M,-SHRA BR,M,M,M,M,M,M,64.40,RCTP 221730Z 04008KT 3000 -SHRA BR SCT003 BKN004 BKN008 18/17 Q1016 NOSIG RMK A3003
RCTP,2017-02-22 18:00,64.40,62.60,93.88,40.00,12.00,0.00,30.00,M,1.86,M,SCT,BKN,BKN,M,300.00,400.00,1000.00,M,-SHRA BR,M,M,M,M,M,M,64.40,RCTP 221800Z 04012KT 3000 -SHRA BR SCT003 BKN004 BKN010 18/17 Q1016 NOSIG RMK A3002 RA AMT 0.4MM
RCTP,2017-02-22 18:30,62.60,62.60,100.00,40.00,15.00,0.00,30.00,M,3.73,M,SCT,BKN,BKN,M,300.00,500.00,1000.00,M,-SHRA,M,M,M,M,M,M,62.60,RCTP 221830Z 04015KT 6000 -SHRA SCT003 BKN005 BKN010 17/17 Q1016 NOSIG RMK A3002
RCTP,2017-02-22 19:00,62.60,62.60,100.00,40.00,17.00,0.00,30.00,M,4.97,M,SCT,BKN,BKN,M,300.00,500.00,1000.00,M,-SHRA,M,M,M,M,M,M,62.60,RCTP 221900Z 04017KT 8000 -SHRA SCT003 BKN005 BKN010 17/17 Q1016 NOSIG RMK A3001 RA AMT 0.2MM
RCTP,2017-02-22 19:17,62.60,60.80,93.83,40.00,16.00,0.00,30.00,M,4.97,M,SCT,BKN,BKN,M,500.00,1000.00,2000.00,M,-RA,M,M,M,M,M,M,62.60,RCTP 221917Z 04016KT 8000 -RA SCT005 BKN010 BKN020 17/16 Q1016 NOSIG RMK A3001
RCTP,2017-02-22 19:30,62.60,60.80,93.83,40.00,15.00,0.00,30.00,M,4.35,M,SCT,BKN,BKN,M,500.00,1000.00,2000.00,M,-RA,M,M,M,M,M,M,62.60,RCTP 221930Z 04015KT 7000 -RA SCT005 BKN010 BKN020 17/16 Q1016 NOSIG RMK A3001
RCTP,2017-02-22 19:50,62.60,60.80,93.83,30.00,18.00,0.00,30.00,M,3.11,M,FEW,BKN,BKN,M,300.00,500.00,1000.00,M,-RA,M,M,M,M,M,M,62.60,RCTP 221950Z 03018KT 5000 -RA FEW003 BKN005 BKN010 17/16 Q1016 NOSIG RMK A3002
RCTP,2017-02-22 20:00,62.60,60.80,93.83,40.00,19.00,0.00,30.00,M,3.73,M,FEW,BKN,BKN,M,300.00,500.00,1000.00,M,-RA,M,M,M,M,M,M,62.60,RCTP 222000Z 04019KT 6000 -RA FEW003 BKN005 BKN010 17/16 Q1016 NOSIG RMK A3002 RA AMT 1.2MM
RCTP,2017-02-22 20:30,62.60,60.80,93.83,40.00,18.00,0.00,30.00,M,3.73,M,FEW,BKN,BKN,M,300.00,500.00,1000.00,M,-RA,M,M,M,M,M,M,62.60,RCTP 222030Z 04018KT 6000 -RA FEW003 BKN005 BKN010 17/16 Q1016 NOSIG RMK A3002
RCTP,2017-02-22 21:00,60.80,60.80,100.00,40.00,18.00,0.00,30.00,M,3.73,M,FEW,BKN,BKN,M,300.00,500.00,1000.00,M,-RA,M,M,M,M,M,M,60.80,RCTP 222100Z 04018KT 6000 -RA FEW003 BKN005 BKN010 16/16 Q1016 NOSIG RMK A3003 RA AMT 0.4MM
RCTP,2017-02-22 21:30,60.80,59.00,93.79,30.00,18.00,0.00,30.03,M,4.97,M,SCT,BKN,BKN,M,300.00,500.00,1000.00,M,M,M,M,M,M,M,M,60.80,RCTP 222130Z 03018KT 8000 SCT003 BKN005 BKN010 16/15 Q1017 NOSIG RMK A3005
RCTP,2017-02-22 21:55,60.80,59.00,93.79,30.00,17.00,0.00,30.06,M,3.73,M,SCT,BKN,BKN,M,300.00,500.00,1000.00,M,-RA,M,M,M,M,M,M,60.80,RCTP 222155Z 03017KT 6000 -RA SCT003 BKN005 BKN010 16/15 Q1018 NOSIG RMK A3006
RCTP,2017-02-22 22:00,60.80,59.00,93.79,30.00,17.00,0.00,30.06,M,3.73,M,SCT,BKN,BKN,M,300.00,500.00,1000.00,M,-RA,M,M,M,M,M,M,60.80,RCTP 222200Z 03017KT 6000 -RA SCT003 BKN005 BKN010 16/15 Q1018 NOSIG RMK A3006 RA AMT 0.8MM
RCTP,2017-02-22 22:30,60.80,59.00,93.79,30.00,17.00,0.00,30.06,M,4.35,M,SCT,BKN,BKN,M,300.00,500.00,1000.00,M,-RA,M,M,M,M,M,M,60.80,RCTP 222230Z 03017KT 7000 -RA SCT003 BKN005 BKN010 16/15 Q1018 NOSIG RMK A3006
RCTP,2017-02-22 23:00,60.80,59.00,93.79,30.00,18.00,0.00,30.06,M,6.21,M,SCT,BKN,BKN,M,300.00,500.00,1200.00,M,-RA,M,M,M,M,M,M,60.80,RCTP 222300Z 03018KT 9999 -RA SCT003 BKN005 BKN012 16/15 Q1018 NOSIG RMK A3007
RCTP,2017-02-22 23:30,60.80,59.00,93.79,40.00,19.00,0.00,30.06,M,6.21,M,SCT,BKN,BKN,M,500.00,700.00,1200.00,M,M,M,M,M,M,M,M,60.80,RCTP 222330Z 04019KT 9999 SCT005 BKN007 BKN012 16/15 Q1018 NOSIG RMK A3008
RCTP,2017-02-23 00:00,60.80,59.00,93.79,40.00,18.00,0.00,30.09,M,6.21,M,SCT,BKN,BKN,M,500.00,700.00,1200.00,M,M,M,M,M,M,M,M,60.80,RCTP 230000Z 04018KT 9999 SCT005 BKN007 BKN012 16/15 Q1019 NOSIG RMK A3010
RCTP,2017-02-23 00:30,59.00,59.00,100.00,40.00,19.00,0.00,30.09,M,6.21,M,SCT,BKN,BKN,M,400.00,600.00,1200.00,M,M,M,M,M,M,M,M,59.00,RCTP 230030Z 04019KT 9999 SCT004 BKN006 BKN012 15/15 Q1019 NOSIG RMK A3010
RCTP,2017-02-23 01:00,59.00,57.20,93.74,40.00,22.00,0.00,30.09,M,4.97,M,SCT,BKN,BKN,M,400.00,600.00,1200.00,M,M,M,M,M,M,M,M,59.00,RCTP 230100Z 04022KT 8000 SCT004 BKN006 BKN012 15/14 Q1019 NOSIG RMK A3011
RCTP,2017-02-23 01:30,60.80,59.00,93.79,40.00,20.00,0.00,30.09,M,4.97,M,SCT,BKN,BKN,M,400.00,600.00,1200.00,M,M,M,M,M,M,M,M,60.80,RCTP 230130Z 04020KT 8000 SCT004 BKN006 BKN012 16/15 Q1019 NOSIG RMK A3010
RCTP,2017-02-23 02:00,59.00,59.00,100.00,40.00,21.00,0.00,30.09,M,4.97,M,SCT,BKN,BKN,M,400.00,600.00,1200.00,M,M,M,M,M,M,M,M,59.00,RCTP 230200Z 04021KT 8000 SCT004 BKN006 BKN012 15/15 Q1019 NOSIG RMK A3010
RCTP,2017-02-23 02:34,59.00,57.20,93.74,40.00,20.00,0.00,30.09,M,4.97,30.00,SCT,BKN,BKN,M,400.00,600.00,1200.00,M,M,M,M,M,M,M,M,59.00,RCTP 230234Z 04020G30KT 8000 SCT004 BKN006 BKN012 15/14 Q1019 WS ALL RWY NOSIG RMK A3011
RCTP,2017-02-23 03:00,59.00,57.20,93.74,40.00,22.00,0.00,30.09,M,5.59,M,SCT,BKN,BKN,M,500.00,800.00,1200.00,M,M,M,M,M,M,M,M,59.00,RCTP 230300Z 04022KT 9000 SCT005 BKN008 BKN012 15/14 Q1019 WS ALL RWY NOSIG RMK A3010
RCTP,2017-02-23 03:30,59.00,57.20,93.74,40.00,23.00,0.00,30.09,M,5.59,33.00,SCT,BKN,BKN,M,400.00,700.00,1200.00,M,M,M,M,M,M,M,M,59.00,RCTP 230330Z 04023G33KT 9000 SCT004 BKN007 BKN012 15/14 Q1019 WS ALL RWY NOSIG RMK A3010
RCTP,2017-02-23 04:00,59.00,57.20,93.74,30.00,21.00,0.00,30.09,M,5.59,31.00,SCT,BKN,BKN,M,400.00,700.00,1200.00,M,M,M,M,M,M,M,M,59.00,RCTP 230400Z 03021G31KT 9000 SCT004 BKN007 BKN012 15/14 Q1019 NOSIG RMK A3010
RCTP,2017-02-23 04:30,57.20,55.40,93.69,30.00,23.00,0.00,30.09,M,5.59,M,SCT,BKN,BKN,M,400.00,600.00,1000.00,M,M,M,M,M,M,M,M,57.20,RCTP 230430Z 03023KT 9000 SCT004 BKN006 BKN010 14/13 Q1019 NOSIG RMK A3009
RCTP,2017-02-23 04:50,57.20,55.40,93.69,30.00,23.00,0.00,30.09,M,4.35,M,SCT,BKN,BKN,M,400.00,600.00,1000.00,M,M,M,M,M,M,M,M,57.20,RCTP 230450Z 03023KT 7000 SCT004 BKN006 BKN010 14/13 Q1019 WS ALL RWY NOSIG RMK A3010
RCTP,2017-02-23 05:00,57.20,55.40,93.69,30.00,24.00,0.00,30.09,M,4.35,M,SCT,BKN,BKN,M,400.00,600.00,1000.00,M,M,M,M,M,M,M,M,57.20,RCTP 230500Z 03024KT 7000 SCT004 BKN006 BKN010 14/13 Q1019 WS ALL RWY NOSIG RMK A3010
RCTP,2017-02-23 05:30,57.20,53.60,87.74,30.00,26.00,0.00,30.09,M,4.35,M,SCT,BKN,BKN,M,400.00,600.00,1000.00,M,M,M,M,M,M,M,M,57.20,RCTP 230530Z 03026KT 7000 SCT004 BKN006 BKN010 14/12 Q1019 WS ALL RWY NOSIG RMK A3010
RCTP,2017-02-23 05:57,55.40,51.80,87.65,30.00,26.00,0.00,30.09,M,3.11,M,SCT,BKN,BKN,M,400.00,600.00,1000.00,M,-DZ BR,M,M,M,M,M,M,55.40,RCTP 230557Z 03026KT 5000 -DZ BR SCT004 BKN006 BKN010 13/11 Q1019 WS ALL RWY NOSIG RMK A3010
RCTP,2017-02-23 06:00,55.40,51.80,87.65,30.00,26.00,0.00,30.09,M,3.11,M,SCT,BKN,BKN,M,400.00,600.00,1000.00,M,-DZ BR,M,M,M,M,M,M,55.40,RCTP 230600Z 03026KT 5000 -DZ BR SCT004 BKN006 BKN010 13/11 Q1019 WS ALL RWY NOSIG RMK A3010
RCTP,2017-02-23 06:08,55.40,51.80,87.65,30.00,25.00,0.00,30.09,M,2.80,35.00,SCT,BKN,BKN,M,400.00,600.00,1000.00,M,-DZ BR,M,M,M,M,M,M,55.40,RCTP 230608Z 03025G35KT 4500 -DZ BR SCT004 BKN006 BKN010 13/11 Q1019 WS ALL RWY NOSIG RMK A3011
RCTP,2017-02-23 06:30,53.60,51.80,93.60,30.00,25.00,0.00,30.12,M,2.80,36.00,SCT,BKN,OVC,M,400.00,600.00,1000.00,M,-DZ BR,M,M,M,M,M,M,53.60,RCTP 230630Z 03025G36KT 4500 -DZ BR SCT004 BKN006 OVC010 12/11 Q1020 WS ALL RWY NOSIG RMK A3012
RCTP,2017-02-23 07:00,53.60,51.80,93.60,20.00,24.00,0.00,30.12,M,2.80,M,SCT,BKN,OVC,M,500.00,700.00,1000.00,M,-DZ BR,M,M,M,M,M,M,53.60,RCTP 230700Z 02024KT 4500 -DZ BR SCT005 BKN007 OVC010 12/11 Q1020 WS ALL RWY NOSIG RMK A3013
RCTP,2017-02-23 07:30,53.60,50.00,87.56,30.00,25.00,0.00,30.12,M,2.61,M,SCT,BKN,OVC,M,500.00,700.00,1000.00,M,-DZ BR,M,M,M,M,M,M,53.60,RCTP 230730Z 03025KT 4200 -DZ BR SCT005 BKN007 OVC010 12/10 Q1020 WS ALL RWY NOSIG RMK A3014
RCTP,2017-02-23 08:00,51.80,50.00,93.55,30.00,24.00,0.00,30.15,M,2.55,M,SCT,BKN,OVC,M,500.00,700.00,1000.00,M,-DZ BR,M,M,M,M,M,M,51.80,RCTP 230800Z 03024KT 4100 -DZ BR SCT005 BKN007 OVC010 11/10 Q1021 WS ALL RWY NOSIG RMK A3015 RA AMT 0.2MM
RCTP,2017-02-23 08:30,51.80,50.00,93.55,30.00,24.00,0.00,30.15,M,2.36,M,SCT,BKN,OVC,M,500.00,700.00,1000.00,M,-DZ BR,M,M,M,M,M,M,51.80,RCTP 230830Z 03024KT 3800 -DZ BR SCT005 BKN007 OVC010 11/10 Q1021 WS ALL RWY NOSIG RMK A3015
RCTP,2017-02-23 09:00,51.80,50.00,93.55,30.00,25.00,0.00,30.15,M,2.49,35.00,SCT,BKN,OVC,M,500.00,700.00,1000.00,M,-DZ BR,M,M,M,M,M,M,51.80,RCTP 230900Z 03025G35KT 4000 -DZ BR SCT005 BKN007 OVC010 11/10 Q1021 WS ALL RWY NOSIG RMK A3016 RA AMT 0.2MM
RCTP,2017-02-23 09:30,51.80,50.00,93.55,30.00,24.00,0.00,30.18,M,2.80,M,SCT,BKN,OVC,M,600.00,800.00,1200.00,M,-DZ BR,M,M,M,M,M,M,51.80,RCTP 230930Z 03024KT 4500 -DZ BR SCT006 BKN008 OVC012 11/10 Q1022 WS ALL RWY NOSIG RMK A3018
RCTP,2017-02-23 10:00,51.80,48.20,87.47,30.00,23.00,0.00,30.18,M,2.80,M,SCT,BKN,OVC,M,800.00,1000.00,1400.00,M,-DZ BR,M,M,M,M,M,M,51.80,RCTP 231000Z 03023KT 4500 -DZ BR SCT008 BKN010 OVC014 11/09 Q1022 WS ALL RWY NOSIG RMK A3020
RCTP,2017-02-23 10:30,51.80,48.20,87.47,30.00,23.00,0.00,30.18,M,2.80,M,SCT,BKN,OVC,M,800.00,1200.00,1600.00,M,-DZ BR,M,M,M,M,M,M,51.80,RCTP 231030Z 03023KT 4500 -DZ BR SCT008 BKN012 OVC016 11/09 Q1022 WS ALL RWY NOSIG RMK A3020
RCTP,2017-02-23 11:00,51.80,48.20,87.47,20.00,22.00,0.00,30.21,M,2.80,32.00,SCT,BKN,OVC,M,700.00,1000.00,1600.00,M,-RA BR,M,M,M,M,M,M,51.80,RCTP 231100Z 02022G32KT 4500 -RA BR SCT007 BKN010 OVC016 11/09 Q1023 WS ALL RWY NOSIG RMK A3022
RCTP,2017-02-23 11:30,51.80,48.20,87.47,30.00,23.00,0.00,30.21,M,2.80,33.00,SCT,BKN,FEW,BKN,700.00,1000.00,1200.00,1800.00,-RA BR,M,M,M,M,M,M,51.80,RCTP 231130Z 03023G33KT 4500 -RA BR SCT007 BKN010 FEW012TCU BKN018 11/09 Q1023 WS ALL RWY NOSIG RMK TCU N-NE A3022
RCTP,2017-02-23 12:00,51.80,48.20,87.47,30.00,22.00,0.00,30.21,M,2.80,M,SCT,BKN,FEW,BKN,700.00,1000.00,1200.00,1800.00,-RA BR,M,M,M,M,M,M,51.80,RCTP 231200Z 03022KT 4500 -RA BR SCT007 BKN010 FEW012TCU BKN018 11/09 Q1023 WS ALL RWY NOSIG RMK TCU E A3023
RCTP,2017-02-23 12:30,51.80,50.00,93.55,30.00,22.00,0.00,30.24,M,2.80,M,SCT,BKN,FEW,BKN,600.00,900.00,1200.00,1500.00,-RA BR,M,M,M,M,M,M,51.80,RCTP 231230Z 03022KT 4500 -RA BR SCT006 BKN009 FEW012TCU BKN015 11/10 Q1024 WS ALL RWY TEMPO 3000 SHRA RMK TCU W A3025
RCTP,2017-02-23 13:00,51.80,50.00,93.55,30.00,21.00,0.00,30.24,M,2.80,M,SCT,BKN,BKN,M,600.00,900.00,1500.00,M,-RA BR,M,M,M,M,M,M,51.80,RCTP 231300Z 03021KT 4500 -RA BR SCT006 BKN009 BKN015 11/10 Q1024 WS ALL RWY NOSIG RMK A3024 RA AMT 0.4MM
RCTP,2017-02-23 13:27,51.80,50.00,93.55,40.00,21.00,0.00,30.21,M,3.73,M,SCT,BKN,BKN,M,800.00,1200.00,1800.00,M,-RA,M,M,M,M,M,M,51.80,RCTP 231327Z 04021KT 6000 -RA SCT008 BKN012 BKN018 11/10 Q1023 NOSIG RMK A3023
RCTP,2017-02-23 13:30,51.80,50.00,93.55,40.00,21.00,0.00,30.21,M,3.73,M,SCT,BKN,BKN,M,800.00,1200.00,1800.00,M,-RA,M,M,M,M,M,M,51.80,RCTP 231330Z 04021KT 6000 -RA SCT008 BKN012 BKN018 11/10 Q1023 NOSIG RMK A3023
RCTP,2017-02-23 14:00,51.80,50.00,93.55,40.00,21.00,0.00,30.21,M,3.73,M,SCT,BKN,FEW,BKN,800.00,1100.00,1500.00,1600.00,-RA,M,M,M,M,M,M,51.80,RCTP 231400Z 04021KT 6000 -RA SCT008 BKN011 FEW015TCU BKN016 11/10 Q1023 NOSIG RMK TCU SE A3023
RCTP,2017-02-23 14:30,53.60,50.00,87.56,30.00,20.00,0.00,30.21,M,3.73,M,SCT,BKN,FEW,BKN,800.00,1100.00,1500.00,1800.00,-RA,M,M,M,M,M,M,53.60,RCTP 231430Z 03020KT 6000 -RA SCT008 BKN011 FEW015TCU BKN018 12/10 Q1023 NOSIG RMK TCU E-SE A3023
RCTP,2017-02-23 16:30,53.60,51.80,93.60,40.00,19.00,0.00,30.21,M,3.73,M,SCT,BKN,FEW,BKN,800.00,1100.00,1500.00,1800.00,-RA,M,M,M,M,M,M,53.60,RCTP 231630Z 04019KT 6000 -RA SCT008 BKN011 FEW015TCU BKN018 12/11 Q1023 NOSIG RMK TCU SE A3022
RCTP,2017-02-23 17:00,53.60,51.80,93.60,40.00,17.00,0.00,30.21,M,3.73,M,SCT,BKN,FEW,BKN,800.00,1000.00,1200.00,1500.00,-RA,M,M,M,M,M,M,53.60,RCTP 231700Z 04017KT 6000 -RA SCT008 BKN010 FEW012TCU BKN015 12/11 Q1023 TEMPO 3000 RA RMK TCU E-S-W A3022
RCTP,2017-02-23 17:35,53.60,51.80,93.60,30.00,19.00,0.00,30.21,M,3.73,M,SCT,BKN,FEW,BKN,800.00,1000.00,1200.00,1500.00,SHRA,M,M,M,M,M,M,53.60,RCTP 231735Z 03019KT 6000 SHRA SCT008 BKN010 FEW012TCU BKN015 12/11 Q1023 NOSIG RMK TCU E-S AND W A3022
RCTP,2017-02-23 17:37,53.60,51.80,93.60,30.00,19.00,0.00,30.21,M,2.49,M,SCT,BKN,FEW,BKN,800.00,1000.00,1200.00,1500.00,SHRA,M,M,M,M,M,M,53.60,RCTP 231737Z 03019KT 4000 SHRA SCT008 BKN010 FEW012TCU BKN015 12/11 Q1023 TEMPO 3000 SHRA RMK TCU E-S AND W A3022
RCTP,2017-02-23 17:52,53.60,51.80,93.60,30.00,17.00,0.00,30.21,M,2.80,M,SCT,BKN,FEW,BKN,800.00,1000.00,1200.00,1500.00,-SHRA,M,M,M,M,M,M,53.60,RCTP 231752Z 03017KT 4500 -SHRA SCT008 BKN010 FEW012TCU BKN015 12/11 Q1023 RERA NOSIG RMK TCU NE AND SW A3021
RCTP,2017-02-23 18:00,53.60,51.80,93.60,30.00,17.00,0.00,30.21,M,2.80,M,SCT,BKN,FEW,BKN,800.00,1000.00,1200.00,1500.00,-SHRA,M,M,M,M,M,M,53.60,RCTP 231800Z 03017KT 4500 -SHRA SCT008 BKN010 FEW012TCU BKN015 12/11 Q1023 RESHRA NOSIG RMK TCU NE AND SW A3021 RA AMT 1.6MM
RCTP,2017-02-23 18:21,53.60,51.80,93.60,30.00,19.00,0.00,30.18,M,2.49,M,SCT,BKN,FEW,BKN,800.00,1000.00,1200.00,1500.00,SHRA,M,M,M,M,M,M,53.60,RCTP 231821Z 03019KT 4000 SHRA SCT008 BKN010 FEW012TCU BKN015 12/11 Q1022 TEMPO 3000 +SHRA RMK TCU NE AND SW A3020
RCTP,2017-02-23 18:25,53.60,51.80,93.60,30.00,19.00,0.00,30.21,M,1.86,M,SCT,BKN,FEW,BKN,800.00,1000.00,1200.00,1500.00,+SHRA,M,M,M,M,M,M,53.60,RCTP 231825Z 03019KT 3000 +SHRA SCT008 BKN010 FEW012TCU BKN015 12/11 Q1023 NOSIG RMK TCU W-NW A3021
RCTP,2017-02-23 18:35,53.60,50.00,87.56,30.00,18.00,0.00,30.18,M,2.80,M,SCT,BKN,FEW,BKN,800.00,1000.00,1200.00,1500.00,-SHRA,M,M,M,M,M,M,53.60,RCTP 231835Z 03018KT 4500 -SHRA SCT008 BKN010 FEW012TCU BKN015 12/10 Q1022 RESHRA NOSIG RMK TCU NE-E A3020
RCTP,2017-02-23 19:00,53.60,51.80,93.60,30.00,19.00,0.00,30.21,M,3.73,M,SCT,BKN,FEW,BKN,800.00,1000.00,1200.00,1600.00,-SHRA,M,M,M,M,M,M,53.60,RCTP 231900Z 03019KT 6000 -SHRA SCT008 BKN010 FEW012TCU BKN016 12/11 Q1023 RESHRA NOSIG RMK TCU NW A3021 RA AMT 2.4MM
RCTP,2017-02-23 19:30,53.60,51.80,93.60,30.00,21.00,0.00,30.18,M,4.97,M,SCT,BKN,FEW,BKN,800.00,1000.00,1200.00,1600.00,-SHRA,M,M,M,M,M,M,53.60,RCTP 231930Z 03021KT 8000 -SHRA SCT008 BKN010 FEW012TCU BKN016 12/11 Q1022 NOSIG RMK TCU NW A3020
RCTP,2017-02-23 20:00,53.60,50.00,87.56,30.00,20.00,0.00,30.18,M,6.21,M,SCT,BKN,M,M,800.00,1200.00,M,M,M,M,M,M,M,M,M,53.60,RCTP 232000Z 03020KT 9999 SCT008 BKN012 12/10 Q1022 NOSIG RMK A3020 RA AMT 0.2MM
RCTP,2017-02-23 20:30,53.60,50.00,87.56,30.00,20.00,0.00,30.18,M,3.73,M,SCT,BKN,M,M,800.00,1200.00,M,M,-DZ,M,M,M,M,M,M,53.60,RCTP 232030Z 03020KT 6000 -DZ SCT008 BKN012 12/10 Q1022 NOSIG RMK A3018
RCTP,2017-02-23 21:00,53.60,51.80,93.60,30.00,20.00,0.00,30.18,M,3.73,M,SCT,BKN,M,M,800.00,1200.00,M,M,-DZ,M,M,M,M,M,M,53.60,RCTP 232100Z 03020KT 6000 -DZ SCT008 BKN012 12/11 Q1022 NOSIG RMK A3018
RCTP,2017-02-23 21:30,53.60,51.80,93.60,30.00,21.00,0.00,30.15,M,4.97,M,SCT,BKN,M,M,800.00,1100.00,M,M,M,M,M,M,M,M,M,53.60,RCTP 232130Z 03021KT 8000 SCT008 BKN011 12/11 Q1021 NOSIG RMK A3017
RCTP,2017-02-23 22:00,53.60,51.80,93.60,40.00,22.00,0.00,30.15,M,4.97,M,SCT,BKN,M,M,800.00,1100.00,M,M,M,M,M,M,M,M,M,53.60,RCTP 232200Z 04022KT 8000 SCT008 BKN011 12/11 Q1021 NOSIG RMK A3017
RCTP,2017-02-23 22:30,55.40,51.80,87.65,40.00,20.00,0.00,30.18,M,4.97,M,SCT,BKN,M,M,800.00,1100.00,M,M,M,M,M,M,M,M,M,55.40,RCTP 232230Z 04020KT 8000 SCT008 BKN011 13/11 Q1022 NOSIG RMK A3018
RCTP,2017-02-23 23:00,55.40,51.80,87.65,30.00,19.00,0.00,30.18,M,6.21,M,SCT,BKN,M,M,800.00,1100.00,M,M,M,M,M,M,M,M,M,55.40,RCTP 232300Z 03019KT 9999 SCT008 BKN011 13/11 Q1022 NOSIG RMK A3018
RCTP,2017-02-23 23:09,55.40,51.80,87.65,30.00,19.00,0.00,30.18,M,4.35,M,SCT,BKN,M,M,700.00,900.00,M,M,-RA,M,M,M,M,M,M,55.40,RCTP 232309Z 03019KT 7000 -RA SCT007 BKN009 13/11 Q1022 NOSIG RMK A3018
RCTP,2017-02-23 23:30,55.40,51.80,87.65,30.00,20.00,0.00,30.18,M,4.35,M,SCT,BKN,M,M,700.00,800.00,M,M,-RA,M,M,M,M,M,M,55.40,RCTP 232330Z 03020KT 7000 -RA SCT007 BKN008 13/11 Q1022 NOSIG RMK A3019
RCTP,2017-02-23 23:40,55.40,51.80,87.65,30.00,20.00,0.00,30.18,M,4.35,M,BKN,BKN,OVC,M,600.00,800.00,1000.00,M,-RA,M,M,M,M,M,M,55.40,RCTP 232340Z 03020KT 7000 -RA BKN006 BKN008 OVC010 13/11 Q1022 TEMPO 5000 -RA RMK A3020
RCTP,2017-02-23 23:41,55.40,51.80,87.65,30.00,21.00,0.00,30.18,M,4.35,M,BKN,BKN,OVC,M,600.00,800.00,1000.00,M,-RA,M,M,M,M,M,M,55.40,RCTP 232341Z 03021KT 7000 -RA BKN006 BKN008 OVC010 13/11 Q1022 WS ALL RWY TEMPO 5000 -RA RMK A3020
RCTP,2017-02-23 23:49,53.60,51.80,93.60,30.00,20.00,0.00,30.18,M,3.11,M,SCT,BKN,OVC,M,500.00,700.00,1000.00,M,-RA,M,M,M,M,M,M,53.60,RCTP 232349Z 03020KT 5000 -RA SCT005 BKN007 OVC010 12/11 Q1022 WS ALL RWY NOSIG RMK A3020
RCTP,2017-02-24 00:00,53.60,51.80,93.60,20.00,20.00,0.00,30.18,M,2.80,M,SCT,BKN,OVC,M,500.00,700.00,1000.00,M,-RA,M,M,M,M,M,M,53.60,RCTP 240000Z 02020KT 4500 -RA SCT005 BKN007 OVC010 12/11 Q1022 WS ALL RWY NOSIG RMK A3020 RA AMT 1.2MM
RCTP,2017-02-24 00:06,53.60,51.80,93.60,20.00,19.00,0.00,30.21,M,2.49,M,SCT,BKN,OVC,M,500.00,700.00,1000.00,M,RA,M,M,M,M,M,M,53.60,RCTP 240006Z 02019KT 4000 RA SCT005 BKN007 OVC010 12/11 Q1023 WS ALL RWY NOSIG RMK A3022
RCTP,2017-02-24 00:30,53.60,51.80,93.60,20.00,21.00,0.00,30.21,M,2.80,M,SCT,BKN,OVC,M,500.00,700.00,1000.00,M,RA,M,M,M,M,M,M,53.60,RCTP 240030Z 02021KT 4500 RA SCT005 BKN007 OVC010 12/11 Q1023 WS ALL RWY NOSIG RMK A3022
RCTP,2017-02-24 00:50,53.60,51.80,93.60,20.00,20.00,0.00,30.21,M,3.73,M,SCT,BKN,OVC,M,500.00,700.00,1000.00,M,-RA,M,M,M,M,M,M,53.60,RCTP 240050Z 02020KT 6000 -RA SCT005 BKN007 OVC010 12/11 Q1023 RERA WS ALL RWY NOSIG RMK A3023
RCTP,2017-02-24 01:00,53.60,51.80,93.60,20.00,20.00,0.00,30.24,M,4.35,M,SCT,BKN,OVC,M,500.00,700.00,1200.00,M,-RA,M,M,M,M,M,M,53.60,RCTP 240100Z 02020KT 7000 -RA SCT005 BKN007 OVC012 12/11 Q1024 RERA NOSIG RMK A3024 RA AMT 2.8MM
RCTP,2017-02-24 01:07,53.60,51.80,93.60,20.00,20.00,0.00,30.24,M,2.80,M,SCT,BKN,OVC,M,500.00,700.00,1200.00,M,RA,M,M,M,M,M,M,53.60,RCTP 240107Z 02020KT 4500 RA SCT005 BKN007 OVC012 12/11 Q1024 NOSIG RMK A3024
RCTP,2017-02-24 01:52,53.60,51.80,93.60,20.00,22.00,0.00,30.21,M,3.11,M,SCT,BKN,OVC,M,500.00,700.00,1200.00,M,-RA,M,M,M,M,M,M,53.60,RCTP 240152Z 02022KT 5000 -RA SCT005 BKN007 OVC012 12/11 Q1023 WS ALL RWY TEMPO 4000 RA RMK A3023
RCTP,2017-02-24 02:00,53.60,51.80,93.60,20.00,19.00,0.00,30.24,M,3.11,M,SCT,BKN,OVC,M,500.00,700.00,1200.00,M,-RA,M,M,M,M,M,M,53.60,RCTP 240200Z 02019KT 5000 -RA SCT005 BKN007 OVC012 12/11 Q1024 WS ALL RWY TEMPO 4000 RA RMK A3024 RA AMT 1.4MM
RCTP,2017-02-24 02:33,53.60,51.80,93.60,10.00,20.00,0.00,30.24,M,2.49,M,SCT,BKN,OVC,M,500.00,700.00,1200.00,M,RA,M,M,M,M,M,M,53.60,RCTP 240233Z 01020KT 4000 RA SCT005 BKN007 OVC012 12/11 Q1024 WS ALL RWY NOSIG RMK A3025
RCTP,2017-02-24 02:50,53.60,51.80,93.60,10.00,21.00,0.00,30.24,M,3.73,31.00,SCT,BKN,OVC,M,500.00,700.00,1200.00,M,-RA,M,M,M,M,M,M,53.60,RCTP 240250Z 01021G31KT 6000 -RA SCT005 BKN007 OVC012 12/11 Q1024 RERA WS ALL RWY NOSIG RMK A3025
RCTP,2017-02-24 03:00,53.60,51.80,93.60,10.00,21.00,0.00,30.24,M,3.73,M,SCT,BKN,OVC,M,500.00,700.00,1200.00,M,-RA,M,M,M,M,M,M,53.60,RCTP 240300Z 01021KT 6000 -RA SCT005 BKN007 OVC012 12/11 Q1024 RERA WS ALL RWY NOSIG RMK A3026 RA AMT 1.0MM
RCTP,2017-02-24 03:30,51.80,50.00,93.55,10.00,21.00,0.00,30.24,M,3.73,32.00,SCT,BKN,OVC,M,500.00,700.00,1200.00,M,-RA,M,M,M,M,M,M,51.80,RCTP 240330Z 01021G32KT 6000 -RA SCT005 BKN007 OVC012 11/10 Q1024 WS ALL RWY NOSIG RMK A3026
RCTP,2017-02-24 04:00,51.80,50.00,93.55,20.00,22.00,0.00,30.24,M,4.97,M,SCT,BKN,OVC,M,600.00,900.00,1500.00,M,-RA,M,M,M,M,M,M,51.80,RCTP 240400Z 02022KT 8000 -RA SCT006 BKN009 OVC015 11/10 Q1024 WS ALL RWY NOSIG RMK A3024 RA AMT 0.4MM
RCTP,2017-02-24 04:30,51.80,50.00,93.55,20.00,21.00,0.00,30.21,M,3.73,M,SCT,BKN,OVC,M,600.00,900.00,1500.00,M,-RA,M,M,M,M,M,M,51.80,RCTP 240430Z 02021KT 6000 -RA SCT006 BKN009 OVC015 11/10 Q1023 WS ALL RWY NOSIG RMK A3022
RCTP,2017-02-24 04:48,51.80,50.00,93.55,10.00,21.00,0.00,30.24,M,2.17,M,SCT,BKN,OVC,M,500.00,700.00,1000.00,M,RA,M,M,M,M,M,M,51.80,RCTP 240448Z 01021KT 3500 RA SCT005 BKN007 OVC010 11/10 Q1024 WS ALL RWY NOSIG RMK A3024
RCTP,2017-02-24 05:00,51.80,50.00,93.55,10.00,21.00,0.00,30.24,M,2.80,M,SCT,BKN,OVC,M,500.00,700.00,1400.00,M,RA,M,M,M,M,M,M,51.80,RCTP 240500Z 01021KT 4500 RA SCT005 BKN007 OVC014 11/10 Q1024 WS ALL RWY NOSIG RMK A3024 RA AMT 1.6MM
RCTP,2017-02-24 05:30,51.80,50.00,93.55,10.00,18.00,0.00,30.21,M,3.73,M,SCT,BKN,OVC,M,600.00,900.00,1400.00,M,-RA,M,M,M,M,M,M,51.80,RCTP 240530Z 01018KT 6000 -RA SCT006 BKN009 OVC014 11/10 Q1023 RERA WS ALL RWY NOSIG RMK A3023
RCTP,2017-02-24 05:55,51.80,50.00,93.55,10.00,19.00,0.00,30.21,M,2.80,M,SCT,BKN,OVC,M,500.00,700.00,1200.00,M,RA,M,M,M,M,M,M,51.80,RCTP 240555Z 01019KT 4500 RA SCT005 BKN007 OVC012 11/10 Q1023 WS ALL RWY NOSIG RMK A3022
RCTP,2017-02-24 06:00,51.80,50.00,93.55,10.00,20.00,0.00,30.21,M,2.49,M,SCT,BKN,OVC,M,500.00,700.00,1200.00,M,RA,M,M,M,M,M,M,51.80,RCTP 240600Z 01020KT 4000 RA SCT005 BKN007 OVC012 11/10 Q1023 WS ALL RWY NOSIG RMK A3022 RA AMT 2.0MM
RCTP,2017-02-24 06:19,51.80,48.20,87.47,10.00,21.00,0.00,30.21,M,3.73,M,SCT,BKN,OVC,M,500.00,700.00,1200.00,M,-RA,M,M,M,M,M,M,51.80,RCTP 240619Z 01021KT 6000 -RA SCT005 BKN007 OVC012 11/09 Q1023 RERA WS ALL RWY NOSIG RMK A3022
RCTP,2017-02-24 06:30,51.80,48.20,87.47,10.00,19.00,0.00,30.24,M,4.35,M,SCT,BKN,OVC,M,500.00,800.00,1400.00,M,-RA,M,M,M,M,M,M,51.80,RCTP 240630Z 01019KT 330V030 7000 -RA SCT005 BKN008 OVC014 11/09 Q1024 RERA WS ALL RWY NOSIG RMK A3024
RCTP,2017-02-24 07:00,50.00,48.20,93.50,20.00,19.00,0.00,30.21,M,4.97,M,SCT,BKN,OVC,M,500.00,800.00,1200.00,M,-RA,M,M,M,M,M,M,43.24,RCTP 240700Z 02019KT 8000 -RA SCT005 BKN008 OVC012 10/09 Q1023 WS ALL RWY NOSIG RMK A3022 RA AMT 1.4MM
RCTP,2017-02-24 07:30,50.00,48.20,93.50,10.00,18.00,0.00,30.21,M,4.97,M,SCT,BKN,OVC,M,500.00,800.00,1200.00,M,-RA,M,M,M,M,M,M,43.44,RCTP 240730Z 01018KT 8000 -RA SCT005 BKN008 OVC012 10/09 Q1023 TEMPO 4500 RA RMK A3023
RCTP,2017-02-24 07:40,51.80,48.20,87.47,10.00,21.00,0.00,30.24,M,2.49,M,SCT,BKN,OVC,M,500.00,800.00,1200.00,M,-RA,M,M,M,M,M,M,51.80,RCTP 240740Z 01021KT 4000 -RA SCT005 BKN008 OVC012 11/09 Q1024 NOSIG RMK A3024
RCTP,2017-02-24 07:42,50.00,48.20,93.50,20.00,20.00,0.00,30.21,M,2.17,M,SCT,BKN,OVC,M,500.00,800.00,1200.00,M,RA,M,M,M,M,M,M,43.05,RCTP 240742Z 02020KT 3500 RA SCT005 BKN008 OVC012 10/09 Q1023 NOSIG RMK A3023
RCTP,2017-02-24 08:00,50.00,48.20,93.50,10.00,19.00,0.00,30.21,M,2.80,M,SCT,BKN,OVC,M,500.00,800.00,1400.00,M,RA,M,M,M,M,M,M,43.24,RCTP 240800Z 01019KT 4500 RA SCT005 BKN008 OVC014 10/09 Q1023 NOSIG RMK A3023 RA AMT 0.8MM
RCTP,2017-02-24 08:30,51.80,50.00,93.55,30.00,19.00,0.00,30.21,M,3.11,M,FEW,BKN,OVC,M,500.00,800.00,1500.00,M,RA,M,M,M,M,M,M,51.80,RCTP 240830Z 03019KT 5000 RA FEW005 BKN008 OVC015 11/10 Q1023 NOSIG RMK A3023
RCTP,2017-02-24 08:41,51.80,50.00,93.55,40.00,17.00,0.00,30.21,M,3.73,M,FEW,BKN,OVC,M,500.00,1000.00,2000.00,M,-RA,M,M,M,M,M,M,51.80,RCTP 240841Z 04017KT 6000 -RA FEW005 BKN010 OVC020 11/10 Q1023 RERA NOSIG RMK A3022
RCTP,2017-02-24 09:00,51.80,50.00,93.55,40.00,18.00,0.00,30.21,M,6.21,M,SCT,BKN,OVC,M,500.00,900.00,1500.00,M,-RA,M,M,M,M,M,M,51.80,RCTP 240900Z 04018KT 9999 -RA SCT005 BKN009 OVC015 11/10 Q1023 RERA NOSIG RMK A3022 RA AMT 1.2MM
RCTP,2017-02-24 09:30,53.60,51.80,93.60,40.00,15.00,0.00,30.21,M,4.97,M,SCT,BKN,OVC,M,500.00,800.00,1200.00,M,-RA,M,M,M,M,M,M,53.60,RCTP 240930Z 04015KT 8000 -RA SCT005 BKN008 OVC012 12/11 Q1023 TEMPO 4500 RA RMK A3022
RCTP,2017-02-24 09:58,53.60,51.80,93.60,30.00,14.00,0.00,30.21,M,3.73,M,SCT,BKN,OVC,M,500.00,700.00,1200.00,M,RA,M,M,M,M,M,M,53.60,RCTP 240958Z 03014KT 6000 RA SCT005 BKN007 OVC012 12/11 Q1023 TEMPO 4500 RA RMK A3022
RCTP,2017-02-24 10:00,53.60,51.80,93.60,30.00,14.00,0.00,30.21,M,3.73,M,SCT,BKN,OVC,M,500.00,700.00,1200.00,M,RA,M,M,M,M,M,M,53.60,RCTP 241000Z 03014KT 6000 RA SCT005 BKN007 OVC012 12/11 Q1023 TEMPO 4500 RA RMK A3022 RA AMT 1.6MM
RCTP,2017-02-24 10:42,53.60,51.80,93.60,10.00,18.00,0.00,30.21,M,4.35,M,SCT,BKN,OVC,M,500.00,700.00,1200.00,M,-RA,M,M,M,M,M,M,53.60,RCTP 241042Z 01018KT 7000 -RA SCT005 BKN007 OVC012 12/11 Q1023 RERA NOSIG RMK A3023
RCTP,2017-02-24 11:00,53.60,50.00,87.56,20.00,17.00,0.00,30.21,M,4.97,M,SCT,BKN,OVC,M,500.00,800.00,1200.00,M,-RA,M,M,M,M,M,M,53.60,RCTP 241100Z 02017KT 8000 -RA SCT005 BKN008 OVC012 12/10 Q1023 RERA NOSIG RMK A3023 RA AMT 2.0MM
RCTP,2017-02-24 11:30,53.60,50.00,87.56,20.00,17.00,0.00,30.21,M,3.73,M,SCT,BKN,OVC,M,500.00,800.00,1200.00,M,-RA,M,M,M,M,M,M,53.60,RCTP 241130Z 02017KT 6000 -RA SCT005 BKN008 OVC012 12/10 Q1023 NOSIG RMK A3022
RCTP,2017-02-24 12:00,53.60,51.80,93.60,30.00,18.00,0.00,30.21,M,4.35,M,SCT,BKN,OVC,M,500.00,900.00,1200.00,M,-RA,M,M,M,M,M,M,53.60,RCTP 241200Z 03018KT 7000 -RA SCT005 BKN009 OVC012 12/11 Q1023 NOSIG RMK A3022 RA AMT 1.4MM
RCTP,2017-02-24 12:30,53.60,51.80,93.60,30.00,17.00,0.00,30.21,M,5.59,M,SCT,BKN,OVC,M,700.00,1000.00,1400.00,M,-RA,M,M,M,M,M,M,53.60,RCTP 241230Z 03017KT 9000 -RA SCT007 BKN010 OVC014 12/11 Q1023 NOSIG RMK A3023
RCTP,2017-02-24 13:00,53.60,51.80,93.60,30.00,17.00,0.00,30.24,M,6.21,M,SCT,BKN,OVC,M,700.00,1000.00,1400.00,M,-RA,M,M,M,M,M,M,53.60,RCTP 241300Z 03017KT 9999 -RA SCT007 BKN010 OVC014 12/11 Q1024 NOSIG RMK A3024 RA AMT 0.2MM
RCTP,2017-02-24 14:00,55.40,51.80,87.65,20.00,19.00,0.00,30.21,M,4.97,M,SCT,BKN,OVC,M,500.00,800.00,1400.00,M,-RA,M,M,M,M,M,M,55.40,RCTP 241400Z 02019KT 8000 -RA SCT005 BKN008 OVC014 13/11 Q1023 NOSIG RMK A3023 RA AMT 0.6MM
RCTP,2017-02-24 14:27,55.40,53.60,93.65,20.00,17.00,0.00,30.24,M,6.21,M,SCT,BKN,OVC,M,600.00,900.00,1400.00,M,-RA,M,M,M,M,M,M,55.40,RCTP 241427Z 02017KT 9999 -RA SCT006 BKN009 OVC014 13/12 Q1024 WS ALL RWY NOSIG RMK A3025
RCTP,2017-02-24 14:30,55.40,53.60,93.65,20.00,17.00,0.00,30.24,M,6.21,M,SCT,BKN,OVC,M,600.00,900.00,1400.00,M,-RA,M,M,M,M,M,M,55.40,RCTP 241430Z 02017KT 9999 -RA SCT006 BKN009 OVC014 13/12 Q1024 WS ALL RWY NOSIG RMK A3025
RCTP,2017-02-24 15:00,55.40,53.60,93.65,20.00,18.00,0.00,30.21,M,4.35,M,SCT,BKN,OVC,M,400.00,700.00,1400.00,M,-RA,M,M,M,M,M,M,55.40,RCTP 241500Z 02018KT 7000 -RA SCT004 BKN007 OVC014 13/12 Q1023 WS ALL RWY NOSIG RMK A3023 RA AMT 0.2MM
RCTP,2017-02-24 15:30,55.40,53.60,93.65,30.00,17.00,0.00,30.21,M,3.73,28.00,SCT,BKN,OVC,M,400.00,700.00,1200.00,M,-RA,M,M,M,M,M,M,55.40,RCTP 241530Z 03017G28KT 6000 -RA SCT004 BKN007 OVC012 13/12 Q1023 NOSIG RMK A3023
RCTP,2017-02-24 16:00,55.40,53.60,93.65,20.00,17.00,0.00,30.21,M,3.73,M,SCT,BKN,OVC,M,300.00,600.00,1200.00,M,-RA,M,M,M,M,M,M,55.40,RCTP 241600Z 02017KT 6000 -RA SCT003 BKN006 OVC012 13/12 Q1023 NOSIG RMK A3021 RA AMT 1.2MM
RCTP,2017-02-24 16:30,55.40,53.60,93.65,20.00,15.00,0.00,30.21,M,3.11,M,SCT,BKN,OVC,M,300.00,600.00,1200.00,M,-RA,M,M,M,M,M,M,55.40,RCTP 241630Z 02015KT 5000 -RA SCT003 BKN006 OVC012 13/12 Q1023 NOSIG RMK A3021
RCTP,2017-02-24 17:00,55.40,53.60,93.65,30.00,15.00,0.00,30.18,M,6.21,M,SCT,BKN,OVC,M,400.00,700.00,1200.00,M,-RA,M,M,M,M,M,M,55.40,RCTP 241700Z 03015KT 9999 -RA SCT004 BKN007 OVC012 13/12 Q1022 NOSIG RMK A3020 RA AMT 1.2MM
RCTP,2017-02-24 17:34,55.40,53.60,93.65,20.00,19.00,0.00,30.18,M,6.21,M,SCT,BKN,OVC,M,400.00,700.00,1200.00,M,-RA,M,M,M,M,M,M,55.40,RCTP 241734Z 02019KT 9999 -RA SCT004 BKN007 OVC012 13/12 Q1022 NOSIG RMK A3020
RCTP,2017-02-24 17:46,55.40,53.60,93.65,20.00,18.00,0.00,30.18,M,3.73,M,SCT,BKN,OVC,M,400.00,600.00,1200.00,M,RA,M,M,M,M,M,M,55.40,RCTP 241746Z 02018KT 6000 RA SCT004 BKN006 OVC012 13/12 Q1022 NOSIG RMK A3019
RCTP,2017-02-24 18:00,55.40,53.60,93.65,20.00,18.00,0.00,30.15,M,3.73,M,SCT,BKN,OVC,M,400.00,600.00,1200.00,M,-RA,M,M,M,M,M,M,55.40,RCTP 241800Z 02018KT 6000 -RA SCT004 BKN006 OVC012 13/12 Q1021 RERA NOSIG RMK A3017 RA AMT 0.6MM
RCTP,2017-02-24 18:10,55.40,53.60,93.65,30.00,16.00,0.00,30.15,M,3.73,M,SCT,BKN,OVC,M,400.00,500.00,1200.00,M,-RA,M,M,M,M,M,M,55.40,RCTP 241810Z 03016KT 6000 -RA SCT004 BKN005 OVC012 13/12 Q1021 NOSIG RMK A3016
RCTP,2017-02-24 18:30,55.40,55.40,100.00,30.00,17.00,0.00,30.15,M,4.97,M,SCT,BKN,OVC,M,400.00,500.00,1200.00,M,-RA,M,M,M,M,M,M,55.40,RCTP 241830Z 03017KT 8000 -RA SCT004 BKN005 OVC012 13/13 Q1021 NOSIG RMK A3015
RCTP,2017-02-24 19:00,57.20,55.40,93.69,40.00,17.00,0.00,30.15,M,6.21,M,SCT,BKN,OVC,M,400.00,800.00,1600.00,M,M,M,M,M,M,M,M,57.20,RCTP 241900Z 04017KT 9999 SCT004 BKN008 OVC016 14/13 Q1021 NOSIG RMK A3016 RA AMT 0.2MM
RCTP,2017-02-24 19:30,57.20,55.40,93.69,20.00,14.00,0.00,30.15,M,6.21,M,SCT,BKN,OVC,M,400.00,700.00,1500.00,M,-RA,M,M,M,M,M,M,57.20,RCTP 241930Z 02014KT 9999 -RA SCT004 BKN007 OVC015 14/13 Q1021 NOSIG RMK A3016
RCTP,2017-02-24 20:00,57.20,55.40,93.69,20.00,15.00,0.00,30.15,M,5.59,M,SCT,BKN,OVC,M,400.00,600.00,1200.00,M,-RA,M,M,M,M,M,M,57.20,RCTP 242000Z 02015KT 9000 -RA SCT004 BKN006 OVC012 14/13 Q1021 NOSIG RMK A3016
RCTP,2017-02-24 20:10,55.40,53.60,93.65,10.00,18.00,0.00,30.15,M,3.11,M,SCT,BKN,OVC,M,300.00,500.00,1200.00,M,-RA,M,M,M,M,M,M,55.40,RCTP 242010Z 01018KT 5000 -RA SCT003 BKN005 OVC012 13/12 Q1021 NOSIG RMK A3016
RCTP,2017-02-24 20:30,55.40,53.60,93.65,10.00,19.00,0.00,30.15,M,2.61,M,SCT,BKN,OVC,M,300.00,500.00,1200.00,M,-RA,M,M,M,M,M,M,55.40,RCTP 242030Z 01019KT 4200 -RA SCT003 BKN005 OVC012 13/12 Q1021 NOSIG RMK A3016
RCTP,2017-02-24 20:50,55.40,53.60,93.65,10.00,20.00,0.00,30.15,M,1.86,M,SCT,BKN,OVC,M,300.00,500.00,1200.00,M,-RA BR,M,M,M,M,M,M,55.40,RCTP 242050Z 01020KT 3000 -RA BR SCT003 BKN005 OVC012 13/12 Q1021 NOSIG RMK A3015
RCTP,2017-02-24 21:00,55.40,53.60,93.65,20.00,19.00,0.00,30.15,M,1.86,M,SCT,BKN,OVC,M,300.00,500.00,1200.00,M,-RA BR,M,M,M,M,M,M,55.40,RCTP 242100Z 02019KT 3000 -RA BR SCT003 BKN005 OVC012 13/12 Q1021 NOSIG RMK A3015 RA AMT 0.4MM
RCTP,2017-02-24 21:30,55.40,53.60,93.65,20.00,18.00,0.00,30.15,M,3.11,M,SCT,BKN,OVC,M,300.00,500.00,1200.00,M,-RA,M,M,M,M,M,M,55.40,RCTP 242130Z 02018KT 5000 -RA SCT003 BKN005 OVC012 13/12 Q1021 TEMPO 4000 RA RMK A3015
RCTP,2017-02-24 21:54,55.40,55.40,100.00,20.00,17.00,0.00,30.15,M,3.11,M,SCT,BKN,OVC,M,400.00,600.00,1200.00,M,RA,M,M,M,M,M,M,55.40,RCTP 242154Z 02017KT 5000 RA SCT004 BKN006 OVC012 13/13 Q1021 TEMPO 4000 RA RMK A3015
RCTP,2017-02-24 22:00,55.40,55.40,100.00,20.00,17.00,0.00,30.15,M,3.11,M,SCT,BKN,OVC,M,400.00,700.00,1200.00,M,RA,M,M,M,M,M,M,55.40,RCTP 242200Z 02017KT 5000 RA SCT004 BKN007 OVC012 13/13 Q1021 NOSIG RMK A3015 RA AMT 0.8MM
RCTP,2017-02-24 22:11,57.20,55.40,93.69,30.00,16.00,0.00,30.15,M,4.35,M,SCT,BKN,OVC,M,400.00,700.00,1200.00,M,-RA,M,M,M,M,M,M,57.20,RCTP 242211Z 03016KT 7000 -RA SCT004 BKN007 OVC012 14/13 Q1021 RERA NOSIG RMK A3016
RCTP,2017-02-24 22:30,57.20,55.40,93.69,40.00,18.00,0.00,30.15,M,6.21,M,SCT,BKN,OVC,M,400.00,700.00,1200.00,M,-RA,M,M,M,M,M,M,57.20,RCTP 242230Z 04018KT 9999 -RA SCT004 BKN007 OVC012 14/13 Q1021 RERA NOSIG RMK A3015
RCTP,2017-02-24 23:00,57.20,55.40,93.69,30.00,18.00,0.00,30.15,M,5.59,M,SCT,BKN,OVC,M,400.00,700.00,1200.00,M,-RA,M,M,M,M,M,M,57.20,RCTP 242300Z 03018KT 9000 -RA SCT004 BKN007 OVC012 14/13 Q1021 TEMPO 5000 RA RMK A3016 RA AMT 0.2MM
RCTP,2017-02-24 23:24,55.40,53.60,93.65,20.00,20.00,0.00,30.18,M,2.49,30.00,SCT,BKN,OVC,M,400.00,700.00,1200.00,M,RA,M,M,M,M,M,M,55.40,RCTP 242324Z 02020G30KT 4000 RA SCT004 BKN007 OVC012 13/12 Q1022 WS ALL RWY NOSIG RMK A3018
RCTP,2017-02-24 23:30,55.40,53.60,93.65,20.00,19.00,0.00,30.18,M,2.49,M,SCT,BKN,OVC,M,400.00,600.00,1200.00,M,RA,M,M,M,M,M,M,55.40,RCTP 242330Z 02019KT 4000 RA SCT004 BKN006 OVC012 13/12 Q1022 WS ALL RWY NOSIG RMK A3018
RCTP,2017-02-24 23:37,55.40,53.60,93.65,20.00,21.00,0.00,30.15,M,1.86,M,SCT,BKN,OVC,M,300.00,500.00,1200.00,M,RA,M,M,M,M,M,M,55.40,RCTP 242337Z 02021KT 3000 RA SCT003 BKN005 OVC012 13/12 Q1021 WS ALL RWY NOSIG RMK A3017
RCTP,2017-02-25 00:00,55.40,55.40,100.00,30.00,19.00,0.00,30.15,M,3.73,M,SCT,BKN,OVC,M,300.00,500.00,1200.00,M,-RA,M,M,M,M,M,M,55.40,RCTP 250000Z 03019KT 6000 -RA SCT003 BKN005 OVC012 13/13 Q1021 RERA WS ALL RWY TEMPO 4000 RA RMK A3016 RA AMT 1.8MM
RCTP,2017-02-25 00:30,57.20,55.40,93.69,30.00,15.00,0.00,30.18,M,2.49,M,SCT,BKN,OVC,M,300.00,500.00,1200.00,M,-RA,M,M,M,M,M,M,57.20,RCTP 250030Z 03015KT 4000 -RA SCT003 BKN005 OVC012 14/13 Q1022 NOSIG RMK A3018
RCTP,2017-02-25 01:00,57.20,55.40,93.69,40.00,15.00,0.00,30.15,M,3.73,M,SCT,BKN,OVC,M,300.00,500.00,1200.00,M,-RA,M,M,M,M,M,M,57.20,RCTP 250100Z 04015KT 6000 -RA SCT003 BKN005 OVC012 14/13 Q1021 NOSIG RMK A3017 RA AMT 3.2MM
RCTP,2017-02-25 01:30,57.20,57.20,100.00,40.00,16.00,0.00,30.18,M,3.73,M,SCT,BKN,OVC,M,500.00,800.00,1500.00,M,-RA,M,M,M,M,M,M,57.20,RCTP 250130Z 04016KT 6000 -RA SCT005 BKN008 OVC015 14/14 Q1022 NOSIG RMK A3018
RCTP,2017-02-25 02:00,57.20,57.20,100.00,20.00,17.00,0.00,30.15,M,4.97,M,SCT,BKN,OVC,M,500.00,800.00,1500.00,M,-RA,M,M,M,M,M,M,57.20,RCTP 250200Z 02017KT 8000 -RA SCT005 BKN008 OVC015 14/14 Q1021 NOSIG RMK A3017 RA AMT 0.4MM
RCTP,2017-02-25 02:30,57.20,55.40,93.69,10.00,19.00,0.00,30.15,M,3.73,M,SCT,BKN,OVC,M,500.00,800.00,1500.00,M,-RA,M,M,M,M,M,M,57.20,RCTP 250230Z 01019KT 6000 -RA SCT005 BKN008 OVC015 14/13 Q1021 NOSIG RMK A3017
RCTP,2017-02-25 03:00,57.20,55.40,93.69,20.00,19.00,0.00,30.15,M,4.97,M,SCT,BKN,OVC,M,500.00,800.00,1500.00,M,-RA,M,M,M,M,M,M,57.20,RCTP 250300Z 02019KT 8000 -RA SCT005 BKN008 OVC015 14/13 Q1021 NOSIG RMK A3017 RA AMT 0.2MM
RCTP,2017-02-25 03:17,55.40,53.60,93.65,10.00,18.00,0.00,30.15,M,3.11,M,SCT,BKN,OVC,M,300.00,600.00,1500.00,M,-RA,M,M,M,M,M,M,55.40,RCTP 250317Z 01018KT 5000 -RA SCT003 BKN006 OVC015 13/12 Q1021 NOSIG RMK A3017
RCTP,2017-02-25 03:32,55.40,53.60,93.65,10.00,19.00,0.00,30.15,M,3.11,M,SCT,BKN,OVC,M,300.00,600.00,1500.00,M,-RA,M,M,M,M,M,M,55.40,RCTP 250332Z 01019KT 5000 -RA SCT003 BKN006 OVC015 13/12 Q1021 WS ALL RWY NOSIG RMK A3017
RCTP,2017-02-25 04:00,55.40,53.60,93.65,20.00,19.00,0.00,30.15,M,3.11,M,SCT,BKN,OVC,M,300.00,600.00,1500.00,M,-RA,M,M,M,M,M,M,55.40,RCTP 250400Z 02019KT 5000 -RA SCT003 BKN006 OVC015 13/12 Q1021 NOSIG RMK A3015 RA AMT 0.4MM
RCTP,2017-02-25 04:09,55.40,53.60,93.65,20.00,19.00,0.00,30.15,M,3.11,M,SCT,BKN,OVC,M,300.00,600.00,1500.00,M,-RA,M,M,M,M,M,M,55.40,RCTP 250409Z 02019KT 5000 -RA SCT003 BKN006 OVC015 13/12 Q1021 WS ALL RWY NOSIG RMK A3015
RCTP,2017-02-25 04:30,55.40,53.60,93.65,10.00,20.00,0.00,30.15,M,4.97,M,SCT,BKN,OVC,M,500.00,800.00,1500.00,M,-RA,M,M,M,M,M,M,55.40,RCTP 250430Z 01020KT 8000 -RA SCT005 BKN008 OVC015 13/12 Q1021 WS ALL RWY NOSIG RMK A3015
RCTP,2017-02-25 05:00,55.40,53.60,93.65,20.00,19.00,0.00,30.12,M,4.97,M,SCT,BKN,OVC,M,500.00,800.00,1500.00,M,-RA,M,M,M,M,M,M,55.40,RCTP 250500Z 02019KT 8000 -RA SCT005 BKN008 OVC015 13/12 Q1020 WS ALL RWY NOSIG RMK A3013 RA AMT 0.4MM
RCTP,2017-02-25 05:16,55.40,53.60,93.65,20.00,19.00,0.00,30.12,M,3.11,M,SCT,BKN,OVC,M,500.00,800.00,1500.00,M,-RA,M,M,M,M,M,M,55.40,RCTP 250516Z 02019KT 5000 -RA SCT005 BKN008 OVC015 13/12 Q1020 NOSIG RMK A3013
RCTP,2017-02-25 06:30,55.40,53.60,93.65,20.00,19.00,0.00,30.09,M,1.99,M,SCT,BKN,OVC,M,500.00,800.00,1200.00,M,-RA,M,M,M,M,M,M,55.40,RCTP 250630Z 02019KT 3200 -RA SCT005 BKN008 OVC012 13/12 Q1019 NOSIG RMK A3009
RCTP,2017-02-25 07:00,55.40,53.60,93.65,10.00,19.00,0.00,30.09,M,2.80,M,SCT,BKN,OVC,M,500.00,800.00,1200.00,M,-RA,M,M,M,M,M,M,55.40,RCTP 250700Z 01019KT 4500 -RA SCT005 BKN008 OVC012 13/12 Q1019 NOSIG RMK A3010 RA AMT 2.8MM
RCTP,2017-02-25 07:32,55.40,53.60,93.65,20.00,19.00,0.00,30.09,M,2.80,M,SCT,BKN,OVC,M,500.00,700.00,1200.00,M,-RA,M,M,M,M,M,M,55.40,RCTP 250732Z 02019KT 4500 -RA SCT005 BKN007 OVC012 13/12 Q1019 WS ALL RWY NOSIG RMK A3009
RCTP,2017-02-25 08:00,55.40,53.60,93.65,10.00,19.00,0.00,30.09,M,2.80,M,SCT,BKN,OVC,M,500.00,700.00,1200.00,M,-RA,M,M,M,M,M,M,55.40,RCTP 250800Z 01019KT 4500 -RA SCT005 BKN007 OVC012 13/12 Q1019 WS ALL RWY NOSIG RMK A3010 RA AMT 2.6MM
RCTP,2017-02-25 08:30,55.40,53.60,93.65,20.00,17.00,0.00,30.09,M,2.80,M,SCT,BKN,OVC,M,500.00,700.00,1200.00,M,-RA,M,M,M,M,M,M,55.40,RCTP 250830Z 02017KT 4500 -RA SCT005 BKN007 OVC012 13/12 Q1019 NOSIG RMK A3010
RCTP,2017-02-25 09:00,55.40,53.60,93.65,20.00,17.00,0.00,30.09,M,2.17,M,SCT,BKN,OVC,M,500.00,700.00,1200.00,M,-RA,M,M,M,M,M,M,55.40,RCTP 250900Z 02017KT 3500 -RA SCT005 BKN007 OVC012 13/12 Q1019 NOSIG RMK A3010 RA AMT 3.0MM
RCTP,2017-02-25 09:14,55.40,53.60,93.65,20.00,18.00,0.00,30.09,M,3.73,M,SCT,BKN,OVC,M,500.00,700.00,1200.00,M,-RA,M,M,M,M,M,M,55.40,RCTP 250914Z 02018KT 6000 -RA SCT005 BKN007 OVC012 13/12 Q1019 NOSIG RMK A3010
RCTP,2017-02-25 09:30,55.40,53.60,93.65,20.00,19.00,0.00,30.09,M,3.73,M,SCT,BKN,OVC,M,500.00,700.00,1200.00,M,-RA,M,M,M,M,M,M,55.40,RCTP 250930Z 02019KT 6000 -RA SCT005 BKN007 OVC012 13/12 Q1019 NOSIG RMK A3010
RCTP,2017-02-25 09:55,55.40,53.60,93.65,30.00,17.00,0.00,30.09,M,2.80,M,SCT,BKN,OVC,M,500.00,700.00,1200.00,M,-RA,M,M,M,M,M,M,55.40,RCTP 250955Z 03017KT 4500 -RA SCT005 BKN007 OVC012 13/12 Q1019 NOSIG RMK A3010
RCTP,2017-02-25 10:00,55.40,53.60,93.65,20.00,18.00,0.00,30.09,M,2.80,M,SCT,BKN,OVC,M,500.00,700.00,1200.00,M,-RA,M,M,M,M,M,M,55.40,RCTP 251000Z 02018KT 4500 -RA SCT005 BKN007 OVC012 13/12 Q1019 NOSIG RMK A3010 RA AMT 1.0MM
RCTP,2017-02-25 10:30,55.40,53.60,93.65,20.00,20.00,0.00,30.12,M,2.80,M,SCT,BKN,OVC,M,500.00,700.00,1200.00,M,-RA,M,M,M,M,M,M,55.40,RCTP 251030Z 02020KT 4500 -RA SCT005 BKN007 OVC012 13/12 Q1020 NOSIG RMK A3012
RCTP,2017-02-25 11:00,55.40,53.60,93.65,20.00,18.00,0.00,30.12,M,3.11,M,SCT,BKN,OVC,M,500.00,700.00,1200.00,M,-RA,M,M,M,M,M,M,55.40,RCTP 251100Z 02018KT 5000 -RA SCT005 BKN007 OVC012 13/12 Q1020 NOSIG RMK A3012 RA AMT 0.8MM
RCTP,2017-02-25 11:30,55.40,53.60,93.65,30.00,18.00,0.00,30.12,M,3.11,M,SCT,BKN,OVC,M,500.00,700.00,1200.00,M,-RA,M,M,M,M,M,M,55.40,RCTP 251130Z 03018KT 350V050 5000 -RA SCT005 BKN007 OVC012 13/12 Q1020 NOSIG RMK A3013
RCTP,2017-02-25 12:00,55.40,53.60,93.65,40.00,18.00,0.00,30.12,M,4.35,M,SCT,BKN,OVC,M,600.00,1000.00,1500.00,M,-RA,M,M,M,M,M,M,55.40,RCTP 251200Z 04018KT 7000 -RA SCT006 BKN010 OVC015 13/12 Q1020 NOSIG RMK A3012 RA AMT 2.0MM
RCTP,2017-02-25 12:30,55.40,53.60,93.65,30.00,17.00,0.00,30.12,M,6.21,M,SCT,BKN,OVC,M,600.00,1000.00,1500.00,M,-RA,M,M,M,M,M,M,55.40,RCTP 251230Z 03017KT 9999 -RA SCT006 BKN010 OVC015 13/12 Q1020 NOSIG RMK A3012
RCTP,2017-02-25 13:00,57.20,53.60,87.74,30.00,18.00,0.00,30.12,M,6.21,M,SCT,BKN,OVC,M,800.00,1200.00,1800.00,M,-RA,M,M,M,M,M,M,57.20,RCTP 251300Z 03018KT 9999 -RA SCT008 BKN012 OVC018 14/12 Q1020 NOSIG RMK A3013
RCTP,2017-02-25 13:30,57.20,53.60,87.74,20.00,19.00,0.00,30.12,M,6.21,M,SCT,BKN,OVC,M,800.00,1200.00,1800.00,M,M,M,M,M,M,M,M,57.20,RCTP 251330Z 02019KT 9999 SCT008 BKN012 OVC018 14/12 Q1020 NOSIG RMK A3013
RCTP,2017-02-25 14:00,57.20,53.60,87.74,30.00,18.00,0.00,30.12,M,6.21,M,SCT,BKN,OVC,M,800.00,1200.00,1800.00,M,M,M,M,M,M,M,M,57.20,RCTP 251400Z 03018KT 9999 SCT008 BKN012 OVC018 14/12 Q1020 NOSIG RMK A3014
RCTP,2017-02-25 14:30,57.20,55.40,93.69,20.00,19.00,0.00,30.12,M,6.21,M,SCT,BKN,OVC,M,800.00,1200.00,1800.00,M,M,M,M,M,M,M,M,57.20,RCTP 251430Z 02019KT 9999 SCT008 BKN012 OVC018 14/13 Q1020 NOSIG RMK A3013
RCTP,2017-02-25 15:00,55.40,55.40,100.00,20.00,19.00,0.00,30.12,M,6.21,M,SCT,BKN,OVC,M,400.00,600.00,1500.00,M,M,M,M,M,M,M,M,55.40,RCTP 251500Z 02019KT 9999 SCT004 BKN006 OVC015 13/13 Q1020 NOSIG RMK A3014
RCTP,2017-02-25 15:45,55.40,53.60,93.65,20.00,16.00,0.00,30.12,M,1.99,M,SCT,BKN,OVC,M,300.00,500.00,1500.00,M,-RA,M,M,M,M,M,M,55.40,RCTP 251545Z 02016KT 3200 -RA SCT003 BKN005 OVC015 13/12 Q1020 NOSIG RMK A3014
RCTP,2017-02-25 16:00,55.40,53.60,93.65,20.00,19.00,0.00,30.12,M,1.99,M,SCT,BKN,OVC,M,300.00,500.00,1500.00,M,-RA,M,M,M,M,M,M,55.40,RCTP 251600Z 02019KT 3200 -RA SCT003 BKN005 OVC015 13/12 Q1020 NOSIG RMK A3014 RA AMT 0.4MM
RCTP,2017-02-25 16:30,55.40,53.60,93.65,20.00,20.00,0.00,30.12,M,1.99,M,SCT,BKN,OVC,M,300.00,500.00,1500.00,M,-RA,M,M,M,M,M,M,55.40,RCTP 251630Z 02020KT 3200 -RA SCT003 BKN005 OVC015 13/12 Q1020 NOSIG RMK A3012
RCTP,2017-02-25 17:00,55.40,55.40,100.00,30.00,19.00,0.00,30.09,M,2.80,M,SCT,BKN,OVC,M,300.00,500.00,1500.00,M,-RA,M,M,M,M,M,M,55.40,RCTP 251700Z 03019KT 4500 -RA SCT003 BKN005 OVC015 13/13 Q1019 NOSIG RMK A3011 RA AMT 0.6MM
RCTP,2017-02-25 17:30,57.20,53.60,87.74,20.00,14.00,0.00,30.12,M,3.73,M,SCT,BKN,OVC,M,300.00,500.00,1500.00,M,-RA,M,M,M,M,M,M,57.20,RCTP 251730Z 02014KT 6000 -RA SCT003 BKN005 OVC015 14/12 Q1020 TEMPO 3000 RA RMK A3012
RCTP,2017-02-25 18:00,55.40,53.60,93.65,20.00,15.00,0.00,30.12,M,3.73,M,SCT,BKN,OVC,M,300.00,500.00,1500.00,M,-RA,M,M,M,M,M,M,55.40,RCTP 251800Z 02015KT 6000 -RA SCT003 BKN005 OVC015 13/12 Q1020 NOSIG RMK A3012 RA AMT 1.6MM
RCTP,2017-02-25 18:30,55.40,53.60,93.65,20.00,14.00,0.00,30.09,M,3.73,M,SCT,BKN,OVC,M,400.00,600.00,1200.00,M,-RA,M,M,M,M,M,M,55.40,RCTP 251830Z 02014KT 6000 -RA SCT004 BKN006 OVC012 13/12 Q1019 NOSIG RMK A3010
RCTP,2017-02-25 19:00,55.40,53.60,93.65,10.00,16.00,0.00,30.09,M,3.73,M,SCT,BKN,OVC,M,400.00,700.00,1200.00,M,-RA,M,M,M,M,M,M,55.40,RCTP 251900Z 01016KT 6000 -RA SCT004 BKN007 OVC012 13/12 Q1019 NOSIG RMK A3010 RA AMT 1.8MM
RCTP,2017-02-25 19:30,55.40,53.60,93.65,360.00,15.00,0.00,30.12,M,3.11,M,SCT,BKN,OVC,M,500.00,700.00,1200.00,M,-RA,M,M,M,M,M,M,55.40,RCTP 251930Z 36015KT 5000 -RA SCT005 BKN007 OVC012 13/12 Q1020 NOSIG RMK A3012
RCTP,2017-02-25 20:00,55.40,53.60,93.65,10.00,15.00,0.00,30.09,M,3.11,M,SCT,BKN,OVC,M,500.00,700.00,1200.00,M,-RA,M,M,M,M,M,M,55.40,RCTP 252000Z 01015KT 5000 -RA SCT005 BKN007 OVC012 13/12 Q1019 NOSIG RMK A3011 RA AMT 1.2MM
RCTP,2017-02-25 20:30,55.40,53.60,93.65,360.00,15.00,0.00,30.12,M,3.11,M,SCT,BKN,OVC,M,400.00,700.00,1200.00,M,-RA,M,M,M,M,M,M,55.40,RCTP 252030Z 36015KT 5000 -RA SCT004 BKN007 OVC012 13/12 Q1020 NOSIG RMK A3014
RCTP,2017-02-25 21:01,53.60,51.80,93.60,10.00,17.00,0.00,30.12,M,3.11,M,SCT,BKN,OVC,M,400.00,800.00,1500.00,M,-RA,M,M,M,M,M,M,53.60,RCTP 252101Z 01017KT 5000 -RA SCT004 BKN008 OVC015 12/11 Q1020 NOSIG RMK A3014
RCTP,2017-02-25 21:24,53.60,51.80,93.60,20.00,17.00,0.00,30.15,M,4.97,M,SCT,BKN,OVC,M,600.00,1200.00,1600.00,M,-RA,M,M,M,M,M,M,53.60,RCTP 252124Z 02017KT 8000 -RA SCT006 BKN012 OVC016 12/11 Q1021 NOSIG RMK A3015
RCTP,2017-02-25 21:30,53.60,51.80,93.60,10.00,17.00,0.00,30.15,M,4.97,M,SCT,BKN,OVC,M,600.00,1200.00,1600.00,M,-RA,M,M,M,M,M,M,53.60,RCTP 252130Z 01017KT 8000 -RA SCT006 BKN012 OVC016 12/11 Q1021 NOSIG RMK A3015
RCTP,2017-02-25 22:00,53.60,50.00,87.56,10.00,17.00,0.00,30.15,M,4.97,M,SCT,BKN,BKN,M,800.00,1300.00,1600.00,M,-RA,M,M,M,M,M,M,53.60,RCTP 252200Z 01017KT 8000 -RA SCT008 BKN013 BKN016 12/10 Q1021 NOSIG RMK A3016 RA AMT 0.2MM
RCTP,2017-02-25 22:13,53.60,50.00,87.56,20.00,15.00,0.00,30.15,M,6.21,M,FEW,BKN,BKN,M,800.00,1500.00,1800.00,M,-RA,M,M,M,M,M,M,53.60,RCTP 252213Z 02015KT 9999 -RA FEW008 BKN015 BKN018 12/10 Q1021 NOSIG RMK A3017
RCTP,2017-02-25 22:30,53.60,50.00,87.56,10.00,15.00,0.00,30.15,M,6.21,M,FEW,BKN,BKN,M,800.00,1500.00,1800.00,M,-RA,M,M,M,M,M,M,53.60,RCTP 252230Z 01015KT 9999 -RA FEW008 BKN015 BKN018 12/10 Q1021 NOSIG RMK A3017
RCTP,2017-02-25 23:00,53.60,50.00,87.56,10.00,16.00,0.00,30.18,M,6.21,M,FEW,BKN,BKN,M,800.00,1500.00,1800.00,M,-RA,M,M,M,M,M,M,53.60,RCTP 252300Z 01016KT 9999 -RA FEW008 BKN015 BKN018 12/10 Q1022 NOSIG RMK A3020 RA AMT 0.2MM
RCTP,2017-02-25 23:30,53.60,50.00,87.56,10.00,15.00,0.00,30.21,M,3.11,M,SCT,BKN,BKN,M,600.00,1200.00,1800.00,M,-RA,M,M,M,M,M,M,53.60,RCTP 252330Z 01015KT 5000 -RA SCT006 BKN012 BKN018 12/10 Q1023 NOSIG RMK A3021
RCTP,2017-02-26 00:00,53.60,50.00,87.56,10.00,15.00,0.00,30.21,M,4.35,M,SCT,BKN,BKN,M,600.00,1100.00,1800.00,M,-RA,M,M,M,M,M,M,53.60,RCTP 260000Z 01015KT 7000 -RA SCT006 BKN011 BKN018 12/10 Q1023 NOSIG RMK A3023 RA AMT 0.2MM
RCTP,2017-02-26 00:22,53.60,50.00,87.56,10.00,13.00,0.00,30.24,M,3.11,M,SCT,BKN,BKN,M,600.00,1000.00,1800.00,M,-RA,M,M,M,M,M,M,53.60,RCTP 260022Z 01013KT 5000 -RA SCT006 BKN010 BKN018 12/10 Q1024 NOSIG RMK A3024
RCTP,2017-02-26 00:30,53.60,50.00,87.56,10.00,14.00,0.00,30.24,M,3.11,M,SCT,BKN,BKN,M,600.00,1000.00,1800.00,M,-RA,M,M,M,M,M,M,53.60,RCTP 260030Z 01014KT 5000 -RA SCT006 BKN010 BKN018 12/10 Q1024 NOSIG RMK A3024
RCTP,2017-02-26 00:42,53.60,50.00,87.56,10.00,14.00,0.00,30.24,M,2.49,M,SCT,BKN,BKN,M,600.00,1000.00,1800.00,M,-RA BR,M,M,M,M,M,M,53.60,RCTP 260042Z 01014KT 4000 -RA BR SCT006 BKN010 BKN018 12/10 Q1024 NOSIG RMK A3025
RCTP,2017-02-26 00:56,53.60,50.00,87.56,10.00,14.00,0.00,30.24,M,1.86,M,SCT,BKN,BKN,M,600.00,1000.00,1800.00,M,-RA BR,M,M,M,M,M,M,53.60,RCTP 260056Z 01014KT 3000 -RA BR SCT006 BKN010 BKN018 12/10 Q1024 NOSIG RMK A3025
RCTP,2017-02-26 01:00,53.60,50.00,87.56,10.00,14.00,0.00,30.24,M,1.86,M,SCT,BKN,BKN,M,600.00,1000.00,1800.00,M,-RA BR,M,M,M,M,M,M,53.60,RCTP 260100Z 01014KT 3000 -RA BR SCT006 BKN010 BKN018 12/10 Q1024 NOSIG RMK A3025 RA AMT 0.40MM
RCTP,2017-02-26 01:22,53.60,51.80,93.60,10.00,13.00,0.00,30.24,M,3.11,M,SCT,BKN,BKN,M,600.00,1000.00,1800.00,M,-RA,M,M,M,M,M,M,53.60,RCTP 260122Z 01013KT 5000 -RA SCT006 BKN010 BKN018 12/11 Q1024 NOSIG RMK A3026
RCTP,2017-02-26 01:30,51.80,50.00,93.55,10.00,12.00,0.00,30.24,M,3.11,M,SCT,BKN,BKN,M,600.00,1000.00,1800.00,M,-RA,M,M,M,M,M,M,51.80,RCTP 260130Z 01012KT 5000 -RA SCT006 BKN010 BKN018 11/10 Q1024 NOSIG RMK A3026
RCTP,2017-02-26 01:40,53.60,50.00,87.56,20.00,14.00,0.00,30.27,M,2.17,M,SCT,BKN,BKN,M,600.00,1000.00,1800.00,M,-RA BR,M,M,M,M,M,M,53.60,RCTP 260140Z 02014KT 3500 -RA BR SCT006 BKN010 BKN018 12/10 Q1025 NOSIG RMK A3027
RCTP,2017-02-26 02:00,53.60,51.80,93.60,20.00,15.00,0.00,30.24,M,2.49,M,SCT,BKN,BKN,M,600.00,1000.00,1800.00,M,-RA BR,M,M,M,M,M,M,53.60,RCTP 260200Z 02015KT 4000 -RA BR SCT006 BKN010 BKN018 12/11 Q1024 NOSIG RMK A3026 RA AMT 0.20MM
RCTP,2017-02-26 02:11,53.60,51.80,93.60,20.00,15.00,0.00,30.24,M,3.11,M,SCT,BKN,BKN,M,600.00,1000.00,2000.00,M,-RA,M,M,M,M,M,M,53.60,RCTP 260211Z 02015KT 5000 -RA SCT006 BKN010 BKN020 12/11 Q1024 NOSIG RMK A3026
RCTP,2017-02-26 02:30,53.60,50.00,87.56,20.00,17.00,0.00,30.24,M,3.73,M,SCT,BKN,BKN,M,600.00,1000.00,2000.00,M,-RA,M,M,M,M,M,M,53.60,RCTP 260230Z 02017KT 6000 -RA SCT006 BKN010 BKN020 12/10 Q1024 NOSIG RMK A3026
RCTP,2017-02-26 03:00,53.60,50.00,87.56,10.00,16.00,0.00,30.24,M,3.73,M,SCT,BKN,BKN,M,600.00,1000.00,1800.00,M,-RA,M,M,M,M,M,M,53.60,RCTP 260300Z 01016KT 6000 -RA SCT006 BKN010 BKN018 12/10 Q1024 NOSIG RMK A3025
RCTP,2017-02-26 03:30,53.60,50.00,87.56,20.00,16.00,0.00,30.24,M,4.35,M,SCT,BKN,BKN,M,600.00,1000.00,1800.00,M,-RA,M,M,M,M,M,M,53.60,RCTP 260330Z 02016KT 7000 -RA SCT006 BKN010 BKN018 12/10 Q1024 NOSIG RMK A3024
RCTP,2017-02-26 04:00,53.60,50.00,87.56,20.00,16.00,0.00,30.21,M,4.35,M,SCT,BKN,BKN,M,600.00,1000.00,2000.00,M,-DZ,M,M,M,M,M,M,53.60,RCTP 260400Z 02016KT 7000 -DZ SCT006 BKN010 BKN020 12/10 Q1023 NOSIG RMK A3023
RCTP,2017-02-26 04:30,53.60,50.00,87.56,20.00,16.00,0.00,30.21,M,4.35,M,SCT,BKN,BKN,M,600.00,1000.00,2000.00,M,-DZ,M,M,M,M,M,M,53.60,RCTP 260430Z 02016KT 7000 -DZ SCT006 BKN010 BKN020 12/10 Q1023 NOSIG RMK A3023
RCTP,2017-02-26 05:00,53.60,50.00,87.56,10.00,18.00,0.00,30.21,M,3.73,M,SCT,BKN,BKN,M,600.00,1200.00,2000.00,M,-RA,M,M,M,M,M,M,53.60,RCTP 260500Z 01018KT 6000 -RA SCT006 BKN012 BKN020 12/10 Q1023 NOSIG RMK A3022 RA AMT 0.20MM
RCTP,2017-02-26 05:30,53.60,50.00,87.56,10.00,16.00,0.00,30.21,M,3.73,M,SCT,BKN,BKN,M,800.00,1400.00,2000.00,M,-RA,M,M,M,M,M,M,53.60,RCTP 260530Z 01016KT 6000 -RA SCT008 BKN014 BKN020 12/10 Q1023 NOSIG RMK A3021
RCTP,2017-02-26 06:00,53.60,50.00,87.56,10.00,17.00,0.00,30.18,M,3.73,M,SCT,BKN,BKN,M,600.00,1200.00,2000.00,M,-RA,M,M,M,M,M,M,53.60,RCTP 260600Z 01017KT 6000 -RA SCT006 BKN012 BKN020 12/10 Q1022 NOSIG RMK A3020
RCTP,2017-02-26 06:30,53.60,50.00,87.56,20.00,17.00,0.00,30.18,M,3.73,M,SCT,BKN,BKN,M,800.00,1200.00,2000.00,M,-RA,M,M,M,M,M,M,53.60,RCTP 260630Z 02017KT 6000 -RA SCT008 BKN012 BKN020 12/10 Q1022 NOSIG RMK A3020
RCTP,2017-02-26 07:00,53.60,50.00,87.56,20.00,17.00,0.00,30.18,M,3.73,M,SCT,BKN,BKN,M,800.00,1200.00,2000.00,M,-DZ,M,M,M,M,M,M,53.60,RCTP 260700Z 02017KT 6000 -DZ SCT008 BKN012 BKN020 12/10 Q1022 NOSIG RMK A3019
RCTP,2017-02-26 07:30,53.60,50.00,87.56,30.00,15.00,0.00,30.18,M,3.73,M,FEW,BKN,BKN,M,1000.00,1500.00,2500.00,M,M,M,M,M,M,M,M,53.60,RCTP 260730Z 03015KT 6000 FEW010 BKN015 BKN025 12/10 Q1022 NOSIG RMK A3018
RCTP,2017-02-26 08:00,55.40,50.00,81.99,40.00,17.00,0.00,30.18,M,3.73,M,FEW,BKN,BKN,M,1000.00,1600.00,2500.00,M,M,M,M,M,M,M,M,55.40,RCTP 260800Z 04017KT 6000 FEW010 BKN016 BKN025 13/10 Q1022 NOSIG RMK A3018
RCTP,2017-02-26 08:30,55.40,50.00,81.99,60.00,12.00,0.00,30.18,M,5.59,M,FEW,BKN,BKN,M,1000.00,1800.00,3000.00,M,M,M,M,M,M,M,M,55.40,RCTP 260830Z 06012KT 9000 FEW010 BKN018 BKN030 13/10 Q1022 NOSIG RMK A3019
RCTP,2017-02-26 09:00,55.40,50.00,81.99,70.00,12.00,0.00,30.18,M,5.59,M,FEW,BKN,BKN,M,1200.00,2500.00,3500.00,M,M,M,M,M,M,M,M,55.40,RCTP 260900Z 07012KT 9000 FEW012 BKN025 BKN035 13/10 Q1022 NOSIG RMK A3020
RCTP,2017-02-26 09:30,55.40,48.20,76.66,40.00,15.00,0.00,30.18,M,6.21,M,FEW,BKN,BKN,M,1200.00,2500.00,3500.00,M,M,M,M,M,M,M,M,55.40,RCTP 260930Z 04015KT 9999 FEW012 BKN025 BKN035 13/09 Q1022 NOSIG RMK A3020
RCTP,2017-02-26 10:00,57.20,50.00,76.82,30.00,15.00,0.00,30.21,M,6.21,M,FEW,BKN,BKN,M,1200.00,2500.00,3500.00,M,M,M,M,M,M,M,M,57.20,RCTP 261000Z 03015KT 9999 FEW012 BKN025 BKN035 14/10 Q1023 NOSIG RMK A3021
RCTP,2017-02-26 10:30,57.20,50.00,76.82,40.00,15.00,0.00,30.21,M,6.21,M,FEW,BKN,BKN,M,1200.00,2500.00,3500.00,M,M,M,M,M,M,M,M,57.20,RCTP 261030Z 04015KT 9999 FEW012 BKN025 BKN035 14/10 Q1023 NOSIG RMK A3021
RCTP,2017-02-26 11:00,57.20,50.00,76.82,50.00,13.00,0.00,30.21,M,6.21,M,FEW,BKN,BKN,M,1200.00,2500.00,4000.00,M,M,M,M,M,M,M,M,57.20,RCTP 261100Z 05013KT 9999 FEW012 BKN025 BKN040 14/10 Q1023 NOSIG RMK A3022
RCTP,2017-02-26 11:30,57.20,50.00,76.82,40.00,12.00,0.00,30.21,M,6.21,M,FEW,BKN,BKN,M,1200.00,2000.00,4000.00,M,M,M,M,M,M,M,M,57.20,RCTP 261130Z 04012KT 9999 FEW012 BKN020 BKN040 14/10 Q1023 NOSIG RMK A3023
RCTP,2017-02-26 12:00,57.20,50.00,76.82,40.00,16.00,0.00,30.24,M,6.21,M,FEW,BKN,BKN,M,1200.00,2200.00,4000.00,M,M,M,M,M,M,M,M,57.20,RCTP 261200Z 04016KT 9999 FEW012 BKN022 BKN040 14/10 Q1024 NOSIG RMK A3024
RCTP,2017-02-26 12:30,57.20,50.00,76.82,40.00,18.00,0.00,30.24,M,6.21,M,FEW,BKN,BKN,M,1200.00,2500.00,4000.00,M,M,M,M,M,M,M,M,57.20,RCTP 261230Z 04018KT 9999 FEW012 BKN025 BKN040 14/10 Q1024 NOSIG RMK A3024
RCTP,2017-02-26 13:00,57.20,48.20,71.83,40.00,19.00,0.00,30.24,M,6.21,M,FEW,BKN,BKN,M,1200.00,2500.00,4000.00,M,M,M,M,M,M,M,M,57.20,RCTP 261300Z 04019KT 9999 FEW012 BKN025 BKN040 14/09 Q1024 NOSIG RMK A3025
RCTP,2017-02-26 13:30,57.20,48.20,71.83,40.00,21.00,0.00,30.24,M,6.21,M,FEW,BKN,BKN,M,1600.00,3000.00,5000.00,M,M,M,M,M,M,M,M,57.20,RCTP 261330Z 04021KT 9999 FEW016 BKN030 BKN050 14/09 Q1024 NOSIG RMK A3025
RCTP,2017-02-26 14:00,57.20,48.20,71.83,50.00,20.00,0.00,30.24,M,6.21,M,FEW,SCT,BKN,M,1600.00,3000.00,7000.00,M,M,M,M,M,M,M,M,57.20,RCTP 261400Z 05020KT 9999 FEW016 SCT030 BKN070 14/09 Q1024 NOSIG RMK A3026
RCTP,2017-02-26 14:30,57.20,48.20,71.83,60.00,16.00,0.00,30.24,M,6.21,M,FEW,SCT,BKN,M,1600.00,3000.00,7000.00,M,M,M,M,M,M,M,M,57.20,RCTP 261430Z 06016KT 9999 FEW016 SCT030 BKN070 14/09 Q1024 NOSIG RMK A3025
RCTP,2017-02-26 15:00,57.20,48.20,71.83,70.00,15.00,0.00,30.24,M,6.21,M,FEW,SCT,BKN,M,1600.00,3000.00,7000.00,M,M,M,M,M,M,M,M,57.20,RCTP 261500Z 07015KT 9999 FEW016 SCT030 BKN070 14/09 Q1024 NOSIG RMK A3025
RCTP,2017-02-26 15:30,57.20,48.20,71.83,70.00,15.00,0.00,30.24,M,6.21,M,FEW,SCT,BKN,M,1600.00,7000.00,15000.00,M,M,M,M,M,M,M,M,57.20,RCTP 261530Z 07015KT 9999 FEW016 SCT070 BKN150 14/09 Q1024 NOSIG RMK A3024
RCTP,2017-02-26 16:00,57.20,48.20,71.83,60.00,15.00,0.00,30.21,M,6.21,M,FEW,BKN,BKN,M,1600.00,7000.00,15000.00,M,M,M,M,M,M,M,M,57.20,RCTP 261600Z 06015KT 9999 FEW016 BKN070 BKN150 14/09 Q1023 NOSIG RMK A3023
RCTP,2017-02-26 16:30,57.20,48.20,71.83,70.00,15.00,0.00,30.21,M,6.21,M,FEW,BKN,BKN,M,1600.00,7000.00,15000.00,M,M,M,M,M,M,M,M,57.20,RCTP 261630Z 07015KT 9999 FEW016 BKN070 BKN150 14/09 Q1023 NOSIG RMK A3022
RCTP,2017-02-26 17:00,57.20,48.20,71.83,60.00,12.00,0.00,30.21,M,6.21,M,FEW,SCT,BKN,M,1600.00,4000.00,7000.00,M,M,M,M,M,M,M,M,57.20,RCTP 261700Z 06012KT 9999 FEW016 SCT040 BKN070 14/09 Q1023 NOSIG RMK A3022
RCTP,2017-02-26 17:30,57.20,48.20,71.83,70.00,10.00,0.00,30.21,M,6.21,M,FEW,BKN,BKN,M,1600.00,4000.00,7000.00,M,M,M,M,M,M,M,M,57.20,RCTP 261730Z 07010KT 9999 FEW016 BKN040 BKN070 14/09 Q1023 NOSIG RMK A3022
RCTP,2017-02-26 18:00,55.40,46.40,71.64,70.00,8.00,0.00,30.21,M,5.59,M,FEW,SCT,BKN,M,1600.00,4000.00,7000.00,M,M,M,M,M,M,M,M,55.40,RCTP 261800Z 07008KT 9000 FEW016 SCT040 BKN070 13/08 Q1023 NOSIG RMK A3021
RCTP,2017-02-26 18:30,55.40,46.40,71.64,70.00,9.00,0.00,30.18,M,5.59,M,FEW,SCT,BKN,M,1600.00,4000.00,7000.00,M,M,M,M,M,M,M,M,55.40,RCTP 261830Z 07009KT 9000 FEW016 SCT040 BKN070 13/08 Q1022 NOSIG RMK A3020
RCTP,2017-02-26 19:00,57.20,46.40,67.12,60.00,9.00,0.00,30.18,M,5.59,M,FEW,SCT,BKN,M,2000.00,7000.00,9000.00,M,M,M,M,M,M,M,M,57.20,RCTP 261900Z 06009KT 9000 FEW020 SCT070 BKN090 14/08 Q1022 NOSIG RMK A3020
RCTP,2017-02-26 19:30,57.20,46.40,67.12,60.00,10.00,0.00,30.18,M,5.59,M,FEW,SCT,BKN,M,2000.00,7000.00,9000.00,M,M,M,M,M,M,M,M,57.20,RCTP 261930Z 06010KT 9000 FEW020 SCT070 BKN090 14/08 Q1022 NOSIG RMK A3020
RCTP,2017-02-26 20:00,57.20,46.40,67.12,60.00,9.00,0.00,30.18,M,5.59,M,FEW,BKN,BKN,M,2000.00,7000.00,9000.00,M,M,M,M,M,M,M,M,57.20,RCTP 262000Z 06009KT 9000 FEW020 BKN070 BKN090 14/08 Q1022 NOSIG RMK A3019
RCTP,2017-02-26 20:30,57.20,46.40,67.12,60.00,9.00,0.00,30.18,M,5.59,M,FEW,BKN,BKN,M,2000.00,7000.00,9000.00,M,M,M,M,M,M,M,M,57.20,RCTP 262030Z 06009KT 9000 FEW020 BKN070 BKN090 14/08 Q1022 NOSIG RMK A3019
RCTP,2017-02-26 21:00,57.20,46.40,67.12,60.00,13.00,0.00,30.18,M,5.59,M,FEW,BKN,M,M,2000.00,6000.00,M,M,M,M,M,M,M,M,M,57.20,RCTP 262100Z 06013KT 9000 FEW020 BKN060 14/08 Q1022 NOSIG RMK A3020
RCTP,2017-02-26 21:30,57.20,46.40,67.12,60.00,14.00,0.00,30.18,M,5.59,M,FEW,BKN,M,M,2000.00,6000.00,M,M,M,M,M,M,M,M,M,57.20,RCTP 262130Z 06014KT 9000 FEW020 BKN060 14/08 Q1022 NOSIG RMK A3018
RCTP,2017-02-26 22:00,57.20,46.40,67.12,60.00,9.00,0.00,30.21,M,5.59,M,FEW,BKN,M,M,2000.00,6000.00,M,M,M,M,M,M,M,M,M,57.20,RCTP 262200Z 06009KT 9000 FEW020 BKN060 14/08 Q1023 NOSIG RMK A3021
RCTP,2017-02-26 22:30,57.20,46.40,67.12,60.00,9.00,0.00,30.21,M,5.59,M,FEW,BKN,M,M,2000.00,6000.00,M,M,M,M,M,M,M,M,M,57.20,RCTP 262230Z 06009KT 9000 FEW020 BKN060 14/08 Q1023 NOSIG RMK A3021
RCTP,2017-02-26 23:00,59.00,48.20,67.33,50.00,11.00,0.00,30.21,M,5.59,M,FEW,BKN,M,M,2000.00,6000.00,M,M,M,M,M,M,M,M,M,59.00,RCTP 262300Z 05011KT 9000 FEW020 BKN060 15/09 Q1023 NOSIG RMK A3022
RCTP,2017-02-26 23:30,59.00,48.20,67.33,50.00,13.00,0.00,30.21,M,5.59,M,FEW,BKN,M,M,2000.00,6000.00,M,M,M,M,M,M,M,M,M,59.00,RCTP 262330Z 05013KT 9000 FEW020 BKN060 15/09 Q1023 NOSIG RMK A3022
RCTP,2017-02-27 00:00,60.80,48.20,63.15,50.00,15.00,0.00,30.24,M,5.59,M,FEW,BKN,BKN,M,2000.00,5000.00,7000.00,M,M,M,M,M,M,M,M,60.80,RCTP 270000Z 05015KT 9000 FEW020 BKN050 BKN070 16/09 Q1024 NOSIG RMK A3024
RCTP,2017-02-27 00:30,60.80,48.20,63.15,60.00,15.00,0.00,30.24,M,6.21,M,FEW,BKN,BKN,M,2000.00,5000.00,7000.00,M,M,M,M,M,M,M,M,60.80,RCTP 270030Z 06015KT 9999 FEW020 BKN050 BKN070 16/09 Q1024 NOSIG RMK A3025
RCTP,2017-02-27 01:00,59.00,48.20,67.33,60.00,15.00,0.00,30.24,M,6.21,M,FEW,BKN,BKN,M,2000.00,5000.00,7000.00,M,M,M,M,M,M,M,M,59.00,RCTP 270100Z 06015KT 9999 FEW020 BKN050 BKN070 15/09 Q1024 NOSIG RMK A3026
RCTP,2017-02-27 01:30,60.80,48.20,63.15,50.00,16.00,0.00,30.24,M,6.21,M,FEW,BKN,BKN,M,2000.00,4500.00,7000.00,M,M,M,M,M,M,M,M,60.80,RCTP 270130Z 05016KT 9999 FEW020 BKN045 BKN070 16/09 Q1024 NOSIG RMK A3026
RCTP,2017-02-27 02:00,60.80,48.20,63.15,60.00,16.00,0.00,30.24,M,6.21,M,FEW,BKN,BKN,M,2000.00,4000.00,7000.00,M,M,M,M,M,M,M,M,60.80,RCTP 270200Z 06016KT 9999 FEW020 BKN040 BKN070 16/09 Q1024 NOSIG RMK A3025
RCTP,2017-02-27 02:30,60.80,48.20,63.15,60.00,15.00,0.00,30.24,M,6.21,M,FEW,BKN,BKN,M,2000.00,4000.00,7000.00,M,M,M,M,M,M,M,M,60.80,RCTP 270230Z 06015KT 9999 FEW020 BKN040 BKN070 16/09 Q1024 NOSIG RMK A3025
RCTP,2017-02-27 03:00,60.80,48.20,63.15,60.00,14.00,0.00,30.24,M,6.21,M,FEW,BKN,BKN,M,2000.00,4000.00,7000.00,M,M,M,M,M,M,M,M,60.80,RCTP 270300Z 06014KT 9999 FEW020 BKN040 BKN070 16/09 Q1024 NOSIG RMK A3026
RCTP,2017-02-27 03:30,60.80,48.20,63.15,60.00,15.00,0.00,30.24,M,6.21,M,FEW,BKN,BKN,M,2000.00,4000.00,7000.00,M,M,M,M,M,M,M,M,60.80,RCTP 270330Z 06015KT 9999 FEW020 BKN040 BKN070 16/09 Q1024 NOSIG RMK A3024
RCTP,2017-02-27 04:00,62.60,48.20,59.26,80.00,13.00,0.00,30.21,M,6.21,M,FEW,BKN,BKN,M,1800.00,2800.00,4500.00,M,M,M,M,M,M,M,M,62.60,RCTP 270400Z 08013KT 9999 FEW018 BKN028 BKN045 17/09 Q1023 NOSIG RMK A3022
RCTP,2017-02-27 04:30,60.80,48.20,63.15,60.00,13.00,0.00,30.21,M,6.21,M,FEW,SCT,BKN,M,1800.00,2800.00,4000.00,M,M,M,M,M,M,M,M,60.80,RCTP 270430Z 06013KT 9999 FEW018 SCT028 BKN040 16/09 Q1023 NOSIG RMK A3022
RCTP,2017-02-27 05:00,60.80,50.00,67.54,60.00,15.00,0.00,30.21,M,6.21,M,FEW,BKN,BKN,M,2000.00,3500.00,4500.00,M,M,M,M,M,M,M,M,60.80,RCTP 270500Z 06015KT 9999 FEW020 BKN035 BKN045 16/10 Q1023 NOSIG RMK A3021
RCTP,2017-02-27 05:30,60.80,50.00,67.54,60.00,16.00,0.00,30.18,M,6.21,M,FEW,BKN,M,M,2000.00,4000.00,M,M,M,M,M,M,M,M,M,60.80,RCTP 270530Z 06016KT 9999 FEW020 BKN040 16/10 Q1022 NOSIG RMK A3020
RCTP,2017-02-27 06:00,60.80,50.00,67.54,50.00,19.00,0.00,30.18,M,6.21,M,FEW,BKN,M,M,2000.00,4000.00,M,M,M,M,M,M,M,M,M,60.80,RCTP 270600Z 05019KT 9999 FEW020 BKN040 16/10 Q1022 NOSIG RMK A3020
RCTP,2017-02-27 06:30,60.80,48.20,63.15,60.00,18.00,0.00,30.18,M,6.21,M,BKN,OVC,M,M,3500.00,6000.00,M,M,M,M,M,M,M,M,M,60.80,RCTP 270630Z 06018KT 9999 BKN035 OVC060 16/09 Q1022 NOSIG RMK A3020
RCTP,2017-02-27 07:00,60.80,48.20,63.15,70.00,16.00,0.00,30.18,M,6.21,M,BKN,OVC,M,M,3500.00,6000.00,M,M,M,M,M,M,M,M,M,60.80,RCTP 270700Z 07016KT 9999 BKN035 OVC060 16/09 Q1022 NOSIG RMK A3020
RCTP,2017-02-27 07:30,60.80,50.00,67.54,80.00,13.00,0.00,30.21,M,6.21,M,BKN,OVC,M,M,3500.00,6000.00,M,M,M,M,M,M,M,M,M,60.80,RCTP 270730Z 08013KT 9999 BKN035 OVC060 16/10 Q1023 NOSIG RMK A3021
RCTP,2017-02-27 08:00,60.80,48.20,63.15,70.00,11.00,0.00,30.21,M,5.59,M,BKN,OVC,M,M,3500.00,6000.00,M,M,M,M,M,M,M,M,M,60.80,RCTP 270800Z 07011KT 9000 BKN035 OVC060 16/09 Q1023 NOSIG RMK A3022
RCTP,2017-02-27 08:30,60.80,50.00,67.54,70.00,13.00,0.00,30.21,M,5.59,M,BKN,OVC,M,M,3500.00,6000.00,M,M,M,M,M,M,M,M,M,60.80,RCTP 270830Z 07013KT 9000 BKN035 OVC060 16/10 Q1023 NOSIG RMK A3022
RCTP,2017-02-27 09:00,59.00,50.00,72.01,70.00,13.00,0.00,30.21,M,5.59,M,BKN,OVC,M,M,3200.00,6000.00,M,M,M,M,M,M,M,M,M,59.00,RCTP 270900Z 07013KT 9000 BKN032 OVC060 15/10 Q1023 NOSIG RMK A3023
RCTP,2017-02-27 09:30,59.00,50.00,72.01,80.00,11.00,0.00,30.24,M,5.59,M,SCT,OVC,M,M,3000.00,5000.00,M,M,M,M,M,M,M,M,M,59.00,RCTP 270930Z 08011KT 9000 SCT030 OVC050 15/10 Q1024 NOSIG RMK A3024
RCTP,2017-02-27 10:00,59.00,50.00,72.01,70.00,13.00,0.00,30.21,M,4.97,M,FEW,OVC,M,M,3000.00,4500.00,M,M,M,M,M,M,M,M,M,59.00,RCTP 271000Z 07013KT 8000 FEW030 OVC045 15/10 Q1023 NOSIG RMK A3023
RCTP,2017-02-27 10:30,59.00,50.00,72.01,70.00,13.00,0.00,30.21,M,4.97,M,FEW,OVC,M,M,3000.00,4500.00,M,M,M,M,M,M,M,M,M,59.00,RCTP 271030Z 07013KT 8000 FEW030 OVC045 15/10 Q1023 NOSIG RMK A3023
RCTP,2017-02-27 11:00,59.00,50.00,72.01,70.00,10.00,0.00,30.21,M,4.97,M,FEW,BKN,M,M,3000.00,5000.00,M,M,M,M,M,M,M,M,M,59.00,RCTP 271100Z 07010KT 8000 FEW030 BKN050 15/10 Q1023 NOSIG RMK A3023
RCTP,2017-02-27 11:30,59.00,50.00,72.01,70.00,12.00,0.00,30.21,M,4.97,M,FEW,SCT,BKN,M,1500.00,3500.00,5500.00,M,M,M,M,M,M,M,M,59.00,RCTP 271130Z 07012KT 8000 FEW015 SCT035 BKN055 15/10 Q1023 NOSIG RMK A3023
RCTP,2017-02-27 12:00,59.00,48.20,67.33,70.00,14.00,0.00,30.21,M,4.97,M,FEW,SCT,BKN,M,1500.00,3500.00,5500.00,M,M,M,M,M,M,M,M,59.00,RCTP 271200Z 07014KT 050V110 8000 FEW015 SCT035 BKN055 15/09 Q1023 NOSIG RMK A3023
RCTP,2017-02-27 12:30,59.00,48.20,67.33,70.00,13.00,0.00,30.21,M,4.97,M,FEW,SCT,BKN,M,1500.00,3500.00,5500.00,M,M,M,M,M,M,M,M,59.00,RCTP 271230Z 07013KT 8000 FEW015 SCT035 BKN055 15/09 Q1023 NOSIG RMK A3023
RCTP,2017-02-27 13:00,59.00,48.20,67.33,70.00,14.00,0.00,30.21,M,4.97,M,FEW,SCT,BKN,M,1500.00,3500.00,5500.00,M,M,M,M,M,M,M,M,59.00,RCTP 271300Z 07014KT 8000 FEW015 SCT035 BKN055 15/09 Q1023 NOSIG RMK A3023
RCTP,2017-02-27 13:30,60.80,48.20,63.15,70.00,11.00,0.00,30.21,M,4.97,M,FEW,SCT,BKN,M,1500.00,3500.00,5500.00,M,M,M,M,M,M,M,M,60.80,RCTP 271330Z 07011KT 8000 FEW015 SCT035 BKN055 16/09 Q1023 NOSIG RMK A3023
RCTP,2017-02-27 14:00,59.00,48.20,67.33,70.00,12.00,0.00,30.21,M,6.21,M,FEW,SCT,BKN,M,1500.00,3500.00,5500.00,M,M,M,M,M,M,M,M,59.00,RCTP 271400Z 07012KT 9999 FEW015 SCT035 BKN055 15/09 Q1023 NOSIG RMK A3023
RCTP,2017-02-27 14:30,60.80,48.20,63.15,70.00,15.00,0.00,30.21,M,6.21,M,FEW,SCT,BKN,M,1500.00,3500.00,5500.00,M,M,M,M,M,M,M,M,60.80,RCTP 271430Z 07015KT 9999 FEW015 SCT035 BKN055 16/09 Q1023 NOSIG RMK A3022
RCTP,2017-02-27 15:00,60.80,48.20,63.15,70.00,13.00,0.00,30.21,M,6.21,M,FEW,BKN,M,M,1500.00,5500.00,M,M,M,M,M,M,M,M,M,60.80,RCTP 271500Z 07013KT 9999 FEW015 BKN055 16/09 Q1023 NOSIG RMK A3021
RCTP,2017-02-27 15:30,60.80,48.20,63.15,70.00,15.00,0.00,30.21,M,6.21,M,FEW,BKN,M,M,1500.00,5500.00,M,M,M,M,M,M,M,M,M,60.80,RCTP 271530Z 07015KT 9999 FEW015 BKN055 16/09 Q1023 NOSIG RMK A3021
RCTP,2017-02-27 16:00,60.80,48.20,63.15,60.00,17.00,0.00,30.18,M,6.21,M,FEW,BKN,M,M,1500.00,5500.00,M,M,M,M,M,M,M,M,M,60.80,RCTP 271600Z 06017KT 9999 FEW015 BKN055 16/09 Q1022 NOSIG RMK A3020
RCTP,2017-02-27 16:30,60.80,50.00,67.54,60.00,17.00,0.00,30.18,M,6.21,M,FEW,BKN,M,M,1500.00,5000.00,M,M,M,M,M,M,M,M,M,60.80,RCTP 271630Z 06017KT 9999 FEW015 BKN050 16/10 Q1022 NOSIG RMK A3019
RCTP,2017-02-27 17:00,59.00,46.40,62.92,70.00,11.00,0.00,30.18,M,5.59,M,FEW,BKN,M,M,1500.00,5000.00,M,M,M,M,M,M,M,M,M,59.00,RCTP 271700Z 07011KT 9000 FEW015 BKN050 15/08 Q1022 NOSIG RMK A3018
RCTP,2017-02-27 17:30,60.80,46.40,59.01,50.00,12.00,0.00,30.18,M,5.59,M,FEW,SCT,BKN,M,1500.00,3500.00,5000.00,M,M,M,M,M,M,M,M,60.80,RCTP 271730Z 05012KT 9000 FEW015 SCT035 BKN050 16/08 Q1022 NOSIG RMK A3019
RCTP,2017-02-27 18:00,60.80,46.40,59.01,70.00,11.00,0.00,30.18,M,5.59,M,FEW,BKN,M,M,2500.00,5000.00,M,M,M,M,M,M,M,M,M,60.80,RCTP 271800Z 07011KT 9000 FEW025 BKN050 16/08 Q1022 NOSIG RMK A3018
RCTP,2017-02-27 18:30,60.80,48.20,63.15,60.00,10.00,0.00,30.18,M,4.97,M,SCT,BKN,M,M,2800.00,5000.00,M,M,M,M,M,M,M,M,M,60.80,RCTP 271830Z 06010KT 8000 SCT028 BKN050 16/09 Q1022 NOSIG RMK A3018
RCTP,2017-02-27 19:00,60.80,48.20,63.15,60.00,11.00,0.00,30.18,M,4.35,M,FEW,BKN,M,M,2800.00,5000.00,M,M,M,M,M,M,M,M,M,60.80,RCTP 271900Z 06011KT 7000 FEW028 BKN050 16/09 Q1022 NOSIG RMK A3018
RCTP,2017-02-27 19:30,60.80,48.20,63.15,60.00,9.00,0.00,30.15,M,3.73,M,FEW,BKN,M,M,2800.00,5000.00,M,M,M,M,M,M,M,M,M,60.80,RCTP 271930Z 06009KT 6000 FEW028 BKN050 16/09 Q1021 NOSIG RMK A3017
RCTP,2017-02-27 20:00,60.80,48.20,63.15,60.00,9.00,0.00,30.15,M,4.35,M,SCT,BKN,M,M,2600.00,5000.00,M,M,M,M,M,M,M,M,M,60.80,RCTP 272000Z 06009KT 7000 SCT026 BKN050 16/09 Q1021 NOSIG RMK A3017
RCTP,2017-02-27 20:30,60.80,48.20,63.15,60.00,7.00,0.00,30.15,M,4.35,M,SCT,BKN,M,M,2600.00,4500.00,M,M,M,M,M,M,M,M,M,60.80,RCTP 272030Z 06007KT 7000 SCT026 BKN045 16/09 Q1021 NOSIG RMK A3017
RCTP,2017-02-27 21:00,59.00,50.00,72.01,80.00,7.00,0.00,30.15,M,3.73,M,SCT,BKN,M,M,2400.00,4000.00,M,M,M,M,M,M,M,M,M,59.00,RCTP 272100Z 08007KT 6000 SCT024 BKN040 15/10 Q1021 NOSIG RMK A3017
RCTP,2017-02-27 21:30,59.00,50.00,72.01,60.00,9.00,0.00,30.18,M,3.73,M,FEW,BKN,M,M,2000.00,2800.00,M,M,M,M,M,M,M,M,M,59.00,RCTP 272130Z 06009KT 6000 FEW020 BKN028 15/10 Q1022 NOSIG RMK A3018
RCTP,2017-02-27 22:00,59.00,53.60,82.25,60.00,12.00,0.00,30.18,M,3.73,M,FEW,BKN,M,M,1600.00,2800.00,M,M,M,M,M,M,M,M,M,59.00,RCTP 272200Z 06012KT 6000 FEW016 BKN028 15/12 Q1022 NOSIG RMK A3019
RCTP,2017-02-27 22:30,59.00,53.60,82.25,60.00,8.00,0.00,30.18,M,3.73,M,FEW,BKN,M,M,1600.00,2800.00,M,M,M,M,M,M,M,M,M,59.00,RCTP 272230Z 06008KT 6000 FEW016 BKN028 15/12 Q1022 NOSIG RMK A3020
RCTP,2017-02-27 22:47,59.00,53.60,82.25,40.00,12.00,0.00,30.18,M,3.11,M,FEW,BKN,M,M,1400.00,2600.00,M,M,BR,M,M,M,M,M,M,59.00,RCTP 272247Z 04012KT 5000 BR FEW014 BKN026 15/12 Q1022 NOSIG RMK A3020
RCTP,2017-02-27 23:00,59.00,53.60,82.25,50.00,15.00,0.00,30.18,M,4.35,M,FEW,BKN,M,M,1600.00,2600.00,M,M,M,M,M,M,M,M,M,59.00,RCTP 272300Z 05015KT 7000 FEW016 BKN026 15/12 Q1022 NOSIG RMK A3020
RCTP,2017-02-27 23:20,59.00,53.60,82.25,50.00,17.00,0.00,30.21,M,4.35,M,FEW,BKN,M,M,1600.00,2800.00,M,M,M,M,M,M,M,M,M,59.00,RCTP 272320Z 05017KT 7000 FEW016 BKN028 15/12 Q1023 WS ALL RWY NOSIG RMK A3021
RCTP,2017-02-27 23:24,59.00,53.60,82.25,40.00,16.00,0.00,30.21,M,3.73,M,FEW,BKN,M,M,1600.00,2800.00,M,M,-RA,M,M,M,M,M,M,59.00,RCTP 272324Z 04016KT 6000 -RA FEW016 BKN028 15/12 Q1023 WS ALL RWY NOSIG RMK A3021
RCTP,2017-02-27 23:30,59.00,53.60,82.25,40.00,15.00,0.00,30.21,M,3.73,M,FEW,OVC,M,M,1400.00,2500.00,M,M,-RA,M,M,M,M,M,M,59.00,RCTP 272330Z 04015KT 6000 -RA FEW014 OVC025 15/12 Q1023 WS ALL RWY NOSIG RMK A3021
