station,valid,lon,lat,tmpf,dwpf,relh,drct,sknt,p01i,alti,mslp,vsby,gust,skyc1,skyc2,skyc3,skyc4,skyl1,skyl2,skyl3,skyl4,wxcodes,ice_accretion_1hr,ice_accretion_3hr,ice_accretion_6hr,peak_wind_gust,peak_wind_drct,peak_wind_time,feel,metar
VHHH,2016-12-31 00:00,113.9219,22.3094,60.80,50.00,67.54,110.00,4.00,0.00,30.24,M,4.97,M,FEW,M,M,M,4500.00,M,M,M,M,M,M,M,M,M,M,60.80,VHHH 310000Z 11004KT 8000 FEW045 16/10 Q1024 NOSIG
VHHH,2016-12-31 00:30,113.9219,22.3094,64.40,51.80,63.60,M,2.00,0.00,30.24,M,4.97,M,FEW,M,M,M,4500.00,M,M,M,M,M,M,M,M,M,M,64.40,VHHH 310030Z VRB02KT 8000 FEW045 18/11 Q1024 NOSIG
VHHH,2016-12-31 01:00,113.9219,22.3094,64.40,51.80,63.60,50.00,5.00,0.00,30.27,M,4.97,M,FEW,M,M,M,4500.00,M,M,M,M,M,M,M,M,M,M,64.40,VHHH 310100Z 05005KT 8000 FEW045 18/11 Q1025 NOSIG
VHHH,2016-12-31 01:30,113.9219,22.3094,64.40,48.20,55.63,40.00,5.00,0.00,30.27,M,5.59,M,FEW,M,M,M,4500.00,M,M,M,M,M,M,M,M,M,M,64.40,VHHH 310130Z 04005KT 9000 FEW045 18/09 Q1025 NOSIG
VHHH,2016-12-31 02:00,113.9219,22.3094,66.20,48.20,52.25,30.00,4.00,0.00,30.27,M,6.21,M,FEW,M,M,M,4500.00,M,M,M,M,M,M,M,M,M,M,66.20,VHHH 310200Z 03004KT 9999 FEW045 19/09 Q1025 NOSIG
VHHH,2016-12-31 02:30,113.9219,22.3094,66.20,50.00,55.88,350.00,6.00,0.00,30.27,M,6.21,M,FEW,M,M,M,4500.00,M,M,M,M,M,M,M,M,M,M,66.20,VHHH 310230Z 35006KT 9999 FEW045 19/10 Q1025 NOSIG
VHHH,2016-12-31 03:00,113.9219,22.3094,68.00,50.00,52.51,350.00,7.00,0.00,30.27,M,6.21,M,FEW,M,M,M,4500.00,M,M,M,M,M,M,M,M,M,M,68.00,VHHH 310300Z 35007KT 9999 FEW045 20/10 Q1025 NOSIG
VHHH,2016-12-31 03:30,113.9219,22.3094,66.20,50.00,55.88,350.00,8.00,0.00,30.24,M,6.21,M,FEW,M,M,M,4500.00,M,M,M,M,M,M,M,M,M,M,66.20,VHHH 310330Z 35008KT 9999 FEW045 19/10 Q1024 NOSIG
VHHH,2016-12-31 04:00,113.9219,22.3094,68.00,50.00,52.51,350.00,10.00,0.00,30.21,M,6.21,M,FEW,M,M,M,4500.00,M,M,M,M,M,M,M,M,M,M,68.00,VHHH 310400Z 35010KT 9999 FEW045 20/10 Q1023 NOSIG
VHHH,2016-12-31 04:30,113.9219,22.3094,68.00,48.20,49.10,330.00,10.00,0.00,30.21,M,6.21,M,FEW,M,M,M,4500.00,M,M,M,M,M,M,M,M,M,M,68.00,VHHH 310430Z 33010KT 9999 FEW045 20/09 Q1023 NOSIG
VHHH,2016-12-31 05:00,113.9219,22.3094,68.00,50.00,52.51,330.00,10.00,0.00,30.18,M,4.97,M,FEW,M,M,M,4500.00,M,M,M,M,M,M,M,M,M,M,68.00,VHHH 310500Z 33010KT 8000 FEW045 20/10 Q1022 NOSIG
VHHH,2016-12-31 05:30,113.9219,22.3094,68.00,48.20,49.10,320.00,10.00,0.00,30.18,M,4.97,M,FEW,M,M,M,4500.00,M,M,M,M,M,M,M,M,M,M,68.00,VHHH 310530Z 32010KT 8000 FEW045 20/09 Q1022 NOSIG
VHHH,2016-12-31 06:00,113.9219,22.3094,68.00,50.00,52.51,300.00,9.00,0.00,30.15,M,4.35,M,FEW,M,M,M,4500.00,M,M,M,M,M,M,M,M,M,M,68.00,VHHH 310600Z 30009KT 7000 FEW045 20/10 Q1021 NOSIG
VHHH,2016-12-31 06:30,113.9219,22.3094,69.80,50.00,49.37,280.00,7.00,0.00,30.15,M,4.35,M,FEW,M,M,M,4500.00,M,M,M,M,M,M,M,M,M,M,69.80,VHHH 310630Z 28007KT 7000 FEW045 21/10 Q1021 NOSIG
VHHH,2016-12-31 07:00,113.9219,22.3094,69.80,50.00,49.37,300.00,7.00,0.00,30.15,M,4.35,M,FEW,M,M,M,4500.00,M,M,M,M,M,M,M,M,M,M,69.80,VHHH 310700Z 30007KT 7000 FEW045 21/10 Q1021 NOSIG
VHHH,2016-12-31 07:30,113.9219,22.3094,69.80,48.20,46.16,300.00,4.00,0.00,30.15,M,4.35,M,FEW,M,M,M,4500.00,M,M,M,M,M,M,M,M,M,M,69.80,VHHH 310730Z 30004KT 7000 FEW045 21/09 Q1021 NOSIG
VHHH,2016-12-31 08:00,113.9219,22.3094,69.80,48.20,46.16,260.00,5.00,0.00,30.12,M,4.97,M,FEW,M,M,M,4500.00,M,M,M,M,M,M,M,M,M,M,69.80,VHHH 310800Z 26005KT 8000 FEW045 21/09 Q1020 NOSIG
VHHH,2016-12-31 08:30,113.9219,22.3094,69.80,48.20,46.16,260.00,4.00,0.00,30.15,M,4.97,M,FEW,M,M,M,4500.00,M,M,M,M,M,M,M,M,M,M,69.80,VHHH 310830Z 26004KT 8000 FEW045 21/09 Q1021 NOSIG
VHHH,2016-12-31 09:00,113.9219,22.3094,68.00,48.20,49.10,230.00,5.00,0.00,30.15,M,4.97,M,FEW,M,M,M,4500.00,M,M,M,M,M,M,M,M,M,M,68.00,VHHH 310900Z 23005KT 8000 FEW045 20/09 Q1021 NOSIG
VHHH,2016-12-31 09:30,113.9219,22.3094,68.00,50.00,52.51,240.00,6.00,0.00,30.15,M,4.97,M,FEW,M,M,M,4500.00,M,M,M,M,M,M,M,M,M,M,68.00,VHHH 310930Z 24006KT 8000 FEW045 20/10 Q1021 NOSIG
VHHH,2016-12-31 10:00,113.9219,22.3094,68.00,50.00,52.51,M,3.00,0.00,30.15,M,5.59,M,FEW,M,M,M,4500.00,M,M,M,M,M,M,M,M,M,M,68.00,VHHH 311000Z VRB03KT 9000 FEW045 20/10 Q1021 NOSIG
VHHH,2016-12-31 10:30,113.9219,22.3094,68.00,51.80,56.13,190.00,3.00,0.00,30.15,M,5.59,M,FEW,M,M,M,4500.00,M,M,M,M,M,M,M,M,M,M,68.00,VHHH 311030Z 19003KT 100V240 9000 FEW045 20/11 Q1021 NOSIG
VHHH,2016-12-31 11:00,113.9219,22.3094,66.20,51.80,59.74,M,4.00,0.00,30.15,M,5.59,M,FEW,M,M,M,4500.00,M,M,M,M,M,M,M,M,M,M,66.20,VHHH 311100Z VRB04KT 9000 FEW045 19/11 Q1021 NOSIG
VHHH,2016-12-31 11:30,113.9219,22.3094,68.00,53.60,59.97,110.00,7.00,0.00,30.15,M,5.59,M,FEW,M,M,M,4500.00,M,M,M,M,M,M,M,M,M,M,68.00,VHHH 311130Z 11007KT 090V190 9000 FEW045 20/12 Q1021 NOSIG
VHHH,2016-12-31 12:00,113.9219,22.3094,68.00,55.40,64.04,110.00,9.00,0.00,30.18,M,6.21,M,FEW,M,M,M,4500.00,M,M,M,M,M,M,M,M,M,M,68.00,VHHH 311200Z 11009KT 9999 FEW045 20/13 Q1022 NOSIG
VHHH,2016-12-31 12:30,113.9219,22.3094,68.00,57.20,68.35,110.00,10.00,0.00,30.18,M,6.21,M,FEW,M,M,M,4500.00,M,M,M,M,M,M,M,M,M,M,68.00,VHHH 311230Z 11010KT 9999 FEW045 20/14 Q1022 NOSIG
VHHH,2016-12-31 13:00,113.9219,22.3094,66.20,59.00,77.60,100.00,9.00,0.00,30.18,M,6.21,M,FEW,M,M,M,4500.00,M,M,M,M,M,M,M,M,M,M,66.20,VHHH 311300Z 10009KT 9999 FEW045 19/15 Q1022 NOSIG
VHHH,2016-12-31 13:30,113.9219,22.3094,66.20,59.00,77.60,90.00,10.00,0.00,30.18,M,6.21,M,FEW,M,M,M,4500.00,M,M,M,M,M,M,M,M,M,M,66.20,VHHH 311330Z 09010KT 9999 FEW045 19/15 Q1022 NOSIG
VHHH,2016-12-31 14:00,113.9219,22.3094,66.20,59.00,77.60,110.00,10.00,0.00,30.18,M,6.21,M,FEW,M,M,M,4500.00,M,M,M,M,M,M,M,M,M,M,66.20,VHHH 311400Z 11010KT 9999 FEW045 19/15 Q1022 NOSIG
VHHH,2016-12-31 14:30,113.9219,22.3094,66.20,59.00,77.60,100.00,10.00,0.00,30.18,M,6.21,M,FEW,M,M,M,4500.00,M,M,M,M,M,M,M,M,M,M,66.20,VHHH 311430Z 10010KT 070V130 9999 FEW045 19/15 Q1022 NOSIG
VHHH,2016-12-31 15:00,113.9219,22.3094,66.20,59.00,77.60,110.00,10.00,0.00,30.18,M,6.21,M,FEW,M,M,M,2500.00,M,M,M,M,M,M,M,M,M,M,66.20,VHHH 311500Z 11010KT 9999 FEW025 19/15 Q1022 NOSIG
VHHH,2016-12-31 15:30,113.9219,22.3094,68.00,59.00,72.92,110.00,10.00,0.00,30.18,M,6.21,M,FEW,M,M,M,2200.00,M,M,M,M,M,M,M,M,M,M,68.00,VHHH 311530Z 11010KT 090V160 9999 FEW022 20/15 Q1022 NOSIG
VHHH,2016-12-31 16:00,113.9219,22.3094,68.00,59.00,72.92,110.00,9.00,0.00,30.21,M,6.21,M,FEW,M,M,M,2200.00,M,M,M,M,M,M,M,M,M,M,68.00,VHHH 311600Z 11009KT 080V160 9999 FEW022 20/15 Q1023 NOSIG
VHHH,2016-12-31 16:30,113.9219,22.3094,68.00,59.00,72.92,110.00,10.00,0.00,30.21,M,6.21,M,FEW,SCT,M,M,1800.00,2200.00,M,M,M,M,M,M,M,M,M,68.00,VHHH 311630Z 11010KT 9999 FEW018 SCT022 20/15 Q1023 NOSIG
VHHH,2016-12-31 17:00,113.9219,22.3094,68.00,59.00,72.92,110.00,10.00,0.00,30.21,M,6.21,M,FEW,SCT,M,M,1800.00,2200.00,M,M,M,M,M,M,M,M,M,68.00,VHHH 311700Z 11010KT 9999 FEW018 SCT022 20/15 Q1023 NOSIG
VHHH,2016-12-31 17:30,113.9219,22.3094,68.00,59.00,72.92,90.00,7.00,0.00,30.18,M,6.21,M,FEW,SCT,M,M,1800.00,2200.00,M,M,M,M,M,M,M,M,M,68.00,VHHH 311730Z 09007KT 050V120 9999 FEW018 SCT022 20/15 Q1022 NOSIG
VHHH,2016-12-31 18:00,113.9219,22.3094,68.00,59.00,72.92,90.00,9.00,0.00,30.18,M,6.21,M,FEW,SCT,M,M,1800.00,2200.00,M,M,M,M,M,M,M,M,M,68.00,VHHH 311800Z 09009KT 9999 FEW018 SCT022 20/15 Q1022 NOSIG
VHHH,2016-12-31 18:30,113.9219,22.3094,66.20,57.20,72.74,80.00,9.00,0.00,30.18,M,6.21,M,FEW,SCT,M,M,1800.00,2200.00,M,M,M,M,M,M,M,M,M,66.20,VHHH 311830Z 08009KT 9999 FEW018 SCT022 19/14 Q1022 NOSIG
VHHH,2016-12-31 19:00,113.9219,22.3094,66.20,57.20,72.74,80.00,11.00,0.00,30.18,M,6.21,M,FEW,SCT,M,M,1800.00,2200.00,M,M,M,M,M,M,M,M,M,66.20,VHHH 311900Z 08011KT 9999 FEW018 SCT022 19/14 Q1022 NOSIG
VHHH,2016-12-31 19:30,113.9219,22.3094,66.20,57.20,72.74,90.00,10.00,0.00,30.18,M,6.21,M,FEW,SCT,M,M,1800.00,2200.00,M,M,M,M,M,M,M,M,M,66.20,VHHH 311930Z 09010KT 9999 FEW018 SCT022 19/14 Q1022 NOSIG
VHHH,2016-12-31 20:00,113.9219,22.3094,66.20,59.00,77.60,90.00,14.00,0.00,30.15,M,6.21,M,FEW,SCT,M,M,1800.00,2200.00,M,M,M,M,M,M,M,M,M,66.20,VHHH 312000Z 09014KT 9999 FEW018 SCT022 19/15 Q1021 NOSIG
VHHH,2016-12-31 20:30,113.9219,22.3094,66.20,59.00,77.60,90.00,13.00,0.00,30.15,M,6.21,M,FEW,SCT,M,M,1800.00,2200.00,M,M,M,M,M,M,M,M,M,66.20,VHHH 312030Z 09013KT 9999 FEW018 SCT022 19/15 Q1021 NOSIG
VHHH,2016-12-31 21:00,113.9219,22.3094,66.20,59.00,77.60,90.00,13.00,0.00,30.15,M,6.21,M,FEW,SCT,M,M,1800.00,2200.00,M,M,M,M,M,M,M,M,M,66.20,VHHH 312100Z 09013KT 9999 FEW018 SCT022 19/15 Q1021 NOSIG
VHHH,2016-12-31 21:30,113.9219,22.3094,66.20,57.20,72.74,90.00,11.00,0.00,30.15,M,6.21,M,FEW,SCT,M,M,1800.00,2200.00,M,M,M,M,M,M,M,M,M,66.20,VHHH 312130Z 09011KT 9999 FEW018 SCT022 19/14 Q1021 NOSIG
VHHH,2016-12-31 22:00,113.9219,22.3094,66.20,57.20,72.74,90.00,13.00,0.00,30.15,M,6.21,M,FEW,SCT,M,M,2000.00,2500.00,M,M,M,M,M,M,M,M,M,66.20,VHHH 312200Z 09013KT 9999 FEW020 SCT025 19/14 Q1021 NOSIG
VHHH,2016-12-31 22:30,113.9219,22.3094,66.20,57.20,72.74,80.00,12.00,0.00,30.18,M,6.21,M,FEW,SCT,M,M,2000.00,2500.00,M,M,M,M,M,M,M,M,M,66.20,VHHH 312230Z 08012KT 9999 FEW020 SCT025 19/14 Q1022 NOSIG
VHHH,2016-12-31 23:00,113.9219,22.3094,68.00,57.20,68.35,90.00,12.00,0.00,30.18,M,6.21,M,FEW,SCT,M,M,2000.00,2500.00,M,M,M,M,M,M,M,M,M,68.00,VHHH 312300Z 09012KT 9999 FEW020 SCT025 20/14 Q1022 NOSIG
VHHH,2016-12-31 23:30,113.9219,22.3094,68.00,57.20,68.35,90.00,12.00,0.00,30.18,M,6.21,M,FEW,SCT,M,M,2000.00,2500.00,M,M,M,M,M,M,M,M,M,68.00,VHHH 312330Z 09012KT 9999 FEW020 SCT025 20/14 Q1022 NOSIG
VHHH,2017-01-01 00:00,113.9219,22.3094,68.00,57.20,68.35,80.00,11.00,0.00,30.18,M,6.21,M,FEW,SCT,M,M,2200.00,2800.00,M,M,M,M,M,M,M,M,M,68.00,VHHH 010000Z 08011KT 9999 FEW022 SCT028 20/14 Q1022 NOSIG
VHHH,2017-01-01 00:30,113.9219,22.3094,68.00,57.20,68.35,90.00,11.00,0.00,30.21,M,6.21,M,FEW,SCT,M,M,2200.00,2800.00,M,M,M,M,M,M,M,M,M,68.00,VHHH 010030Z 09011KT 9999 FEW022 SCT028 20/14 Q1023 NOSIG
VHHH,2017-01-01 01:00,113.9219,22.3094,68.00,57.20,68.35,100.00,10.00,0.00,30.21,M,6.21,M,FEW,SCT,M,M,2200.00,2800.00,M,M,M,M,M,M,M,M,M,68.00,VHHH 010100Z 10010KT 070V130 9999 FEW022 SCT028 20/14 Q1023 NOSIG
VHHH,2017-01-01 01:30,113.9219,22.3094,69.80,57.20,64.26,90.00,12.00,0.00,30.21,M,6.21,M,FEW,SCT,M,M,2200.00,2800.00,M,M,M,M,M,M,M,M,M,69.80,VHHH 010130Z 09012KT 9999 FEW022 SCT028 21/14 Q1023 NOSIG
VHHH,2017-01-01 02:00,113.9219,22.3094,69.80,57.20,64.26,80.00,10.00,0.00,30.21,M,6.21,M,FEW,SCT,M,M,2200.00,2800.00,M,M,M,M,M,M,M,M,M,69.80,VHHH 010200Z 08010KT 9999 FEW022 SCT028 21/14 Q1023 NOSIG
VHHH,2017-01-01 02:30,113.9219,22.3094,71.60,57.20,60.44,110.00,13.00,0.00,30.21,M,6.21,M,FEW,SCT,M,M,2200.00,2800.00,M,M,M,M,M,M,M,M,M,71.60,VHHH 010230Z 11013KT 9999 FEW022 SCT028 22/14 Q1023 NOSIG
VHHH,2017-01-01 03:00,113.9219,22.3094,71.60,57.20,60.44,110.00,14.00,0.00,30.21,M,6.21,M,FEW,SCT,M,M,2200.00,3000.00,M,M,M,M,M,M,M,M,M,71.60,VHHH 010300Z 11014KT 9999 FEW022 SCT030 22/14 Q1023 NOSIG
VHHH,2017-01-01 03:30,113.9219,22.3094,71.60,57.20,60.44,110.00,15.00,0.00,30.21,M,6.21,M,FEW,SCT,M,M,2400.00,3500.00,M,M,M,M,M,M,M,M,M,71.60,VHHH 010330Z 11015KT 9999 FEW024 SCT035 22/14 Q1023 NOSIG
VHHH,2017-01-01 04:00,113.9219,22.3094,69.80,57.20,64.26,110.00,11.00,0.00,30.18,M,6.21,M,FEW,SCT,M,M,2200.00,3500.00,M,M,M,M,M,M,M,M,M,69.80,VHHH 010400Z 11011KT 080V140 9999 FEW022 SCT035 21/14 Q1022 NOSIG
VHHH,2017-01-01 04:30,113.9219,22.3094,69.80,57.20,64.26,130.00,8.00,0.00,30.18,M,6.21,M,FEW,SCT,M,M,2200.00,3500.00,M,M,M,M,M,M,M,M,M,69.80,VHHH 010430Z 13008KT 090V170 9999 FEW022 SCT035 21/14 Q1022 NOSIG
VHHH,2017-01-01 05:00,113.9219,22.3094,71.60,57.20,60.44,110.00,6.00,0.00,30.15,M,6.21,M,FEW,SCT,M,M,2200.00,3500.00,M,M,M,M,M,M,M,M,M,71.60,VHHH 010500Z 11006KT 060V200 9999 FEW022 SCT035 22/14 Q1021 NOSIG
VHHH,2017-01-01 05:30,113.9219,22.3094,71.60,57.20,60.44,60.00,5.00,0.00,30.15,M,6.21,M,FEW,SCT,M,M,2200.00,3500.00,M,M,M,M,M,M,M,M,M,71.60,VHHH 010530Z 06005KT 030V090 9999 FEW022 SCT035 22/14 Q1021 NOSIG
VHHH,2017-01-01 06:00,113.9219,22.3094,73.40,57.20,56.88,130.00,5.00,0.00,30.12,M,6.21,M,FEW,SCT,M,M,2200.00,3500.00,M,M,M,M,M,M,M,M,M,73.40,VHHH 010600Z 13005KT 080V210 9999 FEW022 SCT035 23/14 Q1020 NOSIG
VHHH,2017-01-01 06:30,113.9219,22.3094,75.20,57.20,53.55,120.00,7.00,0.00,30.12,M,6.21,M,FEW,SCT,M,M,2200.00,3500.00,M,M,M,M,M,M,M,M,M,75.20,VHHH 010630Z 12007KT 060V180 9999 FEW022 SCT035 24/14 Q1020 NOSIG
VHHH,2017-01-01 07:00,113.9219,22.3094,71.60,59.00,64.48,260.00,10.00,0.00,30.09,M,6.21,M,FEW,SCT,M,M,2200.00,3500.00,M,M,M,M,M,M,M,M,M,71.60,VHHH 010700Z 26010KT 9999 FEW022 SCT035 22/15 Q1019 NOSIG
VHHH,2017-01-01 07:30,113.9219,22.3094,71.60,59.00,64.48,270.00,8.00,0.00,30.09,M,6.21,M,FEW,SCT,M,M,2200.00,3500.00,M,M,M,M,M,M,M,M,M,71.60,VHHH 010730Z 27008KT 9999 FEW022 SCT035 22/15 Q1019 NOSIG
VHHH,2017-01-01 08:00,113.9219,22.3094,69.80,59.00,68.55,270.00,7.00,0.00,30.09,M,6.21,M,FEW,SCT,M,M,2200.00,3500.00,M,M,M,M,M,M,M,M,M,69.80,VHHH 010800Z 27007KT 9999 FEW022 SCT035 21/15 Q1019 NOSIG
VHHH,2017-01-01 08:30,113.9219,22.3094,69.80,59.00,68.55,270.00,7.00,0.00,30.09,M,6.21,M,FEW,SCT,M,M,2200.00,3500.00,M,M,M,M,M,M,M,M,M,69.80,VHHH 010830Z 27007KT 9999 FEW022 SCT035 21/15 Q1019 NOSIG
VHHH,2017-01-01 09:00,113.9219,22.3094,69.80,59.00,68.55,270.00,6.00,0.00,30.09,M,6.21,M,FEW,SCT,M,M,2200.00,3500.00,M,M,M,M,M,M,M,M,M,69.80,VHHH 010900Z 27006KT 9999 FEW022 SCT035 21/15 Q1019 NOSIG
VHHH,2017-01-01 09:30,113.9219,22.3094,69.80,59.00,68.55,280.00,4.00,0.00,30.09,M,6.21,M,FEW,SCT,M,M,2200.00,3500.00,M,M,M,M,M,M,M,M,M,69.80,VHHH 010930Z 28004KT 9999 FEW022 SCT035 21/15 Q1019 NOSIG
VHHH,2017-01-01 10:00,113.9219,22.3094,69.80,59.00,68.55,290.00,4.00,0.00,30.12,M,6.21,M,FEW,SCT,M,M,2200.00,3500.00,M,M,M,M,M,M,M,M,M,69.80,VHHH 011000Z 29004KT 9999 FEW022 SCT035 21/15 Q1020 NOSIG
VHHH,2017-01-01 10:30,113.9219,22.3094,69.80,59.00,68.55,290.00,3.00,0.00,30.12,M,6.21,M,FEW,SCT,M,M,2200.00,3500.00,M,M,M,M,M,M,M,M,M,69.80,VHHH 011030Z 29003KT 9999 FEW022 SCT035 21/15 Q1020 NOSIG
VHHH,2017-01-01 11:00,113.9219,22.3094,69.80,59.00,68.55,330.00,4.00,0.00,30.12,M,6.21,M,FEW,SCT,M,M,2200.00,3500.00,M,M,M,M,M,M,M,M,M,69.80,VHHH 011100Z 33004KT 9999 FEW022 SCT035 21/15 Q1020 NOSIG
VHHH,2017-01-01 11:30,113.9219,22.3094,69.80,60.80,73.09,340.00,3.00,0.00,30.15,M,6.21,M,FEW,SCT,M,M,2500.00,4000.00,M,M,M,M,M,M,M,M,M,69.80,VHHH 011130Z 34003KT 9999 FEW025 SCT040 21/16 Q1021 NOSIG
VHHH,2017-01-01 12:00,113.9219,22.3094,69.80,59.00,68.55,30.00,3.00,0.00,30.15,M,5.59,M,FEW,M,M,M,2500.00,M,M,M,M,M,M,M,M,M,M,69.80,VHHH 011200Z 03003KT 9000 FEW025 21/15 Q1021 NOSIG
VHHH,2017-01-01 12:30,113.9219,22.3094,69.80,60.80,73.09,50.00,4.00,0.00,30.15,M,5.59,M,FEW,M,M,M,2500.00,M,M,M,M,M,M,M,M,M,M,69.80,VHHH 011230Z 05004KT 9000 FEW025 21/16 Q1021 NOSIG
VHHH,2017-01-01 13:00,113.9219,22.3094,69.80,60.80,73.09,70.00,6.00,0.00,30.15,M,6.21,M,FEW,M,M,M,2500.00,M,M,M,M,M,M,M,M,M,M,69.80,VHHH 011300Z 07006KT 9999 FEW025 21/16 Q1021 NOSIG
VHHH,2017-01-01 13:30,113.9219,22.3094,71.60,60.80,68.75,100.00,7.00,0.00,30.15,M,6.21,M,FEW,M,M,M,2500.00,M,M,M,M,M,M,M,M,M,M,71.60,VHHH 011330Z 10007KT 060V140 9999 FEW025 22/16 Q1021 NOSIG
VHHH,2017-01-01 14:00,113.9219,22.3094,68.00,60.80,77.75,80.00,8.00,0.00,30.15,M,6.21,M,FEW,M,M,M,2500.00,M,M,M,M,M,M,M,M,M,M,68.00,VHHH 011400Z 08008KT 9999 FEW025 20/16 Q1021 NOSIG
VHHH,2017-01-01 14:30,113.9219,22.3094,68.00,60.80,77.75,90.00,6.00,0.00,30.15,M,6.21,M,M,M,M,M,M,M,M,M,M,M,M,M,M,M,M,68.00,VHHH 011430Z 09006KT CAVOK 20/16 Q1021 NOSIG
VHHH,2017-01-01 15:00,113.9219,22.3094,68.00,60.80,77.75,100.00,8.00,0.00,30.15,M,6.21,M,M,M,M,M,M,M,M,M,M,M,M,M,M,M,M,68.00,VHHH 011500Z 10008KT CAVOK 20/16 Q1021 NOSIG
VHHH,2017-01-01 15:30,113.9219,22.3094,66.20,59.00,77.60,130.00,6.00,0.00,30.15,M,6.21,M,M,M,M,M,M,M,M,M,M,M,M,M,M,M,M,66.20,VHHH 011530Z 13006KT 110V170 CAVOK 19/15 Q1021 NOSIG
VHHH,2017-01-01 16:00,113.9219,22.3094,68.00,60.80,77.75,120.00,6.00,0.00,30.15,M,6.21,M,M,M,M,M,M,M,M,M,M,M,M,M,M,M,M,68.00,VHHH 011600Z 12006KT 090V160 CAVOK 20/16 Q1021 NOSIG
VHHH,2017-01-01 16:30,113.9219,22.3094,66.20,60.80,82.74,80.00,6.00,0.00,30.15,M,6.21,M,M,M,M,M,M,M,M,M,M,M,M,M,M,M,M,66.20,VHHH 011630Z 08006KT CAVOK 19/16 Q1021 NOSIG
VHHH,2017-01-01 17:00,113.9219,22.3094,68.00,60.80,77.75,90.00,5.00,0.00,30.15,M,6.21,M,M,M,M,M,M,M,M,M,M,M,M,M,M,M,M,68.00,VHHH 011700Z 09005KT 060V120 CAVOK 20/16 Q1021 NOSIG
VHHH,2017-01-01 17:30,113.9219,22.3094,68.00,59.00,72.92,50.00,4.00,0.00,30.12,M,6.21,M,M,M,M,M,M,M,M,M,M,M,M,M,M,M,M,68.00,VHHH 011730Z 05004KT CAVOK 20/15 Q1020 NOSIG
VHHH,2017-01-01 18:00,113.9219,22.3094,66.20,60.80,82.74,90.00,8.00,0.00,30.12,M,6.21,M,M,M,M,M,M,M,M,M,M,M,M,M,M,M,M,66.20,VHHH 011800Z 09008KT CAVOK 19/16 Q1020 NOSIG
VHHH,2017-01-01 18:30,113.9219,22.3094,66.20,62.60,88.18,70.00,7.00,0.00,30.12,M,5.59,M,NSC,M,M,M,M,M,M,M,M,M,M,M,M,M,M,66.20,VHHH 011830Z 07007KT 9000 NSC 19/17 Q1020 NOSIG
VHHH,2017-01-01 19:00,113.9219,22.3094,66.20,62.60,88.18,80.00,6.00,0.00,30.12,M,5.59,M,NSC,M,M,M,M,M,M,M,M,M,M,M,M,M,M,66.20,VHHH 011900Z 08006KT 9000 NSC 19/17 Q1020 NOSIG
VHHH,2017-01-01 19:30,113.9219,22.3094,66.20,60.80,82.74,70.00,5.00,0.00,30.12,M,5.59,M,NSC,M,M,M,M,M,M,M,M,M,M,M,M,M,M,66.20,VHHH 011930Z 07005KT 9000 NSC 19/16 Q1020 NOSIG
VHHH,2017-01-01 20:00,113.9219,22.3094,66.20,60.80,82.74,80.00,7.00,0.00,30.09,M,6.21,M,M,M,M,M,M,M,M,M,M,M,M,M,M,M,M,66.20,VHHH 012000Z 08007KT CAVOK 19/16 Q1019 NOSIG
VHHH,2017-01-01 20:30,113.9219,22.3094,66.20,60.80,82.74,50.00,7.00,0.00,30.12,M,5.59,M,NSC,M,M,M,M,M,M,M,M,M,M,M,M,M,M,66.20,VHHH 012030Z 05007KT 9000 NSC 19/16 Q1020 NOSIG
VHHH,2017-01-01 21:00,113.9219,22.3094,66.20,62.60,88.18,50.00,5.00,0.00,30.09,M,5.59,M,NSC,M,M,M,M,M,M,M,M,M,M,M,M,M,M,66.20,VHHH 012100Z 05005KT 9000 NSC 19/17 Q1019 NOSIG
VHHH,2017-01-01 21:30,113.9219,22.3094,66.20,60.80,82.74,40.00,5.00,0.00,30.12,M,6.21,M,M,M,M,M,M,M,M,M,M,M,M,M,M,M,M,66.20,VHHH 012130Z 04005KT 360V060 CAVOK 19/16 Q1020 NOSIG
VHHH,2017-01-01 22:00,113.9219,22.3094,66.20,60.80,82.74,70.00,4.00,0.00,30.12,M,4.97,M,NSC,M,M,M,M,M,M,M,M,M,M,M,M,M,M,66.20,VHHH 012200Z 07004KT 8000 NSC 19/16 Q1020 NOSIG
VHHH,2017-01-01 22:30,113.9219,22.3094,66.20,60.80,82.74,60.00,7.00,0.00,30.12,M,5.59,M,NSC,M,M,M,M,M,M,M,M,M,M,M,M,M,M,66.20,VHHH 012230Z 06007KT 9000 NSC 19/16 Q1020 NOSIG
VHHH,2017-01-01 23:00,113.9219,22.3094,66.20,60.80,82.74,50.00,6.00,0.00,30.12,M,5.59,M,NSC,M,M,M,M,M,M,M,M,M,M,M,M,M,M,66.20,VHHH 012300Z 05006KT 9000 NSC 19/16 Q1020 NOSIG
VHHH,2017-01-01 23:30,113.9219,22.3094,66.20,60.80,82.74,60.00,4.00,0.00,30.15,M,6.21,M,FEW,M,M,M,2200.00,M,M,M,M,M,M,M,M,M,M,66.20,VHHH 012330Z 06004KT 9999 FEW022 19/16 Q1021 NOSIG
VHHH,2017-01-02 00:00,113.9219,22.3094,68.00,60.80,77.75,60.00,3.00,0.00,30.15,M,6.21,M,FEW,M,M,M,2200.00,M,M,M,M,M,M,M,M,M,M,68.00,VHHH 020000Z 06003KT 9999 FEW022 20/16 Q1021 NOSIG
VHHH,2017-01-02 00:30,113.9219,22.3094,68.00,60.80,77.75,40.00,5.00,0.00,30.15,M,6.21,M,FEW,M,M,M,2200.00,M,M,M,M,M,M,M,M,M,M,68.00,VHHH 020030Z 04005KT 9999 FEW022 20/16 Q1021 NOSIG
VHHH,2017-01-02 01:00,113.9219,22.3094,69.80,60.80,73.09,60.00,4.00,0.00,30.18,M,6.21,M,FEW,M,M,M,2200.00,M,M,M,M,M,M,M,M,M,M,69.80,VHHH 020100Z 06004KT 9999 FEW022 21/16 Q1022 NOSIG
VHHH,2017-01-02 01:30,113.9219,22.3094,69.80,60.80,73.09,40.00,3.00,0.00,30.18,M,6.21,M,FEW,M,M,M,2200.00,M,M,M,M,M,M,M,M,M,M,69.80,VHHH 020130Z 04003KT 9999 FEW022 21/16 Q1022 NOSIG
VHHH,2017-01-02 02:00,113.9219,22.3094,71.60,59.00,64.48,360.00,4.00,0.00,30.18,M,6.21,M,FEW,M,M,M,2200.00,M,M,M,M,M,M,M,M,M,M,71.60,VHHH 020200Z 36004KT 9999 FEW022 22/15 Q1022 NOSIG
VHHH,2017-01-02 02:30,113.9219,22.3094,73.40,60.80,64.69,340.00,3.00,0.00,30.15,M,6.21,M,FEW,M,M,M,2500.00,M,M,M,M,M,M,M,M,M,M,73.40,VHHH 020230Z 34003KT 300V010 9999 FEW025 23/16 Q1021 NOSIG
VHHH,2017-01-02 03:00,113.9219,22.3094,71.60,60.80,68.75,310.00,6.00,0.00,30.15,M,4.97,M,FEW,M,M,M,2500.00,M,M,M,M,M,M,M,M,M,M,71.60,VHHH 020300Z 31006KT 8000 FEW025 22/16 Q1021 NOSIG
VHHH,2017-01-02 03:30,113.9219,22.3094,73.40,60.80,64.69,300.00,7.00,0.00,30.15,M,4.97,M,FEW,M,M,M,2500.00,M,M,M,M,M,M,M,M,M,M,73.40,VHHH 020330Z 30007KT 8000 FEW025 23/16 Q1021 NOSIG
VHHH,2017-01-02 04:00,113.9219,22.3094,73.40,60.80,64.69,300.00,8.00,0.00,30.15,M,3.73,M,FEW,M,M,M,2500.00,M,M,M,M,M,M,M,M,M,M,73.40,VHHH 020400Z 30008KT 6000 FEW025 23/16 Q1021 NOSIG
VHHH,2017-01-02 04:30,113.9219,22.3094,75.20,60.80,60.90,270.00,8.00,0.00,30.12,M,3.73,M,FEW,M,M,M,2500.00,M,M,M,M,M,M,M,M,M,M,75.20,VHHH 020430Z 27008KT 6000 FEW025 24/16 Q1020 NOSIG
VHHH,2017-01-02 05:00,113.9219,22.3094,73.40,60.80,64.69,270.00,9.00,0.00,30.12,M,3.73,M,FEW,M,M,M,2500.00,M,M,M,M,M,M,M,M,M,M,73.40,VHHH 020500Z 27009KT 6000 FEW025 23/16 Q1020 NOSIG
VHHH,2017-01-02 05:30,113.9219,22.3094,73.40,60.80,64.69,240.00,10.00,0.00,30.09,M,6.21,M,FEW,M,M,M,2500.00,M,M,M,M,M,M,M,M,M,M,73.40,VHHH 020530Z 24010KT 9999 FEW025 23/16 Q1019 NOSIG
VHHH,2017-01-02 06:00,113.9219,22.3094,75.20,60.80,60.90,250.00,10.00,0.00,30.09,M,6.21,M,FEW,M,M,M,2500.00,M,M,M,M,M,M,M,M,M,M,75.20,VHHH 020600Z 25010KT 9999 FEW025 24/16 Q1019 NOSIG
VHHH,2017-01-02 06:30,113.9219,22.3094,73.40,60.80,64.69,240.00,10.00,0.00,30.09,M,6.21,M,FEW,M,M,M,3000.00,M,M,M,M,M,M,M,M,M,M,73.40,VHHH 020630Z 24010KT 9999 FEW030 23/16 Q1019 NOSIG
VHHH,2017-01-02 07:00,113.9219,22.3094,75.20,60.80,60.90,240.00,9.00,0.00,30.06,M,6.21,M,FEW,M,M,M,3000.00,M,M,M,M,M,M,M,M,M,M,75.20,VHHH 020700Z 24009KT 9999 FEW030 24/16 Q1018 NOSIG
VHHH,2017-01-02 07:30,113.9219,22.3094,75.20,60.80,60.90,250.00,9.00,0.00,30.06,M,6.21,M,FEW,M,M,M,3000.00,M,M,M,M,M,M,M,M,M,M,75.20,VHHH 020730Z 25009KT 9999 FEW030 24/16 Q1018 NOSIG
VHHH,2017-01-02 08:00,113.9219,22.3094,73.40,59.00,60.67,250.00,8.00,0.00,30.06,M,6.21,M,M,M,M,M,M,M,M,M,M,M,M,M,M,M,M,73.40,VHHH 020800Z 25008KT CAVOK 23/15 Q1018 NOSIG
VHHH,2017-01-02 08:30,113.9219,22.3094,75.20,59.00,57.12,260.00,6.00,0.00,30.06,M,6.21,M,M,M,M,M,M,M,M,M,M,M,M,M,M,M,M,75.20,VHHH 020830Z 26006KT CAVOK 24/15 Q1018 NOSIG
VHHH,2017-01-02 09:00,113.9219,22.3094,75.20,59.00,57.12,260.00,5.00,0.00,30.06,M,6.21,M,M,M,M,M,M,M,M,M,M,M,M,M,M,M,M,75.20,VHHH 020900Z 26005KT CAVOK 24/15 Q1018 NOSIG
VHHH,2017-01-02 09:30,113.9219,22.3094,73.40,59.00,60.67,260.00,4.00,0.00,30.06,M,6.21,M,M,M,M,M,M,M,M,M,M,M,M,M,M,M,M,73.40,VHHH 020930Z 26004KT CAVOK 23/15 Q1018 NOSIG
VHHH,2017-01-02 10:00,113.9219,22.3094,71.60,59.00,64.48,240.00,5.00,0.00,30.09,M,6.21,M,M,M,M,M,M,M,M,M,M,M,M,M,M,M,M,71.60,VHHH 021000Z 24005KT CAVOK 22/15 Q1019 NOSIG
VHHH,2017-01-02 10:30,113.9219,22.3094,71.60,60.80,68.75,240.00,4.00,0.00,30.09,M,6.21,M,M,M,M,M,M,M,M,M,M,M,M,M,M,M,M,71.60,VHHH 021030Z 24004KT 200V270 CAVOK 22/16 Q1019 NOSIG
VHHH,2017-01-02 11:00,113.9219,22.3094,71.60,59.00,64.48,260.00,3.00,0.00,30.09,M,6.21,M,M,M,M,M,M,M,M,M,M,M,M,M,M,M,M,71.60,VHHH 021100Z 26003KT CAVOK 22/15 Q1019 NOSIG
VHHH,2017-01-02 11:30,113.9219,22.3094,69.80,59.00,68.55,270.00,3.00,0.00,30.12,M,6.21,M,M,M,M,M,M,M,M,M,M,M,M,M,M,M,M,69.80,VHHH 021130Z 27003KT CAVOK 21/15 Q1020 NOSIG
VHHH,2017-01-02 12:00,113.9219,22.3094,69.80,59.00,68.55,M,1.00,0.00,30.12,M,6.21,M,M,M,M,M,M,M,M,M,M,M,M,M,M,M,M,69.80,VHHH 021200Z VRB01KT CAVOK 21/15 Q1020 NOSIG
VHHH,2017-01-02 12:30,113.9219,22.3094,69.80,59.00,68.55,130.00,4.00,0.00,30.12,M,6.21,M,M,M,M,M,M,M,M,M,M,M,M,M,M,M,M,69.80,VHHH 021230Z 13004KT 090V190 CAVOK 21/15 Q1020 NOSIG
VHHH,2017-01-02 13:00,113.9219,22.3094,69.80,60.80,73.09,70.00,5.00,0.00,30.12,M,5.59,M,NSC,M,M,M,M,M,M,M,M,M,M,M,M,M,M,69.80,VHHH 021300Z 07005KT 9000 NSC 21/16 Q1020 NOSIG
VHHH,2017-01-02 13:30,113.9219,22.3094,69.80,60.80,73.09,70.00,5.00,0.00,30.12,M,5.59,M,NSC,M,M,M,M,M,M,M,M,M,M,M,M,M,M,69.80,VHHH 021330Z 07005KT 9000 NSC 21/16 Q1020 NOSIG
VHHH,2017-01-02 14:00,113.9219,22.3094,69.80,60.80,73.09,80.00,3.00,0.00,30.12,M,5.59,M,NSC,M,M,M,M,M,M,M,M,M,M,M,M,M,M,69.80,VHHH 021400Z 08003KT 030V160 9000 NSC 21/16 Q1020 NOSIG
VHHH,2017-01-02 14:30,113.9219,22.3094,69.80,60.80,73.09,60.00,3.00,0.00,30.12,M,6.21,M,M,M,M,M,M,M,M,M,M,M,M,M,M,M,M,69.80,VHHH 021430Z 06003KT CAVOK 21/16 Q1020 NOSIG
VHHH,2017-01-02 15:00,113.9219,22.3094,69.80,59.00,68.55,240.00,3.00,0.00,30.12,M,6.21,M,M,M,M,M,M,M,M,M,M,M,M,M,M,M,M,69.80,VHHH 021500Z 24003KT 180V280 CAVOK 21/15 Q1020 NOSIG
VHHH,2017-01-02 15:30,113.9219,22.3094,69.80,60.80,73.09,50.00,2.00,0.00,30.12,M,6.21,M,M,M,M,M,M,M,M,M,M,M,M,M,M,M,M,69.80,VHHH 021530Z 05002KT CAVOK 21/16 Q1020 NOSIG
VHHH,2017-01-02 16:00,113.9219,22.3094,69.80,59.00,68.55,60.00,3.00,0.00,30.12,M,4.35,M,NSC,M,M,M,M,M,M,M,M,M,M,M,M,M,M,69.80,VHHH 021600Z 06003KT 7000 NSC 21/15 Q1020 NOSIG
VHHH,2017-01-02 16:30,113.9219,22.3094,68.00,62.60,82.86,60.00,4.00,0.00,30.12,M,4.97,M,NSC,M,M,M,M,M,M,M,M,M,M,M,M,M,M,68.00,VHHH 021630Z 06004KT 8000 NSC 20/17 Q1020 NOSIG
VHHH,2017-01-02 17:00,113.9219,22.3094,68.00,59.00,72.92,50.00,3.00,0.00,30.12,M,4.35,M,NSC,M,M,M,M,M,M,M,M,M,M,M,M,M,M,68.00,VHHH 021700Z 05003KT 7000 NSC 20/15 Q1020 NOSIG
VHHH,2017-01-02 17:30,113.9219,22.3094,68.00,59.00,72.92,M,1.00,0.00,30.09,M,5.59,M,NSC,M,M,M,M,M,M,M,M,M,M,M,M,M,M,68.00,VHHH 021730Z VRB01KT 9000 NSC 20/15 Q1019 NOSIG
VHHH,2017-01-02 18:00,113.9219,22.3094,66.20,60.80,82.74,70.00,3.00,0.00,30.09,M,4.97,M,NSC,M,M,M,M,M,M,M,M,M,M,M,M,M,M,66.20,VHHH 021800Z 07003KT 8000 NSC 19/16 Q1019 NOSIG
VHHH,2017-01-02 18:30,113.9219,22.3094,66.20,60.80,82.74,80.00,4.00,0.00,30.09,M,4.97,M,NSC,M,M,M,M,M,M,M,M,M,M,M,M,M,M,66.20,VHHH 021830Z 08004KT 8000 NSC 19/16 Q1019 NOSIG
VHHH,2017-01-02 19:00,113.9219,22.3094,66.20,60.80,82.74,110.00,3.00,0.00,30.09,M,4.97,M,NSC,M,M,M,M,M,M,M,M,M,M,M,M,M,M,66.20,VHHH 021900Z 11003KT 8000 NSC 19/16 Q1019 NOSIG
VHHH,2017-01-02 19:30,113.9219,22.3094,66.20,60.80,82.74,120.00,4.00,0.00,30.09,M,4.97,M,NSC,M,M,M,M,M,M,M,M,M,M,M,M,M,M,66.20,VHHH 021930Z 12004KT 090V150 8000 NSC 19/16 Q1019 NOSIG
VHHH,2017-01-02 20:00,113.9219,22.3094,66.20,60.80,82.74,90.00,3.00,0.00,30.09,M,4.35,M,NSC,M,M,M,M,M,M,M,M,M,M,M,M,M,M,66.20,VHHH 022000Z 09003KT 040V200 7000 NSC 19/16 Q1019 NOSIG
VHHH,2017-01-02 20:30,113.9219,22.3094,66.20,59.00,77.60,120.00,3.00,0.00,30.06,M,4.35,M,NSC,M,M,M,M,M,M,M,M,M,M,M,M,M,M,66.20,VHHH 022030Z 12003KT 7000 NSC 19/15 Q1018 NOSIG
VHHH,2017-01-02 21:00,113.9219,22.3094,66.20,60.80,82.74,70.00,4.00,0.00,30.06,M,4.35,M,NSC,M,M,M,M,M,M,M,M,M,M,M,M,M,M,66.20,VHHH 022100Z 07004KT 7000 NSC 19/16 Q1018 NOSIG
VHHH,2017-01-02 21:30,113.9219,22.3094,66.20,60.80,82.74,M,3.00,0.00,30.09,M,3.73,M,NSC,M,M,M,M,M,M,M,M,M,M,M,M,M,M,66.20,VHHH 022130Z VRB03KT 6000 NSC 19/16 Q1019 NOSIG
VHHH,2017-01-02 22:00,113.9219,22.3094,66.20,60.80,82.74,50.00,2.00,0.00,30.09,M,3.73,M,NSC,M,M,M,M,M,M,M,M,M,M,M,M,M,M,66.20,VHHH 022200Z 05002KT 6000 NSC 19/16 Q1019 NOSIG
VHHH,2017-01-02 22:30,113.9219,22.3094,66.20,59.00,77.60,M,1.00,0.00,30.09,M,3.11,M,NSC,M,M,M,M,M,M,M,M,M,M,M,M,M,M,66.20,VHHH 022230Z VRB01KT 5000 NSC 19/15 Q1019 TEMPO 4000 BR
VHHH,2017-01-02 23:00,113.9219,22.3094,66.20,59.00,77.60,170.00,3.00,0.00,30.09,M,3.73,M,NSC,M,M,M,M,M,M,M,M,M,M,M,M,M,M,66.20,VHHH 022300Z 17003KT 080V230 6000 NSC 19/15 Q1019 TEMPO 4000 BR
VHHH,2017-01-02 23:30,113.9219,22.3094,66.20,59.00,77.60,190.00,3.00,0.00,30.12,M,3.73,M,NSC,M,M,M,M,M,M,M,M,M,M,M,M,M,M,66.20,VHHH 022330Z 19003KT 130V250 6000 NSC 19/15 Q1020 NOSIG
VHHH,2017-01-03 00:00,113.9219,22.3094,68.00,60.80,77.75,M,2.00,0.00,30.12,M,3.11,M,NSC,M,M,M,M,M,M,M,M,M,M,M,M,M,M,68.00,VHHH 030000Z VRB02KT 5000 NSC 20/16 Q1020 NOSIG
VHHH,2017-01-03 00:30,113.9219,22.3094,69.80,60.80,73.09,80.00,8.00,0.00,30.12,M,3.73,M,NSC,M,M,M,M,M,M,M,M,M,M,M,M,M,M,69.80,VHHH 030030Z 08008KT 6000 NSC 21/16 Q1020 NOSIG
VHHH,2017-01-03 01:00,113.9219,22.3094,71.60,62.60,73.27,100.00,12.00,0.00,30.15,M,5.59,M,FEW,M,M,M,2500.00,M,M,M,M,M,M,M,M,M,M,71.60,VHHH 030100Z 10012KT 9000 FEW025 22/17 Q1021 NOSIG
VHHH,2017-01-03 01:30,113.9219,22.3094,73.40,62.60,68.94,100.00,12.00,0.00,30.15,M,6.21,M,FEW,M,M,M,2000.00,M,M,M,M,M,M,M,M,M,M,73.40,VHHH 030130Z 10012KT 9999 FEW020 23/17 Q1021 NOSIG
VHHH,2017-01-03 02:00,113.9219,22.3094,73.40,62.60,68.94,100.00,10.00,0.00,30.15,M,6.21,M,FEW,M,M,M,2000.00,M,M,M,M,M,M,M,M,M,M,73.40,VHHH 030200Z 10010KT 080V140 9999 FEW020 23/17 Q1021 NOSIG
VHHH,2017-01-03 02:30,113.9219,22.3094,75.20,62.60,64.91,100.00,10.00,0.00,30.15,M,6.21,M,FEW,M,M,M,2000.00,M,M,M,M,M,M,M,M,M,M,75.20,VHHH 030230Z 10010KT 9999 FEW020 24/17 Q1021 NOSIG
VHHH,2017-01-03 03:00,113.9219,22.3094,75.20,62.60,64.91,110.00,11.00,0.00,30.15,M,6.21,M,FEW,M,M,M,2500.00,M,M,M,M,M,M,M,M,M,M,75.20,VHHH 030300Z 11011KT 090V160 9999 FEW025 24/17 Q1021 NOSIG
VHHH,2017-01-03 03:30,113.9219,22.3094,75.20,62.60,64.91,120.00,12.00,0.00,30.12,M,6.21,M,FEW,M,M,M,2500.00,M,M,M,M,M,M,M,M,M,M,75.20,VHHH 030330Z 12012KT 9999 FEW025 24/17 Q1020 NOSIG
VHHH,2017-01-03 04:00,113.9219,22.3094,75.20,60.80,60.90,120.00,16.00,0.00,30.12,M,6.21,M,FEW,M,M,M,2500.00,M,M,M,M,M,M,M,M,M,M,75.20,VHHH 030400Z 12016KT 9999 FEW025 24/16 Q1020 NOSIG
VHHH,2017-01-03 04:30,113.9219,22.3094,75.20,62.60,64.91,120.00,16.00,0.00,30.12,M,6.21,M,FEW,M,M,M,2500.00,M,M,M,M,M,M,M,M,M,M,75.20,VHHH 030430Z 12016KT 9999 FEW025 24/17 Q1020 NOSIG
VHHH,2017-01-03 05:00,113.9219,22.3094,75.20,60.80,60.90,120.00,17.00,0.00,30.09,M,6.21,M,FEW,M,M,M,2500.00,M,M,M,M,M,M,M,M,M,M,75.20,VHHH 030500Z 12017KT 9999 FEW025 24/16 Q1019 NOSIG
VHHH,2017-01-03 05:30,113.9219,22.3094,73.40,60.80,64.69,120.00,16.00,0.00,30.09,M,6.21,M,FEW,M,M,M,2500.00,M,M,M,M,M,M,M,M,M,M,73.40,VHHH 030530Z 12016KT 9999 FEW025 23/16 Q1019 NOSIG
VHHH,2017-01-03 06:00,113.9219,22.3094,75.20,60.80,60.90,120.00,12.00,0.00,30.09,M,6.21,M,FEW,M,M,M,2500.00,M,M,M,M,M,M,M,M,M,M,75.20,VHHH 030600Z 12012KT 100V160 9999 FEW025 24/16 Q1019 NOSIG
VHHH,2017-01-03 06:30,113.9219,22.3094,75.20,60.80,60.90,120.00,11.00,0.00,30.06,M,6.21,M,FEW,M,M,M,2500.00,M,M,M,M,M,M,M,M,M,M,75.20,VHHH 030630Z 12011KT 9999 FEW025 24/16 Q1018 NOSIG
VHHH,2017-01-03 07:00,113.9219,22.3094,75.20,60.80,60.90,110.00,10.00,0.00,30.06,M,6.21,M,FEW,M,M,M,2500.00,M,M,M,M,M,M,M,M,M,M,75.20,VHHH 030700Z 11010KT 090V150 9999 FEW025 24/16 Q1018 NOSIG
VHHH,2017-01-03 07:30,113.9219,22.3094,75.20,60.80,60.90,110.00,10.00,0.00,30.03,M,6.21,M,FEW,M,M,M,2500.00,M,M,M,M,M,M,M,M,M,M,75.20,VHHH 030730Z 11010KT 080V140 9999 FEW025 24/16 Q1017 NOSIG
VHHH,2017-01-03 08:00,113.9219,22.3094,75.20,62.60,64.91,110.00,12.00,0.00,30.03,M,6.21,M,FEW,M,M,M,2500.00,M,M,M,M,M,M,M,M,M,M,75.20,VHHH 030800Z 11012KT 9999 FEW025 24/17 Q1017 NOSIG
VHHH,2017-01-03 08:30,113.9219,22.3094,73.40,60.80,64.69,110.00,10.00,0.00,30.06,M,6.21,M,FEW,M,M,M,2500.00,M,M,M,M,M,M,M,M,M,M,73.40,VHHH 030830Z 11010KT 080V150 9999 FEW025 23/16 Q1018 NOSIG
VHHH,2017-01-03 09:00,113.9219,22.3094,73.40,60.80,64.69,110.00,10.00,0.00,30.06,M,6.21,M,FEW,M,M,M,2500.00,M,M,M,M,M,M,M,M,M,M,73.40,VHHH 030900Z 11010KT 9999 FEW025 23/16 Q1018 NOSIG
VHHH,2017-01-03 09:30,113.9219,22.3094,73.40,60.80,64.69,100.00,10.00,0.00,30.06,M,6.21,M,FEW,M,M,M,2500.00,M,M,M,M,M,M,M,M,M,M,73.40,VHHH 030930Z 10010KT 080V150 9999 FEW025 23/16 Q1018 NOSIG
VHHH,2017-01-03 10:00,113.9219,22.3094,71.60,60.80,68.75,90.00,11.00,0.00,30.06,M,6.21,M,FEW,M,M,M,2500.00,M,M,M,M,M,M,M,M,M,M,71.60,VHHH 031000Z 09011KT 9999 FEW025 22/16 Q1018 NOSIG
VHHH,2017-01-03 10:30,113.9219,22.3094,71.60,60.80,68.75,100.00,13.00,0.00,30.06,M,6.21,M,FEW,M,M,M,2500.00,M,M,M,M,M,M,M,M,M,M,71.60,VHHH 031030Z 10013KT 9999 FEW025 22/16 Q1018 NOSIG
VHHH,2017-01-03 11:00,113.9219,22.3094,69.80,60.80,73.09,100.00,12.00,0.00,30.06,M,6.21,M,FEW,M,M,M,2500.00,M,M,M,M,M,M,M,M,M,M,69.80,VHHH 031100Z 10012KT 9999 FEW025 21/16 Q1018 NOSIG
VHHH,2017-01-03 11:30,113.9219,22.3094,69.80,60.80,73.09,100.00,13.00,0.00,30.06,M,6.21,M,FEW,M,M,M,2500.00,M,M,M,M,M,M,M,M,M,M,69.80,VHHH 031130Z 10013KT 9999 FEW025 21/16 Q1018 NOSIG
VHHH,2017-01-03 12:00,113.9219,22.3094,69.80,62.60,77.90,100.00,13.00,0.00,30.09,M,6.21,M,FEW,M,M,M,2500.00,M,M,M,M,M,M,M,M,M,M,69.80,VHHH 031200Z 10013KT 9999 FEW025 21/17 Q1019 NOSIG
VHHH,2017-01-03 12:30,113.9219,22.3094,69.80,62.60,77.90,110.00,14.00,0.00,30.09,M,6.21,M,FEW,M,M,M,2500.00,M,M,M,M,M,M,M,M,M,M,69.80,VHHH 031230Z 11014KT 9999 FEW025 21/17 Q1019 NOSIG
VHHH,2017-01-03 13:00,113.9219,22.3094,69.80,60.80,73.09,110.00,12.00,0.00,30.09,M,6.21,M,FEW,M,M,M,2500.00,M,M,M,M,M,M,M,M,M,M,69.80,VHHH 031300Z 11012KT 9999 FEW025 21/16 Q1019 NOSIG
VHHH,2017-01-03 13:30,113.9219,22.3094,69.80,60.80,73.09,110.00,13.00,0.00,30.09,M,6.21,M,FEW,M,M,M,2500.00,M,M,M,M,M,M,M,M,M,M,69.80,VHHH 031330Z 11013KT 9999 FEW025 21/16 Q1019 NOSIG
VHHH,2017-01-03 14:00,113.9219,22.3094,69.80,60.80,73.09,110.00,13.00,0.00,30.12,M,6.21,M,FEW,M,M,M,2500.00,M,M,M,M,M,M,M,M,M,M,69.80,VHHH 031400Z 11013KT 9999 FEW025 21/16 Q1020 NOSIG
VHHH,2017-01-03 14:30,113.9219,22.3094,69.80,60.80,73.09,110.00,13.00,0.00,30.09,M,6.21,M,FEW,M,M,M,2500.00,M,M,M,M,M,M,M,M,M,M,69.80,VHHH 031430Z 11013KT 9999 FEW025 21/16 Q1019 NOSIG
VHHH,2017-01-03 15:00,113.9219,22.3094,69.80,60.80,73.09,100.00,12.00,0.00,30.09,M,6.21,M,FEW,M,M,M,4000.00,M,M,M,M,M,M,M,M,M,M,69.80,VHHH 031500Z 10012KT 9999 FEW040 21/16 Q1019 NOSIG
VHHH,2017-01-03 15:30,113.9219,22.3094,68.00,60.80,77.75,110.00,12.00,0.00,30.09,M,6.21,M,FEW,M,M,M,4000.00,M,M,M,M,M,M,M,M,M,M,68.00,VHHH 031530Z 11012KT 9999 FEW040 20/16 Q1019 NOSIG
VHHH,2017-01-03 16:00,113.9219,22.3094,68.00,60.80,77.75,110.00,12.00,0.00,30.09,M,6.21,M,FEW,M,M,M,4000.00,M,M,M,M,M,M,M,M,M,M,68.00,VHHH 031600Z 11012KT 9999 FEW040 20/16 Q1019 NOSIG
VHHH,2017-01-03 16:30,113.9219,22.3094,69.80,60.80,73.09,110.00,13.00,0.00,30.09,M,6.21,M,FEW,M,M,M,3000.00,M,M,M,M,M,M,M,M,M,M,69.80,VHHH 031630Z 11013KT 9999 FEW030 21/16 Q1019 NOSIG
VHHH,2017-01-03 17:00,113.9219,22.3094,68.00,60.80,77.75,110.00,12.00,0.00,30.09,M,6.21,M,FEW,M,M,M,3000.00,M,M,M,M,M,M,M,M,M,M,68.00,VHHH 031700Z 11012KT 9999 FEW030 20/16 Q1019 NOSIG
VHHH,2017-01-03 17:30,113.9219,22.3094,68.00,60.80,77.75,110.00,12.00,0.00,30.09,M,6.21,M,FEW,M,M,M,3000.00,M,M,M,M,M,M,M,M,M,M,68.00,VHHH 031730Z 11012KT 9999 FEW030 20/16 Q1019 NOSIG
VHHH,2017-01-03 18:00,113.9219,22.3094,68.00,60.80,77.75,100.00,11.00,0.00,30.09,M,6.21,M,FEW,M,M,M,4000.00,M,M,M,M,M,M,M,M,M,M,68.00,VHHH 031800Z 10011KT 9999 FEW040 20/16 Q1019 NOSIG
VHHH,2017-01-03 18:30,113.9219,22.3094,68.00,60.80,77.75,90.00,13.00,0.00,30.09,M,6.21,M,FEW,M,M,M,4000.00,M,M,M,M,M,M,M,M,M,M,68.00,VHHH 031830Z 09013KT 9999 FEW040 20/16 Q1019 NOSIG
VHHH,2017-01-03 19:00,113.9219,22.3094,68.00,60.80,77.75,90.00,12.00,0.00,30.06,M,6.21,M,FEW,M,M,M,4000.00,M,M,M,M,M,M,M,M,M,M,68.00,VHHH 031900Z 09012KT 9999 FEW040 20/16 Q1018 NOSIG
VHHH,2017-01-03 19:30,113.9219,22.3094,68.00,60.80,77.75,110.00,12.00,0.00,30.06,M,6.21,M,SCT,M,M,M,4000.00,M,M,M,M,M,M,M,M,M,M,68.00,VHHH 031930Z 11012KT 9999 SCT040 20/16 Q1018 NOSIG
VHHH,2017-01-03 20:00,113.9219,22.3094,68.00,60.80,77.75,100.00,14.00,0.00,30.06,M,6.21,M,SCT,M,M,M,4000.00,M,M,M,M,M,M,M,M,M,M,68.00,VHHH 032000Z 10014KT 9999 SCT040 20/16 Q1018 NOSIG
VHHH,2017-01-03 20:30,113.9219,22.3094,68.00,60.80,77.75,100.00,10.00,0.00,30.06,M,6.21,M,SCT,M,M,M,4000.00,M,M,M,M,M,M,M,M,M,M,68.00,VHHH 032030Z 10010KT 080V140 9999 SCT040 20/16 Q1018 NOSIG
VHHH,2017-01-03 21:00,113.9219,22.3094,68.00,60.80,77.75,110.00,10.00,0.00,30.06,M,6.21,M,SCT,M,M,M,4000.00,M,M,M,M,M,M,M,M,M,M,68.00,VHHH 032100Z 11010KT 9999 SCT040 20/16 Q1018 NOSIG
VHHH,2017-01-03 21:30,113.9219,22.3094,68.00,60.80,77.75,100.00,9.00,0.00,30.06,M,6.21,M,SCT,M,M,M,3500.00,M,M,M,M,M,M,M,M,M,M,68.00,VHHH 032130Z 10009KT 9999 SCT035 20/16 Q1018 NOSIG
VHHH,2017-01-03 22:00,113.9219,22.3094,68.00,59.00,72.92,110.00,13.00,0.00,30.06,M,6.21,M,FEW,SCT,M,M,3000.00,3500.00,M,M,M,M,M,M,M,M,M,68.00,VHHH 032200Z 11013KT 9999 FEW030 SCT035 20/15 Q1018 NOSIG
VHHH,2017-01-03 22:30,113.9219,22.3094,68.00,59.00,72.92,90.00,13.00,0.00,30.06,M,6.21,M,FEW,M,M,M,3500.00,M,M,M,M,M,M,M,M,M,M,68.00,VHHH 032230Z 09013KT 9999 FEW035 20/15 Q1018 NOSIG
VHHH,2017-01-03 23:00,113.9219,22.3094,68.00,59.00,72.92,100.00,13.00,0.00,30.09,M,6.21,M,FEW,M,M,M,4000.00,M,M,M,M,M,M,M,M,M,M,68.00,VHHH 032300Z 10013KT 9999 FEW040 20/15 Q1019 NOSIG
VHHH,2017-01-03 23:30,113.9219,22.3094,68.00,60.80,77.75,80.00,13.00,0.00,30.09,M,6.21,M,FEW,M,M,M,4000.00,M,M,M,M,M,M,M,M,M,M,68.00,VHHH 032330Z 08013KT 9999 FEW040 20/16 Q1019 NOSIG
VHHH,2017-01-04 00:00,113.9219,22.3094,68.00,60.80,77.75,100.00,14.00,0.00,30.09,M,6.21,M,FEW,M,M,M,2500.00,M,M,M,M,M,M,M,M,M,M,68.00,VHHH 040000Z 10014KT 9999 FEW025 20/16 Q1019 NOSIG
VHHH,2017-01-04 00:30,113.9219,22.3094,69.80,60.80,73.09,100.00,12.00,0.00,30.12,M,6.21,M,FEW,M,M,M,2500.00,M,M,M,M,M,M,M,M,M,M,69.80,VHHH 040030Z 10012KT 9999 FEW025 21/16 Q1020 NOSIG
VHHH,2017-01-04 01:00,113.9219,22.3094,69.80,60.80,73.09,100.00,12.00,0.00,30.12,M,6.21,M,FEW,M,M,M,2000.00,M,M,M,M,M,M,M,M,M,M,69.80,VHHH 040100Z 10012KT 9999 FEW020 21/16 Q1020 NOSIG
VHHH,2017-01-04 01:30,113.9219,22.3094,71.60,60.80,68.75,100.00,13.00,0.00,30.12,M,6.21,M,FEW,M,M,M,2000.00,M,M,M,M,M,M,M,M,M,M,71.60,VHHH 040130Z 10013KT 9999 FEW020 22/16 Q1020 NOSIG
VHHH,2017-01-04 02:00,113.9219,22.3094,71.60,60.80,68.75,110.00,16.00,0.00,30.12,M,6.21,M,FEW,M,M,M,2000.00,M,M,M,M,M,M,M,M,M,M,71.60,VHHH 040200Z 11016KT 9999 FEW020 22/16 Q1020 NOSIG
VHHH,2017-01-04 02:30,113.9219,22.3094,71.60,60.80,68.75,100.00,16.00,0.00,30.12,M,6.21,M,FEW,M,M,M,2200.00,M,M,M,M,M,M,M,M,M,M,71.60,VHHH 040230Z 10016KT 9999 FEW022 22/16 Q1020 NOSIG
VHHH,2017-01-04 03:00,113.9219,22.3094,73.40,60.80,64.69,100.00,14.00,0.00,30.12,M,6.21,M,FEW,M,M,M,2800.00,M,M,M,M,M,M,M,M,M,M,73.40,VHHH 040300Z 10014KT 9999 FEW028 23/16 Q1020 NOSIG
VHHH,2017-01-04 03:30,113.9219,22.3094,75.20,59.00,57.12,110.00,12.00,0.00,30.09,M,6.21,M,FEW,M,M,M,2800.00,M,M,M,M,M,M,M,M,M,M,75.20,VHHH 040330Z 11012KT 080V140 9999 FEW028 24/15 Q1019 NOSIG
VHHH,2017-01-04 04:00,113.9219,22.3094,75.20,59.00,57.12,110.00,11.00,0.00,30.09,M,6.21,M,FEW,M,M,M,3000.00,M,M,M,M,M,M,M,M,M,M,75.20,VHHH 040400Z 11011KT 080V140 9999 FEW030 24/15 Q1019 NOSIG
VHHH,2017-01-04 04:30,113.9219,22.3094,75.20,59.00,57.12,110.00,11.00,0.00,30.06,M,6.21,M,FEW,M,M,M,3000.00,M,M,M,M,M,M,M,M,M,M,75.20,VHHH 040430Z 11011KT 9999 FEW030 24/15 Q1018 NOSIG
VHHH,2017-01-04 05:00,113.9219,22.3094,77.00,59.00,53.80,110.00,10.00,0.00,30.03,M,6.21,M,FEW,M,M,M,3500.00,M,M,M,M,M,M,M,M,M,M,77.00,VHHH 040500Z 11010KT 080V140 9999 FEW035 25/15 Q1017 NOSIG
VHHH,2017-01-04 05:30,113.9219,22.3094,77.00,57.20,50.43,120.00,8.00,0.00,30.03,M,6.21,M,FEW,M,M,M,3500.00,M,M,M,M,M,M,M,M,M,M,77.00,VHHH 040530Z 12008KT 060V190 9999 FEW035 25/14 Q1017 NOSIG
VHHH,2017-01-04 06:00,113.9219,22.3094,77.00,59.00,53.80,M,6.00,0.00,30.03,M,6.21,M,FEW,M,M,M,3500.00,M,M,M,M,M,M,M,M,M,M,77.00,VHHH 040600Z VRB06KT 9999 FEW035 25/15 Q1017 NOSIG
VHHH,2017-01-04 06:30,113.9219,22.3094,77.00,60.80,57.36,260.00,10.00,0.00,30.03,M,6.21,M,FEW,M,M,M,3500.00,M,M,M,M,M,M,M,M,M,M,77.00,VHHH 040630Z 26010KT 210V290 9999 FEW035 25/16 Q1017 NOSIG
VHHH,2017-01-04 07:00,113.9219,22.3094,78.80,59.00,50.69,270.00,8.00,0.00,30.00,M,6.21,M,FEW,M,M,M,3500.00,M,M,M,M,M,M,M,M,M,M,78.80,VHHH 040700Z 27008KT 9999 FEW035 26/15 Q1016 NOSIG
VHHH,2017-01-04 07:30,113.9219,22.3094,77.00,59.00,53.80,300.00,4.00,0.00,30.00,M,6.21,M,FEW,M,M,M,3500.00,M,M,M,M,M,M,M,M,M,M,77.00,VHHH 040730Z 30004KT 250V050 9999 FEW035 25/15 Q1016 NOSIG
VHHH,2017-01-04 08:00,113.9219,22.3094,77.00,59.00,53.80,M,6.00,0.00,30.00,M,6.21,M,FEW,M,M,M,3500.00,M,M,M,M,M,M,M,M,M,M,77.00,VHHH 040800Z VRB06KT 9999 FEW035 25/15 Q1016 NOSIG
VHHH,2017-01-04 08:22,113.9219,22.3094,75.20,59.00,57.12,130.00,10.00,0.00,30.00,M,6.21,M,FEW,M,M,M,3500.00,M,M,M,M,M,M,M,M,M,M,75.20,VHHH 040822Z 13010KT 090V170 9999 FEW035 24/15 Q1016 NOSIG
VHHH,2017-01-04 08:30,113.9219,22.3094,77.00,59.00,53.80,130.00,11.00,0.00,30.00,M,6.21,M,FEW,M,M,M,3500.00,M,M,M,M,M,M,M,M,M,M,77.00,VHHH 040830Z 13011KT 100V170 9999 FEW035 25/15 Q1016 NOSIG
VHHH,2017-01-04 09:00,113.9219,22.3094,75.20,59.00,57.12,130.00,10.00,0.00,30.00,M,6.21,M,FEW,M,M,M,3500.00,M,M,M,M,M,M,M,M,M,M,75.20,VHHH 040900Z 13010KT 110V190 9999 FEW035 24/15 Q1016 NOSIG
VHHH,2017-01-04 09:30,113.9219,22.3094,73.40,59.00,60.67,140.00,10.00,0.00,30.00,M,6.21,M,FEW,M,M,M,3500.00,M,M,M,M,M,M,M,M,M,M,73.40,VHHH 040930Z 14010KT 110V180 9999 FEW035 23/15 Q1016 NOSIG
VHHH,2017-01-04 10:00,113.9219,22.3094,75.20,57.20,53.55,130.00,7.00,0.00,30.00,M,6.21,M,SCT,M,M,M,3500.00,M,M,M,M,M,M,M,M,M,M,75.20,VHHH 041000Z 13007KT 100V210 9999 SCT035 24/14 Q1016 NOSIG
VHHH,2017-01-04 10:30,113.9219,22.3094,73.40,59.00,60.67,130.00,9.00,0.00,30.03,M,6.21,M,FEW,M,M,M,3500.00,M,M,M,M,M,M,M,M,M,M,73.40,VHHH 041030Z 13009KT 090V170 9999 FEW035 23/15 Q1017 NOSIG
VHHH,2017-01-04 11:00,113.9219,22.3094,73.40,59.00,60.67,120.00,10.00,0.00,30.03,M,6.21,M,FEW,M,M,M,3500.00,M,M,M,M,M,M,M,M,M,M,73.40,VHHH 041100Z 12010KT 9999 FEW035 23/15 Q1017 NOSIG
VHHH,2017-01-04 11:30,113.9219,22.3094,73.40,59.00,60.67,120.00,8.00,0.00,30.03,M,6.21,M,FEW,M,M,M,3500.00,M,M,M,M,M,M,M,M,M,M,73.40,VHHH 041130Z 12008KT 100V170 9999 FEW035 23/15 Q1017 NOSIG
VHHH,2017-01-04 12:00,113.9219,22.3094,71.60,59.00,64.48,90.00,6.00,0.00,30.03,M,6.21,M,FEW,M,M,M,3500.00,M,M,M,M,M,M,M,M,M,M,71.60,VHHH 041200Z 09006KT 060V140 9999 FEW035 22/15 Q1017 NOSIG
VHHH,2017-01-04 12:30,113.9219,22.3094,71.60,59.00,64.48,90.00,6.00,0.00,30.06,M,6.21,M,FEW,M,M,M,3500.00,M,M,M,M,M,M,M,M,M,M,71.60,VHHH 041230Z 09006KT 9999 FEW035 22/15 Q1018 NOSIG
VHHH,2017-01-04 13:00,113.9219,22.3094,71.60,59.00,64.48,80.00,6.00,0.00,30.06,M,6.21,M,FEW,M,M,M,3500.00,M,M,M,M,M,M,M,M,M,M,71.60,VHHH 041300Z 08006KT 9999 FEW035 22/15 Q1018 NOSIG
VHHH,2017-01-04 13:30,113.9219,22.3094,71.60,60.80,68.75,60.00,5.00,0.00,30.06,M,6.21,M,FEW,M,M,M,3500.00,M,M,M,M,M,M,M,M,M,M,71.60,VHHH 041330Z 06005KT 9999 FEW035 22/16 Q1018 NOSIG
VHHH,2017-01-04 14:00,113.9219,22.3094,71.60,60.80,68.75,90.00,7.00,0.00,30.06,M,6.21,M,FEW,M,M,M,3500.00,M,M,M,M,M,M,M,M,M,M,71.60,VHHH 041400Z 09007KT 9999 FEW035 22/16 Q1018 NOSIG
VHHH,2017-01-04 14:30,113.9219,22.3094,71.60,59.00,64.48,70.00,5.00,0.00,30.06,M,6.21,M,FEW,M,M,M,3500.00,M,M,M,M,M,M,M,M,M,M,71.60,VHHH 041430Z 07005KT 9999 FEW035 22/15 Q1018 NOSIG
VHHH,2017-01-04 15:00,113.9219,22.3094,71.60,59.00,64.48,80.00,5.00,0.00,30.06,M,6.21,M,FEW,M,M,M,3500.00,M,M,M,M,M,M,M,M,M,M,71.60,VHHH 041500Z 08005KT 9999 FEW035 22/15 Q1018 NOSIG
VHHH,2017-01-04 15:30,113.9219,22.3094,69.80,59.00,68.55,70.00,4.00,0.00,30.06,M,6.21,M,FEW,M,M,M,3500.00,M,M,M,M,M,M,M,M,M,M,69.80,VHHH 041530Z 07004KT 9999 FEW035 21/15 Q1018 NOSIG
VHHH,2017-01-04 16:00,113.9219,22.3094,69.80,62.60,77.90,70.00,5.00,0.00,30.06,M,5.59,M,FEW,M,M,M,3500.00,M,M,M,M,M,M,M,M,M,M,69.80,VHHH 041600Z 07005KT 9000 FEW035 21/17 Q1018 NOSIG
VHHH,2017-01-04 16:30,113.9219,22.3094,69.80,60.80,73.09,80.00,5.00,0.00,30.06,M,5.59,M,FEW,SCT,M,M,3500.00,4500.00,M,M,M,M,M,M,M,M,M,69.80,VHHH 041630Z 08005KT 9000 FEW035 SCT045 21/16 Q1018 NOSIG
VHHH,2017-01-04 17:00,113.9219,22.3094,68.00,60.80,77.75,M,4.00,0.00,30.06,M,6.21,M,FEW,SCT,M,M,3500.00,4500.00,M,M,M,M,M,M,M,M,M,68.00,VHHH 041700Z VRB04KT 9999 FEW035 SCT045 20/16 Q1018 NOSIG
VHHH,2017-01-04 17:30,113.9219,22.3094,69.80,60.80,73.09,200.00,4.00,0.00,30.06,M,6.21,M,FEW,SCT,M,M,3500.00,4500.00,M,M,M,M,M,M,M,M,M,69.80,VHHH 041730Z 20004KT 110V250 9999 FEW035 SCT045 21/16 Q1018 NOSIG
VHHH,2017-01-04 18:00,113.9219,22.3094,69.80,60.80,73.09,260.00,3.00,0.00,30.06,M,5.59,M,FEW,SCT,M,M,3500.00,4500.00,M,M,M,M,M,M,M,M,M,69.80,VHHH 041800Z 26003KT 190V290 9000 FEW035 SCT045 21/16 Q1018 NOSIG
VHHH,2017-01-04 18:30,113.9219,22.3094,69.80,62.60,77.90,260.00,3.00,0.00,30.06,M,4.97,M,FEW,SCT,M,M,3500.00,4500.00,M,M,M,M,M,M,M,M,M,69.80,VHHH 041830Z 26003KT 8000 FEW035 SCT045 21/17 Q1018 NOSIG
VHHH,2017-01-04 19:00,113.9219,22.3094,69.80,62.60,77.90,M,2.00,0.00,30.03,M,4.35,M,FEW,SCT,M,M,3000.00,4500.00,M,M,M,M,M,M,M,M,M,69.80,VHHH 041900Z VRB02KT 7000 FEW030 SCT045 21/17 Q1017 NOSIG
VHHH,2017-01-04 19:30,113.9219,22.3094,69.80,62.60,77.90,M,2.00,0.00,30.03,M,6.21,M,FEW,SCT,M,M,3000.00,4500.00,M,M,M,M,M,M,M,M,M,69.80,VHHH 041930Z VRB02KT 9999 FEW030 SCT045 21/17 Q1017 NOSIG
VHHH,2017-01-04 20:00,113.9219,22.3094,69.80,60.80,73.09,100.00,7.00,0.00,30.03,M,6.21,M,FEW,SCT,M,M,3000.00,4500.00,M,M,M,M,M,M,M,M,M,69.80,VHHH 042000Z 10007KT 9999 FEW030 SCT045 21/16 Q1017 NOSIG
VHHH,2017-01-04 20:30,113.9219,22.3094,69.80,60.80,73.09,70.00,5.00,0.00,30.03,M,5.59,M,FEW,SCT,M,M,3000.00,4500.00,M,M,M,M,M,M,M,M,M,69.80,VHHH 042030Z 07005KT 9000 FEW030 SCT045 21/16 Q1017 NOSIG
VHHH,2017-01-04 21:00,113.9219,22.3094,69.80,62.60,77.90,70.00,4.00,0.00,30.03,M,5.59,M,FEW,SCT,M,M,3000.00,4500.00,M,M,M,M,M,M,M,M,M,69.80,VHHH 042100Z 07004KT 9000 FEW030 SCT045 21/17 Q1017 NOSIG
VHHH,2017-01-04 21:30,113.9219,22.3094,69.80,62.60,77.90,80.00,6.00,0.00,30.03,M,6.21,M,FEW,SCT,M,M,3000.00,4500.00,M,M,M,M,M,M,M,M,M,69.80,VHHH 042130Z 08006KT 9999 FEW030 SCT045 21/17 Q1017 NOSIG
VHHH,2017-01-04 22:00,113.9219,22.3094,69.80,60.80,73.09,100.00,4.00,0.00,30.03,M,6.21,M,FEW,SCT,M,M,3000.00,4500.00,M,M,M,M,M,M,M,M,M,69.80,VHHH 042200Z 10004KT 9999 FEW030 SCT045 21/16 Q1017 NOSIG
VHHH,2017-01-04 22:30,113.9219,22.3094,69.80,62.60,77.90,90.00,4.00,0.00,30.03,M,6.21,M,FEW,SCT,M,M,3000.00,4500.00,M,M,M,M,M,M,M,M,M,69.80,VHHH 042230Z 09004KT 9999 FEW030 SCT045 21/17 Q1017 NOSIG
VHHH,2017-01-04 23:00,113.9219,22.3094,69.80,60.80,73.09,80.00,5.00,0.00,30.03,M,6.21,M,FEW,M,M,M,4000.00,M,M,M,M,M,M,M,M,M,M,69.80,VHHH 042300Z 08005KT 9999 FEW040 21/16 Q1017 NOSIG
VHHH,2017-01-04 23:30,113.9219,22.3094,69.80,62.60,77.90,80.00,5.00,0.00,30.03,M,5.59,M,FEW,M,M,M,4000.00,M,M,M,M,M,M,M,M,M,M,69.80,VHHH 042330Z 08005KT 9000 FEW040 21/17 Q1017 NOSIG
VHHH,2017-01-05 00:00,113.9219,22.3094,69.80,62.60,77.90,70.00,6.00,0.00,30.03,M,6.21,M,FEW,M,M,M,4000.00,M,M,M,M,M,M,M,M,M,M,69.80,VHHH 050000Z 07006KT 9999 FEW040 21/17 Q1017 NOSIG
VHHH,2017-01-05 00:30,113.9219,22.3094,71.60,60.80,68.75,70.00,5.00,0.00,30.03,M,6.21,M,FEW,M,M,M,4000.00,M,M,M,M,M,M,M,M,M,M,71.60,VHHH 050030Z 07005KT 9999 FEW040 22/16 Q1017 NOSIG
VHHH,2017-01-05 01:00,113.9219,22.3094,71.60,62.60,73.27,60.00,4.00,0.00,30.03,M,6.21,M,FEW,M,M,M,4000.00,M,M,M,M,M,M,M,M,M,M,71.60,VHHH 050100Z 06004KT 9999 FEW040 22/17 Q1017 NOSIG
VHHH,2017-01-05 01:30,113.9219,22.3094,75.20,62.60,64.91,40.00,4.00,0.00,30.06,M,6.21,M,FEW,M,M,M,4000.00,M,M,M,M,M,M,M,M,M,M,75.20,VHHH 050130Z 04004KT 340V060 9999 FEW040 24/17 Q1018 NOSIG
VHHH,2017-01-05 02:00,113.9219,22.3094,75.20,62.60,64.91,20.00,3.00,0.00,30.06,M,6.21,M,FEW,M,M,M,4000.00,M,M,M,M,M,M,M,M,M,M,75.20,VHHH 050200Z 02003KT 360V060 9999 FEW040 24/17 Q1018 NOSIG
VHHH,2017-01-05 02:30,113.9219,22.3094,77.00,60.80,57.36,40.00,4.00,0.00,30.06,M,6.21,M,FEW,M,M,M,3500.00,M,M,M,M,M,M,M,M,M,M,77.00,VHHH 050230Z 04004KT 9999 FEW035 25/16 Q1018 NOSIG
VHHH,2017-01-05 03:00,113.9219,22.3094,77.00,60.80,57.36,30.00,4.00,0.00,30.03,M,6.21,M,FEW,M,M,M,3500.00,M,M,M,M,M,M,M,M,M,M,77.00,VHHH 050300Z 03004KT 9999 FEW035 25/16 Q1017 NOSIG
VHHH,2017-01-05 03:30,113.9219,22.3094,77.00,60.80,57.36,340.00,5.00,0.00,30.03,M,5.59,M,FEW,M,M,M,3500.00,M,M,M,M,M,M,M,M,M,M,77.00,VHHH 050330Z 34005KT 9000 FEW035 25/16 Q1017 NOSIG
VHHH,2017-01-05 04:00,113.9219,22.3094,73.40,62.60,68.94,320.00,4.00,0.00,30.00,M,5.59,M,FEW,M,M,M,3500.00,M,M,M,M,M,M,M,M,M,M,73.40,VHHH 050400Z 32004KT 9000 FEW035 23/17 Q1016 NOSIG
VHHH,2017-01-05 04:30,113.9219,22.3094,75.20,60.80,60.90,270.00,8.00,0.00,30.00,M,4.97,M,FEW,M,M,M,3500.00,M,M,M,M,M,M,M,M,M,M,75.20,VHHH 050430Z 27008KT 8000 FEW035 24/16 Q1016 NOSIG
VHHH,2017-01-05 05:00,113.9219,22.3094,73.40,62.60,68.94,260.00,7.00,0.00,30.00,M,4.97,M,SCT,M,M,M,3500.00,M,M,M,M,M,M,M,M,M,M,73.40,VHHH 050500Z 26007KT 8000 SCT035 23/17 Q1016 NOSIG
VHHH,2017-01-05 05:23,113.9219,22.3094,73.40,62.60,68.94,260.00,8.00,0.00,29.97,M,2.92,M,SCT,M,M,M,3500.00,M,M,M,HZ,M,M,M,M,M,M,73.40,VHHH 050523Z 26008KT 4700 HZ SCT035 23/17 Q1015 NOSIG
VHHH,2017-01-05 05:30,113.9219,22.3094,73.40,62.60,68.94,260.00,7.00,0.00,29.97,M,2.73,M,SCT,M,M,M,3500.00,M,M,M,HZ,M,M,M,M,M,M,73.40,VHHH 050530Z 26007KT 4400 HZ SCT035 23/17 Q1015 NOSIG
VHHH,2017-01-05 06:00,113.9219,22.3094,73.40,62.60,68.94,240.00,7.00,0.00,29.97,M,3.73,M,SCT,M,M,M,3500.00,M,M,M,M,M,M,M,M,M,M,73.40,VHHH 050600Z 24007KT 6000 SCT035 23/17 Q1015 NOSIG
VHHH,2017-01-05 06:30,113.9219,22.3094,73.40,62.60,68.94,260.00,6.00,0.00,29.97,M,4.97,M,SCT,M,M,M,3500.00,M,M,M,M,M,M,M,M,M,M,73.40,VHHH 050630Z 26006KT 8000 SCT035 23/17 Q1015 NOSIG
VHHH,2017-01-05 07:00,113.9219,22.3094,73.40,62.60,68.94,270.00,5.00,0.00,29.97,M,6.21,M,SCT,M,M,M,3500.00,M,M,M,M,M,M,M,M,M,M,73.40,VHHH 050700Z 27005KT 9999 SCT035 23/17 Q1015 NOSIG
VHHH,2017-01-05 07:30,113.9219,22.3094,75.20,62.60,64.91,240.00,5.00,0.00,29.97,M,6.21,M,SCT,M,M,M,3500.00,M,M,M,M,M,M,M,M,M,M,75.20,VHHH 050730Z 24005KT 9999 SCT035 24/17 Q1015 NOSIG
VHHH,2017-01-05 08:00,113.9219,22.3094,75.20,62.60,64.91,260.00,4.00,0.00,29.94,M,6.21,M,SCT,M,M,M,4000.00,M,M,M,M,M,M,M,M,M,M,75.20,VHHH 050800Z 26004KT 210V290 9999 SCT040 24/17 Q1014 NOSIG
VHHH,2017-01-05 08:30,113.9219,22.3094,75.20,62.60,64.91,310.00,3.00,0.00,29.97,M,6.21,M,SCT,M,M,M,4000.00,M,M,M,M,M,M,M,M,M,M,75.20,VHHH 050830Z 31003KT 280V340 9999 SCT040 24/17 Q1015 NOSIG
VHHH,2017-01-05 09:00,113.9219,22.3094,73.40,62.60,68.94,300.00,5.00,0.00,29.97,M,4.97,M,SCT,M,M,M,4000.00,M,M,M,M,M,M,M,M,M,M,73.40,VHHH 050900Z 30005KT 8000 SCT040 23/17 Q1015 NOSIG
VHHH,2017-01-05 09:30,113.9219,22.3094,73.40,62.60,68.94,290.00,3.00,0.00,29.97,M,4.35,M,SCT,M,M,M,4000.00,M,M,M,M,M,M,M,M,M,M,73.40,VHHH 050930Z 29003KT 7000 SCT040 23/17 Q1015 NOSIG
VHHH,2017-01-05 10:00,113.9219,22.3094,73.40,62.60,68.94,M,2.00,0.00,30.00,M,5.59,M,SCT,M,M,M,4000.00,M,M,M,M,M,M,M,M,M,M,73.40,VHHH 051000Z VRB02KT 9000 SCT040 23/17 Q1016 NOSIG
VHHH,2017-01-05 10:30,113.9219,22.3094,73.40,60.80,64.69,260.00,2.00,0.00,30.00,M,6.21,M,FEW,M,M,M,4000.00,M,M,M,M,M,M,M,M,M,M,73.40,VHHH 051030Z 26002KT 9999 FEW040 23/16 Q1016 NOSIG
VHHH,2017-01-05 11:00,113.9219,22.3094,73.40,62.60,68.94,280.00,3.00,0.00,30.00,M,5.59,M,FEW,M,M,M,4000.00,M,M,M,M,M,M,M,M,M,M,73.40,VHHH 051100Z 28003KT 9000 FEW040 23/17 Q1016 NOSIG
VHHH,2017-01-05 11:30,113.9219,22.3094,73.40,62.60,68.94,M,2.00,0.00,30.00,M,5.59,M,FEW,M,M,M,4500.00,M,M,M,M,M,M,M,M,M,M,73.40,VHHH 051130Z VRB02KT 9000 FEW045 23/17 Q1016 NOSIG
VHHH,2017-01-05 12:00,113.9219,22.3094,73.40,62.60,68.94,70.00,3.00,0.00,30.00,M,4.97,M,FEW,M,M,M,4500.00,M,M,M,M,M,M,M,M,M,M,73.40,VHHH 051200Z 07003KT 040V130 8000 FEW045 23/17 Q1016 NOSIG
VHHH,2017-01-05 12:30,113.9219,22.3094,73.40,62.60,68.94,130.00,4.00,0.00,30.00,M,6.21,M,FEW,M,M,M,4500.00,M,M,M,M,M,M,M,M,M,M,73.40,VHHH 051230Z 13004KT 080V160 9999 FEW045 23/17 Q1016 NOSIG
VHHH,2017-01-05 13:00,113.9219,22.3094,73.40,62.60,68.94,70.00,5.00,0.00,30.03,M,6.21,M,FEW,M,M,M,4500.00,M,M,M,M,M,M,M,M,M,M,73.40,VHHH 051300Z 07005KT 9999 FEW045 23/17 Q1017 NOSIG
VHHH,2017-01-05 13:30,113.9219,22.3094,73.40,62.60,68.94,70.00,4.00,0.00,30.03,M,6.21,M,FEW,M,M,M,4500.00,M,M,M,M,M,M,M,M,M,M,73.40,VHHH 051330Z 07004KT 9999 FEW045 23/17 Q1017 NOSIG
VHHH,2017-01-05 14:00,113.9219,22.3094,73.40,62.60,68.94,120.00,3.00,0.00,30.03,M,6.21,M,FEW,M,M,M,4500.00,M,M,M,M,M,M,M,M,M,M,73.40,VHHH 051400Z 12003KT 030V190 9999 FEW045 23/17 Q1017 NOSIG
VHHH,2017-01-05 14:30,113.9219,22.3094,71.60,64.40,78.04,70.00,4.00,0.00,30.00,M,6.21,M,FEW,M,M,M,4500.00,M,M,M,M,M,M,M,M,M,M,71.60,VHHH 051430Z 07004KT 9999 FEW045 22/18 Q1016 NOSIG
VHHH,2017-01-05 15:00,113.9219,22.3094,71.60,62.60,73.27,90.00,3.00,0.00,30.00,M,6.21,M,M,M,M,M,M,M,M,M,M,M,M,M,M,M,M,71.60,VHHH 051500Z 09003KT 060V160 CAVOK 22/17 Q1016 NOSIG
VHHH,2017-01-05 15:30,113.9219,22.3094,69.80,62.60,77.90,100.00,7.00,0.00,30.00,M,5.59,M,NSC,M,M,M,M,M,M,M,M,M,M,M,M,M,M,69.80,VHHH 051530Z 10007KT 9000 NSC 21/17 Q1016 NOSIG
VHHH,2017-01-05 16:00,113.9219,22.3094,71.60,62.60,73.27,110.00,6.00,0.00,30.00,M,6.21,M,M,M,M,M,M,M,M,M,M,M,M,M,M,M,M,71.60,VHHH 051600Z 11006KT 080V150 CAVOK 22/17 Q1016 NOSIG
VHHH,2017-01-05 16:30,113.9219,22.3094,71.60,62.60,73.27,70.00,7.00,0.00,30.00,M,4.97,M,NSC,M,M,M,M,M,M,M,M,M,M,M,M,M,M,71.60,VHHH 051630Z 07007KT 8000 NSC 22/17 Q1016 NOSIG
VHHH,2017-01-05 17:00,113.9219,22.3094,71.60,62.60,73.27,80.00,10.00,0.00,30.00,M,5.59,M,NSC,M,M,M,M,M,M,M,M,M,M,M,M,M,M,71.60,VHHH 051700Z 08010KT 9000 NSC 22/17 Q1016 NOSIG
VHHH,2017-01-05 17:30,113.9219,22.3094,71.60,62.60,73.27,80.00,9.00,0.00,29.97,M,5.59,M,NSC,M,M,M,M,M,M,M,M,M,M,M,M,M,M,71.60,VHHH 051730Z 08009KT 9000 NSC 22/17 Q1015 NOSIG
VHHH,2017-01-05 18:00,113.9219,22.3094,71.60,62.60,73.27,80.00,10.00,0.00,29.97,M,6.21,M,M,M,M,M,M,M,M,M,M,M,M,M,M,M,M,71.60,VHHH 051800Z 08010KT CAVOK 22/17 Q1015 NOSIG
VHHH,2017-01-05 18:30,113.9219,22.3094,71.60,62.60,73.27,90.00,10.00,0.00,29.97,M,6.21,M,M,M,M,M,M,M,M,M,M,M,M,M,M,M,M,71.60,VHHH 051830Z 09010KT CAVOK 22/17 Q1015 NOSIG
VHHH,2017-01-05 19:00,113.9219,22.3094,71.60,62.60,73.27,60.00,10.00,0.00,29.94,M,5.59,M,NSC,M,M,M,M,M,M,M,M,M,M,M,M,M,M,71.60,VHHH 051900Z 06010KT 9000 NSC 22/17 Q1014 NOSIG
VHHH,2017-01-05 19:30,113.9219,22.3094,71.60,62.60,73.27,80.00,9.00,0.00,29.94,M,6.21,M,M,M,M,M,M,M,M,M,M,M,M,M,M,M,M,71.60,VHHH 051930Z 08009KT CAVOK 22/17 Q1014 NOSIG
VHHH,2017-01-05 20:00,113.9219,22.3094,71.60,62.60,73.27,60.00,8.00,0.00,29.94,M,5.59,M,NSC,M,M,M,M,M,M,M,M,M,M,M,M,M,M,71.60,VHHH 052000Z 06008KT 9000 NSC 22/17 Q1014 NOSIG
VHHH,2017-01-05 20:30,113.9219,22.3094,71.60,62.60,73.27,60.00,8.00,0.00,29.94,M,6.21,M,M,M,M,M,M,M,M,M,M,M,M,M,M,M,M,71.60,VHHH 052030Z 06008KT CAVOK 22/17 Q1014 NOSIG
VHHH,2017-01-05 21:00,113.9219,22.3094,69.80,62.60,77.90,60.00,9.00,0.00,29.94,M,6.21,M,M,M,M,M,M,M,M,M,M,M,M,M,M,M,M,69.80,VHHH 052100Z 06009KT CAVOK 21/17 Q1014 NOSIG
VHHH,2017-01-05 21:30,113.9219,22.3094,69.80,62.60,77.90,50.00,10.00,0.00,29.94,M,6.21,M,M,M,M,M,M,M,M,M,M,M,M,M,M,M,M,69.80,VHHH 052130Z 05010KT CAVOK 21/17 Q1014 NOSIG
VHHH,2017-01-05 22:00,113.9219,22.3094,68.00,64.40,88.26,340.00,6.00,0.00,29.97,M,3.73,M,NSC,M,M,M,M,M,M,M,M,M,M,M,M,M,M,68.00,VHHH 052200Z 34006KT 6000 NSC 20/18 Q1015 NOSIG
VHHH,2017-01-05 22:30,113.9219,22.3094,69.80,64.40,82.98,330.00,3.00,0.00,29.97,M,3.11,M,FEW,M,M,M,3500.00,M,M,M,M,M,M,M,M,M,M,69.80,VHHH 052230Z 33003KT 5000 FEW035 21/18 Q1015 NOSIG
VHHH,2017-01-05 23:00,113.9219,22.3094,68.00,64.40,88.26,350.00,3.00,0.00,29.97,M,2.92,M,FEW,M,M,M,3000.00,M,M,M,BR,M,M,M,M,M,M,68.00,VHHH 052300Z 35003KT 4700 BR FEW030 20/18 Q1015 NOSIG
VHHH,2017-01-05 23:26,113.9219,22.3094,68.00,62.60,82.86,M,1.00,0.00,29.97,M,1.80,M,FEW,M,M,M,3000.00,M,M,M,BR,M,M,M,M,M,M,68.00,VHHH 052326Z VRB01KT 2900 BR FEW030 20/17 Q1015 NOSIG
VHHH,2017-01-05 23:30,113.9219,22.3094,68.00,62.60,82.86,M,1.00,0.00,30.00,M,1.80,M,FEW,M,M,M,3000.00,M,M,M,BR,M,M,M,M,M,M,68.00,VHHH 052330Z VRB01KT 2900 BR FEW030 20/17 Q1016 NOSIG
VHHH,2017-01-05 23:42,113.9219,22.3094,68.00,62.60,82.86,M,3.00,0.00,30.00,M,3.73,M,FEW,M,M,M,3000.00,M,M,M,M,M,M,M,M,M,M,68.00,VHHH 052342Z VRB03KT 6000 FEW030 20/17 Q1016 NOSIG
VHHH,2017-01-06 00:00,113.9219,22.3094,68.00,62.60,82.86,M,2.00,0.00,30.00,M,3.73,M,FEW,M,M,M,3000.00,M,M,M,M,M,M,M,M,M,M,68.00,VHHH 060000Z VRB02KT 6000 FEW030 20/17 Q1016 NOSIG
VHHH,2017-01-06 00:30,113.9219,22.3094,69.80,66.20,88.34,290.00,3.00,0.00,30.00,M,3.73,M,NSC,M,M,M,M,M,M,M,M,M,M,M,M,M,M,69.80,VHHH 060030Z 29003KT 6000 NSC 21/19 Q1016 NOSIG
VHHH,2017-01-06 01:00,113.9219,22.3094,71.60,64.40,78.04,350.00,2.00,0.00,30.03,M,3.73,M,NSC,M,M,M,M,M,M,M,M,M,M,M,M,M,M,71.60,VHHH 060100Z 35002KT 6000 NSC 22/18 Q1017 NOSIG
VHHH,2017-01-06 01:30,113.9219,22.3094,73.40,64.40,73.44,340.00,4.00,0.00,30.03,M,3.11,M,FEW,M,M,M,3500.00,M,M,M,M,M,M,M,M,M,M,73.40,VHHH 060130Z 34004KT 5000 FEW035 23/18 Q1017 NOSIG
VHHH,2017-01-06 02:00,113.9219,22.3094,71.60,64.40,78.04,340.00,5.00,0.00,30.03,M,3.73,M,FEW,M,M,M,3500.00,M,M,M,M,M,M,M,M,M,M,71.60,VHHH 060200Z 34005KT 6000 FEW035 22/18 Q1017 NOSIG
VHHH,2017-01-06 02:30,113.9219,22.3094,71.60,64.40,78.04,340.00,7.00,0.00,30.03,M,3.73,M,FEW,M,M,M,3500.00,M,M,M,M,M,M,M,M,M,M,71.60,VHHH 060230Z 34007KT 6000 FEW035 22/18 Q1017 NOSIG
VHHH,2017-01-06 03:00,113.9219,22.3094,73.40,64.40,73.44,350.00,9.00,0.00,30.00,M,3.11,M,FEW,M,M,M,3500.00,M,M,M,M,M,M,M,M,M,M,73.40,VHHH 060300Z 35009KT 5000 FEW035 23/18 Q1016 NOSIG
VHHH,2017-01-06 03:23,113.9219,22.3094,75.20,64.40,69.14,330.00,6.00,0.00,30.00,M,2.98,M,FEW,M,M,M,3500.00,M,M,M,HZ,M,M,M,M,M,M,75.20,VHHH 060323Z 33006KT 4800 HZ FEW035 24/18 Q1016 NOSIG
VHHH,2017-01-06 03:30,113.9219,22.3094,73.40,64.40,73.44,330.00,6.00,0.00,30.00,M,2.55,M,FEW,M,M,M,3500.00,M,M,M,HZ,M,M,M,M,M,M,73.40,VHHH 060330Z 33006KT 4100 HZ FEW035 23/18 Q1016 NOSIG
VHHH,2017-01-06 04:00,113.9219,22.3094,73.40,64.40,73.44,330.00,6.00,0.00,29.97,M,2.17,M,FEW,M,M,M,3500.00,M,M,M,HZ,M,M,M,M,M,M,73.40,VHHH 060400Z 33006KT 3500 HZ FEW035 23/18 Q1015 NOSIG
VHHH,2017-01-06 04:30,113.9219,22.3094,75.20,64.40,69.14,330.00,8.00,0.00,29.97,M,3.11,M,FEW,M,M,M,3500.00,M,M,M,M,M,M,M,M,M,M,75.20,VHHH 060430Z 33008KT 5000 FEW035 24/18 Q1015 TEMPO 3500 HZ
VHHH,2017-01-06 04:37,113.9219,22.3094,75.20,66.20,73.61,340.00,9.00,0.00,29.97,M,3.04,M,FEW,M,M,M,3500.00,M,M,M,HZ,M,M,M,M,M,M,75.20,VHHH 060437Z 34009KT 4900 2300E HZ FEW035 24/19 Q1015 NOSIG
VHHH,2017-01-06 05:00,113.9219,22.3094,77.00,64.40,65.12,310.00,5.00,0.00,29.94,M,2.30,M,FEW,M,M,M,3500.00,M,M,M,HZ,M,M,M,M,M,M,77.00,VHHH 060500Z 31005KT 3700 HZ FEW035 25/18 Q1014 NOSIG
VHHH,2017-01-06 05:30,113.9219,22.3094,77.00,64.40,65.12,280.00,4.00,0.00,29.94,M,3.11,M,FEW,M,M,M,3500.00,M,M,M,M,M,M,M,M,M,M,77.00,VHHH 060530Z 28004KT 5000 FEW035 25/18 Q1014 TEMPO 4000 HZ
VHHH,2017-01-06 06:00,113.9219,22.3094,77.00,64.40,65.12,290.00,3.00,0.00,29.91,M,3.73,M,FEW,M,M,M,3500.00,M,M,M,M,M,M,M,M,M,M,77.00,VHHH 060600Z 29003KT 6000 FEW035 25/18 Q1013 TEMPO 4000 HZ
VHHH,2017-01-06 06:30,113.9219,22.3094,77.00,64.40,65.12,290.00,4.00,0.00,29.91,M,3.73,M,FEW,M,M,M,3500.00,M,M,M,M,M,M,M,M,M,M,77.00,VHHH 060630Z 29004KT 6000 FEW035 25/18 Q1013 TEMPO 4000 HZ
VHHH,2017-01-06 07:00,113.9219,22.3094,77.00,64.40,65.12,270.00,5.00,0.00,29.91,M,4.35,M,FEW,M,M,M,3500.00,M,M,M,M,M,M,M,M,M,M,77.00,VHHH 060700Z 27005KT 7000 FEW035 25/18 Q1013 NOSIG
VHHH,2017-01-06 07:30,113.9219,22.3094,77.00,62.60,61.13,260.00,6.00,0.00,29.91,M,4.97,M,FEW,M,M,M,3500.00,M,M,M,M,M,M,M,M,M,M,77.00,VHHH 060730Z 26006KT 8000 FEW035 25/17 Q1013 NOSIG
VHHH,2017-01-06 08:00,113.9219,22.3094,77.00,62.60,61.13,260.00,6.00,0.00,29.91,M,4.97,M,FEW,M,M,M,3500.00,M,M,M,M,M,M,M,M,M,M,77.00,VHHH 060800Z 26006KT 8000 FEW035 25/17 Q1013 NOSIG
VHHH,2017-01-06 08:30,113.9219,22.3094,77.00,62.60,61.13,290.00,4.00,0.00,29.91,M,3.11,M,FEW,M,M,M,3500.00,M,M,M,M,M,M,M,M,M,M,77.00,VHHH 060830Z 29004KT 5000 FEW035 25/17 Q1013 NOSIG
VHHH,2017-01-06 09:00,113.9219,22.3094,77.00,60.80,57.36,300.00,5.00,0.00,29.91,M,3.73,M,FEW,M,M,M,3500.00,M,M,M,M,M,M,M,M,M,M,77.00,VHHH 060900Z 30005KT 6000 FEW035 25/16 Q1013 NOSIG
VHHH,2017-01-06 09:30,113.9219,22.3094,77.00,60.80,57.36,360.00,4.00,0.00,29.91,M,3.73,M,FEW,M,M,M,3500.00,M,M,M,M,M,M,M,M,M,M,77.00,VHHH 060930Z 36004KT 310V050 6000 FEW035 25/16 Q1013 NOSIG
VHHH,2017-01-06 10:00,113.9219,22.3094,75.20,60.80,60.90,110.00,9.00,0.00,29.91,M,6.21,M,FEW,M,M,M,3500.00,M,M,M,M,M,M,M,M,M,M,75.20,VHHH 061000Z 11009KT 9999 FEW035 24/16 Q1013 NOSIG
VHHH,2017-01-06 10:30,113.9219,22.3094,75.20,60.80,60.90,100.00,9.00,0.00,29.94,M,6.21,M,FEW,M,M,M,3500.00,M,M,M,M,M,M,M,M,M,M,75.20,VHHH 061030Z 10009KT 050V150 9999 FEW035 24/16 Q1014 NOSIG
VHHH,2017-01-06 11:00,113.9219,22.3094,75.20,60.80,60.90,80.00,10.00,0.00,29.94,M,6.21,M,FEW,M,M,M,3500.00,M,M,M,M,M,M,M,M,M,M,75.20,VHHH 061100Z 08010KT 9999 FEW035 24/16 Q1014 NOSIG
VHHH,2017-01-06 11:30,113.9219,22.3094,73.40,60.80,64.69,100.00,11.00,0.00,29.94,M,6.21,M,FEW,M,M,M,3500.00,M,M,M,M,M,M,M,M,M,M,73.40,VHHH 061130Z 10011KT 9999 FEW035 23/16 Q1014 NOSIG
VHHH,2017-01-06 12:00,113.9219,22.3094,73.40,60.80,64.69,100.00,11.00,0.00,29.94,M,6.21,M,FEW,M,M,M,3500.00,M,M,M,M,M,M,M,M,M,M,73.40,VHHH 061200Z 10011KT 9999 FEW035 23/16 Q1014 NOSIG
VHHH,2017-01-06 12:30,113.9219,22.3094,73.40,60.80,64.69,90.00,12.00,0.00,29.94,M,6.21,M,FEW,M,M,M,3500.00,M,M,M,M,M,M,M,M,M,M,73.40,VHHH 061230Z 09012KT 9999 FEW035 23/16 Q1014 NOSIG
VHHH,2017-01-06 13:00,113.9219,22.3094,71.60,64.40,78.04,100.00,15.00,0.00,29.94,M,5.59,M,FEW,M,M,M,3500.00,M,M,M,M,M,M,M,M,M,M,71.60,VHHH 061300Z 10015KT 9000 FEW035 22/18 Q1014 NOSIG
VHHH,2017-01-06 13:30,113.9219,22.3094,71.60,64.40,78.04,80.00,13.00,0.00,29.97,M,4.97,M,FEW,M,M,M,3500.00,M,M,M,M,M,M,M,M,M,M,71.60,VHHH 061330Z 08013KT 8000 FEW035 22/18 Q1015 NOSIG
VHHH,2017-01-06 14:00,113.9219,22.3094,71.60,64.40,78.04,100.00,12.00,0.00,29.97,M,4.97,M,FEW,M,M,M,3500.00,M,M,M,M,M,M,M,M,M,M,71.60,VHHH 061400Z 10012KT 8000 FEW035 22/18 Q1015 NOSIG
VHHH,2017-01-06 14:30,113.9219,22.3094,71.60,64.40,78.04,100.00,11.00,0.00,29.97,M,4.97,M,FEW,M,M,M,4000.00,M,M,M,M,M,M,M,M,M,M,71.60,VHHH 061430Z 10011KT 8000 FEW040 22/18 Q1015 NOSIG
VHHH,2017-01-06 15:00,113.9219,22.3094,71.60,64.40,78.04,110.00,12.00,0.00,29.97,M,5.59,M,FEW,M,M,M,3000.00,M,M,M,M,M,M,M,M,M,M,71.60,VHHH 061500Z 11012KT 9000 FEW030 22/18 Q1015 NOSIG
VHHH,2017-01-06 15:30,113.9219,22.3094,71.60,64.40,78.04,110.00,12.00,0.00,29.97,M,5.59,M,FEW,M,M,M,3000.00,M,M,M,M,M,M,M,M,M,M,71.60,VHHH 061530Z 11012KT 9000 FEW030 22/18 Q1015 NOSIG
VHHH,2017-01-06 16:00,113.9219,22.3094,71.60,64.40,78.04,90.00,9.00,0.00,29.97,M,5.59,M,FEW,M,M,M,3000.00,M,M,M,M,M,M,M,M,M,M,71.60,VHHH 061600Z 09009KT 9000 FEW030 22/18 Q1015 NOSIG
VHHH,2017-01-06 16:30,113.9219,22.3094,69.80,64.40,82.98,110.00,12.00,0.00,29.94,M,4.97,M,FEW,M,M,M,3000.00,M,M,M,M,M,M,M,M,M,M,69.80,VHHH 061630Z 11012KT 8000 FEW030 21/18 Q1014 NOSIG
VHHH,2017-01-06 17:00,113.9219,22.3094,71.60,64.40,78.04,100.00,10.00,0.00,29.94,M,4.97,M,FEW,M,M,M,3000.00,M,M,M,M,M,M,M,M,M,M,71.60,VHHH 061700Z 10010KT 080V140 8000 FEW030 22/18 Q1014 NOSIG
VHHH,2017-01-06 17:30,113.9219,22.3094,69.80,64.40,82.98,110.00,12.00,0.00,29.94,M,4.97,M,FEW,M,M,M,3000.00,M,M,M,M,M,M,M,M,M,M,69.80,VHHH 061730Z 11012KT 8000 FEW030 21/18 Q1014 NOSIG
VHHH,2017-01-06 18:00,113.9219,22.3094,69.80,64.40,82.98,100.00,10.00,0.00,29.94,M,4.97,M,FEW,M,M,M,3000.00,M,M,M,M,M,M,M,M,M,M,69.80,VHHH 061800Z 10010KT 8000 FEW030 21/18 Q1014 NOSIG
VHHH,2017-01-06 18:30,113.9219,22.3094,69.80,64.40,82.98,90.00,11.00,0.00,29.94,M,4.97,M,FEW,M,M,M,3000.00,M,M,M,M,M,M,M,M,M,M,69.80,VHHH 061830Z 09011KT 8000 FEW030 21/18 Q1014 NOSIG
VHHH,2017-01-06 19:00,113.9219,22.3094,69.80,64.40,82.98,90.00,13.00,0.00,29.94,M,4.97,M,FEW,M,M,M,3000.00,M,M,M,M,M,M,M,M,M,M,69.80,VHHH 061900Z 09013KT 8000 FEW030 21/18 Q1014 NOSIG
VHHH,2017-01-06 19:30,113.9219,22.3094,69.80,62.60,77.90,100.00,12.00,0.00,29.91,M,5.59,M,FEW,M,M,M,3000.00,M,M,M,M,M,M,M,M,M,M,69.80,VHHH 061930Z 10012KT 9000 FEW030 21/17 Q1013 NOSIG
VHHH,2017-01-06 20:00,113.9219,22.3094,69.80,62.60,77.90,100.00,13.00,0.00,29.91,M,5.59,M,FEW,M,M,M,3000.00,M,M,M,M,M,M,M,M,M,M,69.80,VHHH 062000Z 10013KT 9000 FEW030 21/17 Q1013 NOSIG
VHHH,2017-01-06 20:30,113.9219,22.3094,69.80,62.60,77.90,100.00,13.00,0.00,29.91,M,5.59,M,FEW,M,M,M,3000.00,M,M,M,M,M,M,M,M,M,M,69.80,VHHH 062030Z 10013KT 9000 FEW030 21/17 Q1013 NOSIG
VHHH,2017-01-06 21:00,113.9219,22.3094,69.80,62.60,77.90,100.00,13.00,0.00,29.91,M,6.21,M,FEW,M,M,M,3000.00,M,M,M,M,M,M,M,M,M,M,69.80,VHHH 062100Z 10013KT 9999 FEW030 21/17 Q1013 NOSIG
VHHH,2017-01-06 21:30,113.9219,22.3094,69.80,62.60,77.90,90.00,12.00,0.00,29.91,M,6.21,M,FEW,M,M,M,3000.00,M,M,M,M,M,M,M,M,M,M,69.80,VHHH 062130Z 09012KT 9999 FEW030 21/17 Q1013 NOSIG
VHHH,2017-01-06 22:00,113.9219,22.3094,69.80,62.60,77.90,100.00,15.00,0.00,29.91,M,6.21,M,FEW,M,M,M,3000.00,M,M,M,M,M,M,M,M,M,M,69.80,VHHH 062200Z 10015KT 9999 FEW030 21/17 Q1013 NOSIG
VHHH,2017-01-06 22:30,113.9219,22.3094,69.80,60.80,73.09,100.00,15.00,0.00,29.91,M,6.21,M,FEW,M,M,M,3000.00,M,M,M,M,M,M,M,M,M,M,69.80,VHHH 062230Z 10015KT 9999 FEW030 21/16 Q1013 NOSIG
VHHH,2017-01-06 23:00,113.9219,22.3094,69.80,60.80,73.09,100.00,13.00,0.00,29.94,M,6.21,M,FEW,M,M,M,3000.00,M,M,M,M,M,M,M,M,M,M,69.80,VHHH 062300Z 10013KT 9999 FEW030 21/16 Q1014 NOSIG
VHHH,2017-01-06 23:30,113.9219,22.3094,69.80,60.80,73.09,110.00,15.00,0.00,29.94,M,6.21,M,FEW,M,M,M,3000.00,M,M,M,M,M,M,M,M,M,M,69.80,VHHH 062330Z 11015KT 9999 FEW030 21/16 Q1014 NOSIG
VHHH,2017-01-07 00:00,113.9219,22.3094,69.80,60.80,73.09,110.00,12.00,0.00,29.94,M,6.21,M,FEW,M,M,M,2500.00,M,M,M,M,M,M,M,M,M,M,69.80,VHHH 070000Z 11012KT 9999 FEW025 21/16 Q1014 NOSIG
VHHH,2017-01-07 00:30,113.9219,22.3094,71.60,60.80,68.75,100.00,12.00,0.00,29.97,M,6.21,M,FEW,M,M,M,2500.00,M,M,M,M,M,M,M,M,M,M,71.60,VHHH 070030Z 10012KT 9999 FEW025 22/16 Q1015 NOSIG
VHHH,2017-01-07 01:00,113.9219,22.3094,71.60,60.80,68.75,110.00,14.00,0.00,29.97,M,6.21,M,FEW,M,M,M,2500.00,M,M,M,M,M,M,M,M,M,M,71.60,VHHH 070100Z 11014KT 9999 FEW025 22/16 Q1015 NOSIG
VHHH,2017-01-07 01:30,113.9219,22.3094,71.60,60.80,68.75,110.00,11.00,0.00,29.97,M,6.21,M,FEW,M,M,M,3500.00,M,M,M,M,M,M,M,M,M,M,71.60,VHHH 070130Z 11011KT 9999 FEW035 22/16 Q1015 NOSIG
VHHH,2017-01-07 02:00,113.9219,22.3094,75.20,60.80,60.90,100.00,11.00,0.00,29.97,M,6.21,M,FEW,M,M,M,3500.00,M,M,M,M,M,M,M,M,M,M,75.20,VHHH 070200Z 10011KT 9999 FEW035 24/16 Q1015 NOSIG
VHHH,2017-01-07 02:30,113.9219,22.3094,75.20,60.80,60.90,110.00,10.00,0.00,29.97,M,6.21,M,FEW,M,M,M,3500.00,M,M,M,M,M,M,M,M,M,M,75.20,VHHH 070230Z 11010KT 080V140 9999 FEW035 24/16 Q1015 NOSIG
VHHH,2017-01-07 03:00,113.9219,22.3094,77.00,60.80,57.36,90.00,10.00,0.00,29.94,M,6.21,M,FEW,M,M,M,3500.00,M,M,M,M,M,M,M,M,M,M,77.00,VHHH 070300Z 09010KT 9999 FEW035 25/16 Q1014 NOSIG
VHHH,2017-01-07 03:30,113.9219,22.3094,77.00,60.80,57.36,80.00,11.00,0.00,29.94,M,6.21,M,FEW,M,M,M,3500.00,M,M,M,M,M,M,M,M,M,M,77.00,VHHH 070330Z 08011KT 9999 FEW035 25/16 Q1014 NOSIG
VHHH,2017-01-07 04:30,113.9219,22.3094,78.80,60.80,54.05,80.00,11.00,0.00,29.91,M,6.21,M,FEW,M,M,M,3000.00,M,M,M,M,M,M,M,M,M,M,78.80,VHHH 070430Z 08011KT 060V120 9999 FEW030 26/16 Q1013 NOSIG
VHHH,2017-01-07 05:00,113.9219,22.3094,80.60,60.80,50.95,290.00,6.00,0.00,29.88,M,6.21,M,FEW,M,M,M,3000.00,M,M,M,M,M,M,M,M,M,M,81.46,VHHH 070500Z 29006KT 240V010 9999 FEW030 27/16 Q1012 NOSIG
VHHH,2017-01-07 05:30,113.9219,22.3094,77.00,62.60,61.13,270.00,8.00,0.00,29.88,M,6.21,M,FEW,M,M,M,3000.00,M,M,M,M,M,M,M,M,M,M,77.00,VHHH 070530Z 27008KT 9999 FEW030 25/17 Q1012 NOSIG
VHHH,2017-01-07 06:00,113.9219,22.3094,77.00,64.40,65.12,260.00,10.00,0.00,29.88,M,6.21,M,FEW,M,M,M,3000.00,M,M,M,M,M,M,M,M,M,M,77.00,VHHH 070600Z 26010KT 9999 FEW030 25/18 Q1012 NOSIG
VHHH,2017-01-07 06:30,113.9219,22.3094,75.20,64.40,69.14,260.00,9.00,0.00,29.85,M,6.21,M,FEW,M,M,M,3000.00,M,M,M,M,M,M,M,M,M,M,75.20,VHHH 070630Z 26009KT 9999 FEW030 24/18 Q1011 NOSIG
VHHH,2017-01-07 07:00,113.9219,22.3094,75.20,62.60,64.91,260.00,8.00,0.00,29.85,M,6.21,M,FEW,M,M,M,3000.00,M,M,M,M,M,M,M,M,M,M,75.20,VHHH 070700Z 26008KT 9999 FEW030 24/17 Q1011 NOSIG
VHHH,2017-01-07 07:30,113.9219,22.3094,77.00,62.60,61.13,270.00,6.00,0.00,29.85,M,6.21,M,FEW,M,M,M,3000.00,M,M,M,M,M,M,M,M,M,M,77.00,VHHH 070730Z 27006KT 9999 FEW030 25/17 Q1011 NOSIG
VHHH,2017-01-07 08:00,113.9219,22.3094,75.20,62.60,64.91,260.00,6.00,0.00,29.85,M,6.21,M,FEW,M,M,M,3000.00,M,M,M,M,M,M,M,M,M,M,75.20,VHHH 070800Z 26006KT 9999 FEW030 24/17 Q1011 NOSIG
VHHH,2017-01-07 08:30,113.9219,22.3094,75.20,62.60,64.91,270.00,5.00,0.00,29.85,M,6.21,M,FEW,M,M,M,3000.00,M,M,M,M,M,M,M,M,M,M,75.20,VHHH 070830Z 27005KT 9999 FEW030 24/17 Q1011 NOSIG
VHHH,2017-01-07 09:00,113.9219,22.3094,75.20,62.60,64.91,280.00,4.00,0.00,29.88,M,6.21,M,FEW,M,M,M,3000.00,M,M,M,M,M,M,M,M,M,M,75.20,VHHH 070900Z 28004KT 9999 FEW030 24/17 Q1012 NOSIG
VHHH,2017-01-07 09:30,113.9219,22.3094,73.40,62.60,68.94,290.00,3.00,0.00,29.88,M,6.21,M,FEW,M,M,M,3500.00,M,M,M,M,M,M,M,M,M,M,73.40,VHHH 070930Z 29003KT 9999 FEW035 23/17 Q1012 NOSIG
VHHH,2017-01-07 10:00,113.9219,22.3094,73.40,62.60,68.94,M,3.00,0.00,29.88,M,6.21,M,FEW,M,M,M,3500.00,M,M,M,M,M,M,M,M,M,M,73.40,VHHH 071000Z VRB03KT 290V020 9999 FEW035 23/17 Q1012 NOSIG
VHHH,2017-01-07 10:30,113.9219,22.3094,75.20,62.60,64.91,20.00,3.00,0.00,29.88,M,5.59,M,FEW,M,M,M,3500.00,M,M,M,M,M,M,M,M,M,M,75.20,VHHH 071030Z 02003KT 9000 FEW035 24/17 Q1012 NOSIG
VHHH,2017-01-07 11:00,113.9219,22.3094,73.40,62.60,68.94,30.00,3.00,0.00,29.88,M,5.59,M,FEW,M,M,M,3500.00,M,M,M,M,M,M,M,M,M,M,73.40,VHHH 071100Z 03003KT 9000 FEW035 23/17 Q1012 NOSIG
VHHH,2017-01-07 11:30,113.9219,22.3094,73.40,64.40,73.44,60.00,4.00,0.00,29.91,M,5.59,M,FEW,M,M,M,3500.00,M,M,M,M,M,M,M,M,M,M,73.40,VHHH 071130Z 06004KT 9000 FEW035 23/18 Q1013 NOSIG
VHHH,2017-01-07 12:00,113.9219,22.3094,71.60,64.40,78.04,70.00,5.00,0.00,29.91,M,5.59,M,FEW,M,M,M,3500.00,M,M,M,M,M,M,M,M,M,M,71.60,VHHH 071200Z 07005KT 9000 FEW035 22/18 Q1013 NOSIG
VHHH,2017-01-07 12:30,113.9219,22.3094,73.40,64.40,73.44,110.00,4.00,0.00,29.91,M,6.21,M,FEW,M,M,M,3500.00,M,M,M,M,M,M,M,M,M,M,73.40,VHHH 071230Z 11004KT 080V160 9999 FEW035 23/18 Q1013 NOSIG
VHHH,2017-01-07 13:00,113.9219,22.3094,71.60,62.60,73.27,90.00,4.00,0.00,29.91,M,6.21,M,FEW,M,M,M,3500.00,M,M,M,M,M,M,M,M,M,M,71.60,VHHH 071300Z 09004KT 050V160 9999 FEW035 22/17 Q1013 NOSIG
VHHH,2017-01-07 13:30,113.9219,22.3094,73.40,62.60,68.94,60.00,6.00,0.00,29.91,M,5.59,M,FEW,M,M,M,3500.00,M,M,M,M,M,M,M,M,M,M,73.40,VHHH 071330Z 06006KT 9000 FEW035 23/17 Q1013 NOSIG
VHHH,2017-01-07 14:00,113.9219,22.3094,71.60,62.60,73.27,50.00,8.00,0.00,29.91,M,4.97,M,FEW,M,M,M,3500.00,M,M,M,M,M,M,M,M,M,M,71.60,VHHH 071400Z 05008KT 8000 FEW035 22/17 Q1013 NOSIG
VHHH,2017-01-07 14:30,113.9219,22.3094,71.60,62.60,73.27,60.00,5.00,0.00,29.91,M,5.59,M,FEW,M,M,M,3500.00,M,M,M,M,M,M,M,M,M,M,71.60,VHHH 071430Z 06005KT 9000 FEW035 22/17 Q1013 NOSIG
VHHH,2017-01-07 15:00,113.9219,22.3094,73.40,62.60,68.94,60.00,6.00,0.00,29.94,M,4.97,M,FEW,M,M,M,3500.00,M,M,M,M,M,M,M,M,M,M,73.40,VHHH 071500Z 06006KT 8000 FEW035 23/17 Q1014 NOSIG
VHHH,2017-01-07 15:30,113.9219,22.3094,71.60,64.40,78.04,60.00,3.00,0.00,29.94,M,6.21,M,FEW,M,M,M,3500.00,M,M,M,M,M,M,M,M,M,M,71.60,VHHH 071530Z 06003KT 9999 FEW035 22/18 Q1014 NOSIG
VHHH,2017-01-07 16:00,113.9219,22.3094,71.60,64.40,78.04,M,2.00,0.00,29.91,M,5.59,M,FEW,M,M,M,3500.00,M,M,M,M,M,M,M,M,M,M,71.60,VHHH 071600Z VRB02KT 9000 FEW035 22/18 Q1013 NOSIG
VHHH,2017-01-07 16:30,113.9219,22.3094,71.60,64.40,78.04,M,3.00,0.00,29.91,M,4.97,M,FEW,M,M,M,3500.00,M,M,M,M,M,M,M,M,M,M,71.60,VHHH 071630Z VRB03KT 8000 FEW035 22/18 Q1013 NOSIG
VHHH,2017-01-07 17:00,113.9219,22.3094,71.60,64.40,78.04,290.00,2.00,0.00,29.91,M,5.59,M,FEW,M,M,M,3500.00,M,M,M,M,M,M,M,M,M,M,71.60,VHHH 071700Z 29002KT 9000 FEW035 22/18 Q1013 NOSIG
VHHH,2017-01-07 17:30,113.9219,22.3094,71.60,66.20,83.09,M,2.00,0.00,29.91,M,5.59,M,FEW,M,M,M,3500.00,M,M,M,M,M,M,M,M,M,M,71.60,VHHH 071730Z VRB02KT 9000 FEW035 22/19 Q1013 NOSIG
VHHH,2017-01-07 18:00,113.9219,22.3094,71.60,66.20,83.09,330.00,3.00,0.00,29.91,M,3.73,M,FEW,M,M,M,3500.00,M,M,M,M,M,M,M,M,M,M,71.60,VHHH 071800Z 33003KT 6000 FEW035 22/19 Q1013 NOSIG
VHHH,2017-01-07 18:30,113.9219,22.3094,71.60,66.20,83.09,320.00,3.00,0.00,29.91,M,3.11,M,FEW,M,M,M,3500.00,M,M,M,M,M,M,M,M,M,M,71.60,VHHH 071830Z 32003KT 5000 FEW035 22/19 Q1013 TEMPO 4000 BR
VHHH,2017-01-07 18:52,113.9219,22.3094,71.60,66.20,83.09,M,2.00,0.00,29.91,M,3.04,M,FEW,M,M,M,3500.00,M,M,M,BR,M,M,M,M,M,M,71.60,VHHH 071852Z VRB02KT 4900 BR FEW035 22/19 Q1013 NOSIG
VHHH,2017-01-07 19:00,113.9219,22.3094,71.60,66.20,83.09,330.00,2.00,0.00,29.91,M,3.11,M,FEW,M,M,M,3500.00,M,M,M,M,M,M,M,M,M,M,71.60,VHHH 071900Z 33002KT 5000 FEW035 22/19 Q1013 TEMPO 4000 BR
VHHH,2017-01-07 19:30,113.9219,22.3094,69.80,66.20,88.34,350.00,3.00,0.00,29.88,M,3.11,M,FEW,M,M,M,3500.00,M,M,M,M,M,M,M,M,M,M,69.80,VHHH 071930Z 35003KT 5000 FEW035 21/19 Q1012 TEMPO 4000 BR
VHHH,2017-01-07 20:00,113.9219,22.3094,71.60,66.20,83.09,320.00,3.00,0.00,29.88,M,3.73,M,FEW,M,M,M,3500.00,M,M,M,M,M,M,M,M,M,M,71.60,VHHH 072000Z 32003KT 6000 FEW035 22/19 Q1012 TEMPO 4000 BR
VHHH,2017-01-07 20:30,113.9219,22.3094,71.60,66.20,83.09,320.00,2.00,0.00,29.88,M,3.11,M,FEW,M,M,M,2500.00,M,M,M,M,M,M,M,M,M,M,71.60,VHHH 072030Z 32002KT 5000 FEW025 22/19 Q1012 TEMPO 4000 BR
VHHH,2017-01-07 21:00,113.9219,22.3094,69.80,66.20,88.34,350.00,2.00,0.00,29.88,M,3.73,M,FEW,M,M,M,3000.00,M,M,M,M,M,M,M,M,M,M,69.80,VHHH 072100Z 35002KT 6000 FEW030 21/19 Q1012 NOSIG
VHHH,2017-01-07 21:30,113.9219,22.3094,69.80,66.20,88.34,360.00,4.00,0.00,29.88,M,3.73,M,FEW,M,M,M,3500.00,M,M,M,M,M,M,M,M,M,M,69.80,VHHH 072130Z 36004KT 6000 FEW035 21/19 Q1012 NOSIG
VHHH,2017-01-07 22:00,113.9219,22.3094,69.80,66.20,88.34,350.00,3.00,0.00,29.91,M,3.11,M,FEW,M,M,M,3500.00,M,M,M,M,M,M,M,M,M,M,69.80,VHHH 072200Z 35003KT 5000 FEW035 21/19 Q1013 TEMPO 4000 BR
VHHH,2017-01-07 22:30,113.9219,22.3094,69.80,64.40,82.98,M,1.00,0.00,29.91,M,3.11,M,FEW,M,M,M,3500.00,M,M,M,M,M,M,M,M,M,M,69.80,VHHH 072230Z VRB01KT 5000 FEW035 21/18 Q1013 TEMPO 4000 BR
VHHH,2017-01-07 23:00,113.9219,22.3094,69.80,64.40,82.98,M,2.00,0.00,29.91,M,3.11,M,FEW,M,M,M,3500.00,M,M,M,M,M,M,M,M,M,M,69.80,VHHH 072300Z VRB02KT 5000 FEW035 21/18 Q1013 TEMPO 4000 BR
VHHH,2017-01-07 23:06,113.9219,22.3094,71.60,64.40,78.04,60.00,3.00,0.00,29.91,M,2.92,M,FEW,M,M,M,3500.00,M,M,M,BR,M,M,M,M,M,M,71.60,VHHH 072306Z 06003KT 4700 BR FEW035 22/18 Q1013 NOSIG
VHHH,2017-01-07 23:30,113.9219,22.3094,69.80,64.40,82.98,70.00,3.00,0.00,29.94,M,3.73,M,FEW,M,M,M,3500.00,M,M,M,M,M,M,M,M,M,M,69.80,VHHH 072330Z 07003KT 6000 3000N FEW035 21/18 Q1014 NOSIG
VHHH,2017-01-07 23:55,113.9219,22.3094,71.60,64.40,78.04,50.00,4.00,0.00,29.94,M,2.86,M,FEW,M,M,M,3500.00,M,M,M,HZ,M,M,M,M,M,M,71.60,VHHH 072355Z 05004KT 4600 HZ FEW035 22/18 Q1014 NOSIG
VHHH,2017-01-08 00:00,113.9219,22.3094,71.60,64.40,78.04,50.00,5.00,0.00,29.94,M,2.73,M,FEW,M,M,M,3500.00,M,M,M,HZ,M,M,M,M,M,M,71.60,VHHH 080000Z 05005KT 4400 HZ FEW035 22/18 Q1014 NOSIG
VHHH,2017-01-08 00:13,113.9219,22.3094,73.40,64.40,73.44,70.00,4.00,0.00,29.94,M,3.11,M,FEW,M,M,M,3500.00,M,M,M,M,M,M,M,M,M,M,73.40,VHHH 080013Z 07004KT 5000 FEW035 23/18 Q1014 TEMPO 4000 HZ
VHHH,2017-01-08 00:30,113.9219,22.3094,71.60,64.40,78.04,70.00,4.00,0.00,29.94,M,3.73,M,FEW,M,M,M,3500.00,M,M,M,M,M,M,M,M,M,M,71.60,VHHH 080030Z 07004KT 050V110 6000 FEW035 22/18 Q1014 TEMPO 4000 HZ
VHHH,2017-01-08 01:00,113.9219,22.3094,73.40,64.40,73.44,50.00,6.00,0.00,29.97,M,3.11,M,FEW,M,M,M,3500.00,M,M,M,M,M,M,M,M,M,M,73.40,VHHH 080100Z 05006KT 5000 FEW035 23/18 Q1015 TEMPO 4000 HZ
VHHH,2017-01-08 01:30,113.9219,22.3094,75.20,64.40,69.14,40.00,5.00,0.00,29.97,M,3.73,M,FEW,M,M,M,3500.00,M,M,M,M,M,M,M,M,M,M,75.20,VHHH 080130Z 04005KT 6000 FEW035 24/18 Q1015 TEMPO 4000 HZ
VHHH,2017-01-08 02:00,113.9219,22.3094,77.00,62.60,61.13,350.00,6.00,0.00,29.97,M,3.11,M,FEW,M,M,M,3500.00,M,M,M,M,M,M,M,M,M,M,77.00,VHHH 080200Z 35006KT 5000 FEW035 25/17 Q1015 TEMPO 4000 HZ
VHHH,2017-01-08 02:30,113.9219,22.3094,73.40,64.40,73.44,330.00,8.00,0.00,29.97,M,3.11,M,FEW,M,M,M,3500.00,M,M,M,M,M,M,M,M,M,M,73.40,VHHH 080230Z 33008KT 5000 FEW035 23/18 Q1015 TEMPO 4000 HZ
VHHH,2017-01-08 02:47,113.9219,22.3094,73.40,64.40,73.44,310.00,7.00,0.00,29.97,M,3.04,M,FEW,M,M,M,3500.00,M,M,M,HZ,M,M,M,M,M,M,73.40,VHHH 080247Z 31007KT 4900 HZ FEW035 23/18 Q1015 NOSIG
VHHH,2017-01-08 03:00,113.9219,22.3094,75.20,64.40,69.14,310.00,6.00,0.00,29.97,M,2.92,M,FEW,M,M,M,3500.00,M,M,M,HZ,M,M,M,M,M,M,75.20,VHHH 080300Z 31006KT 4700 HZ FEW035 24/18 Q1015 NOSIG
VHHH,2017-01-08 03:30,113.9219,22.3094,77.00,64.40,65.12,300.00,6.00,0.00,29.94,M,2.67,M,FEW,M,M,M,3500.00,M,M,M,HZ,M,M,M,M,M,M,77.00,VHHH 080330Z 30006KT 4300 HZ FEW035 25/18 Q1014 NOSIG
VHHH,2017-01-08 03:52,113.9219,22.3094,77.00,66.20,69.33,300.00,6.00,0.00,29.94,M,1.62,M,FEW,M,M,M,3500.00,M,M,M,HZ,M,M,M,M,M,M,77.00,VHHH 080352Z 30006KT 2600 HZ FEW035 25/19 Q1014 NOSIG
VHHH,2017-01-08 04:00,113.9219,22.3094,77.00,66.20,69.33,300.00,6.00,0.00,29.94,M,1.49,M,FEW,M,M,M,3500.00,M,M,M,HZ,M,M,M,M,M,M,77.00,VHHH 080400Z 30006KT 2400 HZ FEW035 25/19 Q1014 NOSIG
VHHH,2017-01-08 04:30,113.9219,22.3094,77.00,64.40,65.12,300.00,7.00,0.00,29.91,M,1.43,M,FEW,M,M,M,3500.00,M,M,M,HZ,M,M,M,M,M,M,77.00,VHHH 080430Z 30007KT 2300 HZ FEW035 25/18 Q1013 NOSIG
VHHH,2017-01-08 05:00,113.9219,22.3094,78.80,64.40,61.36,300.00,5.00,0.00,29.88,M,1.49,M,FEW,M,M,M,3000.00,M,M,M,HZ,M,M,M,M,M,M,80.56,VHHH 080500Z 30005KT 2400 HZ FEW030 26/18 Q1012 NOSIG
VHHH,2017-01-08 05:30,113.9219,22.3094,77.00,64.40,65.12,290.00,5.00,0.00,29.88,M,1.80,M,FEW,M,M,M,3000.00,M,M,M,HZ,M,M,M,M,M,M,77.00,VHHH 080530Z 29005KT 2900 HZ FEW030 25/18 Q1012 NOSIG
VHHH,2017-01-08 06:00,113.9219,22.3094,78.80,64.40,61.36,300.00,4.00,0.00,29.85,M,1.86,M,FEW,M,M,M,3000.00,M,M,M,HZ,M,M,M,M,M,M,80.56,VHHH 080600Z 30004KT 3000 HZ FEW030 26/18 Q1011 NOSIG
VHHH,2017-01-08 06:30,113.9219,22.3094,77.00,64.40,65.12,290.00,4.00,0.00,29.85,M,1.86,M,FEW,M,M,M,2500.00,M,M,M,HZ,M,M,M,M,M,M,77.00,VHHH 080630Z 29004KT 3000 HZ FEW025 25/18 Q1011 NOSIG
VHHH,2017-01-08 07:00,113.9219,22.3094,78.80,64.40,61.36,280.00,5.00,0.00,29.85,M,2.17,M,FEW,M,M,M,2500.00,M,M,M,HZ,M,M,M,M,M,M,80.56,VHHH 080700Z 28005KT 3500 HZ FEW025 26/18 Q1011 NOSIG
VHHH,2017-01-08 07:30,113.9219,22.3094,78.80,62.60,57.60,260.00,5.00,0.00,29.85,M,2.67,M,FEW,M,M,M,3000.00,M,M,M,HZ,M,M,M,M,M,M,80.31,VHHH 080730Z 26005KT 4300 HZ FEW030 26/17 Q1011 NOSIG
VHHH,2017-01-08 08:00,113.9219,22.3094,77.00,64.40,65.12,270.00,5.00,0.00,29.85,M,2.73,M,FEW,M,M,M,3000.00,M,M,M,HZ,M,M,M,M,M,M,77.00,VHHH 080800Z 27005KT 4400 HZ FEW030 25/18 Q1011 NOSIG
VHHH,2017-01-08 08:30,113.9219,22.3094,77.00,64.40,65.12,M,3.00,0.00,29.85,M,2.73,M,FEW,M,M,M,3000.00,M,M,M,HZ,M,M,M,M,M,M,77.00,VHHH 080830Z VRB03KT 4400 HZ FEW030 25/18 Q1011 NOSIG
VHHH,2017-01-08 09:00,113.9219,22.3094,75.20,64.40,69.14,310.00,4.00,0.00,29.88,M,2.98,M,FEW,M,M,M,3000.00,M,M,M,HZ,M,M,M,M,M,M,75.20,VHHH 080900Z 31004KT 270V330 4800 HZ FEW030 24/18 Q1012 NOSIG
VHHH,2017-01-08 09:30,113.9219,22.3094,75.20,64.40,69.14,M,2.00,0.00,29.88,M,3.11,M,FEW,M,M,M,3500.00,M,M,M,M,M,M,M,M,M,M,75.20,VHHH 080930Z VRB02KT 5000 FEW035 24/18 Q1012 NOSIG
VHHH,2017-01-08 10:00,113.9219,22.3094,75.20,66.20,73.61,M,3.00,0.00,29.88,M,2.92,M,FEW,M,M,M,3500.00,M,M,M,HZ,M,M,M,M,M,M,75.20,VHHH 081000Z VRB03KT 4700 HZ FEW035 24/19 Q1012 NOSIG
VHHH,2017-01-08 10:18,113.9219,22.3094,75.20,66.20,73.61,M,3.00,0.00,29.88,M,3.11,M,FEW,M,M,M,3500.00,M,M,M,M,M,M,M,M,M,M,75.20,VHHH 081018Z VRB03KT 5000 FEW035 24/19 Q1012 NOSIG
VHHH,2017-01-08 10:30,113.9219,22.3094,75.20,66.20,73.61,360.00,5.00,0.00,29.91,M,3.11,M,FEW,M,M,M,3500.00,M,M,M,M,M,M,M,M,M,M,75.20,VHHH 081030Z 36005KT 300V080 5000 FEW035 24/19 Q1013 NOSIG
VHHH,2017-01-08 11:00,113.9219,22.3094,75.20,66.20,73.61,340.00,10.00,0.00,29.91,M,3.11,M,FEW,M,M,M,3500.00,M,M,M,M,M,M,M,M,M,M,75.20,VHHH 081100Z 34010KT 5000 FEW035 24/19 Q1013 NOSIG
VHHH,2017-01-08 11:30,113.9219,22.3094,73.40,66.20,78.19,360.00,6.00,0.00,29.91,M,3.11,M,FEW,M,M,M,3500.00,M,M,M,M,M,M,M,M,M,M,73.40,VHHH 081130Z 36006KT 5000 FEW035 23/19 Q1013 NOSIG
VHHH,2017-01-08 12:00,113.9219,22.3094,75.20,66.20,73.61,350.00,7.00,0.00,29.94,M,3.73,M,FEW,M,M,M,3500.00,M,M,M,M,M,M,M,M,M,M,75.20,VHHH 081200Z 35007KT 6000 FEW035 24/19 Q1014 NOSIG
VHHH,2017-01-08 12:30,113.9219,22.3094,75.20,64.40,69.14,M,3.00,0.00,29.94,M,3.11,M,FEW,M,M,M,3500.00,M,M,M,M,M,M,M,M,M,M,75.20,VHHH 081230Z VRB03KT 5000 FEW035 24/18 Q1014 NOSIG
VHHH,2017-01-08 13:00,113.9219,22.3094,75.20,64.40,69.14,M,2.00,0.00,29.94,M,3.73,M,FEW,M,M,M,3000.00,M,M,M,M,M,M,M,M,M,M,75.20,VHHH 081300Z VRB02KT 6000 FEW030 24/18 Q1014 NOSIG
VHHH,2017-01-08 13:30,113.9219,22.3094,75.20,62.60,64.91,20.00,5.00,0.00,29.94,M,3.73,M,FEW,M,M,M,3000.00,M,M,M,M,M,M,M,M,M,M,75.20,VHHH 081330Z 02005KT 6000 FEW030 24/17 Q1014 NOSIG
VHHH,2017-01-08 14:00,113.9219,22.3094,73.40,64.40,73.44,30.00,4.00,0.00,29.94,M,3.73,M,FEW,M,M,M,3000.00,M,M,M,M,M,M,M,M,M,M,73.40,VHHH 081400Z 03004KT 6000 FEW030 23/18 Q1014 NOSIG
VHHH,2017-01-08 14:30,113.9219,22.3094,73.40,66.20,78.19,320.00,8.00,0.00,29.97,M,4.35,M,FEW,M,M,M,3500.00,M,M,M,M,M,M,M,M,M,M,73.40,VHHH 081430Z 32008KT 7000 FEW035 23/19 Q1015 NOSIG
VHHH,2017-01-08 15:00,113.9219,22.3094,73.40,64.40,73.44,320.00,6.00,0.00,29.97,M,3.73,M,FEW,M,M,M,3500.00,M,M,M,M,M,M,M,M,M,M,73.40,VHHH 081500Z 32006KT 6000 FEW035 23/18 Q1015 NOSIG
VHHH,2017-01-08 15:30,113.9219,22.3094,73.40,64.40,73.44,330.00,9.00,0.00,29.97,M,3.73,M,FEW,M,M,M,3500.00,M,M,M,M,M,M,M,M,M,M,73.40,VHHH 081530Z 33009KT 6000 FEW035 23/18 Q1015 NOSIG
VHHH,2017-01-08 16:00,113.9219,22.3094,73.40,59.00,60.67,10.00,4.00,0.00,29.97,M,4.35,M,FEW,M,M,M,3500.00,M,M,M,M,M,M,M,M,M,M,73.40,VHHH 081600Z 01004KT 350V060 7000 FEW035 23/15 Q1015 NOSIG
VHHH,2017-01-08 16:30,113.9219,22.3094,73.40,57.20,56.88,60.00,6.00,0.00,29.97,M,4.97,M,FEW,M,M,M,3500.00,M,M,M,M,M,M,M,M,M,M,73.40,VHHH 081630Z 06006KT 8000 FEW035 23/14 Q1015 NOSIG
VHHH,2017-01-08 17:00,113.9219,22.3094,73.40,57.20,56.88,80.00,6.00,0.00,29.97,M,5.59,M,FEW,M,M,M,3500.00,M,M,M,M,M,M,M,M,M,M,73.40,VHHH 081700Z 08006KT 9000 FEW035 23/14 Q1015 NOSIG
VHHH,2017-01-08 17:30,113.9219,22.3094,71.60,59.00,64.48,50.00,9.00,0.00,29.97,M,6.21,M,FEW,M,M,M,3500.00,M,M,M,M,M,M,M,M,M,M,71.60,VHHH 081730Z 05009KT 9999 FEW035 22/15 Q1015 NOSIG
VHHH,2017-01-08 18:00,113.9219,22.3094,71.60,59.00,64.48,50.00,4.00,0.00,29.97,M,6.21,M,FEW,M,M,M,3500.00,M,M,M,M,M,M,M,M,M,M,71.60,VHHH 081800Z 05004KT 9999 FEW035 22/15 Q1015 NOSIG
VHHH,2017-01-08 18:30,113.9219,22.3094,69.80,59.00,68.55,40.00,7.00,0.00,29.94,M,6.21,M,FEW,M,M,M,3500.00,M,M,M,M,M,M,M,M,M,M,69.80,VHHH 081830Z 04007KT 9999 FEW035 21/15 Q1014 NOSIG
VHHH,2017-01-08 19:00,113.9219,22.3094,68.00,60.80,77.75,40.00,8.00,0.00,29.94,M,6.21,M,FEW,M,M,M,3500.00,M,M,M,M,M,M,M,M,M,M,68.00,VHHH 081900Z 04008KT 9999 FEW035 20/16 Q1014 NOSIG
VHHH,2017-01-08 19:30,113.9219,22.3094,68.00,60.80,77.75,100.00,3.00,0.00,29.94,M,5.59,M,FEW,M,M,M,3500.00,M,M,M,M,M,M,M,M,M,M,68.00,VHHH 081930Z 10003KT 070V140 9000 FEW035 20/16 Q1014 NOSIG
VHHH,2017-01-08 20:00,113.9219,22.3094,68.00,59.00,72.92,90.00,4.00,0.00,29.94,M,5.59,M,FEW,M,M,M,3500.00,M,M,M,M,M,M,M,M,M,M,68.00,VHHH 082000Z 09004KT 070V140 9000 FEW035 20/15 Q1014 NOSIG
VHHH,2017-01-08 20:30,113.9219,22.3094,68.00,59.00,72.92,M,3.00,0.00,29.97,M,5.59,M,FEW,M,M,M,3500.00,M,M,M,M,M,M,M,M,M,M,68.00,VHHH 082030Z VRB03KT 9000 FEW035 20/15 Q1015 NOSIG
VHHH,2017-01-08 21:00,113.9219,22.3094,68.00,59.00,72.92,160.00,3.00,0.00,29.97,M,5.59,M,FEW,M,M,M,3000.00,M,M,M,M,M,M,M,M,M,M,68.00,VHHH 082100Z 16003KT 090V220 9000 FEW030 20/15 Q1015 NOSIG
VHHH,2017-01-08 21:30,113.9219,22.3094,68.00,59.00,72.92,70.00,5.00,0.00,29.97,M,6.21,M,FEW,SCT,M,M,2500.00,3500.00,M,M,M,M,M,M,M,M,M,68.00,VHHH 082130Z 07005KT 010V110 9999 FEW025 SCT035 20/15 Q1015 NOSIG
VHHH,2017-01-08 22:00,113.9219,22.3094,68.00,57.20,68.35,60.00,8.00,0.00,29.97,M,6.21,M,FEW,SCT,M,M,2500.00,3500.00,M,M,M,M,M,M,M,M,M,68.00,VHHH 082200Z 06008KT 030V090 9999 FEW025 SCT035 20/14 Q1015 NOSIG
VHHH,2017-01-08 22:30,113.9219,22.3094,68.00,57.20,68.35,50.00,11.00,0.00,30.00,M,6.21,M,FEW,SCT,M,M,2500.00,4500.00,M,M,M,M,M,M,M,M,M,68.00,VHHH 082230Z 05011KT 010V070 9999 FEW025 SCT045 20/14 Q1016 NOSIG
VHHH,2017-01-08 23:00,113.9219,22.3094,68.00,57.20,68.35,40.00,10.00,0.00,30.00,M,6.21,M,FEW,SCT,M,M,2500.00,4500.00,M,M,M,M,M,M,M,M,M,68.00,VHHH 082300Z 04010KT 9999 FEW025 SCT045 20/14 Q1016 NOSIG
VHHH,2017-01-08 23:30,113.9219,22.3094,68.00,57.20,68.35,40.00,10.00,0.00,30.03,M,6.21,M,FEW,SCT,M,M,2500.00,4500.00,M,M,M,M,M,M,M,M,M,68.00,VHHH 082330Z 04010KT 9999 FEW025 SCT045 20/14 Q1017 NOSIG
VHHH,2017-01-09 00:00,113.9219,22.3094,68.00,57.20,68.35,40.00,9.00,0.00,30.03,M,6.21,M,FEW,M,M,M,2500.00,M,M,M,M,M,M,M,M,M,M,68.00,VHHH 090000Z 04009KT 9999 FEW025 20/14 Q1017 NOSIG
VHHH,2017-01-09 00:30,113.9219,22.3094,68.00,57.20,68.35,50.00,10.00,0.00,30.03,M,6.21,M,FEW,SCT,M,M,2500.00,3500.00,M,M,M,M,M,M,M,M,M,68.00,VHHH 090030Z 05010KT 9999 FEW025 SCT035 20/14 Q1017 NOSIG
VHHH,2017-01-09 01:00,113.9219,22.3094,68.00,57.20,68.35,60.00,10.00,0.00,30.06,M,6.21,M,FEW,SCT,M,M,2500.00,3500.00,M,M,M,M,M,M,M,M,M,68.00,VHHH 090100Z 06010KT 9999 FEW025 SCT035 20/14 Q1018 NOSIG
VHHH,2017-01-09 01:30,113.9219,22.3094,68.00,57.20,68.35,50.00,7.00,0.00,30.06,M,6.21,M,FEW,SCT,M,M,2500.00,3500.00,M,M,M,M,M,M,M,M,M,68.00,VHHH 090130Z 05007KT 9999 FEW025 SCT035 20/14 Q1018 NOSIG
VHHH,2017-01-09 02:00,113.9219,22.3094,71.60,57.20,60.44,60.00,6.00,0.00,30.06,M,6.21,M,FEW,SCT,M,M,2000.00,3500.00,M,M,M,M,M,M,M,M,M,71.60,VHHH 090200Z 06006KT 9999 FEW020 SCT035 22/14 Q1018 NOSIG
VHHH,2017-01-09 02:30,113.9219,22.3094,71.60,59.00,64.48,50.00,6.00,0.00,30.06,M,6.21,M,FEW,SCT,M,M,1800.00,3000.00,M,M,M,M,M,M,M,M,M,71.60,VHHH 090230Z 05006KT 9999 FEW018 SCT030 22/15 Q1018 NOSIG
VHHH,2017-01-09 03:00,113.9219,22.3094,69.80,59.00,68.55,20.00,5.00,0.00,30.06,M,6.21,M,FEW,SCT,M,M,1800.00,3000.00,M,M,M,M,M,M,M,M,M,69.80,VHHH 090300Z 02005KT 9999 FEW018 SCT030 21/15 Q1018 NOSIG
VHHH,2017-01-09 03:30,113.9219,22.3094,71.60,60.80,68.75,40.00,5.00,0.00,30.06,M,6.21,M,FEW,SCT,M,M,1800.00,3000.00,M,M,M,M,M,M,M,M,M,71.60,VHHH 090330Z 04005KT 9999 FEW018 SCT030 22/16 Q1018 NOSIG
VHHH,2017-01-09 04:00,113.9219,22.3094,71.60,60.80,68.75,70.00,5.00,0.00,30.03,M,5.59,M,FEW,SCT,M,M,1800.00,3500.00,M,M,M,M,M,M,M,M,M,71.60,VHHH 090400Z 07005KT 020V130 9000 FEW018 SCT035 22/16 Q1017 NOSIG
VHHH,2017-01-09 04:30,113.9219,22.3094,71.60,60.80,68.75,330.00,8.00,0.00,30.03,M,5.59,M,FEW,SCT,M,M,1800.00,3000.00,M,M,M,M,M,M,M,M,M,71.60,VHHH 090430Z 33008KT 9000 FEW018 SCT030 22/16 Q1017 NOSIG
VHHH,2017-01-09 05:00,113.9219,22.3094,71.60,60.80,68.75,10.00,5.00,0.00,30.00,M,5.59,M,FEW,SCT,M,M,1800.00,3000.00,M,M,M,M,M,M,M,M,M,71.60,VHHH 090500Z 01005KT 9000 FEW018 SCT030 22/16 Q1016 NOSIG
VHHH,2017-01-09 05:30,113.9219,22.3094,73.40,59.00,60.67,10.00,5.00,0.00,29.97,M,5.59,M,FEW,SCT,M,M,1800.00,3000.00,M,M,M,M,M,M,M,M,M,73.40,VHHH 090530Z 01005KT 9000 FEW018 SCT030 23/15 Q1015 NOSIG
VHHH,2017-01-09 06:00,113.9219,22.3094,73.40,60.80,64.69,20.00,5.00,0.00,29.97,M,5.59,M,FEW,SCT,M,M,2000.00,3000.00,M,M,M,M,M,M,M,M,M,73.40,VHHH 090600Z 02005KT 9000 FEW020 SCT030 23/16 Q1015 NOSIG
VHHH,2017-01-09 06:30,113.9219,22.3094,73.40,60.80,64.69,300.00,6.00,0.00,29.97,M,4.97,M,FEW,SCT,M,M,2000.00,3000.00,M,M,M,M,M,M,M,M,M,73.40,VHHH 090630Z 30006KT 8000 FEW020 SCT030 23/16 Q1015 NOSIG
VHHH,2017-01-09 07:00,113.9219,22.3094,73.40,59.00,60.67,280.00,5.00,0.00,29.94,M,4.97,M,FEW,SCT,M,M,2000.00,3000.00,M,M,M,M,M,M,M,M,M,73.40,VHHH 090700Z 28005KT 8000 FEW020 SCT030 23/15 Q1014 NOSIG
VHHH,2017-01-09 07:30,113.9219,22.3094,73.40,59.00,60.67,280.00,6.00,0.00,29.94,M,4.97,M,FEW,SCT,M,M,2000.00,3000.00,M,M,M,M,M,M,M,M,M,73.40,VHHH 090730Z 28006KT 8000 FEW020 SCT030 23/15 Q1014 NOSIG
VHHH,2017-01-09 08:00,113.9219,22.3094,71.60,59.00,64.48,270.00,7.00,0.00,29.94,M,4.35,M,FEW,SCT,M,M,2000.00,3000.00,M,M,M,M,M,M,M,M,M,71.60,VHHH 090800Z 27007KT 7000 FEW020 SCT030 22/15 Q1014 NOSIG
VHHH,2017-01-09 08:30,113.9219,22.3094,71.60,59.00,64.48,260.00,6.00,0.00,29.94,M,4.35,M,FEW,M,M,M,2500.00,M,M,M,M,M,M,M,M,M,M,71.60,VHHH 090830Z 26006KT 7000 FEW025 22/15 Q1014 NOSIG
VHHH,2017-01-09 09:00,113.9219,22.3094,69.80,59.00,68.55,270.00,6.00,0.00,29.94,M,4.35,M,FEW,M,M,M,2500.00,M,M,M,M,M,M,M,M,M,M,69.80,VHHH 090900Z 27006KT 7000 FEW025 21/15 Q1014 NOSIG
VHHH,2017-01-09 09:30,113.9219,22.3094,69.80,59.00,68.55,280.00,5.00,0.00,29.97,M,4.35,M,FEW,SCT,M,M,2200.00,3500.00,M,M,M,M,M,M,M,M,M,69.80,VHHH 090930Z 28005KT 7000 FEW022 SCT035 21/15 Q1015 NOSIG
VHHH,2017-01-09 10:00,113.9219,22.3094,69.80,60.80,73.09,280.00,5.00,0.00,29.97,M,4.97,M,FEW,SCT,M,M,2200.00,3500.00,M,M,M,M,M,M,M,M,M,69.80,VHHH 091000Z 28005KT 8000 FEW022 SCT035 21/16 Q1015 NOSIG
VHHH,2017-01-09 10:30,113.9219,22.3094,69.80,60.80,73.09,330.00,3.00,0.00,29.97,M,4.97,M,FEW,SCT,M,M,2200.00,3500.00,M,M,M,M,M,M,M,M,M,69.80,VHHH 091030Z 33003KT 8000 FEW022 SCT035 21/16 Q1015 NOSIG
VHHH,2017-01-09 11:00,113.9219,22.3094,68.00,60.80,77.75,100.00,6.00,0.00,29.97,M,4.97,M,FEW,M,M,M,2200.00,M,M,M,M,M,M,M,M,M,M,68.00,VHHH 091100Z 10006KT 060V200 8000 FEW022 20/16 Q1015 NOSIG
VHHH,2017-01-09 11:30,113.9219,22.3094,68.00,60.80,77.75,140.00,4.00,0.00,30.00,M,4.97,M,FEW,M,M,M,2200.00,M,M,M,M,M,M,M,M,M,M,68.00,VHHH 091130Z 14004KT 100V220 8000 FEW022 20/16 Q1016 NOSIG
VHHH,2017-01-09 12:00,113.9219,22.3094,69.80,60.80,73.09,110.00,8.00,0.00,30.00,M,4.97,M,FEW,M,M,M,2200.00,M,M,M,M,M,M,M,M,M,M,69.80,VHHH 091200Z 11008KT 080V160 8000 FEW022 21/16 Q1016 NOSIG
VHHH,2017-01-09 12:30,113.9219,22.3094,69.80,60.80,73.09,100.00,9.00,0.00,30.00,M,4.97,M,FEW,M,M,M,2200.00,M,M,M,M,M,M,M,M,M,M,69.80,VHHH 091230Z 10009KT 8000 FEW022 21/16 Q1016 NOSIG
VHHH,2017-01-09 13:00,113.9219,22.3094,68.00,60.80,77.75,90.00,9.00,0.00,30.00,M,4.97,M,FEW,M,M,M,2000.00,M,M,M,M,M,M,M,M,M,M,68.00,VHHH 091300Z 09009KT 8000 FEW020 20/16 Q1016 NOSIG
VHHH,2017-01-09 13:30,113.9219,22.3094,68.00,60.80,77.75,110.00,10.00,0.00,30.00,M,4.97,M,FEW,M,M,M,2000.00,M,M,M,M,M,M,M,M,M,M,68.00,VHHH 091330Z 11010KT 8000 FEW020 20/16 Q1016 NOSIG
VHHH,2017-01-09 14:00,113.9219,22.3094,69.80,60.80,73.09,90.00,8.00,0.00,30.03,M,5.59,M,FEW,SCT,M,M,1800.00,2500.00,M,M,M,M,M,M,M,M,M,69.80,VHHH 091400Z 09008KT 9000 FEW018 SCT025 21/16 Q1017 NOSIG
VHHH,2017-01-09 14:30,113.9219,22.3094,69.80,60.80,73.09,110.00,12.00,0.00,30.03,M,5.59,M,FEW,SCT,M,M,1800.00,2500.00,M,M,M,M,M,M,M,M,M,69.80,VHHH 091430Z 11012KT 9000 FEW018 SCT025 21/16 Q1017 NOSIG
VHHH,2017-01-09 15:00,113.9219,22.3094,69.80,60.80,73.09,90.00,13.00,0.00,30.03,M,5.59,M,FEW,SCT,M,M,1800.00,2500.00,M,M,M,M,M,M,M,M,M,69.80,VHHH 091500Z 09013KT 9000 FEW018 SCT025 21/16 Q1017 NOSIG
VHHH,2017-01-09 15:30,113.9219,22.3094,69.80,59.00,68.55,100.00,12.00,0.00,30.03,M,5.59,M,FEW,SCT,M,M,1800.00,2500.00,M,M,M,M,M,M,M,M,M,69.80,VHHH 091530Z 10012KT 9000 FEW018 SCT025 21/15 Q1017 NOSIG
VHHH,2017-01-09 16:00,113.9219,22.3094,69.80,60.80,73.09,100.00,11.00,0.00,30.03,M,5.59,M,FEW,SCT,M,M,1800.00,2500.00,M,M,M,M,M,M,M,M,M,69.80,VHHH 091600Z 10011KT 080V140 9000 FEW018 SCT025 21/16 Q1017 NOSIG
VHHH,2017-01-09 16:30,113.9219,22.3094,69.80,59.00,68.55,90.00,12.00,0.00,30.03,M,5.59,M,FEW,SCT,M,M,1800.00,2500.00,M,M,M,M,M,M,M,M,M,69.80,VHHH 091630Z 09012KT 9000 FEW018 SCT025 21/15 Q1017 NOSIG
VHHH,2017-01-09 17:00,113.9219,22.3094,69.80,59.00,68.55,100.00,12.00,0.00,30.03,M,5.59,M,FEW,SCT,M,M,1800.00,2500.00,M,M,M,M,M,M,M,M,M,69.80,VHHH 091700Z 10012KT 9000 FEW018 SCT025 21/15 Q1017 NOSIG
VHHH,2017-01-09 17:30,113.9219,22.3094,69.80,60.80,73.09,110.00,12.00,0.00,30.03,M,5.59,M,FEW,SCT,M,M,1800.00,2500.00,M,M,M,M,M,M,M,M,M,69.80,VHHH 091730Z 11012KT 9000 FEW018 SCT025 21/16 Q1017 NOSIG
VHHH,2017-01-09 18:00,113.9219,22.3094,68.00,60.80,77.75,90.00,12.00,0.00,30.03,M,5.59,M,FEW,SCT,M,M,1800.00,2500.00,M,M,M,M,M,M,M,M,M,68.00,VHHH 091800Z 09012KT 9000 FEW018 SCT025 20/16 Q1017 NOSIG
VHHH,2017-01-09 18:30,113.9219,22.3094,68.00,59.00,72.92,80.00,14.00,0.00,30.03,M,5.59,M,FEW,SCT,M,M,1800.00,3000.00,M,M,M,M,M,M,M,M,M,68.00,VHHH 091830Z 08014KT 9000 FEW018 SCT030 20/15 Q1017 NOSIG
VHHH,2017-01-09 19:00,113.9219,22.3094,68.00,59.00,72.92,80.00,12.00,0.00,30.03,M,5.59,M,FEW,SCT,M,M,1800.00,3000.00,M,M,M,M,M,M,M,M,M,68.00,VHHH 091900Z 08012KT 9000 FEW018 SCT030 20/15 Q1017 NOSIG
VHHH,2017-01-09 19:30,113.9219,22.3094,68.00,59.00,72.92,80.00,12.00,0.00,30.03,M,5.59,M,FEW,SCT,M,M,1800.00,3000.00,M,M,M,M,M,M,M,M,M,68.00,VHHH 091930Z 08012KT 9000 FEW018 SCT030 20/15 Q1017 NOSIG
VHHH,2017-01-09 20:00,113.9219,22.3094,68.00,59.00,72.92,90.00,11.00,0.00,30.03,M,5.59,M,FEW,SCT,M,M,1800.00,3000.00,M,M,M,M,M,M,M,M,M,68.00,VHHH 092000Z 09011KT 9000 FEW018 SCT030 20/15 Q1017 NOSIG
VHHH,2017-01-09 20:30,113.9219,22.3094,68.00,59.00,72.92,90.00,12.00,0.00,30.00,M,5.59,M,FEW,SCT,M,M,1800.00,3000.00,M,M,M,M,M,M,M,M,M,68.00,VHHH 092030Z 09012KT 9000 FEW018 SCT030 20/15 Q1016 NOSIG
VHHH,2017-01-09 21:00,113.9219,22.3094,68.00,59.00,72.92,80.00,13.00,0.00,30.00,M,5.59,M,FEW,SCT,M,M,1800.00,3000.00,M,M,M,M,M,M,M,M,M,68.00,VHHH 092100Z 08013KT 9000 FEW018 SCT030 20/15 Q1016 NOSIG
VHHH,2017-01-09 21:30,113.9219,22.3094,68.00,59.00,72.92,90.00,13.00,0.00,30.00,M,5.59,M,FEW,SCT,M,M,1800.00,3000.00,M,M,M,M,M,M,M,M,M,68.00,VHHH 092130Z 09013KT 9000 FEW018 SCT030 20/15 Q1016 NOSIG
VHHH,2017-01-09 22:00,113.9219,22.3094,68.00,59.00,72.92,90.00,10.00,0.00,30.03,M,5.59,M,FEW,SCT,M,M,1800.00,3000.00,M,M,M,M,M,M,M,M,M,68.00,VHHH 092200Z 09010KT 9000 FEW018 SCT030 20/15 Q1017 NOSIG
VHHH,2017-01-09 22:30,113.9219,22.3094,68.00,59.00,72.92,100.00,10.00,0.00,30.03,M,5.59,M,FEW,SCT,M,M,2000.00,3000.00,M,M,M,M,M,M,M,M,M,68.00,VHHH 092230Z 10010KT 9000 FEW020 SCT030 20/15 Q1017 NOSIG
VHHH,2017-01-09 23:00,113.9219,22.3094,68.00,59.00,72.92,100.00,12.00,0.00,30.03,M,5.59,M,FEW,SCT,M,M,1800.00,3000.00,M,M,M,M,M,M,M,M,M,68.00,VHHH 092300Z 10012KT 9000 FEW018 SCT030 20/15 Q1017 NOSIG
VHHH,2017-01-09 23:30,113.9219,22.3094,68.00,59.00,72.92,100.00,14.00,0.00,30.06,M,5.59,M,FEW,SCT,M,M,1800.00,3000.00,M,M,M,M,M,M,M,M,M,68.00,VHHH 092330Z 10014KT 070V130 9000 FEW018 SCT030 20/15 Q1018 NOSIG
VHHH,2017-01-10 00:00,113.9219,22.3094,68.00,59.00,72.92,100.00,12.00,0.00,30.06,M,5.59,M,FEW,SCT,M,M,1800.00,3000.00,M,M,M,M,M,M,M,M,M,68.00,VHHH 100000Z 10012KT 9000 FEW018 SCT030 20/15 Q1018 NOSIG
VHHH,2017-01-10 00:30,113.9219,22.3094,68.00,59.00,72.92,100.00,14.00,0.00,30.09,M,5.59,M,FEW,M,M,M,1800.00,M,M,M,M,M,M,M,M,M,M,68.00,VHHH 100030Z 10014KT 9000 FEW018 20/15 Q1019 NOSIG
VHHH,2017-01-10 01:00,113.9219,22.3094,68.00,59.00,72.92,100.00,14.00,0.00,30.09,M,4.97,M,FEW,M,M,M,1800.00,M,M,M,M,M,M,M,M,M,M,68.00,VHHH 100100Z 10014KT 8000 FEW018 20/15 Q1019 NOSIG
VHHH,2017-01-10 01:30,113.9219,22.3094,69.80,59.00,68.55,90.00,16.00,0.00,30.09,M,5.59,M,FEW,M,M,M,1800.00,M,M,M,M,M,M,M,M,M,M,69.80,VHHH 100130Z 09016KT 9000 FEW018 21/15 Q1019 NOSIG
VHHH,2017-01-10 02:00,113.9219,22.3094,69.80,59.00,68.55,100.00,16.00,0.00,30.09,M,5.59,M,FEW,M,M,M,1800.00,M,M,M,M,M,M,M,M,M,M,69.80,VHHH 100200Z 10016KT 9000 FEW018 21/15 Q1019 NOSIG
VHHH,2017-01-10 02:30,113.9219,22.3094,71.60,59.00,64.48,100.00,13.00,0.00,30.09,M,6.21,M,FEW,M,M,M,2000.00,M,M,M,M,M,M,M,M,M,M,71.60,VHHH 100230Z 10013KT 9999 FEW020 22/15 Q1019 NOSIG
VHHH,2017-01-10 03:00,113.9219,22.3094,71.60,59.00,64.48,90.00,16.00,0.00,30.09,M,6.21,M,FEW,M,M,M,2000.00,M,M,M,M,M,M,M,M,M,M,71.60,VHHH 100300Z 09016KT 9999 FEW020 22/15 Q1019 NOSIG
VHHH,2017-01-10 03:30,113.9219,22.3094,75.20,59.00,57.12,90.00,16.00,0.00,30.06,M,6.21,M,FEW,M,M,M,2000.00,M,M,M,M,M,M,M,M,M,M,75.20,VHHH 100330Z 09016KT 9999 FEW020 24/15 Q1018 NOSIG
VHHH,2017-01-10 04:00,113.9219,22.3094,73.40,59.00,60.67,100.00,15.00,0.00,30.06,M,6.21,M,FEW,M,M,M,2000.00,M,M,M,M,M,M,M,M,M,M,73.40,VHHH 100400Z 10015KT 9999 FEW020 23/15 Q1018 NOSIG
VHHH,2017-01-10 04:30,113.9219,22.3094,73.40,59.00,60.67,100.00,16.00,0.00,30.06,M,6.21,M,FEW,M,M,M,2000.00,M,M,M,M,M,M,M,M,M,M,73.40,VHHH 100430Z 10016KT 9999 FEW020 23/15 Q1018 NOSIG
VHHH,2017-01-10 05:00,113.9219,22.3094,73.40,59.00,60.67,90.00,15.00,0.00,30.03,M,6.21,M,FEW,M,M,M,2000.00,M,M,M,M,M,M,M,M,M,M,73.40,VHHH 100500Z 09015KT 9999 FEW020 23/15 Q1017 NOSIG
VHHH,2017-01-10 05:30,113.9219,22.3094,73.40,57.20,56.88,90.00,16.00,0.00,30.03,M,6.21,M,FEW,M,M,M,2000.00,M,M,M,M,M,M,M,M,M,M,73.40,VHHH 100530Z 09016KT 9999 FEW020 23/14 Q1017 NOSIG
VHHH,2017-01-10 06:00,113.9219,22.3094,73.40,59.00,60.67,90.00,14.00,0.00,30.00,M,6.21,M,FEW,M,M,M,2000.00,M,M,M,M,M,M,M,M,M,M,73.40,VHHH 100600Z 09014KT 9999 FEW020 23/15 Q1016 NOSIG
VHHH,2017-01-10 06:30,113.9219,22.3094,75.20,59.00,57.12,90.00,16.00,0.00,30.00,M,6.21,M,FEW,SCT,M,M,2000.00,3000.00,M,M,M,M,M,M,M,M,M,75.20,VHHH 100630Z 09016KT 9999 FEW020 SCT030 24/15 Q1016 NOSIG
VHHH,2017-01-10 07:00,113.9219,22.3094,73.40,57.20,56.88,90.00,14.00,0.00,30.00,M,6.21,M,FEW,M,M,M,2000.00,M,M,M,M,M,M,M,M,M,M,73.40,VHHH 100700Z 09014KT 9999 FEW020 23/14 Q1016 NOSIG
VHHH,2017-01-10 07:30,113.9219,22.3094,73.40,57.20,56.88,90.00,15.00,0.00,30.00,M,6.21,M,FEW,M,M,M,2500.00,M,M,M,M,M,M,M,M,M,M,73.40,VHHH 100730Z 09015KT 9999 FEW025 23/14 Q1016 NOSIG
VHHH,2017-01-10 08:00,113.9219,22.3094,73.40,55.40,53.29,100.00,12.00,0.00,30.00,M,6.21,M,FEW,M,M,M,2500.00,M,M,M,M,M,M,M,M,M,M,73.40,VHHH 100800Z 10012KT 070V130 9999 FEW025 23/13 Q1016 NOSIG
VHHH,2017-01-10 08:30,113.9219,22.3094,71.60,57.20,60.44,120.00,13.00,0.00,30.00,M,6.21,M,FEW,M,M,M,2500.00,M,M,M,M,M,M,M,M,M,M,71.60,VHHH 100830Z 12013KT 9999 FEW025 22/14 Q1016 NOSIG
VHHH,2017-01-10 09:00,113.9219,22.3094,71.60,57.20,60.44,110.00,13.00,0.00,30.00,M,6.21,M,FEW,M,M,M,2500.00,M,M,M,M,M,M,M,M,M,M,71.60,VHHH 100900Z 11013KT 9999 FEW025 22/14 Q1016 NOSIG
VHHH,2017-01-10 09:30,113.9219,22.3094,69.80,57.20,64.26,110.00,13.00,0.00,30.00,M,6.21,M,FEW,M,M,M,3000.00,M,M,M,M,M,M,M,M,M,M,69.80,VHHH 100930Z 11013KT 080V140 9999 FEW030 21/14 Q1016 NOSIG
VHHH,2017-01-10 10:00,113.9219,22.3094,69.80,57.20,64.26,100.00,11.00,0.00,30.03,M,6.21,M,FEW,M,M,M,3000.00,M,M,M,M,M,M,M,M,M,M,69.80,VHHH 101000Z 10011KT 9999 FEW030 21/14 Q1017 NOSIG
VHHH,2017-01-10 10:30,113.9219,22.3094,69.80,57.20,64.26,110.00,10.00,0.00,30.03,M,6.21,M,FEW,M,M,M,3000.00,M,M,M,M,M,M,M,M,M,M,69.80,VHHH 101030Z 11010KT 9999 FEW030 21/14 Q1017 NOSIG
VHHH,2017-01-10 11:00,113.9219,22.3094,69.80,57.20,64.26,100.00,11.00,0.00,30.03,M,5.59,M,FEW,M,M,M,3000.00,M,M,M,M,M,M,M,M,M,M,69.80,VHHH 101100Z 10011KT 9000 FEW030 21/14 Q1017 NOSIG
VHHH,2017-01-10 11:30,113.9219,22.3094,68.00,59.00,72.92,110.00,11.00,0.00,30.03,M,5.59,M,FEW,M,M,M,3000.00,M,M,M,M,M,M,M,M,M,M,68.00,VHHH 101130Z 11011KT 9000 FEW030 20/15 Q1017 NOSIG
VHHH,2017-01-10 12:00,113.9219,22.3094,69.80,59.00,68.55,120.00,12.00,0.00,30.06,M,5.59,M,FEW,M,M,M,3000.00,M,M,M,M,M,M,M,M,M,M,69.80,VHHH 101200Z 12012KT 9000 FEW030 21/15 Q1018 NOSIG
VHHH,2017-01-10 12:30,113.9219,22.3094,68.00,59.00,72.92,120.00,10.00,0.00,30.06,M,5.59,M,FEW,M,M,M,3000.00,M,M,M,M,M,M,M,M,M,M,68.00,VHHH 101230Z 12010KT 9000 FEW030 20/15 Q1018 NOSIG
VHHH,2017-01-10 13:00,113.9219,22.3094,68.00,59.00,72.92,100.00,11.00,0.00,30.06,M,4.97,M,FEW,M,M,M,3000.00,M,M,M,M,M,M,M,M,M,M,68.00,VHHH 101300Z 10011KT 8000 FEW030 20/15 Q1018 NOSIG
VHHH,2017-01-10 13:30,113.9219,22.3094,68.00,60.80,77.75,110.00,9.00,0.00,30.06,M,4.97,M,FEW,M,M,M,3000.00,M,M,M,M,M,M,M,M,M,M,68.00,VHHH 101330Z 11009KT 090V160 8000 FEW030 20/16 Q1018 NOSIG
VHHH,2017-01-10 14:00,113.9219,22.3094,68.00,59.00,72.92,100.00,11.00,0.00,30.09,M,4.97,M,FEW,M,M,M,3000.00,M,M,M,M,M,M,M,M,M,M,68.00,VHHH 101400Z 10011KT 8000 FEW030 20/15 Q1019 NOSIG
VHHH,2017-01-10 14:30,113.9219,22.3094,68.00,59.00,72.92,110.00,11.00,0.00,30.09,M,4.97,M,FEW,M,M,M,3000.00,M,M,M,M,M,M,M,M,M,M,68.00,VHHH 101430Z 11011KT 8000 FEW030 20/15 Q1019 NOSIG
VHHH,2017-01-10 15:00,113.9219,22.3094,68.00,59.00,72.92,110.00,11.00,0.00,30.09,M,5.59,M,FEW,M,M,M,3000.00,M,M,M,M,M,M,M,M,M,M,68.00,VHHH 101500Z 11011KT 9000 FEW030 20/15 Q1019 NOSIG
VHHH,2017-01-10 15:30,113.9219,22.3094,68.00,59.00,72.92,110.00,9.00,0.00,30.06,M,5.59,M,FEW,M,M,M,3000.00,M,M,M,M,M,M,M,M,M,M,68.00,VHHH 101530Z 11009KT 9000 FEW030 20/15 Q1018 NOSIG
VHHH,2017-01-10 16:00,113.9219,22.3094,68.00,59.00,72.92,90.00,11.00,0.00,30.06,M,5.59,M,FEW,M,M,M,2000.00,M,M,M,M,M,M,M,M,M,M,68.00,VHHH 101600Z 09011KT 9000 FEW020 20/15 Q1018 NOSIG
VHHH,2017-01-10 16:30,113.9219,22.3094,68.00,59.00,72.92,110.00,13.00,0.00,30.06,M,5.59,M,FEW,M,M,M,2000.00,M,M,M,M,M,M,M,M,M,M,68.00,VHHH 101630Z 11013KT 9000 FEW020 20/15 Q1018 NOSIG
VHHH,2017-01-10 17:00,113.9219,22.3094,68.00,59.00,72.92,100.00,10.00,0.00,30.09,M,5.59,M,FEW,M,M,M,2000.00,M,M,M,M,M,M,M,M,M,M,68.00,VHHH 101700Z 10010KT 070V140 9000 FEW020 20/15 Q1019 NOSIG
VHHH,2017-01-10 17:30,113.9219,22.3094,68.00,59.00,72.92,100.00,11.00,0.00,30.06,M,4.97,M,FEW,M,M,M,2000.00,M,M,M,M,M,M,M,M,M,M,68.00,VHHH 101730Z 10011KT 080V140 8000 FEW020 20/15 Q1018 NOSIG
VHHH,2017-01-10 18:00,113.9219,22.3094,68.00,59.00,72.92,100.00,11.00,0.00,30.06,M,5.59,M,FEW,M,M,M,2000.00,M,M,M,M,M,M,M,M,M,M,68.00,VHHH 101800Z 10011KT 9000 FEW020 20/15 Q1018 NOSIG
VHHH,2017-01-10 18:30,113.9219,22.3094,68.00,59.00,72.92,100.00,11.00,0.00,30.06,M,4.97,M,FEW,SCT,M,M,2000.00,3500.00,M,M,M,M,M,M,M,M,M,68.00,VHHH 101830Z 10011KT 8000 FEW020 SCT035 20/15 Q1018 NOSIG
VHHH,2017-01-10 19:00,113.9219,22.3094,68.00,59.00,72.92,90.00,11.00,0.00,30.06,M,4.97,M,FEW,SCT,M,M,2000.00,3500.00,M,M,M,M,M,M,M,M,M,68.00,VHHH 101900Z 09011KT 8000 FEW020 SCT035 20/15 Q1018 NOSIG
VHHH,2017-01-10 19:30,113.9219,22.3094,68.00,59.00,72.92,100.00,10.00,0.00,30.06,M,4.97,M,FEW,SCT,M,M,2000.00,3500.00,M,M,M,M,M,M,M,M,M,68.00,VHHH 101930Z 10010KT 8000 FEW020 SCT035 20/15 Q1018 NOSIG
VHHH,2017-01-10 20:00,113.9219,22.3094,68.00,59.00,72.92,100.00,12.00,0.00,30.06,M,4.97,M,FEW,SCT,M,M,2000.00,3500.00,M,M,M,M,M,M,M,M,M,68.00,VHHH 102000Z 10012KT 8000 FEW020 SCT035 20/15 Q1018 NOSIG
VHHH,2017-01-10 20:30,113.9219,22.3094,68.00,59.00,72.92,90.00,11.00,0.00,30.06,M,4.97,M,FEW,SCT,M,M,2000.00,3500.00,M,M,M,M,M,M,M,M,M,68.00,VHHH 102030Z 09011KT 8000 FEW020 SCT035 20/15 Q1018 NOSIG
VHHH,2017-01-10 21:00,113.9219,22.3094,68.00,57.20,68.35,90.00,11.00,0.00,30.03,M,4.97,M,FEW,SCT,M,M,2000.00,3500.00,M,M,M,M,M,M,M,M,M,68.00,VHHH 102100Z 09011KT 8000 FEW020 SCT035 20/14 Q1017 NOSIG
VHHH,2017-01-10 21:30,113.9219,22.3094,66.20,57.20,72.74,100.00,12.00,0.00,30.03,M,4.97,M,FEW,SCT,M,M,2000.00,4000.00,M,M,M,M,M,M,M,M,M,66.20,VHHH 102130Z 10012KT 8000 FEW020 SCT040 19/14 Q1017 NOSIG
VHHH,2017-01-10 22:00,113.9219,22.3094,66.20,57.20,72.74,90.00,11.00,0.00,30.06,M,4.97,M,FEW,SCT,M,M,2000.00,4000.00,M,M,M,M,M,M,M,M,M,66.20,VHHH 102200Z 09011KT 8000 FEW020 SCT040 19/14 Q1018 NOSIG
VHHH,2017-01-10 22:30,113.9219,22.3094,66.20,57.20,72.74,90.00,11.00,0.00,30.06,M,4.97,M,FEW,M,M,M,2500.00,M,M,M,M,M,M,M,M,M,M,66.20,VHHH 102230Z 09011KT 8000 FEW025 19/14 Q1018 NOSIG
VHHH,2017-01-10 23:00,113.9219,22.3094,66.20,57.20,72.74,90.00,12.00,0.00,30.06,M,4.97,M,FEW,M,M,M,2500.00,M,M,M,M,M,M,M,M,M,M,66.20,VHHH 102300Z 09012KT 8000 FEW025 19/14 Q1018 NOSIG
VHHH,2017-01-10 23:30,113.9219,22.3094,66.20,57.20,72.74,80.00,11.00,0.00,30.06,M,4.97,M,FEW,M,M,M,2500.00,M,M,M,M,M,M,M,M,M,M,66.20,VHHH 102330Z 08011KT 8000 FEW025 19/14 Q1018 NOSIG
VHHH,2017-01-11 00:00,113.9219,22.3094,68.00,57.20,68.35,80.00,8.00,0.00,30.09,M,4.97,M,FEW,M,M,M,2500.00,M,M,M,M,M,M,M,M,M,M,68.00,VHHH 110000Z 08008KT 8000 FEW025 20/14 Q1019 NOSIG
VHHH,2017-01-11 00:30,113.9219,22.3094,68.00,57.20,68.35,70.00,8.00,0.00,30.09,M,4.97,M,FEW,M,M,M,3000.00,M,M,M,M,M,M,M,M,M,M,68.00,VHHH 110030Z 07008KT 8000 FEW030 20/14 Q1019 NOSIG
VHHH,2017-01-11 01:00,113.9219,22.3094,68.00,57.20,68.35,80.00,9.00,0.00,30.09,M,4.97,M,FEW,M,M,M,3000.00,M,M,M,M,M,M,M,M,M,M,68.00,VHHH 110100Z 08009KT 8000 FEW030 20/14 Q1019 NOSIG
VHHH,2017-01-11 01:30,113.9219,22.3094,69.80,57.20,64.26,90.00,9.00,0.00,30.12,M,4.97,M,FEW,M,M,M,3000.00,M,M,M,M,M,M,M,M,M,M,69.80,VHHH 110130Z 09009KT 060V120 8000 FEW030 21/14 Q1020 NOSIG
VHHH,2017-01-11 02:00,113.9219,22.3094,69.80,57.20,64.26,110.00,8.00,0.00,30.12,M,4.35,M,FEW,M,M,M,3000.00,M,M,M,M,M,M,M,M,M,M,69.80,VHHH 110200Z 11008KT 070V140 7000 FEW030 21/14 Q1020 NOSIG
VHHH,2017-01-11 02:30,113.9219,22.3094,69.80,57.20,64.26,90.00,8.00,0.00,30.09,M,4.35,M,FEW,M,M,M,4000.00,M,M,M,M,M,M,M,M,M,M,69.80,VHHH 110230Z 09008KT 060V120 7000 FEW040 21/14 Q1019 NOSIG
VHHH,2017-01-11 03:00,113.9219,22.3094,71.60,57.20,60.44,120.00,8.00,0.00,30.09,M,4.35,M,FEW,SCT,M,M,2500.00,4000.00,M,M,M,M,M,M,M,M,M,71.60,VHHH 110300Z 12008KT 080V150 7000 FEW025 SCT040 22/14 Q1019 NOSIG
VHHH,2017-01-11 03:30,113.9219,22.3094,69.80,57.20,64.26,100.00,7.00,0.00,30.09,M,4.35,M,FEW,SCT,M,M,2500.00,4000.00,M,M,M,M,M,M,M,M,M,69.80,VHHH 110330Z 10007KT 050V140 7000 FEW025 SCT040 21/14 Q1019 NOSIG
VHHH,2017-01-11 04:00,113.9219,22.3094,71.60,57.20,60.44,110.00,7.00,0.00,30.06,M,4.35,M,FEW,SCT,M,M,2500.00,4000.00,M,M,M,M,M,M,M,M,M,71.60,VHHH 110400Z 11007KT 070V160 7000 FEW025 SCT040 22/14 Q1018 NOSIG
VHHH,2017-01-11 04:30,113.9219,22.3094,69.80,57.20,64.26,100.00,8.00,0.00,30.03,M,4.35,M,FEW,SCT,M,M,2500.00,4000.00,M,M,M,M,M,M,M,M,M,69.80,VHHH 110430Z 10008KT 070V130 7000 FEW025 SCT040 21/14 Q1017 NOSIG
VHHH,2017-01-11 05:00,113.9219,22.3094,69.80,57.20,64.26,M,7.00,0.00,30.03,M,3.73,M,FEW,SCT,M,M,2500.00,4000.00,M,M,M,M,M,M,M,M,M,69.80,VHHH 110500Z VRB07KT 6000 FEW025 SCT040 21/14 Q1017 NOSIG
VHHH,2017-01-11 05:30,113.9219,22.3094,69.80,57.20,64.26,110.00,10.00,0.00,30.00,M,3.73,M,FEW,SCT,M,M,2500.00,4000.00,M,M,M,M,M,M,M,M,M,69.80,VHHH 110530Z 11010KT 6000 FEW025 SCT040 21/14 Q1016 NOSIG
VHHH,2017-01-11 06:00,113.9219,22.3094,69.80,57.20,64.26,110.00,7.00,0.00,30.00,M,3.73,M,FEW,SCT,M,M,2500.00,4000.00,M,M,M,M,M,M,M,M,M,69.80,VHHH 110600Z 11007KT 080V160 6000 FEW025 SCT040 21/14 Q1016 NOSIG
VHHH,2017-01-11 06:30,113.9219,22.3094,69.80,57.20,64.26,100.00,5.00,0.00,30.00,M,3.73,M,FEW,SCT,M,M,2500.00,4000.00,M,M,M,M,M,M,M,M,M,69.80,VHHH 110630Z 10005KT 050V160 6000 FEW025 SCT040 21/14 Q1016 NOSIG
VHHH,2017-01-11 07:00,113.9219,22.3094,68.00,59.00,72.92,60.00,5.00,0.00,29.97,M,3.73,M,FEW,SCT,M,M,2500.00,4000.00,M,M,M,M,M,M,M,M,M,68.00,VHHH 110700Z 06005KT 030V120 6000 FEW025 SCT040 20/15 Q1015 NOSIG
VHHH,2017-01-11 07:30,113.9219,22.3094,69.80,57.20,64.26,90.00,5.00,0.00,29.97,M,3.73,M,FEW,SCT,M,M,2500.00,4000.00,M,M,M,M,M,M,M,M,M,69.80,VHHH 110730Z 09005KT 050V130 6000 FEW025 SCT040 21/14 Q1015 NOSIG
VHHH,2017-01-11 08:00,113.9219,22.3094,69.80,59.00,68.55,70.00,6.00,0.00,29.97,M,3.73,M,FEW,SCT,M,M,2500.00,4000.00,M,M,M,M,M,M,M,M,M,69.80,VHHH 110800Z 07006KT 050V110 6000 FEW025 SCT040 21/15 Q1015 NOSIG
VHHH,2017-01-11 08:30,113.9219,22.3094,69.80,57.20,64.26,90.00,5.00,0.00,29.97,M,3.73,M,FEW,SCT,M,M,2500.00,4000.00,M,M,M,M,M,M,M,M,M,69.80,VHHH 110830Z 09005KT 050V150 6000 FEW025 SCT040 21/14 Q1015 NOSIG
VHHH,2017-01-11 09:00,113.9219,22.3094,69.80,59.00,68.55,70.00,6.00,0.00,30.00,M,3.73,M,FEW,SCT,M,M,2500.00,4000.00,M,M,M,M,M,M,M,M,M,69.80,VHHH 110900Z 07006KT 6000 FEW025 SCT040 21/15 Q1016 NOSIG
VHHH,2017-01-11 09:30,113.9219,22.3094,68.00,59.00,72.92,90.00,7.00,0.00,30.00,M,3.73,M,FEW,SCT,M,M,2500.00,4000.00,M,M,M,M,M,M,M,M,M,68.00,VHHH 110930Z 09007KT 070V140 6000 FEW025 SCT040 20/15 Q1016 NOSIG
VHHH,2017-01-11 10:00,113.9219,22.3094,68.00,59.00,72.92,100.00,7.00,0.00,30.00,M,3.73,M,FEW,SCT,M,M,2500.00,4000.00,M,M,M,M,M,M,M,M,M,68.00,VHHH 111000Z 10007KT 060V170 6000 FEW025 SCT040 20/15 Q1016 NOSIG
VHHH,2017-01-11 10:30,113.9219,22.3094,69.80,59.00,68.55,90.00,6.00,0.00,30.00,M,4.35,M,FEW,SCT,M,M,2500.00,4000.00,M,M,M,M,M,M,M,M,M,69.80,VHHH 111030Z 09006KT 7000 FEW025 SCT040 21/15 Q1016 NOSIG
VHHH,2017-01-11 11:00,113.9219,22.3094,68.00,59.00,72.92,100.00,7.00,0.00,30.03,M,4.35,M,FEW,SCT,M,M,2500.00,4000.00,M,M,M,M,M,M,M,M,M,68.00,VHHH 111100Z 10007KT 070V140 7000 FEW025 SCT040 20/15 Q1017 NOSIG
VHHH,2017-01-11 11:30,113.9219,22.3094,68.00,59.00,72.92,90.00,7.00,0.00,30.03,M,3.73,M,FEW,SCT,M,M,2500.00,4000.00,M,M,M,M,M,M,M,M,M,68.00,VHHH 111130Z 09007KT 6000 FEW025 SCT040 20/15 Q1017 NOSIG
VHHH,2017-01-11 12:00,113.9219,22.3094,68.00,59.00,72.92,70.00,6.00,0.00,30.03,M,3.73,M,FEW,SCT,M,M,2500.00,4000.00,M,M,M,M,M,M,M,M,M,68.00,VHHH 111200Z 07006KT 6000 FEW025 SCT040 20/15 Q1017 NOSIG
VHHH,2017-01-11 12:30,113.9219,22.3094,68.00,59.00,72.92,90.00,8.00,0.00,30.03,M,4.35,M,FEW,SCT,M,M,2500.00,3500.00,M,M,M,M,M,M,M,M,M,68.00,VHHH 111230Z 09008KT 7000 FEW025 SCT035 20/15 Q1017 NOSIG
VHHH,2017-01-11 13:00,113.9219,22.3094,68.00,59.00,72.92,90.00,6.00,0.00,30.06,M,3.73,M,FEW,SCT,M,M,2500.00,3500.00,M,M,M,M,M,M,M,M,M,68.00,VHHH 111300Z 09006KT 060V130 6000 FEW025 SCT035 20/15 Q1018 NOSIG
VHHH,2017-01-11 13:30,113.9219,22.3094,68.00,60.80,77.75,70.00,5.00,0.00,30.06,M,3.73,M,FEW,SCT,M,M,2500.00,3500.00,M,M,M,M,M,M,M,M,M,68.00,VHHH 111330Z 07005KT 6000 FEW025 SCT035 20/16 Q1018 NOSIG
VHHH,2017-01-11 14:00,113.9219,22.3094,69.80,60.80,73.09,90.00,5.00,0.00,30.06,M,3.73,M,FEW,SCT,M,M,2500.00,3500.00,M,M,M,M,M,M,M,M,M,69.80,VHHH 111400Z 09005KT 6000 FEW025 SCT035 21/16 Q1018 NOSIG
VHHH,2017-01-11 14:30,113.9219,22.3094,68.00,59.00,72.92,70.00,6.00,0.00,30.06,M,3.73,M,FEW,SCT,M,M,2500.00,3500.00,M,M,M,M,M,M,M,M,M,68.00,VHHH 111430Z 07006KT 6000 FEW025 SCT035 20/15 Q1018 NOSIG
VHHH,2017-01-11 15:00,113.9219,22.3094,68.00,59.00,72.92,80.00,6.00,0.00,30.06,M,3.73,M,FEW,SCT,M,M,2000.00,3500.00,M,M,M,M,M,M,M,M,M,68.00,VHHH 111500Z 08006KT 6000 FEW020 SCT035 20/15 Q1018 NOSIG
VHHH,2017-01-11 15:30,113.9219,22.3094,68.00,60.80,77.75,80.00,6.00,0.00,30.06,M,3.73,M,FEW,SCT,M,M,2000.00,3500.00,M,M,M,M,M,M,M,M,M,68.00,VHHH 111530Z 08006KT 6000 FEW020 SCT035 20/16 Q1018 NOSIG
VHHH,2017-01-11 16:00,113.9219,22.3094,68.00,60.80,77.75,70.00,7.00,0.00,30.03,M,3.73,M,FEW,SCT,M,M,2000.00,3500.00,M,M,M,M,M,M,M,M,M,68.00,VHHH 111600Z 07007KT 6000 FEW020 SCT035 20/16 Q1017 NOSIG
VHHH,2017-01-11 16:30,113.9219,22.3094,68.00,60.80,77.75,80.00,5.00,0.00,30.03,M,3.73,M,FEW,SCT,M,M,1500.00,3000.00,M,M,M,M,M,M,M,M,M,68.00,VHHH 111630Z 08005KT 050V110 6000 FEW015 SCT030 20/16 Q1017 NOSIG
VHHH,2017-01-11 17:00,113.9219,22.3094,68.00,60.80,77.75,100.00,8.00,0.00,30.03,M,3.73,M,FEW,SCT,M,M,1500.00,3000.00,M,M,M,M,M,M,M,M,M,68.00,VHHH 111700Z 10008KT 6000 FEW015 SCT030 20/16 Q1017 NOSIG
VHHH,2017-01-11 17:30,113.9219,22.3094,68.00,60.80,77.75,110.00,7.00,0.00,30.00,M,3.73,M,FEW,SCT,M,M,1500.00,3000.00,M,M,M,M,M,M,M,M,M,68.00,VHHH 111730Z 11007KT 070V180 6000 FEW015 SCT030 20/16 Q1016 NOSIG
VHHH,2017-01-11 18:00,113.9219,22.3094,68.00,60.80,77.75,100.00,7.00,0.00,30.00,M,4.35,M,FEW,SCT,M,M,1500.00,3000.00,M,M,M,M,M,M,M,M,M,68.00,VHHH 111800Z 10007KT 7000 FEW015 SCT030 20/16 Q1016 NOSIG
VHHH,2017-01-11 18:30,113.9219,22.3094,68.00,60.80,77.75,100.00,6.00,0.00,30.00,M,3.73,M,FEW,SCT,M,M,1500.00,3000.00,M,M,M,M,M,M,M,M,M,68.00,VHHH 111830Z 10006KT 6000 FEW015 SCT030 20/16 Q1016 NOSIG
VHHH,2017-01-11 19:00,113.9219,22.3094,68.00,60.80,77.75,100.00,7.00,0.00,30.00,M,4.35,M,FEW,SCT,M,M,1500.00,2500.00,M,M,M,M,M,M,M,M,M,68.00,VHHH 111900Z 10007KT 7000 FEW015 SCT025 20/16 Q1016 NOSIG
VHHH,2017-01-11 19:30,113.9219,22.3094,68.00,60.80,77.75,50.00,5.00,0.00,30.00,M,3.73,M,FEW,SCT,M,M,1500.00,2500.00,M,M,M,M,M,M,M,M,M,68.00,VHHH 111930Z 05005KT 020V120 6000 FEW015 SCT025 20/16 Q1016 TEMPO 4000 BR
VHHH,2017-01-11 20:00,113.9219,22.3094,68.00,60.80,77.75,60.00,7.00,0.00,30.00,M,3.73,M,FEW,SCT,M,M,1500.00,2500.00,M,M,M,M,M,M,M,M,M,68.00,VHHH 112000Z 06007KT 6000 FEW015 SCT025 20/16 Q1016 TEMPO 4000 BR
VHHH,2017-01-11 20:30,113.9219,22.3094,68.00,60.80,77.75,70.00,6.00,0.00,29.97,M,3.73,M,FEW,SCT,M,M,1500.00,2500.00,M,M,M,M,M,M,M,M,M,68.00,VHHH 112030Z 07006KT 6000 FEW015 SCT025 20/16 Q1015 TEMPO 4000 BR
VHHH,2017-01-11 21:00,113.9219,22.3094,68.00,60.80,77.75,70.00,4.00,0.00,30.00,M,3.73,M,FEW,SCT,M,M,1500.00,2300.00,M,M,M,M,M,M,M,M,M,68.00,VHHH 112100Z 07004KT 6000 FEW015 SCT023 20/16 Q1016 TEMPO 4000 BR
VHHH,2017-01-11 21:30,113.9219,22.3094,68.00,60.80,77.75,70.00,6.00,0.00,29.97,M,3.73,M,FEW,SCT,M,M,1500.00,2300.00,M,M,M,M,M,M,M,M,M,68.00,VHHH 112130Z 07006KT 6000 FEW015 SCT023 20/16 Q1015 TEMPO 4000 BR
VHHH,2017-01-11 22:00,113.9219,22.3094,68.00,60.80,77.75,60.00,8.00,0.00,29.97,M,3.73,M,FEW,SCT,M,M,1500.00,2300.00,M,M,M,M,M,M,M,M,M,68.00,VHHH 112200Z 06008KT 6000 FEW015 SCT023 20/16 Q1015 TEMPO 4000 BR
VHHH,2017-01-11 22:30,113.9219,22.3094,66.20,60.80,82.74,40.00,10.00,0.00,29.97,M,3.11,M,FEW,SCT,M,M,1200.00,2000.00,M,M,M,M,M,M,M,M,M,66.20,VHHH 112230Z 04010KT 5000 FEW012 SCT020 19/16 Q1015 TEMPO 4000 BR
VHHH,2017-01-11 23:00,113.9219,22.3094,68.00,60.80,77.75,40.00,7.00,0.00,30.00,M,3.11,M,FEW,SCT,M,M,1200.00,2000.00,M,M,M,M,M,M,M,M,M,68.00,VHHH 112300Z 04007KT 5000 FEW012 SCT020 20/16 Q1016 TEMPO 4000 BR
VHHH,2017-01-11 23:17,113.9219,22.3094,66.20,59.00,77.60,30.00,8.00,0.00,30.00,M,2.98,M,FEW,SCT,M,M,1200.00,2000.00,M,M,BR,M,M,M,M,M,M,66.20,VHHH 112317Z 03008KT 4800 BR FEW012 SCT020 19/15 Q1016 NOSIG
VHHH,2017-01-11 23:30,113.9219,22.3094,66.20,59.00,77.60,30.00,6.00,0.00,30.00,M,2.73,M,FEW,SCT,M,M,1200.00,2000.00,M,M,BR,M,M,M,M,M,M,66.20,VHHH 112330Z 03006KT 4400 BR FEW012 SCT020 19/15 Q1016 NOSIG
VHHH,2017-01-12 00:00,113.9219,22.3094,66.20,59.00,77.60,30.00,5.00,0.00,30.00,M,2.80,M,FEW,SCT,M,M,1200.00,2000.00,M,M,BR,M,M,M,M,M,M,66.20,VHHH 120000Z 03005KT 010V070 4500 BR FEW012 SCT020 19/15 Q1016 NOSIG
VHHH,2017-01-12 00:30,113.9219,22.3094,68.00,60.80,77.75,50.00,7.00,0.00,30.00,M,2.80,M,FEW,SCT,M,M,1200.00,2500.00,M,M,BR,M,M,M,M,M,M,68.00,VHHH 120030Z 05007KT 4500 BR FEW012 SCT025 20/16 Q1016 NOSIG
VHHH,2017-01-12 01:00,113.9219,22.3094,69.80,59.00,68.55,50.00,9.00,0.00,30.00,M,2.73,M,FEW,SCT,M,M,1200.00,2500.00,M,M,BR,M,M,M,M,M,M,69.80,VHHH 120100Z 05009KT 4400 BR FEW012 SCT025 21/15 Q1016 NOSIG
VHHH,2017-01-12 01:30,113.9219,22.3094,68.00,59.00,72.92,50.00,8.00,0.00,30.03,M,3.11,M,FEW,SCT,M,M,1200.00,2500.00,M,M,M,M,M,M,M,M,M,68.00,VHHH 120130Z 05008KT 5000 FEW012 SCT025 20/15 Q1017 TEMPO 4000 HZ
VHHH,2017-01-12 02:00,113.9219,22.3094,68.00,59.00,72.92,70.00,7.00,0.00,30.03,M,3.11,M,FEW,SCT,M,M,1200.00,2500.00,M,M,M,M,M,M,M,M,M,68.00,VHHH 120200Z 07007KT 5000 FEW012 SCT025 20/15 Q1017 NOSIG
VHHH,2017-01-12 02:22,113.9219,22.3094,68.00,59.00,72.92,30.00,7.00,0.00,30.03,M,2.80,M,FEW,SCT,M,M,1200.00,2500.00,M,M,HZ,M,M,M,M,M,M,68.00,VHHH 120222Z 03007KT 4500 HZ FEW012 SCT025 20/15 Q1017 NOSIG
VHHH,2017-01-12 02:30,113.9219,22.3094,68.00,59.00,72.92,10.00,7.00,0.00,30.03,M,2.61,M,FEW,SCT,M,M,1200.00,2500.00,M,M,HZ,M,M,M,M,M,M,68.00,VHHH 120230Z 01007KT 340V040 4200 HZ FEW012 SCT025 20/15 Q1017 NOSIG
VHHH,2017-01-12 03:00,113.9219,22.3094,68.00,59.00,72.92,360.00,9.00,0.00,30.03,M,2.61,M,FEW,SCT,M,M,1200.00,2500.00,M,M,HZ,M,M,M,M,M,M,68.00,VHHH 120300Z 36009KT 4200 HZ FEW012 SCT025 20/15 Q1017 NOSIG
VHHH,2017-01-12 03:30,113.9219,22.3094,68.00,59.00,72.92,10.00,6.00,0.00,30.00,M,2.67,M,FEW,SCT,M,M,1200.00,2500.00,M,M,HZ,M,M,M,M,M,M,68.00,VHHH 120330Z 01006KT 4300 HZ FEW012 SCT025 20/15 Q1016 NOSIG
VHHH,2017-01-12 04:00,113.9219,22.3094,68.00,59.00,72.92,360.00,8.00,0.00,30.00,M,2.67,M,FEW,SCT,M,M,1200.00,2500.00,M,M,HZ,M,M,M,M,M,M,68.00,VHHH 120400Z 36008KT 4300 HZ FEW012 SCT025 20/15 Q1016 NOSIG
VHHH,2017-01-12 04:30,113.9219,22.3094,68.00,59.00,72.92,360.00,9.00,0.00,29.97,M,2.67,M,FEW,SCT,M,M,1200.00,2500.00,M,M,HZ,M,M,M,M,M,M,68.00,VHHH 120430Z 36009KT 4300 HZ FEW012 SCT025 20/15 Q1015 NOSIG
VHHH,2017-01-12 05:00,113.9219,22.3094,68.00,59.00,72.92,20.00,7.00,0.00,29.94,M,2.67,M,FEW,SCT,M,M,1200.00,2500.00,M,M,HZ,M,M,M,M,M,M,68.00,VHHH 120500Z 02007KT 4300 HZ FEW012 SCT025 20/15 Q1014 NOSIG
VHHH,2017-01-12 05:30,113.9219,22.3094,69.80,57.20,64.26,10.00,7.00,0.00,29.94,M,2.80,M,FEW,SCT,M,M,1200.00,2500.00,M,M,HZ,M,M,M,M,M,M,69.80,VHHH 120530Z 01007KT 340V050 4500 HZ FEW012 SCT025 21/14 Q1014 NOSIG
VHHH,2017-01-12 06:00,113.9219,22.3094,68.00,57.20,68.35,350.00,11.00,0.00,29.94,M,2.80,M,FEW,SCT,M,M,1200.00,2500.00,M,M,HZ,M,M,M,M,M,M,68.00,VHHH 120600Z 35011KT 4500 HZ FEW012 SCT025 20/14 Q1014 NOSIG
VHHH,2017-01-12 06:30,113.9219,22.3094,66.20,57.20,72.74,350.00,13.00,0.00,29.91,M,2.73,M,FEW,SCT,M,M,1200.00,2200.00,M,M,HZ,M,M,M,M,M,M,66.20,VHHH 120630Z 35013KT 4400 HZ FEW012 SCT022 19/14 Q1013 NOSIG
VHHH,2017-01-12 07:00,113.9219,22.3094,66.20,57.20,72.74,340.00,13.00,0.00,29.91,M,2.80,M,FEW,SCT,M,M,1200.00,2200.00,M,M,HZ,M,M,M,M,M,M,66.20,VHHH 120700Z 34013KT 4500 HZ FEW012 SCT022 19/14 Q1013 NOSIG
VHHH,2017-01-12 07:30,113.9219,22.3094,66.20,57.20,72.74,340.00,12.00,0.00,29.91,M,2.86,M,FEW,SCT,M,M,1200.00,2200.00,M,M,HZ,M,M,M,M,M,M,66.20,VHHH 120730Z 34012KT 4600 HZ FEW012 SCT022 19/14 Q1013 NOSIG
VHHH,2017-01-12 08:00,113.9219,22.3094,66.20,57.20,72.74,340.00,13.00,0.00,29.91,M,2.86,M,FEW,SCT,M,M,1200.00,2200.00,M,M,HZ,M,M,M,M,M,M,66.20,VHHH 120800Z 34013KT 4600 HZ FEW012 SCT022 19/14 Q1013 NOSIG
VHHH,2017-01-12 08:30,113.9219,22.3094,66.20,57.20,72.74,350.00,12.00,0.00,29.91,M,2.98,M,FEW,SCT,M,M,1200.00,2200.00,M,M,HZ,M,M,M,M,M,M,66.20,VHHH 120830Z 35012KT 4800 HZ FEW012 SCT022 19/14 Q1013 NOSIG
VHHH,2017-01-12 09:00,113.9219,22.3094,66.20,57.20,72.74,360.00,12.00,0.00,29.94,M,3.04,M,FEW,SCT,M,M,1200.00,2200.00,M,M,HZ,M,M,M,M,M,M,66.20,VHHH 120900Z 36012KT 4900 HZ FEW012 SCT022 19/14 Q1014 NOSIG
VHHH,2017-01-12 09:30,113.9219,22.3094,64.40,55.40,72.56,350.00,13.00,0.00,29.94,M,3.04,M,FEW,SCT,M,M,1200.00,2200.00,M,M,HZ,M,M,M,M,M,M,64.40,VHHH 120930Z 35013KT 4900 HZ FEW012 SCT022 18/13 Q1014 NOSIG
VHHH,2017-01-12 09:50,113.9219,22.3094,64.40,55.40,72.56,350.00,12.00,0.00,29.94,M,3.11,M,FEW,SCT,M,M,1200.00,2200.00,M,M,M,M,M,M,M,M,M,64.40,VHHH 120950Z 35012KT 5000 FEW012 SCT022 18/13 Q1014 NOSIG
VHHH,2017-01-12 10:00,113.9219,22.3094,64.40,57.20,77.45,360.00,10.00,0.00,29.94,M,3.11,M,FEW,SCT,M,M,1200.00,2200.00,M,M,-RA,M,M,M,M,M,M,64.40,VHHH 121000Z 36010KT 5000 -RA FEW012 SCT022 18/14 Q1014 NOSIG
VHHH,2017-01-12 10:30,113.9219,22.3094,62.60,57.20,82.50,350.00,11.00,0.00,29.97,M,3.11,M,FEW,SCT,M,M,1200.00,2200.00,M,M,M,M,M,M,M,M,M,62.60,VHHH 121030Z 35011KT 5000 FEW012 SCT022 17/14 Q1015 NOSIG
VHHH,2017-01-12 11:00,113.9219,22.3094,62.60,57.20,82.50,360.00,11.00,0.00,29.97,M,3.73,M,FEW,SCT,M,M,1000.00,1800.00,M,M,-RA,M,M,M,M,M,M,62.60,VHHH 121100Z 36011KT 6000 -RA FEW010 SCT018 17/14 Q1015 NOSIG
VHHH,2017-01-12 11:30,113.9219,22.3094,62.60,55.40,77.29,350.00,10.00,0.00,29.97,M,3.73,M,FEW,SCT,M,M,1000.00,1800.00,M,M,M,M,M,M,M,M,M,62.60,VHHH 121130Z 35010KT 6000 FEW010 SCT018 17/13 Q1015 NOSIG
VHHH,2017-01-12 12:00,113.9219,22.3094,62.60,55.40,77.29,360.00,12.00,0.00,30.00,M,4.35,M,FEW,SCT,M,M,1000.00,1800.00,M,M,M,M,M,M,M,M,M,62.60,VHHH 121200Z 36012KT 330V030 7000 FEW010 SCT018 17/13 Q1016 NOSIG
VHHH,2017-01-12 12:30,113.9219,22.3094,62.60,55.40,77.29,360.00,11.00,0.00,30.00,M,3.73,M,FEW,SCT,M,M,1000.00,1800.00,M,M,M,M,M,M,M,M,M,62.60,VHHH 121230Z 36011KT 6000 FEW010 SCT018 17/13 Q1016 NOSIG
VHHH,2017-01-12 13:00,113.9219,22.3094,62.60,55.40,77.29,360.00,11.00,0.00,30.00,M,3.73,M,FEW,SCT,M,M,1000.00,1800.00,M,M,-RA,M,M,M,M,M,M,62.60,VHHH 121300Z 36011KT 6000 -RA FEW010 SCT018 17/13 Q1016 NOSIG
VHHH,2017-01-12 13:30,113.9219,22.3094,60.80,55.40,82.37,360.00,12.00,0.00,30.00,M,4.35,M,FEW,SCT,M,M,1000.00,1800.00,M,M,M,M,M,M,M,M,M,60.80,VHHH 121330Z 36012KT 7000 FEW010 SCT018 16/13 Q1016 NOSIG
VHHH,2017-01-12 14:00,113.9219,22.3094,60.80,55.40,82.37,10.00,12.00,0.00,30.00,M,4.35,M,FEW,SCT,M,M,1000.00,1800.00,M,M,M,M,M,M,M,M,M,60.80,VHHH 121400Z 01012KT 7000 FEW010 SCT018 16/13 Q1016 NOSIG
VHHH,2017-01-12 14:30,113.9219,22.3094,60.80,55.40,82.37,10.00,10.00,0.00,30.00,M,4.97,M,FEW,SCT,M,M,1000.00,2200.00,M,M,M,M,M,M,M,M,M,60.80,VHHH 121430Z 01010KT 8000 FEW010 SCT022 16/13 Q1016 NOSIG
VHHH,2017-01-12 15:00,113.9219,22.3094,60.80,55.40,82.37,10.00,10.00,0.00,30.00,M,4.97,M,FEW,SCT,M,M,1000.00,2200.00,M,M,M,M,M,M,M,M,M,60.80,VHHH 121500Z 01010KT 8000 FEW010 SCT022 16/13 Q1016 NOSIG
VHHH,2017-01-12 15:30,113.9219,22.3094,60.80,53.60,77.14,10.00,10.00,0.00,30.03,M,6.21,M,FEW,SCT,M,M,1000.00,2200.00,M,M,M,M,M,M,M,M,M,60.80,VHHH 121530Z 01010KT 9999 FEW010 SCT022 16/12 Q1017 NOSIG
VHHH,2017-01-12 16:00,113.9219,22.3094,60.80,53.60,77.14,360.00,12.00,0.00,30.03,M,6.21,M,FEW,SCT,M,M,1000.00,2200.00,M,M,M,M,M,M,M,M,M,60.80,VHHH 121600Z 36012KT 9999 FEW010 SCT022 16/12 Q1017 NOSIG
VHHH,2017-01-12 16:30,113.9219,22.3094,59.00,53.60,82.25,10.00,10.00,0.00,30.03,M,6.21,M,FEW,SCT,M,M,1000.00,2200.00,M,M,M,M,M,M,M,M,M,59.00,VHHH 121630Z 01010KT 9999 FEW010 SCT022 15/12 Q1017 NOSIG
VHHH,2017-01-12 17:00,113.9219,22.3094,59.00,53.60,82.25,360.00,9.00,0.00,30.00,M,6.21,M,FEW,SCT,M,M,1000.00,2200.00,M,M,M,M,M,M,M,M,M,59.00,VHHH 121700Z 36009KT 9999 FEW010 SCT022 15/12 Q1016 NOSIG
VHHH,2017-01-12 17:30,113.9219,22.3094,59.00,53.60,82.25,360.00,9.00,0.00,30.00,M,6.21,M,FEW,SCT,M,M,1000.00,2200.00,M,M,M,M,M,M,M,M,M,59.00,VHHH 121730Z 36009KT 9999 FEW010 SCT022 15/12 Q1016 NOSIG
VHHH,2017-01-12 18:00,113.9219,22.3094,59.00,51.80,76.98,10.00,9.00,0.00,30.00,M,6.21,M,FEW,SCT,M,M,1000.00,2200.00,M,M,M,M,M,M,M,M,M,59.00,VHHH 121800Z 01009KT 9999 FEW010 SCT022 15/11 Q1016 NOSIG
VHHH,2017-01-12 18:30,113.9219,22.3094,59.00,51.80,76.98,10.00,8.00,0.00,30.00,M,6.21,M,FEW,SCT,M,M,1000.00,2200.00,M,M,M,M,M,M,M,M,M,59.00,VHHH 121830Z 01008KT 340V050 9999 FEW010 SCT022 15/11 Q1016 NOSIG
VHHH,2017-01-12 19:00,113.9219,22.3094,59.00,51.80,76.98,10.00,10.00,0.00,29.97,M,6.21,M,FEW,SCT,M,M,1000.00,2200.00,M,M,M,M,M,M,M,M,M,59.00,VHHH 121900Z 01010KT 9999 FEW010 SCT022 15/11 Q1015 NOSIG
VHHH,2017-01-12 19:30,113.9219,22.3094,59.00,51.80,76.98,340.00,13.00,0.00,30.00,M,6.21,M,FEW,SCT,M,M,1000.00,2200.00,M,M,M,M,M,M,M,M,M,59.00,VHHH 121930Z 34013KT 9999 FEW010 SCT022 15/11 Q1016 NOSIG
VHHH,2017-01-12 20:00,113.9219,22.3094,59.00,51.80,76.98,350.00,13.00,0.00,30.00,M,6.21,M,FEW,SCT,M,M,1000.00,2200.00,M,M,M,M,M,M,M,M,M,59.00,VHHH 122000Z 35013KT 9999 FEW010 SCT022 15/11 Q1016 NOSIG
VHHH,2017-01-12 20:30,113.9219,22.3094,59.00,51.80,76.98,350.00,11.00,0.00,30.00,M,6.21,M,FEW,SCT,M,M,1000.00,2200.00,M,M,M,M,M,M,M,M,M,59.00,VHHH 122030Z 35011KT 9999 FEW010 SCT022 15/11 Q1016 NOSIG
VHHH,2017-01-12 21:00,113.9219,22.3094,57.20,51.80,82.12,340.00,12.00,0.00,29.97,M,6.21,M,FEW,SCT,M,M,1000.00,2200.00,M,M,M,M,M,M,M,M,M,57.20,VHHH 122100Z 34012KT 9999 FEW010 SCT022 14/11 Q1015 NOSIG
VHHH,2017-01-12 21:30,113.9219,22.3094,57.20,51.80,82.12,350.00,12.00,0.00,29.97,M,6.21,M,FEW,SCT,M,M,1000.00,2200.00,M,M,M,M,M,M,M,M,M,57.20,VHHH 122130Z 35012KT 9999 FEW010 SCT022 14/11 Q1015 NOSIG
VHHH,2017-01-12 22:00,113.9219,22.3094,57.20,50.00,76.82,350.00,11.00,0.00,29.97,M,6.21,M,FEW,SCT,M,M,1000.00,2200.00,M,M,M,M,M,M,M,M,M,57.20,VHHH 122200Z 35011KT 9999 FEW010 SCT022 14/10 Q1015 NOSIG
VHHH,2017-01-12 22:30,113.9219,22.3094,57.20,50.00,76.82,20.00,9.00,0.00,29.97,M,6.21,M,FEW,SCT,M,M,1000.00,2200.00,M,M,M,M,M,M,M,M,M,57.20,VHHH 122230Z 02009KT 350V050 9999 FEW010 SCT022 14/10 Q1015 NOSIG
VHHH,2017-01-12 23:00,113.9219,22.3094,57.20,50.00,76.82,10.00,7.00,0.00,30.00,M,6.21,M,FEW,SCT,M,M,1000.00,2200.00,M,M,M,M,M,M,M,M,M,57.20,VHHH 122300Z 01007KT 320V050 9999 FEW010 SCT022 14/10 Q1016 NOSIG
VHHH,2017-01-12 23:30,113.9219,22.3094,57.20,51.80,82.12,10.00,9.00,0.00,30.00,M,6.21,M,FEW,SCT,M,M,1000.00,2200.00,M,M,-RA,M,M,M,M,M,M,57.20,VHHH 122330Z 01009KT 330V040 9999 -RA FEW010 SCT022 14/11 Q1016 NOSIG
VHHH,2017-01-13 00:00,113.9219,22.3094,59.00,50.00,72.01,20.00,8.00,0.00,30.03,M,6.21,M,FEW,SCT,M,M,1000.00,2200.00,M,M,-RA,M,M,M,M,M,M,59.00,VHHH 130000Z 02008KT 9999 -RA FEW010 SCT022 15/10 Q1017 NOSIG
VHHH,2017-01-13 00:30,113.9219,22.3094,57.20,51.80,82.12,360.00,9.00,0.00,30.03,M,6.21,M,FEW,SCT,M,M,1000.00,2000.00,M,M,M,M,M,M,M,M,M,57.20,VHHH 130030Z 36009KT 9999 FEW010 SCT020 14/11 Q1017 NOSIG
VHHH,2017-01-13 01:00,113.9219,22.3094,57.20,51.80,82.12,20.00,6.00,0.00,30.03,M,6.21,M,FEW,SCT,M,M,1000.00,2000.00,M,M,-RA,M,M,M,M,M,M,57.20,VHHH 130100Z 02006KT 340V070 9999 -RA FEW010 SCT020 14/11 Q1017 NOSIG
VHHH,2017-01-13 02:00,113.9219,22.3094,57.20,51.80,82.12,50.00,4.00,0.00,30.03,M,6.21,M,FEW,SCT,M,M,1000.00,2000.00,M,M,M,M,M,M,M,M,M,57.20,VHHH 130200Z 05004KT 340V100 9999 FEW010 SCT020 14/11 Q1017 NOSIG
VHHH,2017-01-13 02:30,113.9219,22.3094,57.20,50.00,76.82,30.00,3.00,0.00,30.03,M,6.21,M,FEW,SCT,M,M,1000.00,2000.00,M,M,M,M,M,M,M,M,M,57.20,VHHH 130230Z 03003KT 320V090 9999 FEW010 SCT020 14/10 Q1017 NOSIG
VHHH,2017-01-13 03:00,113.9219,22.3094,57.20,51.80,82.12,360.00,5.00,0.00,30.03,M,6.21,M,FEW,SCT,M,M,1000.00,2000.00,M,M,M,M,M,M,M,M,M,57.20,VHHH 130300Z 36005KT 330V030 9999 FEW010 SCT020 14/11 Q1017 NOSIG
VHHH,2017-01-13 03:30,113.9219,22.3094,59.00,51.80,76.98,360.00,8.00,0.00,30.03,M,3.73,M,FEW,SCT,M,M,1000.00,2000.00,M,M,-RA,M,M,M,M,M,M,59.00,VHHH 130330Z 36008KT 6000 -RA FEW010 SCT020 15/11 Q1017 NOSIG
VHHH,2017-01-13 04:00,113.9219,22.3094,59.00,51.80,76.98,20.00,7.00,0.00,30.03,M,4.97,M,FEW,SCT,M,M,1000.00,2000.00,M,M,-RA,M,M,M,M,M,M,59.00,VHHH 130400Z 02007KT 340V040 8000 -RA FEW010 SCT020 15/11 Q1017 NOSIG
VHHH,2017-01-13 04:30,113.9219,22.3094,59.00,51.80,76.98,10.00,7.00,0.00,30.00,M,6.21,M,FEW,SCT,M,M,1000.00,2000.00,M,M,M,M,M,M,M,M,M,59.00,VHHH 130430Z 01007KT 9999 FEW010 SCT020 15/11 Q1016 NOSIG
VHHH,2017-01-13 05:00,113.9219,22.3094,59.00,51.80,76.98,350.00,6.00,0.00,30.00,M,5.59,M,FEW,SCT,M,M,800.00,1800.00,M,M,M,M,M,M,M,M,M,59.00,VHHH 130500Z 35006KT 320V020 9000 FEW008 SCT018 15/11 Q1016 NOSIG
VHHH,2017-01-13 05:13,113.9219,22.3094,59.00,53.60,82.25,350.00,5.00,0.00,30.00,M,2.86,M,FEW,SCT,M,M,800.00,1800.00,M,M,-DZ,M,M,M,M,M,M,59.00,VHHH 130513Z 35005KT 310V030 4600 -DZ FEW008 SCT018 15/12 Q1016 NOSIG
VHHH,2017-01-13 05:30,113.9219,22.3094,59.00,53.60,82.25,30.00,5.00,0.00,29.97,M,4.97,M,FEW,SCT,M,M,900.00,1800.00,M,M,-DZ,M,M,M,M,M,M,59.00,VHHH 130530Z 03005KT 360V090 8000 -DZ FEW009 SCT018 15/12 Q1015 NOSIG
VHHH,2017-01-13 06:00,113.9219,22.3094,60.80,53.60,77.14,80.00,4.00,0.00,29.97,M,6.21,M,FEW,SCT,M,M,1000.00,1800.00,M,M,M,M,M,M,M,M,M,60.80,VHHH 130600Z 08004KT 030V140 9999 FEW010 SCT018 16/12 Q1015 NOSIG
VHHH,2017-01-13 06:30,113.9219,22.3094,60.80,51.80,72.20,M,3.00,0.00,29.97,M,6.21,M,FEW,SCT,M,M,1000.00,2000.00,M,M,M,M,M,M,M,M,M,60.80,VHHH 130630Z VRB03KT 9999 FEW010 SCT020 16/11 Q1015 NOSIG
VHHH,2017-01-13 07:00,113.9219,22.3094,59.00,53.60,82.25,320.00,6.00,0.00,29.97,M,6.21,M,FEW,SCT,M,M,900.00,1800.00,M,M,-RA,M,M,M,M,M,M,59.00,VHHH 130700Z 32006KT 300V360 9999 -RA FEW009 SCT018 15/12 Q1015 NOSIG
VHHH,2017-01-13 07:30,113.9219,22.3094,59.00,53.60,82.25,M,3.00,0.00,29.97,M,2.36,M,FEW,SCT,M,M,900.00,1800.00,M,M,-RA BR,M,M,M,M,M,M,59.00,VHHH 130730Z VRB03KT 3800 -RA BR FEW009 SCT018 15/12 Q1015 NOSIG
VHHH,2017-01-13 08:00,113.9219,22.3094,59.00,55.40,87.83,80.00,3.00,0.00,29.94,M,3.73,M,FEW,SCT,M,M,900.00,2000.00,M,M,-RA,M,M,M,M,M,M,59.00,VHHH 130800Z 08003KT 6000 -RA FEW009 SCT020 15/13 Q1014 NOSIG
VHHH,2017-01-13 08:30,113.9219,22.3094,59.00,51.80,76.98,M,3.00,0.00,29.97,M,4.97,M,FEW,SCT,M,M,1000.00,2000.00,M,M,M,M,M,M,M,M,M,59.00,VHHH 130830Z VRB03KT 8000 FEW010 SCT020 15/11 Q1015 NOSIG
VHHH,2017-01-13 09:00,113.9219,22.3094,59.00,53.60,82.25,230.00,3.00,0.00,29.97,M,6.21,M,FEW,SCT,M,M,1000.00,2000.00,M,M,M,M,M,M,M,M,M,59.00,VHHH 130900Z 23003KT 180V350 9999 FEW010 SCT020 15/12 Q1015 NOSIG
VHHH,2017-01-13 09:30,113.9219,22.3094,60.80,51.80,72.20,350.00,9.00,0.00,29.97,M,6.21,M,FEW,SCT,M,M,1000.00,2000.00,M,M,M,M,M,M,M,M,M,60.80,VHHH 130930Z 35009KT 9999 FEW010 SCT020 16/11 Q1015 NOSIG
VHHH,2017-01-13 10:00,113.9219,22.3094,60.80,53.60,77.14,350.00,10.00,0.00,29.97,M,6.21,M,FEW,SCT,M,M,1000.00,2000.00,M,M,M,M,M,M,M,M,M,60.80,VHHH 131000Z 35010KT 9999 FEW010 SCT020 16/12 Q1015 NOSIG
VHHH,2017-01-13 10:30,113.9219,22.3094,59.00,53.60,82.25,20.00,8.00,0.00,30.00,M,6.21,M,FEW,SCT,M,M,1000.00,2000.00,M,M,M,M,M,M,M,M,M,59.00,VHHH 131030Z 02008KT 340V060 9999 FEW010 SCT020 15/12 Q1016 NOSIG
VHHH,2017-01-13 11:00,113.9219,22.3094,60.80,51.80,72.20,20.00,5.00,0.00,30.00,M,6.21,M,FEW,SCT,M,M,1000.00,2000.00,M,M,M,M,M,M,M,M,M,60.80,VHHH 131100Z 02005KT 350V070 9999 FEW010 SCT020 16/11 Q1016 NOSIG
VHHH,2017-01-13 11:30,113.9219,22.3094,60.80,51.80,72.20,20.00,7.00,0.00,30.00,M,6.21,M,FEW,SCT,M,M,1000.00,2000.00,M,M,M,M,M,M,M,M,M,60.80,VHHH 131130Z 02007KT 9999 FEW010 SCT020 16/11 Q1016 NOSIG
VHHH,2017-01-13 12:00,113.9219,22.3094,59.00,51.80,76.98,360.00,9.00,0.00,30.03,M,6.21,M,FEW,SCT,M,M,1000.00,1800.00,M,M,M,M,M,M,M,M,M,59.00,VHHH 131200Z 36009KT 9999 FEW010 SCT018 15/11 Q1017 NOSIG
VHHH,2017-01-13 12:30,113.9219,22.3094,60.80,51.80,72.20,10.00,8.00,0.00,30.03,M,6.21,M,FEW,SCT,M,M,1000.00,1800.00,M,M,M,M,M,M,M,M,M,60.80,VHHH 131230Z 01008KT 340V050 9999 FEW010 SCT018 16/11 Q1017 NOSIG
VHHH,2017-01-13 13:00,113.9219,22.3094,59.00,51.80,76.98,30.00,6.00,0.00,30.03,M,6.21,M,FEW,SCT,M,M,1000.00,1800.00,M,M,M,M,M,M,M,M,M,59.00,VHHH 131300Z 03006KT 350V050 9999 FEW010 SCT018 15/11 Q1017 NOSIG
VHHH,2017-01-13 13:30,113.9219,22.3094,59.00,53.60,82.25,30.00,8.00,0.00,30.03,M,6.21,M,FEW,SCT,M,M,1000.00,1800.00,M,M,M,M,M,M,M,M,M,59.00,VHHH 131330Z 03008KT 360V070 9999 FEW010 SCT018 15/12 Q1017 NOSIG
VHHH,2017-01-13 14:00,113.9219,22.3094,59.00,53.60,82.25,40.00,5.00,0.00,30.03,M,5.59,M,FEW,SCT,M,M,1000.00,1800.00,M,M,-DZ,M,M,M,M,M,M,59.00,VHHH 131400Z 04005KT 9000 -DZ FEW010 SCT018 15/12 Q1017 NOSIG
VHHH,2017-01-13 14:30,113.9219,22.3094,59.00,53.60,82.25,30.00,8.00,0.00,30.03,M,6.21,M,FEW,SCT,M,M,1000.00,1800.00,M,M,M,M,M,M,M,M,M,59.00,VHHH 131430Z 03008KT 9999 FEW010 SCT018 15/12 Q1017 NOSIG
VHHH,2017-01-13 15:00,113.9219,22.3094,57.20,55.40,93.69,40.00,8.00,0.00,30.03,M,6.21,M,FEW,SCT,M,M,800.00,1500.00,M,M,-DZ,M,M,M,M,M,M,57.20,VHHH 131500Z 04008KT 9999 -DZ FEW008 SCT015 14/13 Q1017 NOSIG
VHHH,2017-01-13 15:30,113.9219,22.3094,57.20,51.80,82.12,50.00,9.00,0.00,30.03,M,6.21,M,FEW,SCT,M,M,800.00,1500.00,M,M,M,M,M,M,M,M,M,57.20,VHHH 131530Z 05009KT 9999 FEW008 SCT015 14/11 Q1017 NOSIG
VHHH,2017-01-13 16:00,113.9219,22.3094,57.20,53.60,87.74,40.00,7.00,0.00,30.03,M,6.21,M,FEW,SCT,M,M,800.00,1500.00,M,M,M,M,M,M,M,M,M,57.20,VHHH 131600Z 04007KT 350V070 9999 FEW008 SCT015 14/12 Q1017 NOSIG
VHHH,2017-01-13 16:30,113.9219,22.3094,57.20,53.60,87.74,40.00,8.00,0.00,30.03,M,6.21,M,FEW,SCT,M,M,800.00,1500.00,M,M,-DZ,M,M,M,M,M,M,57.20,VHHH 131630Z 04008KT 9999 -DZ FEW008 SCT015 14/12 Q1017 NOSIG
VHHH,2017-01-13 17:00,113.9219,22.3094,59.00,53.60,82.25,40.00,12.00,0.00,30.03,M,6.21,M,FEW,SCT,M,M,800.00,1500.00,M,M,M,M,M,M,M,M,M,59.00,VHHH 131700Z 04012KT 9999 FEW008 SCT015 15/12 Q1017 NOSIG
VHHH,2017-01-13 17:30,113.9219,22.3094,57.20,51.80,82.12,40.00,8.00,0.00,30.03,M,6.21,M,FEW,SCT,M,M,600.00,1500.00,M,M,M,M,M,M,M,M,M,57.20,VHHH 131730Z 04008KT 9999 FEW006 SCT015 14/11 Q1017 NOSIG
VHHH,2017-01-13 18:00,113.9219,22.3094,57.20,51.80,82.12,10.00,5.00,0.00,30.03,M,6.21,M,FEW,SCT,M,M,600.00,1500.00,M,M,M,M,M,M,M,M,M,57.20,VHHH 131800Z 01005KT 330V050 9999 FEW006 SCT015 14/11 Q1017 NOSIG
VHHH,2017-01-13 18:30,113.9219,22.3094,57.20,53.60,87.74,20.00,8.00,0.00,30.03,M,5.59,M,FEW,SCT,M,M,600.00,1500.00,M,M,-RA,M,M,M,M,M,M,57.20,VHHH 131830Z 02008KT 350V070 9000 -RA FEW006 SCT015 14/12 Q1017 NOSIG
VHHH,2017-01-13 19:00,113.9219,22.3094,57.20,53.60,87.74,40.00,9.00,0.00,30.03,M,6.21,M,FEW,SCT,M,M,600.00,1500.00,M,M,M,M,M,M,M,M,M,57.20,VHHH 131900Z 04009KT 9999 FEW006 SCT015 14/12 Q1017 NOSIG
VHHH,2017-01-13 19:30,113.9219,22.3094,57.20,53.60,87.74,50.00,7.00,0.00,30.03,M,5.59,M,FEW,SCT,M,M,600.00,1500.00,M,M,-RA,M,M,M,M,M,M,57.20,VHHH 131930Z 05007KT 360V080 9000 -RA FEW006 SCT015 14/12 Q1017 NOSIG
VHHH,2017-01-13 20:00,113.9219,22.3094,57.20,53.60,87.74,360.00,7.00,0.00,30.03,M,4.35,M,FEW,SCT,M,M,600.00,1500.00,M,M,-RA,M,M,M,M,M,M,57.20,VHHH 132000Z 36007KT 7000 -RA FEW006 SCT015 14/12 Q1017 NOSIG
VHHH,2017-01-13 20:30,113.9219,22.3094,57.20,53.60,87.74,60.00,4.00,0.00,30.03,M,3.11,M,FEW,SCT,M,M,600.00,1500.00,M,M,-RA,M,M,M,M,M,M,57.20,VHHH 132030Z 06004KT 020V120 5000 -RA FEW006 SCT015 14/12 Q1017 NOSIG
VHHH,2017-01-13 21:00,113.9219,22.3094,55.40,53.60,93.65,20.00,6.00,0.00,30.03,M,3.11,M,FEW,SCT,M,M,600.00,1500.00,M,M,-RA,M,M,M,M,M,M,55.40,VHHH 132100Z 02006KT 350V080 5000 -RA FEW006 SCT015 13/12 Q1017 NOSIG
VHHH,2017-01-13 21:30,113.9219,22.3094,57.20,53.60,87.74,30.00,5.00,0.00,30.03,M,5.59,M,FEW,SCT,M,M,600.00,1500.00,M,M,-RA,M,M,M,M,M,M,57.20,VHHH 132130Z 03005KT 360V070 9000 -RA FEW006 SCT015 14/12 Q1017 NOSIG
VHHH,2017-01-13 22:00,113.9219,22.3094,57.20,53.60,87.74,50.00,9.00,0.00,30.03,M,6.21,M,FEW,SCT,M,M,500.00,1200.00,M,M,-RA,M,M,M,M,M,M,57.20,VHHH 132200Z 05009KT 020V080 9999 -RA FEW005 SCT012 14/12 Q1017 NOSIG
VHHH,2017-01-13 22:30,113.9219,22.3094,57.20,53.60,87.74,50.00,13.00,0.00,30.03,M,6.21,M,FEW,SCT,M,M,500.00,1200.00,M,M,M,M,M,M,M,M,M,57.20,VHHH 132230Z 05013KT 9999 FEW005 SCT012 14/12 Q1017 NOSIG
VHHH,2017-01-13 23:00,113.9219,22.3094,57.20,53.60,87.74,50.00,14.00,0.00,30.03,M,6.21,M,FEW,SCT,M,M,500.00,1500.00,M,M,M,M,M,M,M,M,M,57.20,VHHH 132300Z 05014KT 9999 FEW005 SCT015 14/12 Q1017 NOSIG
VHHH,2017-01-13 23:30,113.9219,22.3094,57.20,53.60,87.74,50.00,12.00,0.00,30.06,M,6.21,M,FEW,SCT,M,M,500.00,1500.00,M,M,M,M,M,M,M,M,M,57.20,VHHH 132330Z 05012KT 9999 FEW005 SCT015 14/12 Q1018 NOSIG
VHHH,2017-01-13 23:52,113.9219,22.3094,57.20,53.60,87.74,50.00,11.00,0.00,30.06,M,2.98,M,FEW,SCT,M,M,500.00,1500.00,M,M,BR,M,M,M,M,M,M,57.20,VHHH 132352Z 05011KT 4800 BR FEW005 SCT015 14/12 Q1018 NOSIG
VHHH,2017-01-14 00:00,113.9219,22.3094,55.40,53.60,93.65,50.00,6.00,0.00,30.06,M,2.98,M,FEW,SCT,M,M,500.00,1200.00,M,M,-RA BR,M,M,M,M,M,M,55.40,VHHH 140000Z 05006KT 330V080 4800 -RA BR FEW005 SCT012 13/12 Q1018 NOSIG
VHHH,2017-01-14 00:05,113.9219,22.3094,55.40,53.60,93.65,40.00,5.00,0.00,30.06,M,3.11,M,FEW,SCT,M,M,600.00,1200.00,M,M,-RA,M,M,M,M,M,M,55.40,VHHH 140005Z 04005KT 330V090 5000 -RA FEW006 SCT012 13/12 Q1018 NOSIG
VHHH,2017-01-14 00:30,113.9219,22.3094,55.40,53.60,93.65,50.00,7.00,0.00,30.09,M,3.73,M,FEW,SCT,M,M,600.00,1200.00,M,M,-RA,M,M,M,M,M,M,55.40,VHHH 140030Z 05007KT 010V080 6000 -RA FEW006 SCT012 13/12 Q1019 NOSIG
VHHH,2017-01-14 01:00,113.9219,22.3094,57.20,53.60,87.74,40.00,10.00,0.00,30.09,M,5.59,M,FEW,SCT,M,M,600.00,1200.00,M,M,-RA,M,M,M,M,M,M,57.20,VHHH 140100Z 04010KT 9000 -RA FEW006 SCT012 14/12 Q1019 NOSIG
VHHH,2017-01-14 01:30,113.9219,22.3094,57.20,53.60,87.74,50.00,9.00,0.00,30.09,M,6.21,M,FEW,SCT,M,M,600.00,1200.00,M,M,-DZ,M,M,M,M,M,M,57.20,VHHH 140130Z 05009KT 9999 -DZ FEW006 SCT012 14/12 Q1019 NOSIG
VHHH,2017-01-14 02:00,113.9219,22.3094,57.20,53.60,87.74,70.00,5.00,0.00,30.09,M,6.21,M,FEW,SCT,M,M,700.00,1200.00,M,M,-DZ,M,M,M,M,M,M,57.20,VHHH 140200Z 07005KT 020V120 9999 -DZ FEW007 SCT012 14/12 Q1019 NOSIG
VHHH,2017-01-14 02:30,113.9219,22.3094,57.20,53.60,87.74,30.00,5.00,0.00,30.09,M,6.21,M,FEW,SCT,M,M,700.00,1200.00,M,M,-DZ,M,M,M,M,M,M,57.20,VHHH 140230Z 03005KT 330V080 9999 -DZ FEW007 SCT012 14/12 Q1019 NOSIG
VHHH,2017-01-14 03:00,113.9219,22.3094,57.20,53.60,87.74,60.00,11.00,0.00,30.09,M,6.21,M,FEW,SCT,M,M,700.00,1200.00,M,M,-DZ,M,M,M,M,M,M,57.20,VHHH 140300Z 06011KT 9999 -DZ FEW007 SCT012 14/12 Q1019 NOSIG
VHHH,2017-01-14 03:30,113.9219,22.3094,57.20,53.60,87.74,50.00,7.00,0.00,30.09,M,6.21,M,FEW,SCT,M,M,700.00,1200.00,M,M,M,M,M,M,M,M,M,57.20,VHHH 140330Z 05007KT 030V090 9999 FEW007 SCT012 14/12 Q1019 NOSIG
VHHH,2017-01-14 04:00,113.9219,22.3094,59.00,53.60,82.25,60.00,5.00,0.00,30.06,M,6.21,M,FEW,SCT,M,M,700.00,1300.00,M,M,M,M,M,M,M,M,M,59.00,VHHH 140400Z 06005KT 9999 FEW007 SCT013 15/12 Q1018 NOSIG
VHHH,2017-01-14 04:30,113.9219,22.3094,59.00,53.60,82.25,40.00,5.00,0.00,30.06,M,6.21,M,FEW,SCT,M,M,800.00,1300.00,M,M,M,M,M,M,M,M,M,59.00,VHHH 140430Z 04005KT 280V090 9999 FEW008 SCT013 15/12 Q1018 NOSIG
VHHH,2017-01-14 05:00,113.9219,22.3094,60.80,53.60,77.14,60.00,9.00,0.00,30.03,M,6.21,M,FEW,SCT,M,M,800.00,1400.00,M,M,M,M,M,M,M,M,M,60.80,VHHH 140500Z 06009KT 9999 FEW008 SCT014 16/12 Q1017 NOSIG
VHHH,2017-01-14 05:30,113.9219,22.3094,60.80,55.40,82.37,50.00,5.00,0.00,30.03,M,6.21,M,FEW,SCT,M,M,800.00,1400.00,M,M,M,M,M,M,M,M,M,60.80,VHHH 140530Z 05005KT 340V080 9999 FEW008 SCT014 16/13 Q1017 NOSIG
VHHH,2017-01-14 06:00,113.9219,22.3094,59.00,53.60,82.25,M,3.00,0.00,30.03,M,6.21,M,FEW,SCT,M,M,800.00,1400.00,M,M,M,M,M,M,M,M,M,59.00,VHHH 140600Z VRB03KT 340V090 9999 FEW008 SCT014 15/12 Q1017 NOSIG
VHHH,2017-01-14 06:30,113.9219,22.3094,59.00,53.60,82.25,30.00,3.00,0.00,30.03,M,6.21,M,FEW,SCT,M,M,800.00,1400.00,M,M,M,M,M,M,M,M,M,59.00,VHHH 140630Z 03003KT 340V090 9999 FEW008 SCT014 15/12 Q1017 NOSIG
VHHH,2017-01-14 07:00,113.9219,22.3094,60.80,55.40,82.37,50.00,5.00,0.00,30.00,M,6.21,M,FEW,SCT,M,M,800.00,1400.00,M,M,M,M,M,M,M,M,M,60.80,VHHH 140700Z 05005KT 010V090 9999 FEW008 SCT014 16/13 Q1016 NOSIG
VHHH,2017-01-14 07:30,113.9219,22.3094,60.80,55.40,82.37,40.00,4.00,0.00,30.03,M,6.21,M,FEW,SCT,M,M,800.00,1400.00,M,M,M,M,M,M,M,M,M,60.80,VHHH 140730Z 04004KT 360V080 9999 FEW008 SCT014 16/13 Q1017 NOSIG
VHHH,2017-01-14 08:00,113.9219,22.3094,60.80,55.40,82.37,40.00,4.00,0.00,30.03,M,6.21,M,FEW,SCT,M,M,800.00,1400.00,M,M,M,M,M,M,M,M,M,60.80,VHHH 140800Z 04004KT 010V070 9999 FEW008 SCT014 16/13 Q1017 NOSIG
VHHH,2017-01-14 08:30,113.9219,22.3094,60.80,55.40,82.37,40.00,4.00,0.00,30.03,M,6.21,M,FEW,SCT,M,M,800.00,1400.00,M,M,M,M,M,M,M,M,M,60.80,VHHH 140830Z 04004KT 330V080 9999 FEW008 SCT014 16/13 Q1017 NOSIG
VHHH,2017-01-14 09:00,113.9219,22.3094,60.80,53.60,77.14,50.00,8.00,0.00,30.06,M,6.21,M,FEW,SCT,M,M,800.00,1400.00,M,M,M,M,M,M,M,M,M,60.80,VHHH 140900Z 05008KT 9999 FEW008 SCT014 16/12 Q1018 NOSIG
VHHH,2017-01-14 09:30,113.9219,22.3094,60.80,53.60,77.14,50.00,8.00,0.00,30.06,M,6.21,M,FEW,SCT,M,M,800.00,1400.00,M,M,M,M,M,M,M,M,M,60.80,VHHH 140930Z 05008KT 9999 FEW008 SCT014 16/12 Q1018 NOSIG
VHHH,2017-01-14 10:00,113.9219,22.3094,60.80,53.60,77.14,40.00,9.00,0.00,30.06,M,6.21,M,FEW,SCT,M,M,800.00,1400.00,M,M,M,M,M,M,M,M,M,60.80,VHHH 141000Z 04009KT 9999 FEW008 SCT014 16/12 Q1018 NOSIG
VHHH,2017-01-14 10:30,113.9219,22.3094,60.80,53.60,77.14,30.00,8.00,0.00,30.06,M,6.21,M,FEW,SCT,M,M,800.00,1400.00,M,M,M,M,M,M,M,M,M,60.80,VHHH 141030Z 03008KT 9999 FEW008 SCT014 16/12 Q1018 NOSIG
VHHH,2017-01-14 11:00,113.9219,22.3094,60.80,53.60,77.14,40.00,6.00,0.00,30.06,M,6.21,M,FEW,SCT,M,M,800.00,1400.00,M,M,M,M,M,M,M,M,M,60.80,VHHH 141100Z 04006KT 9999 FEW008 SCT014 16/12 Q1018 NOSIG
VHHH,2017-01-14 11:30,113.9219,22.3094,60.80,53.60,77.14,60.00,6.00,0.00,30.09,M,6.21,M,FEW,SCT,M,M,800.00,1400.00,M,M,M,M,M,M,M,M,M,60.80,VHHH 141130Z 06006KT 030V090 9999 FEW008 SCT014 16/12 Q1019 NOSIG
VHHH,2017-01-14 12:00,113.9219,22.3094,60.80,53.60,77.14,40.00,7.00,0.00,30.09,M,6.21,M,FEW,SCT,M,M,800.00,1400.00,M,M,M,M,M,M,M,M,M,60.80,VHHH 141200Z 04007KT 9999 FEW008 SCT014 16/12 Q1019 NOSIG
VHHH,2017-01-14 12:30,113.9219,22.3094,60.80,53.60,77.14,50.00,8.00,0.00,30.09,M,6.21,M,FEW,SCT,M,M,800.00,1500.00,M,M,M,M,M,M,M,M,M,60.80,VHHH 141230Z 05008KT 9999 FEW008 SCT015 16/12 Q1019 NOSIG
VHHH,2017-01-14 13:00,113.9219,22.3094,60.80,53.60,77.14,50.00,7.00,0.00,30.12,M,6.21,M,FEW,SCT,M,M,800.00,1500.00,M,M,M,M,M,M,M,M,M,60.80,VHHH 141300Z 05007KT 9999 FEW008 SCT015 16/12 Q1020 NOSIG
VHHH,2017-01-14 13:30,113.9219,22.3094,60.80,53.60,77.14,50.00,7.00,0.00,30.12,M,6.21,M,FEW,SCT,M,M,800.00,1500.00,M,M,M,M,M,M,M,M,M,60.80,VHHH 141330Z 05007KT 9999 FEW008 SCT015 16/12 Q1020 NOSIG
VHHH,2017-01-14 14:00,113.9219,22.3094,60.80,53.60,77.14,60.00,8.00,0.00,30.12,M,6.21,M,FEW,SCT,M,M,800.00,1500.00,M,M,M,M,M,M,M,M,M,60.80,VHHH 141400Z 06008KT 9999 FEW008 SCT015 16/12 Q1020 NOSIG
VHHH,2017-01-14 14:30,113.9219,22.3094,60.80,53.60,77.14,50.00,8.00,0.00,30.09,M,6.21,M,FEW,SCT,M,M,800.00,1500.00,M,M,M,M,M,M,M,M,M,60.80,VHHH 141430Z 05008KT 9999 FEW008 SCT015 16/12 Q1019 NOSIG
VHHH,2017-01-14 15:00,113.9219,22.3094,60.80,53.60,77.14,50.00,7.00,0.00,30.09,M,6.21,M,FEW,SCT,M,M,800.00,1500.00,M,M,M,M,M,M,M,M,M,60.80,VHHH 141500Z 05007KT 9999 FEW008 SCT015 16/12 Q1019 NOSIG
VHHH,2017-01-14 15:30,113.9219,22.3094,60.80,53.60,77.14,60.00,6.00,0.00,30.09,M,6.21,M,FEW,SCT,M,M,800.00,1500.00,M,M,M,M,M,M,M,M,M,60.80,VHHH 141530Z 06006KT 9999 FEW008 SCT015 16/12 Q1019 NOSIG
VHHH,2017-01-14 16:00,113.9219,22.3094,60.80,53.60,77.14,50.00,6.00,0.00,30.09,M,6.21,M,FEW,SCT,M,M,800.00,1500.00,M,M,M,M,M,M,M,M,M,60.80,VHHH 141600Z 05006KT 9999 FEW008 SCT015 16/12 Q1019 NOSIG
VHHH,2017-01-14 16:30,113.9219,22.3094,60.80,53.60,77.14,60.00,4.00,0.00,30.09,M,6.21,M,FEW,SCT,M,M,800.00,1500.00,M,M,M,M,M,M,M,M,M,60.80,VHHH 141630Z 06004KT 020V090 9999 FEW008 SCT015 16/12 Q1019 NOSIG
VHHH,2017-01-14 17:00,113.9219,22.3094,60.80,53.60,77.14,50.00,8.00,0.00,30.09,M,6.21,M,FEW,SCT,M,M,800.00,1500.00,M,M,M,M,M,M,M,M,M,60.80,VHHH 141700Z 05008KT 9999 FEW008 SCT015 16/12 Q1019 NOSIG
VHHH,2017-01-14 17:30,113.9219,22.3094,60.80,53.60,77.14,50.00,7.00,0.00,30.12,M,5.59,M,FEW,SCT,M,M,800.00,1500.00,M,M,M,M,M,M,M,M,M,60.80,VHHH 141730Z 05007KT 9000 FEW008 SCT015 16/12 Q1020 NOSIG
VHHH,2017-01-14 18:00,113.9219,22.3094,60.80,53.60,77.14,50.00,9.00,0.00,30.09,M,4.97,M,FEW,SCT,M,M,800.00,1500.00,M,M,M,M,M,M,M,M,M,60.80,VHHH 141800Z 05009KT 8000 FEW008 SCT015 16/12 Q1019 NOSIG
VHHH,2017-01-14 18:30,113.9219,22.3094,59.00,55.40,87.83,60.00,10.00,0.00,30.09,M,4.35,M,FEW,SCT,M,M,800.00,1400.00,M,M,-RA,M,M,M,M,M,M,59.00,VHHH 141830Z 06010KT 7000 -RA FEW008 SCT014 15/13 Q1019 NOSIG
VHHH,2017-01-14 19:00,113.9219,22.3094,59.00,55.40,87.83,40.00,10.00,0.00,30.09,M,4.35,M,FEW,SCT,M,M,800.00,1400.00,M,M,M,M,M,M,M,M,M,59.00,VHHH 141900Z 04010KT 7000 FEW008 SCT014 15/13 Q1019 NOSIG
VHHH,2017-01-14 19:30,113.9219,22.3094,59.00,53.60,82.25,40.00,6.00,0.00,30.09,M,4.97,M,FEW,SCT,M,M,800.00,1500.00,M,M,M,M,M,M,M,M,M,59.00,VHHH 141930Z 04006KT 010V070 8000 FEW008 SCT015 15/12 Q1019 NOSIG
VHHH,2017-01-14 20:00,113.9219,22.3094,59.00,53.60,82.25,50.00,12.00,0.00,30.09,M,4.97,M,FEW,SCT,M,M,800.00,1500.00,M,M,M,M,M,M,M,M,M,59.00,VHHH 142000Z 05012KT 8000 FEW008 SCT015 15/12 Q1019 NOSIG
VHHH,2017-01-14 20:30,113.9219,22.3094,59.00,53.60,82.25,50.00,10.00,0.00,30.09,M,4.97,M,FEW,SCT,M,M,1000.00,2000.00,M,M,M,M,M,M,M,M,M,59.00,VHHH 142030Z 05010KT 8000 FEW010 SCT020 15/12 Q1019 NOSIG
VHHH,2017-01-14 21:00,113.9219,22.3094,57.20,53.60,87.74,50.00,11.00,0.00,30.09,M,3.73,M,FEW,SCT,M,M,800.00,1500.00,M,M,-RA,M,M,M,M,M,M,57.20,VHHH 142100Z 05011KT 6000 -RA FEW008 SCT015 14/12 Q1019 NOSIG
VHHH,2017-01-14 21:30,113.9219,22.3094,57.20,53.60,87.74,50.00,11.00,0.00,30.12,M,3.73,M,FEW,SCT,M,M,800.00,1500.00,M,M,-RA,M,M,M,M,M,M,57.20,VHHH 142130Z 05011KT 6000 -RA FEW008 SCT015 14/12 Q1020 NOSIG
VHHH,2017-01-14 22:00,113.9219,22.3094,59.00,53.60,82.25,50.00,9.00,0.00,30.12,M,4.35,M,FEW,SCT,M,M,800.00,1500.00,M,M,-RA,M,M,M,M,M,M,59.00,VHHH 142200Z 05009KT 7000 -RA FEW008 SCT015 15/12 Q1020 NOSIG
VHHH,2017-01-14 22:18,113.9219,22.3094,57.20,53.60,87.74,40.00,8.00,0.00,30.12,M,3.73,M,FEW,SCT,M,M,800.00,1500.00,M,M,RA,M,M,M,M,M,M,57.20,VHHH 142218Z 04008KT 360V060 6000 RA FEW008 SCT015 14/12 Q1020 NOSIG
VHHH,2017-01-14 22:30,113.9219,22.3094,57.20,53.60,87.74,20.00,7.00,0.00,30.15,M,3.73,M,FEW,SCT,M,M,800.00,1500.00,M,M,-RA,M,M,M,M,M,M,57.20,VHHH 142230Z 02007KT 6000 -RA FEW008 SCT015 14/12 Q1021 RERA NOSIG
VHHH,2017-01-14 23:00,113.9219,22.3094,57.20,53.60,87.74,10.00,8.00,0.00,30.15,M,3.73,M,FEW,SCT,M,M,800.00,1500.00,M,M,-RA,M,M,M,M,M,M,57.20,VHHH 142300Z 01008KT 6000 -RA FEW008 SCT015 14/12 Q1021 NOSIG
VHHH,2017-01-14 23:30,113.9219,22.3094,57.20,53.60,87.74,10.00,11.00,0.00,30.15,M,3.73,M,FEW,SCT,M,M,700.00,1400.00,M,M,-RA,M,M,M,M,M,M,57.20,VHHH 142330Z 01011KT 6000 -RA FEW007 SCT014 14/12 Q1021 NOSIG
VHHH,2017-01-15 00:00,113.9219,22.3094,57.20,53.60,87.74,40.00,7.00,0.00,30.18,M,6.21,M,FEW,SCT,M,M,700.00,1400.00,M,M,-RA,M,M,M,M,M,M,57.20,VHHH 150000Z 04007KT 010V080 9999 -RA FEW007 SCT014 14/12 Q1022 NOSIG
VHHH,2017-01-15 00:30,113.9219,22.3094,57.20,53.60,87.74,40.00,10.00,0.00,30.18,M,6.21,M,FEW,SCT,M,M,700.00,1400.00,M,M,-RA,M,M,M,M,M,M,57.20,VHHH 150030Z 04010KT 9999 -RA FEW007 SCT014 14/12 Q1022 NOSIG
VHHH,2017-01-15 01:00,113.9219,22.3094,57.20,53.60,87.74,40.00,8.00,0.00,30.18,M,6.21,M,FEW,SCT,M,M,700.00,1400.00,M,M,-RA,M,M,M,M,M,M,57.20,VHHH 150100Z 04008KT 010V070 9999 -RA FEW007 SCT014 14/12 Q1022 NOSIG
VHHH,2017-01-15 01:30,113.9219,22.3094,57.20,53.60,87.74,50.00,8.00,0.00,30.18,M,6.21,M,FEW,SCT,M,M,1000.00,1600.00,M,M,-RA,M,M,M,M,M,M,57.20,VHHH 150130Z 05008KT 9999 -RA FEW010 SCT016 14/12 Q1022 NOSIG
VHHH,2017-01-15 02:00,113.9219,22.3094,57.20,53.60,87.74,50.00,8.00,0.00,30.18,M,6.21,M,FEW,SCT,M,M,1000.00,1600.00,M,M,M,M,M,M,M,M,M,57.20,VHHH 150200Z 05008KT 9999 FEW010 SCT016 14/12 Q1022 NOSIG
VHHH,2017-01-15 02:30,113.9219,22.3094,57.20,53.60,87.74,60.00,7.00,0.00,30.18,M,6.21,M,FEW,SCT,M,M,1000.00,1600.00,M,M,-RA,M,M,M,M,M,M,57.20,VHHH 150230Z 06007KT 9999 -RA FEW010 SCT016 14/12 Q1022 NOSIG
VHHH,2017-01-15 03:00,113.9219,22.3094,59.00,53.60,82.25,40.00,8.00,0.00,30.18,M,6.21,M,FEW,SCT,M,M,1000.00,1800.00,M,M,-RA,M,M,M,M,M,M,59.00,VHHH 150300Z 04008KT 9999 -RA FEW010 SCT018 15/12 Q1022 NOSIG
VHHH,2017-01-15 03:30,113.9219,22.3094,59.00,53.60,82.25,30.00,5.00,0.00,30.18,M,6.21,M,FEW,SCT,M,M,1000.00,1600.00,M,M,M,M,M,M,M,M,M,59.00,VHHH 150330Z 03005KT 330V070 9999 FEW010 SCT016 15/12 Q1022 NOSIG
VHHH,2017-01-15 04:00,113.9219,22.3094,59.00,53.60,82.25,20.00,7.00,0.00,30.15,M,6.21,M,FEW,SCT,M,M,1000.00,1400.00,M,M,M,M,M,M,M,M,M,59.00,VHHH 150400Z 02007KT 350V050 9999 FEW010 SCT014 15/12 Q1021 NOSIG
VHHH,2017-01-15 04:30,113.9219,22.3094,59.00,53.60,82.25,360.00,12.00,0.00,30.15,M,6.21,M,FEW,SCT,M,M,1000.00,1400.00,M,M,M,M,M,M,M,M,M,59.00,VHHH 150430Z 36012KT 9999 FEW010 SCT014 15/12 Q1021 NOSIG
VHHH,2017-01-15 05:00,113.9219,22.3094,59.00,53.60,82.25,40.00,8.00,0.00,30.12,M,6.21,M,FEW,SCT,M,M,1000.00,1400.00,M,M,M,M,M,M,M,M,M,59.00,VHHH 150500Z 04008KT 9999 FEW010 SCT014 15/12 Q1020 NOSIG
VHHH,2017-01-15 05:30,113.9219,22.3094,59.00,53.60,82.25,30.00,6.00,0.00,30.12,M,6.21,M,FEW,SCT,M,M,1000.00,1800.00,M,M,M,M,M,M,M,M,M,59.00,VHHH 150530Z 03006KT 330V080 9999 FEW010 SCT018 15/12 Q1020 NOSIG
VHHH,2017-01-15 06:00,113.9219,22.3094,60.80,53.60,77.14,50.00,11.00,0.00,30.09,M,6.21,M,FEW,SCT,M,M,1000.00,1800.00,M,M,M,M,M,M,M,M,M,60.80,VHHH 150600Z 05011KT 9999 FEW010 SCT018 16/12 Q1019 NOSIG
VHHH,2017-01-15 06:30,113.9219,22.3094,59.00,53.60,82.25,60.00,7.00,0.00,30.09,M,6.21,M,FEW,SCT,M,M,1000.00,1800.00,M,M,M,M,M,M,M,M,M,59.00,VHHH 150630Z 06007KT 9999 FEW010 SCT018 15/12 Q1019 NOSIG
VHHH,2017-01-15 07:00,113.9219,22.3094,60.80,53.60,77.14,60.00,6.00,0.00,30.09,M,6.21,M,FEW,SCT,M,M,1000.00,1800.00,M,M,M,M,M,M,M,M,M,60.80,VHHH 150700Z 06006KT 9999 FEW010 SCT018 16/12 Q1019 NOSIG
VHHH,2017-01-15 07:30,113.9219,22.3094,60.80,53.60,77.14,40.00,9.00,0.00,30.09,M,6.21,M,FEW,SCT,M,M,1000.00,1800.00,M,M,M,M,M,M,M,M,M,60.80,VHHH 150730Z 04009KT 9999 FEW010 SCT018 16/12 Q1019 NOSIG
VHHH,2017-01-15 08:00,113.9219,22.3094,60.80,53.60,77.14,10.00,12.00,0.00,30.09,M,6.21,M,FEW,SCT,M,M,1000.00,1800.00,M,M,M,M,M,M,M,M,M,60.80,VHHH 150800Z 01012KT 9999 FEW010 SCT018 16/12 Q1019 NOSIG
VHHH,2017-01-15 08:30,113.9219,22.3094,59.00,53.60,82.25,360.00,14.00,0.00,30.12,M,5.59,M,FEW,SCT,M,M,1000.00,1800.00,M,M,M,M,M,M,M,M,M,59.00,VHHH 150830Z 36014KT 9000 FEW010 SCT018 15/12 Q1020 NOSIG
VHHH,2017-01-15 09:00,113.9219,22.3094,59.00,53.60,82.25,30.00,11.00,0.00,30.12,M,5.59,M,FEW,SCT,M,M,1000.00,1800.00,M,M,M,M,M,M,M,M,M,59.00,VHHH 150900Z 03011KT 9000 FEW010 SCT018 15/12 Q1020 NOSIG
VHHH,2017-01-15 09:30,113.9219,22.3094,59.00,53.60,82.25,30.00,9.00,0.00,30.12,M,5.59,M,FEW,SCT,M,M,1000.00,1800.00,M,M,M,M,M,M,M,M,M,59.00,VHHH 150930Z 03009KT 9000 FEW010 SCT018 15/12 Q1020 NOSIG
VHHH,2017-01-15 10:00,113.9219,22.3094,59.00,53.60,82.25,30.00,4.00,0.00,30.12,M,5.59,M,FEW,SCT,M,M,1000.00,1800.00,M,M,M,M,M,M,M,M,M,59.00,VHHH 151000Z 03004KT 360V070 9000 FEW010 SCT018 15/12 Q1020 NOSIG
VHHH,2017-01-15 10:30,113.9219,22.3094,60.80,53.60,77.14,10.00,9.00,0.00,30.12,M,5.59,M,FEW,SCT,M,M,1000.00,1800.00,M,M,M,M,M,M,M,M,M,60.80,VHHH 151030Z 01009KT 9000 FEW010 SCT018 16/12 Q1020 NOSIG
VHHH,2017-01-15 11:00,113.9219,22.3094,59.00,53.60,82.25,20.00,7.00,0.00,30.12,M,5.59,M,FEW,SCT,M,M,1000.00,1800.00,M,M,M,M,M,M,M,M,M,59.00,VHHH 151100Z 02007KT 9000 FEW010 SCT018 15/12 Q1020 NOSIG
VHHH,2017-01-15 11:30,113.9219,22.3094,59.00,53.60,82.25,40.00,4.00,0.00,30.15,M,6.21,M,FEW,SCT,M,M,1000.00,1800.00,M,M,M,M,M,M,M,M,M,59.00,VHHH 151130Z 04004KT 320V090 9999 FEW010 SCT018 15/12 Q1021 NOSIG
VHHH,2017-01-15 12:00,113.9219,22.3094,60.80,53.60,77.14,40.00,3.00,0.00,30.15,M,4.97,M,FEW,SCT,M,M,1500.00,2500.00,M,M,-RA,M,M,M,M,M,M,60.80,VHHH 151200Z 04003KT 350V090 8000 -RA FEW015 SCT025 16/12 Q1021 NOSIG
VHHH,2017-01-15 12:30,113.9219,22.3094,59.00,53.60,82.25,10.00,5.00,0.00,30.15,M,4.35,M,FEW,SCT,M,M,1000.00,2000.00,M,M,-RA,M,M,M,M,M,M,59.00,VHHH 151230Z 01005KT 330V030 7000 -RA FEW010 SCT020 15/12 Q1021 NOSIG
VHHH,2017-01-15 13:00,113.9219,22.3094,59.00,53.60,82.25,20.00,7.00,0.00,30.18,M,4.97,M,FEW,SCT,M,M,1000.00,2000.00,M,M,-RA,M,M,M,M,M,M,59.00,VHHH 151300Z 02007KT 8000 -RA FEW010 SCT020 15/12 Q1022 NOSIG
VHHH,2017-01-15 13:30,113.9219,22.3094,59.00,53.60,82.25,50.00,6.00,0.00,30.18,M,5.59,M,FEW,SCT,M,M,1000.00,2000.00,M,M,M,M,M,M,M,M,M,59.00,VHHH 151330Z 05006KT 020V080 9000 FEW010 SCT020 15/12 Q1022 NOSIG
VHHH,2017-01-15 14:00,113.9219,22.3094,59.00,53.60,82.25,40.00,8.00,0.00,30.15,M,6.21,M,FEW,SCT,M,M,1200.00,2500.00,M,M,M,M,M,M,M,M,M,59.00,VHHH 151400Z 04008KT 9999 FEW012 SCT025 15/12 Q1021 NOSIG
VHHH,2017-01-15 14:30,113.9219,22.3094,59.00,53.60,82.25,40.00,11.00,0.00,30.15,M,6.21,M,FEW,SCT,M,M,1200.00,2200.00,M,M,M,M,M,M,M,M,M,59.00,VHHH 151430Z 04011KT 9999 FEW012 SCT022 15/12 Q1021 NOSIG
VHHH,2017-01-15 15:00,113.9219,22.3094,59.00,53.60,82.25,60.00,10.00,0.00,30.15,M,6.21,M,FEW,SCT,M,M,1000.00,2000.00,M,M,M,M,M,M,M,M,M,59.00,VHHH 151500Z 06010KT 9999 FEW010 SCT020 15/12 Q1021 NOSIG
VHHH,2017-01-15 15:30,113.9219,22.3094,59.00,53.60,82.25,50.00,9.00,0.00,30.15,M,6.21,M,FEW,SCT,M,M,1000.00,2000.00,M,M,M,M,M,M,M,M,M,59.00,VHHH 151530Z 05009KT 9999 FEW010 SCT020 15/12 Q1021 NOSIG
VHHH,2017-01-15 16:00,113.9219,22.3094,59.00,53.60,82.25,50.00,9.00,0.00,30.15,M,6.21,M,FEW,SCT,M,M,1200.00,2000.00,M,M,M,M,M,M,M,M,M,59.00,VHHH 151600Z 05009KT 9999 FEW012 SCT020 15/12 Q1021 NOSIG
VHHH,2017-01-15 16:30,113.9219,22.3094,59.00,53.60,82.25,50.00,8.00,0.00,30.15,M,6.21,M,FEW,SCT,M,M,1200.00,1800.00,M,M,M,M,M,M,M,M,M,59.00,VHHH 151630Z 05008KT 9999 FEW012 SCT018 15/12 Q1021 NOSIG
VHHH,2017-01-15 17:00,113.9219,22.3094,60.80,53.60,77.14,50.00,8.00,0.00,30.15,M,6.21,M,FEW,SCT,M,M,1200.00,1800.00,M,M,M,M,M,M,M,M,M,60.80,VHHH 151700Z 05008KT 9999 FEW012 SCT018 16/12 Q1021 NOSIG
VHHH,2017-01-15 17:30,113.9219,22.3094,59.00,53.60,82.25,40.00,9.00,0.00,30.12,M,6.21,M,FEW,SCT,M,M,1200.00,1800.00,M,M,M,M,M,M,M,M,M,59.00,VHHH 151730Z 04009KT 360V060 9999 FEW012 SCT018 15/12 Q1020 NOSIG
VHHH,2017-01-15 18:00,113.9219,22.3094,59.00,53.60,82.25,50.00,11.00,0.00,30.12,M,4.35,M,FEW,SCT,M,M,1200.00,1800.00,M,M,-RA,M,M,M,M,M,M,59.00,VHHH 151800Z 05011KT 7000 -RA FEW012 SCT018 15/12 Q1020 NOSIG
VHHH,2017-01-15 18:30,113.9219,22.3094,57.20,53.60,87.74,20.00,5.00,0.00,30.12,M,3.73,M,FEW,SCT,M,M,1000.00,1500.00,M,M,-RA,M,M,M,M,M,M,57.20,VHHH 151830Z 02005KT 300V100 6000 -RA FEW010 SCT015 14/12 Q1020 NOSIG
VHHH,2017-01-15 19:00,113.9219,22.3094,57.20,53.60,87.74,40.00,5.00,0.00,30.12,M,4.35,M,FEW,SCT,M,M,1000.00,1500.00,M,M,-RA,M,M,M,M,M,M,57.20,VHHH 151900Z 04005KT 350V090 7000 -RA FEW010 SCT015 14/12 Q1020 NOSIG
VHHH,2017-01-15 19:30,113.9219,22.3094,57.20,53.60,87.74,40.00,15.00,0.00,30.12,M,4.35,M,FEW,SCT,M,M,1000.00,1500.00,M,M,-RA,M,M,M,M,M,M,57.20,VHHH 151930Z 04015KT 7000 -RA FEW010 SCT015 14/12 Q1020 NOSIG
VHHH,2017-01-15 20:00,113.9219,22.3094,57.20,53.60,87.74,40.00,13.00,0.00,30.12,M,4.97,M,FEW,SCT,M,M,1000.00,1800.00,M,M,M,M,M,M,M,M,M,57.20,VHHH 152000Z 04013KT 8000 FEW010 SCT018 14/12 Q1020 NOSIG
VHHH,2017-01-15 20:30,113.9219,22.3094,57.20,51.80,82.12,50.00,14.00,0.00,30.12,M,6.21,M,FEW,SCT,M,M,1000.00,1800.00,M,M,M,M,M,M,M,M,M,57.20,VHHH 152030Z 05014KT 9999 FEW010 SCT018 14/11 Q1020 NOSIG
VHHH,2017-01-15 21:00,113.9219,22.3094,57.20,51.80,82.12,50.00,12.00,0.00,30.09,M,6.21,M,FEW,SCT,M,M,1000.00,1800.00,M,M,M,M,M,M,M,M,M,57.20,VHHH 152100Z 05012KT 9999 FEW010 SCT018 14/11 Q1019 NOSIG
VHHH,2017-01-15 21:30,113.9219,22.3094,57.20,51.80,82.12,50.00,11.00,0.00,30.12,M,6.21,M,FEW,SCT,M,M,1200.00,2000.00,M,M,M,M,M,M,M,M,M,57.20,VHHH 152130Z 05011KT 9999 FEW012 SCT020 14/11 Q1020 NOSIG
VHHH,2017-01-15 22:00,113.9219,22.3094,59.00,51.80,76.98,60.00,8.00,0.00,30.12,M,6.21,M,FEW,SCT,M,M,1200.00,2000.00,M,M,M,M,M,M,M,M,M,59.00,VHHH 152200Z 06008KT 9999 FEW012 SCT020 15/11 Q1020 NOSIG
VHHH,2017-01-15 22:30,113.9219,22.3094,59.00,51.80,76.98,40.00,8.00,0.00,30.15,M,6.21,M,FEW,SCT,M,M,1200.00,1800.00,M,M,M,M,M,M,M,M,M,59.00,VHHH 152230Z 04008KT 9999 FEW012 SCT018 15/11 Q1021 NOSIG
VHHH,2017-01-15 23:00,113.9219,22.3094,57.20,53.60,87.74,10.00,7.00,0.00,30.15,M,3.73,M,FEW,SCT,M,M,1200.00,1800.00,M,M,-RA,M,M,M,M,M,M,57.20,VHHH 152300Z 01007KT 6000 -RA FEW012 SCT018 14/12 Q1021 TEMPO 4000 -RA BR
VHHH,2017-01-15 23:17,113.9219,22.3094,57.20,53.60,87.74,360.00,9.00,0.00,30.15,M,3.04,M,FEW,SCT,M,M,1000.00,1600.00,M,M,-RA,M,M,M,M,M,M,57.20,VHHH 152317Z 36009KT 4900 -RA FEW010 SCT016 14/12 Q1021 NOSIG
VHHH,2017-01-15 23:30,113.9219,22.3094,57.20,53.60,87.74,360.00,8.00,0.00,30.15,M,2.67,M,FEW,SCT,M,M,800.00,1600.00,M,M,-RA BR,M,M,M,M,M,M,57.20,VHHH 152330Z 36008KT 4300 -RA BR FEW008 SCT016 14/12 Q1021 NOSIG
VHHH,2017-01-16 00:00,113.9219,22.3094,57.20,53.60,87.74,10.00,8.00,0.00,30.18,M,2.86,M,FEW,SCT,M,M,800.00,1600.00,M,M,-RA BR,M,M,M,M,M,M,57.20,VHHH 160000Z 01008KT 350V060 4600 -RA BR FEW008 SCT016 14/12 Q1022 NOSIG
VHHH,2017-01-16 00:30,113.9219,22.3094,57.20,53.60,87.74,10.00,8.00,0.00,30.18,M,3.11,M,FEW,SCT,M,M,800.00,1600.00,M,M,-RA,M,M,M,M,M,M,57.20,VHHH 160030Z 01008KT 5000 -RA FEW008 SCT016 14/12 Q1022 NOSIG
VHHH,2017-01-16 01:00,113.9219,22.3094,57.20,53.60,87.74,60.00,10.00,0.00,30.18,M,3.73,M,FEW,SCT,M,M,800.00,1600.00,M,M,-RA,M,M,M,M,M,M,57.20,VHHH 160100Z 06010KT 6000 -RA FEW008 SCT016 14/12 Q1022 NOSIG
VHHH,2017-01-16 01:30,113.9219,22.3094,59.00,55.40,87.83,90.00,9.00,0.00,30.15,M,3.73,M,FEW,SCT,M,M,800.00,1600.00,M,M,-RA,M,M,M,M,M,M,59.00,VHHH 160130Z 09009KT 6000 -RA FEW008 SCT016 15/13 Q1021 NOSIG
VHHH,2017-01-16 02:00,113.9219,22.3094,59.00,53.60,82.25,50.00,6.00,0.00,30.18,M,5.59,M,FEW,SCT,M,M,800.00,2000.00,M,M,M,M,M,M,M,M,M,59.00,VHHH 160200Z 05006KT 010V080 9000 FEW008 SCT020 15/12 Q1022 NOSIG
VHHH,2017-01-16 02:30,113.9219,22.3094,59.00,53.60,82.25,30.00,5.00,0.00,30.18,M,6.21,M,FEW,SCT,M,M,800.00,2000.00,M,M,M,M,M,M,M,M,M,59.00,VHHH 160230Z 03005KT 9999 FEW008 SCT020 15/12 Q1022 NOSIG
VHHH,2017-01-16 03:00,113.9219,22.3094,59.00,55.40,87.83,30.00,3.00,0.00,30.18,M,6.21,M,FEW,SCT,M,M,800.00,2200.00,M,M,M,M,M,M,M,M,M,59.00,VHHH 160300Z 03003KT 350V060 9999 FEW008 SCT022 15/13 Q1022 NOSIG
VHHH,2017-01-16 03:30,113.9219,22.3094,59.00,53.60,82.25,70.00,3.00,0.00,30.18,M,4.97,M,FEW,SCT,M,M,800.00,2200.00,M,M,M,M,M,M,M,M,M,59.00,VHHH 160330Z 07003KT 040V100 8000 FEW008 SCT022 15/12 Q1022 NOSIG
VHHH,2017-01-16 04:00,113.9219,22.3094,60.80,53.60,77.14,70.00,3.00,0.00,30.15,M,6.21,M,FEW,SCT,M,M,800.00,2200.00,M,M,M,M,M,M,M,M,M,60.80,VHHH 160400Z 07003KT 020V100 9999 FEW008 SCT022 16/12 Q1021 NOSIG
VHHH,2017-01-16 04:30,113.9219,22.3094,62.60,55.40,77.29,40.00,3.00,0.00,30.12,M,6.21,M,FEW,SCT,M,M,1200.00,2400.00,M,M,M,M,M,M,M,M,M,62.60,VHHH 160430Z 04003KT 340V080 9999 FEW012 SCT024 17/13 Q1020 NOSIG
VHHH,2017-01-16 05:00,113.9219,22.3094,60.80,53.60,77.14,350.00,3.00,0.00,30.12,M,6.21,M,FEW,SCT,M,M,1200.00,2400.00,M,M,M,M,M,M,M,M,M,60.80,VHHH 160500Z 35003KT 300V040 9999 FEW012 SCT024 16/12 Q1020 NOSIG
VHHH,2017-01-16 05:30,113.9219,22.3094,60.80,53.60,77.14,360.00,4.00,0.00,30.09,M,6.21,M,FEW,SCT,M,M,1200.00,2400.00,M,M,M,M,M,M,M,M,M,60.80,VHHH 160530Z 36004KT 9999 FEW012 SCT024 16/12 Q1019 NOSIG
VHHH,2017-01-16 06:00,113.9219,22.3094,62.60,55.40,77.29,40.00,5.00,0.00,30.09,M,6.21,M,FEW,SCT,M,M,1200.00,2600.00,M,M,M,M,M,M,M,M,M,62.60,VHHH 160600Z 04005KT 020V080 9999 FEW012 SCT026 17/13 Q1019 NOSIG
VHHH,2017-01-16 06:30,113.9219,22.3094,62.60,55.40,77.29,30.00,6.00,0.00,30.06,M,6.21,M,FEW,SCT,M,M,1500.00,2600.00,M,M,M,M,M,M,M,M,M,62.60,VHHH 160630Z 03006KT 350V060 9999 FEW015 SCT026 17/13 Q1018 NOSIG
VHHH,2017-01-16 07:00,113.9219,22.3094,62.60,53.60,72.38,30.00,6.00,0.00,30.06,M,6.21,M,FEW,SCT,M,M,1500.00,2600.00,M,M,M,M,M,M,M,M,M,62.60,VHHH 160700Z 03006KT 360V060 9999 FEW015 SCT026 17/12 Q1018 NOSIG
VHHH,2017-01-16 07:30,113.9219,22.3094,64.40,53.60,67.95,50.00,8.00,0.00,30.06,M,6.21,M,FEW,SCT,M,M,1500.00,2600.00,M,M,M,M,M,M,M,M,M,64.40,VHHH 160730Z 05008KT 9999 FEW015 SCT026 18/12 Q1018 NOSIG
VHHH,2017-01-16 07:55,113.9219,22.3094,64.40,53.60,67.95,110.00,11.00,0.00,30.06,M,6.21,M,FEW,SCT,M,M,1500.00,2600.00,M,M,M,M,M,M,M,M,M,64.40,VHHH 160755Z 11011KT 9999 FEW015 SCT026 18/12 Q1018 NOSIG
VHHH,2017-01-16 08:00,113.9219,22.3094,64.40,53.60,67.95,110.00,11.00,0.00,30.06,M,6.21,M,FEW,SCT,M,M,2000.00,2800.00,M,M,M,M,M,M,M,M,M,64.40,VHHH 160800Z 11011KT 9999 FEW020 SCT028 18/12 Q1018 NOSIG
VHHH,2017-01-16 08:30,113.9219,22.3094,64.40,53.60,67.95,100.00,10.00,0.00,30.06,M,6.21,M,FEW,SCT,M,M,2200.00,3500.00,M,M,M,M,M,M,M,M,M,64.40,VHHH 160830Z 10010KT 080V150 9999 FEW022 SCT035 18/12 Q1018 NOSIG
VHHH,2017-01-16 09:00,113.9219,22.3094,64.40,53.60,67.95,120.00,9.00,0.00,30.06,M,6.21,M,FEW,SCT,M,M,2200.00,3500.00,M,M,M,M,M,M,M,M,M,64.40,VHHH 160900Z 12009KT 090V160 9999 FEW022 SCT035 18/12 Q1018 NOSIG
VHHH,2017-01-16 09:30,113.9219,22.3094,64.40,53.60,67.95,110.00,9.00,0.00,30.06,M,6.21,M,FEW,SCT,M,M,2200.00,3500.00,M,M,M,M,M,M,M,M,M,64.40,VHHH 160930Z 11009KT 090V150 9999 FEW022 SCT035 18/12 Q1018 NOSIG
VHHH,2017-01-16 10:00,113.9219,22.3094,64.40,53.60,67.95,100.00,9.00,0.00,30.06,M,6.21,M,FEW,SCT,M,M,2200.00,3500.00,M,M,M,M,M,M,M,M,M,64.40,VHHH 161000Z 10009KT 9999 FEW022 SCT035 18/12 Q1018 NOSIG
VHHH,2017-01-16 10:30,113.9219,22.3094,64.40,55.40,72.56,80.00,10.00,0.00,30.09,M,6.21,M,FEW,SCT,M,M,2200.00,2800.00,M,M,M,M,M,M,M,M,M,64.40,VHHH 161030Z 08010KT 9999 FEW022 SCT028 18/13 Q1019 NOSIG
VHHH,2017-01-16 11:00,113.9219,22.3094,64.40,55.40,72.56,90.00,11.00,0.00,30.09,M,6.21,M,FEW,SCT,M,M,2200.00,2800.00,M,M,M,M,M,M,M,M,M,64.40,VHHH 161100Z 09011KT 9999 FEW022 SCT028 18/13 Q1019 NOSIG
VHHH,2017-01-16 11:30,113.9219,22.3094,64.40,55.40,72.56,90.00,10.00,0.00,30.09,M,6.21,M,FEW,SCT,M,M,2200.00,2800.00,M,M,M,M,M,M,M,M,M,64.40,VHHH 161130Z 09010KT 9999 FEW022 SCT028 18/13 Q1019 NOSIG
VHHH,2017-01-16 12:00,113.9219,22.3094,64.40,55.40,72.56,90.00,14.00,0.00,30.12,M,6.21,M,FEW,SCT,M,M,2200.00,2800.00,M,M,M,M,M,M,M,M,M,64.40,VHHH 161200Z 09014KT 9999 FEW022 SCT028 18/13 Q1020 NOSIG
VHHH,2017-01-16 12:30,113.9219,22.3094,64.40,55.40,72.56,100.00,11.00,0.00,30.12,M,6.21,M,FEW,SCT,M,M,2200.00,2800.00,M,M,M,M,M,M,M,M,M,64.40,VHHH 161230Z 10011KT 9999 FEW022 SCT028 18/13 Q1020 NOSIG
VHHH,2017-01-16 13:00,113.9219,22.3094,64.40,53.60,67.95,100.00,10.00,0.00,30.12,M,6.21,M,FEW,SCT,M,M,2200.00,2800.00,M,M,M,M,M,M,M,M,M,64.40,VHHH 161300Z 10010KT 060V120 9999 FEW022 SCT028 18/12 Q1020 NOSIG
VHHH,2017-01-16 13:30,113.9219,22.3094,64.40,53.60,67.95,100.00,10.00,0.00,30.15,M,6.21,M,FEW,SCT,M,M,2200.00,2800.00,M,M,M,M,M,M,M,M,M,64.40,VHHH 161330Z 10010KT 9999 FEW022 SCT028 18/12 Q1021 NOSIG
VHHH,2017-01-16 14:00,113.9219,22.3094,64.40,55.40,72.56,100.00,13.00,0.00,30.15,M,6.21,M,FEW,SCT,M,M,2500.00,3000.00,M,M,M,M,M,M,M,M,M,64.40,VHHH 161400Z 10013KT 9999 FEW025 SCT030 18/13 Q1021 NOSIG
VHHH,2017-01-16 14:30,113.9219,22.3094,64.40,55.40,72.56,100.00,12.00,0.00,30.15,M,6.21,M,FEW,SCT,M,M,2500.00,3000.00,M,M,M,M,M,M,M,M,M,64.40,VHHH 161430Z 10012KT 9999 FEW025 SCT030 18/13 Q1021 NOSIG
VHHH,2017-01-16 15:00,113.9219,22.3094,64.40,53.60,67.95,100.00,14.00,0.00,30.15,M,6.21,M,SCT,M,M,M,2800.00,M,M,M,M,M,M,M,M,M,M,64.40,VHHH 161500Z 10014KT 9999 SCT028 18/12 Q1021 NOSIG
VHHH,2017-01-16 15:30,113.9219,22.3094,64.40,55.40,72.56,100.00,11.00,0.00,30.15,M,6.21,M,FEW,SCT,M,M,2200.00,2800.00,M,M,M,M,M,M,M,M,M,64.40,VHHH 161530Z 10011KT 9999 FEW022 SCT028 18/13 Q1021 NOSIG
VHHH,2017-01-16 16:00,113.9219,22.3094,64.40,55.40,72.56,100.00,14.00,0.00,30.15,M,6.21,M,FEW,SCT,M,M,2200.00,2800.00,M,M,M,M,M,M,M,M,M,64.40,VHHH 161600Z 10014KT 9999 FEW022 SCT028 18/13 Q1021 NOSIG
VHHH,2017-01-16 16:30,113.9219,22.3094,64.40,53.60,67.95,100.00,11.00,0.00,30.15,M,6.21,M,SCT,M,M,M,2800.00,M,M,M,M,M,M,M,M,M,M,64.40,VHHH 161630Z 10011KT 9999 SCT028 18/12 Q1021 NOSIG
VHHH,2017-01-16 17:00,113.9219,22.3094,64.40,53.60,67.95,80.00,9.00,0.00,30.15,M,6.21,M,SCT,M,M,M,3500.00,M,M,M,M,M,M,M,M,M,M,64.40,VHHH 161700Z 08009KT 9999 SCT035 18/12 Q1021 NOSIG
VHHH,2017-01-16 17:30,113.9219,22.3094,64.40,51.80,63.60,80.00,9.00,0.00,30.15,M,6.21,M,SCT,M,M,M,3500.00,M,M,M,M,M,M,M,M,M,M,64.40,VHHH 161730Z 08009KT 9999 SCT035 18/11 Q1021 NOSIG
VHHH,2017-01-16 18:00,113.9219,22.3094,64.40,51.80,63.60,80.00,12.00,0.00,30.12,M,6.21,M,SCT,M,M,M,3000.00,M,M,M,M,M,M,M,M,M,M,64.40,VHHH 161800Z 08012KT 9999 SCT030 18/11 Q1020 NOSIG
VHHH,2017-01-16 18:30,113.9219,22.3094,64.40,53.60,67.95,80.00,11.00,0.00,30.12,M,6.21,M,SCT,M,M,M,3000.00,M,M,M,M,M,M,M,M,M,M,64.40,VHHH 161830Z 08011KT 9999 SCT030 18/12 Q1020 NOSIG
VHHH,2017-01-16 19:00,113.9219,22.3094,62.60,53.60,72.38,80.00,12.00,0.00,30.12,M,6.21,M,FEW,SCT,M,M,2200.00,3000.00,M,M,M,M,M,M,M,M,M,62.60,VHHH 161900Z 08012KT 9999 FEW022 SCT030 17/12 Q1020 NOSIG
VHHH,2017-01-16 19:30,113.9219,22.3094,62.60,53.60,72.38,80.00,14.00,0.00,30.09,M,6.21,M,FEW,SCT,M,M,2200.00,3000.00,M,M,M,M,M,M,M,M,M,62.60,VHHH 161930Z 08014KT 9999 FEW022 SCT030 17/12 Q1019 NOSIG
VHHH,2017-01-16 20:00,113.9219,22.3094,62.60,53.60,72.38,80.00,12.00,0.00,30.09,M,6.21,M,FEW,SCT,M,M,2200.00,3000.00,M,M,M,M,M,M,M,M,M,62.60,VHHH 162000Z 08012KT 9999 FEW022 SCT030 17/12 Q1019 NOSIG
VHHH,2017-01-16 20:30,113.9219,22.3094,62.60,53.60,72.38,70.00,9.00,0.00,30.12,M,6.21,M,FEW,SCT,M,M,2200.00,3000.00,M,M,M,M,M,M,M,M,M,62.60,VHHH 162030Z 07009KT 040V110 9999 FEW022 SCT030 17/12 Q1020 NOSIG
VHHH,2017-01-16 21:00,113.9219,22.3094,62.60,55.40,77.29,90.00,7.00,0.00,30.12,M,6.21,M,FEW,SCT,M,M,2200.00,3000.00,M,M,M,M,M,M,M,M,M,62.60,VHHH 162100Z 09007KT 9999 FEW022 SCT030 17/13 Q1020 NOSIG
VHHH,2017-01-16 21:30,113.9219,22.3094,62.60,53.60,72.38,60.00,8.00,0.00,30.12,M,6.21,M,FEW,SCT,M,M,2200.00,3000.00,M,M,M,M,M,M,M,M,M,62.60,VHHH 162130Z 06008KT 030V090 9999 FEW022 SCT030 17/12 Q1020 NOSIG
VHHH,2017-01-16 22:00,113.9219,22.3094,62.60,53.60,72.38,60.00,10.00,0.00,30.12,M,6.21,M,FEW,SCT,M,M,2200.00,3000.00,M,M,M,M,M,M,M,M,M,62.60,VHHH 162200Z 06010KT 9999 FEW022 SCT030 17/12 Q1020 NOSIG
VHHH,2017-01-16 22:30,113.9219,22.3094,62.60,53.60,72.38,70.00,10.00,0.00,30.12,M,6.21,M,FEW,SCT,M,M,2500.00,3000.00,M,M,M,M,M,M,M,M,M,62.60,VHHH 162230Z 07010KT 9999 FEW025 SCT030 17/12 Q1020 NOSIG
VHHH,2017-01-16 23:00,113.9219,22.3094,62.60,53.60,72.38,50.00,11.00,0.00,30.12,M,6.21,M,FEW,SCT,M,M,2300.00,3000.00,M,M,M,M,M,M,M,M,M,62.60,VHHH 162300Z 05011KT 9999 FEW023 SCT030 17/12 Q1020 NOSIG
VHHH,2017-01-16 23:30,113.9219,22.3094,62.60,53.60,72.38,50.00,11.00,0.00,30.15,M,6.21,M,FEW,SCT,M,M,2300.00,3500.00,M,M,M,M,M,M,M,M,M,62.60,VHHH 162330Z 05011KT 9999 FEW023 SCT035 17/12 Q1021 NOSIG
VHHH,2017-01-17 00:00,113.9219,22.3094,62.60,53.60,72.38,80.00,10.00,0.00,30.15,M,6.21,M,FEW,SCT,M,M,2600.00,4000.00,M,M,M,M,M,M,M,M,M,62.60,VHHH 170000Z 08010KT 9999 FEW026 SCT040 17/12 Q1021 NOSIG
VHHH,2017-01-17 00:30,113.9219,22.3094,64.40,55.40,72.56,80.00,9.00,0.00,30.18,M,6.21,M,FEW,SCT,M,M,2600.00,4000.00,M,M,M,M,M,M,M,M,M,64.40,VHHH 170030Z 08009KT 9999 FEW026 SCT040 18/13 Q1022 NOSIG
VHHH,2017-01-17 01:00,113.9219,22.3094,66.20,53.60,63.82,90.00,13.00,0.00,30.15,M,6.21,M,FEW,SCT,M,M,2600.00,4000.00,M,M,M,M,M,M,M,M,M,66.20,VHHH 170100Z 09013KT 9999 FEW026 SCT040 19/12 Q1021 NOSIG
VHHH,2017-01-17 01:30,113.9219,22.3094,68.00,55.40,64.04,90.00,13.00,0.00,30.18,M,6.21,M,FEW,M,M,M,2600.00,M,M,M,M,M,M,M,M,M,M,68.00,VHHH 170130Z 09013KT 9999 FEW026 20/13 Q1022 NOSIG
VHHH,2017-01-17 02:00,113.9219,22.3094,68.00,53.60,59.97,90.00,13.00,0.00,30.18,M,6.21,M,FEW,M,M,M,2600.00,M,M,M,M,M,M,M,M,M,M,68.00,VHHH 170200Z 09013KT 9999 FEW026 20/12 Q1022 NOSIG
VHHH,2017-01-17 02:30,113.9219,22.3094,68.00,53.60,59.97,100.00,11.00,0.00,30.18,M,6.21,M,FEW,SCT,M,M,2600.00,3000.00,M,M,M,M,M,M,M,M,M,68.00,VHHH 170230Z 10011KT 9999 FEW026 SCT030 20/12 Q1022 NOSIG
VHHH,2017-01-17 03:00,113.9219,22.3094,68.00,55.40,64.04,100.00,12.00,0.00,30.18,M,6.21,M,FEW,SCT,M,M,2600.00,3000.00,M,M,M,M,M,M,M,M,M,68.00,VHHH 170300Z 10012KT 9999 FEW026 SCT030 20/13 Q1022 NOSIG
VHHH,2017-01-17 03:30,113.9219,22.3094,68.00,55.40,64.04,90.00,7.00,0.00,30.18,M,6.21,M,FEW,SCT,M,M,2600.00,3000.00,M,M,M,M,M,M,M,M,M,68.00,VHHH 170330Z 09007KT 050V120 9999 FEW026 SCT030 20/13 Q1022 NOSIG
VHHH,2017-01-17 04:00,113.9219,22.3094,69.80,55.40,60.21,70.00,5.00,0.00,30.15,M,6.21,M,FEW,SCT,M,M,2600.00,3000.00,M,M,M,M,M,M,M,M,M,69.80,VHHH 170400Z 07005KT 030V130 9999 FEW026 SCT030 21/13 Q1021 NOSIG
VHHH,2017-01-17 04:30,113.9219,22.3094,68.00,55.40,64.04,60.00,4.00,0.00,30.15,M,6.21,M,FEW,SCT,M,M,2600.00,3000.00,M,M,M,M,M,M,M,M,M,68.00,VHHH 170430Z 06004KT 360V110 9999 FEW026 SCT030 20/13 Q1021 NOSIG
VHHH,2017-01-17 05:00,113.9219,22.3094,68.00,55.40,64.04,70.00,5.00,0.00,30.12,M,6.21,M,FEW,SCT,M,M,2600.00,3000.00,M,M,M,M,M,M,M,M,M,68.00,VHHH 170500Z 07005KT 050V130 9999 FEW026 SCT030 20/13 Q1020 NOSIG
VHHH,2017-01-17 05:30,113.9219,22.3094,69.80,55.40,60.21,120.00,8.00,0.00,30.12,M,6.21,M,FEW,SCT,M,M,2600.00,3000.00,M,M,M,M,M,M,M,M,M,69.80,VHHH 170530Z 12008KT 9999 FEW026 SCT030 21/13 Q1020 NOSIG
VHHH,2017-01-17 06:00,113.9219,22.3094,69.80,55.40,60.21,110.00,7.00,0.00,30.09,M,6.21,M,FEW,SCT,M,M,2600.00,3000.00,M,M,M,M,M,M,M,M,M,69.80,VHHH 170600Z 11007KT 070V170 9999 FEW026 SCT030 21/13 Q1019 NOSIG
VHHH,2017-01-17 06:30,113.9219,22.3094,69.80,55.40,60.21,110.00,6.00,0.00,30.09,M,6.21,M,FEW,SCT,M,M,2600.00,3000.00,M,M,M,M,M,M,M,M,M,69.80,VHHH 170630Z 11006KT 080V140 9999 FEW026 SCT030 21/13 Q1019 NOSIG
VHHH,2017-01-17 07:30,113.9219,22.3094,68.00,55.40,64.04,120.00,6.00,0.00,30.09,M,6.21,M,FEW,SCT,M,M,2500.00,3000.00,M,M,M,M,M,M,M,M,M,68.00,VHHH 170730Z 12006KT 090V180 9999 FEW025 SCT030 20/13 Q1019 NOSIG
VHHH,2017-01-17 08:00,113.9219,22.3094,68.00,55.40,64.04,140.00,7.00,0.00,30.09,M,6.21,M,FEW,SCT,M,M,2500.00,3000.00,M,M,M,M,M,M,M,M,M,68.00,VHHH 170800Z 14007KT 110V190 9999 FEW025 SCT030 20/13 Q1019 NOSIG
VHHH,2017-01-17 08:30,113.9219,22.3094,68.00,55.40,64.04,120.00,9.00,0.00,30.09,M,6.21,M,FEW,SCT,M,M,2500.00,3000.00,M,M,M,M,M,M,M,M,M,68.00,VHHH 170830Z 12009KT 080V150 9999 FEW025 SCT030 20/13 Q1019 NOSIG
VHHH,2017-01-17 09:00,113.9219,22.3094,68.00,57.20,68.35,110.00,8.00,0.00,30.09,M,6.21,M,FEW,SCT,M,M,2500.00,3000.00,M,M,M,M,M,M,M,M,M,68.00,VHHH 170900Z 11008KT 090V180 9999 FEW025 SCT030 20/14 Q1019 NOSIG
VHHH,2017-01-17 09:30,113.9219,22.3094,68.00,55.40,64.04,110.00,8.00,0.00,30.09,M,6.21,M,FEW,SCT,M,M,2500.00,3000.00,M,M,M,M,M,M,M,M,M,68.00,VHHH 170930Z 11008KT 090V150 9999 FEW025 SCT030 20/13 Q1019 NOSIG
VHHH,2017-01-17 10:00,113.9219,22.3094,68.00,55.40,64.04,120.00,8.00,0.00,30.12,M,6.21,M,FEW,SCT,M,M,2500.00,3000.00,M,M,M,M,M,M,M,M,M,68.00,VHHH 171000Z 12008KT 090V160 9999 FEW025 SCT030 20/13 Q1020 NOSIG
VHHH,2017-01-17 10:30,113.9219,22.3094,68.00,55.40,64.04,120.00,7.00,0.00,30.12,M,6.21,M,FEW,SCT,M,M,2200.00,3000.00,M,M,M,M,M,M,M,M,M,68.00,VHHH 171030Z 12007KT 050V190 9999 FEW022 SCT030 20/13 Q1020 NOSIG
VHHH,2017-01-17 11:00,113.9219,22.3094,68.00,57.20,68.35,70.00,8.00,0.00,30.12,M,6.21,M,FEW,SCT,M,M,2200.00,3000.00,M,M,M,M,M,M,M,M,M,68.00,VHHH 171100Z 07008KT 9999 FEW022 SCT030 20/14 Q1020 NOSIG
VHHH,2017-01-17 11:30,113.9219,22.3094,68.00,57.20,68.35,90.00,6.00,0.00,30.15,M,6.21,M,FEW,SCT,M,M,2200.00,3000.00,M,M,M,M,M,M,M,M,M,68.00,VHHH 171130Z 09006KT 060V120 9999 FEW022 SCT030 20/14 Q1021 NOSIG
VHHH,2017-01-17 12:00,113.9219,22.3094,66.20,57.20,72.74,10.00,5.00,0.00,30.15,M,6.21,M,FEW,SCT,M,M,2200.00,3000.00,M,M,M,M,M,M,M,M,M,66.20,VHHH 171200Z 01005KT 330V080 9999 FEW022 SCT030 19/14 Q1021 NOSIG
VHHH,2017-01-17 12:30,113.9219,22.3094,66.20,59.00,77.60,330.00,9.00,0.00,30.18,M,3.73,M,FEW,SCT,M,M,2200.00,3000.00,M,M,M,M,M,M,M,M,M,66.20,VHHH 171230Z 33009KT 6000 FEW022 SCT030 19/15 Q1022 NOSIG
VHHH,2017-01-17 13:00,113.9219,22.3094,64.40,59.00,82.62,340.00,10.00,0.00,30.18,M,4.35,M,FEW,SCT,M,M,2200.00,3000.00,M,M,M,M,M,M,M,M,M,64.40,VHHH 171300Z 34010KT 7000 FEW022 SCT030 18/15 Q1022 NOSIG
VHHH,2017-01-17 13:30,113.9219,22.3094,64.40,59.00,82.62,360.00,9.00,0.00,30.18,M,4.35,M,FEW,SCT,M,M,1600.00,3000.00,M,M,M,M,M,M,M,M,M,64.40,VHHH 171330Z 36009KT 7000 FEW016 SCT030 18/15 Q1022 NOSIG
VHHH,2017-01-17 14:00,113.9219,22.3094,64.40,59.00,82.62,350.00,10.00,0.00,30.18,M,4.35,M,FEW,SCT,M,M,1600.00,3000.00,M,M,M,M,M,M,M,M,M,64.40,VHHH 171400Z 35010KT 7000 FEW016 SCT030 18/15 Q1022 NOSIG
VHHH,2017-01-17 14:30,113.9219,22.3094,64.40,59.00,82.62,360.00,13.00,0.00,30.18,M,4.35,M,FEW,SCT,M,M,1600.00,3000.00,M,M,M,M,M,M,M,M,M,64.40,VHHH 171430Z 36013KT 7000 FEW016 SCT030 18/15 Q1022 NOSIG
VHHH,2017-01-17 15:00,113.9219,22.3094,64.40,59.00,82.62,350.00,10.00,0.00,30.18,M,4.97,M,FEW,SCT,M,M,1600.00,3000.00,M,M,M,M,M,M,M,M,M,64.40,VHHH 171500Z 35010KT 8000 FEW016 SCT030 18/15 Q1022 NOSIG
VHHH,2017-01-17 15:30,113.9219,22.3094,64.40,59.00,82.62,340.00,7.00,0.00,30.18,M,4.97,M,FEW,SCT,M,M,1600.00,3000.00,M,M,M,M,M,M,M,M,M,64.40,VHHH 171530Z 34007KT 8000 FEW016 SCT030 18/15 Q1022 NOSIG
VHHH,2017-01-17 16:00,113.9219,22.3094,64.40,59.00,82.62,320.00,7.00,0.00,30.18,M,4.97,M,FEW,SCT,M,M,1600.00,3000.00,M,M,M,M,M,M,M,M,M,64.40,VHHH 171600Z 32007KT 8000 FEW016 SCT030 18/15 Q1022 NOSIG
VHHH,2017-01-17 16:30,113.9219,22.3094,66.20,59.00,77.60,310.00,3.00,0.00,30.18,M,4.97,M,FEW,SCT,M,M,1600.00,3000.00,M,M,M,M,M,M,M,M,M,66.20,VHHH 171630Z 31003KT 8000 FEW016 SCT030 19/15 Q1022 NOSIG
VHHH,2017-01-17 17:00,113.9219,22.3094,66.20,59.00,77.60,100.00,10.00,0.00,30.15,M,6.21,M,FEW,SCT,M,M,1400.00,3000.00,M,M,M,M,M,M,M,M,M,66.20,VHHH 171700Z 10010KT 080V150 9999 FEW014 SCT030 19/15 Q1021 NOSIG
VHHH,2017-01-17 17:30,113.9219,22.3094,66.20,59.00,77.60,90.00,11.00,0.00,30.15,M,6.21,M,FEW,SCT,M,M,1400.00,3000.00,M,M,M,M,M,M,M,M,M,66.20,VHHH 171730Z 09011KT 9999 FEW014 SCT030 19/15 Q1021 NOSIG
VHHH,2017-01-17 18:00,113.9219,22.3094,66.20,59.00,77.60,80.00,10.00,0.00,30.15,M,6.21,M,FEW,SCT,M,M,1400.00,3000.00,M,M,M,M,M,M,M,M,M,66.20,VHHH 171800Z 08010KT 9999 FEW014 SCT030 19/15 Q1021 NOSIG
VHHH,2017-01-17 18:30,113.9219,22.3094,66.20,59.00,77.60,80.00,9.00,0.00,30.15,M,6.21,M,FEW,SCT,M,M,1400.00,3000.00,M,M,M,M,M,M,M,M,M,66.20,VHHH 171830Z 08009KT 9999 FEW014 SCT030 19/15 Q1021 NOSIG
VHHH,2017-01-17 19:00,113.9219,22.3094,66.20,59.00,77.60,80.00,8.00,0.00,30.15,M,6.21,M,FEW,SCT,M,M,1800.00,3000.00,M,M,M,M,M,M,M,M,M,66.20,VHHH 171900Z 08008KT 9999 FEW018 SCT030 19/15 Q1021 NOSIG
VHHH,2017-01-17 19:30,113.9219,22.3094,66.20,59.00,77.60,90.00,3.00,0.00,30.15,M,6.21,M,FEW,SCT,M,M,1800.00,3000.00,M,M,M,M,M,M,M,M,M,66.20,VHHH 171930Z 09003KT 060V130 9999 FEW018 SCT030 19/15 Q1021 NOSIG
VHHH,2017-01-17 20:00,113.9219,22.3094,66.20,59.00,77.60,130.00,3.00,0.00,30.15,M,6.21,M,FEW,SCT,M,M,1800.00,3000.00,M,M,M,M,M,M,M,M,M,66.20,VHHH 172000Z 13003KT 9999 FEW018 SCT030 19/15 Q1021 NOSIG
VHHH,2017-01-17 20:30,113.9219,22.3094,66.20,59.00,77.60,90.00,6.00,0.00,30.15,M,6.21,M,FEW,SCT,M,M,1800.00,3000.00,M,M,M,M,M,M,M,M,M,66.20,VHHH 172030Z 09006KT 9999 FEW018 SCT030 19/15 Q1021 NOSIG
VHHH,2017-01-17 21:00,113.9219,22.3094,66.20,59.00,77.60,80.00,5.00,0.00,30.12,M,6.21,M,FEW,SCT,M,M,1800.00,3000.00,M,M,M,M,M,M,M,M,M,66.20,VHHH 172100Z 08005KT 9999 FEW018 SCT030 19/15 Q1020 NOSIG
VHHH,2017-01-17 21:30,113.9219,22.3094,66.20,59.00,77.60,60.00,5.00,0.00,30.12,M,6.21,M,FEW,SCT,M,M,1800.00,3000.00,M,M,M,M,M,M,M,M,M,66.20,VHHH 172130Z 06005KT 9999 FEW018 SCT030 19/15 Q1020 NOSIG
VHHH,2017-01-17 22:00,113.9219,22.3094,66.20,59.00,77.60,70.00,3.00,0.00,30.15,M,6.21,M,FEW,SCT,M,M,1800.00,3000.00,M,M,M,M,M,M,M,M,M,66.20,VHHH 172200Z 07003KT 030V100 9999 FEW018 SCT030 19/15 Q1021 NOSIG
VHHH,2017-01-17 22:30,113.9219,22.3094,66.20,59.00,77.60,80.00,3.00,0.00,30.15,M,6.21,M,FEW,SCT,M,M,1800.00,3000.00,M,M,M,M,M,M,M,M,M,66.20,VHHH 172230Z 08003KT 060V120 9999 FEW018 SCT030 19/15 Q1021 NOSIG
VHHH,2017-01-17 23:00,113.9219,22.3094,66.20,59.00,77.60,90.00,7.00,0.00,30.15,M,6.21,M,FEW,SCT,M,M,1600.00,2500.00,M,M,M,M,M,M,M,M,M,66.20,VHHH 172300Z 09007KT 9999 FEW016 SCT025 19/15 Q1021 NOSIG
VHHH,2017-01-17 23:30,113.9219,22.3094,66.20,59.00,77.60,90.00,6.00,0.00,30.15,M,6.21,M,FEW,SCT,M,M,1600.00,2500.00,M,M,M,M,M,M,M,M,M,66.20,VHHH 172330Z 09006KT 9999 FEW016 SCT025 19/15 Q1021 NOSIG
VHHH,2017-01-18 00:00,113.9219,22.3094,68.00,59.00,72.92,80.00,8.00,0.00,30.18,M,6.21,M,FEW,SCT,M,M,1600.00,2500.00,M,M,M,M,M,M,M,M,M,68.00,VHHH 180000Z 08008KT 9999 FEW016 SCT025 20/15 Q1022 NOSIG
VHHH,2017-01-18 00:30,113.9219,22.3094,68.00,59.00,72.92,60.00,7.00,0.00,30.18,M,6.21,M,FEW,SCT,M,M,1600.00,2500.00,M,M,M,M,M,M,M,M,M,68.00,VHHH 180030Z 06007KT 9999 FEW016 SCT025 20/15 Q1022 NOSIG
VHHH,2017-01-18 01:00,113.9219,22.3094,68.00,59.00,72.92,40.00,4.00,0.00,30.18,M,6.21,M,FEW,SCT,M,M,1600.00,2500.00,M,M,M,M,M,M,M,M,M,68.00,VHHH 180100Z 04004KT 9999 FEW016 SCT025 20/15 Q1022 NOSIG
VHHH,2017-01-18 01:30,113.9219,22.3094,68.00,59.00,72.92,40.00,4.00,0.00,30.21,M,6.21,M,FEW,SCT,M,M,1600.00,2200.00,M,M,M,M,M,M,M,M,M,68.00,VHHH 180130Z 04004KT 9999 FEW016 SCT022 20/15 Q1023 NOSIG
VHHH,2017-01-18 02:00,113.9219,22.3094,68.00,59.00,72.92,50.00,4.00,0.00,30.21,M,6.21,M,FEW,SCT,M,M,1600.00,2200.00,M,M,M,M,M,M,M,M,M,68.00,VHHH 180200Z 05004KT 9999 FEW016 SCT022 20/15 Q1023 NOSIG
VHHH,2017-01-18 02:30,113.9219,22.3094,68.00,59.00,72.92,10.00,4.00,0.00,30.21,M,6.21,M,FEW,SCT,M,M,1600.00,2200.00,M,M,M,M,M,M,M,M,M,68.00,VHHH 180230Z 01004KT 9999 FEW016 SCT022 20/15 Q1023 NOSIG
VHHH,2017-01-18 03:00,113.9219,22.3094,69.80,59.00,68.55,40.00,4.00,0.00,30.21,M,6.21,M,FEW,SCT,M,M,1600.00,2200.00,M,M,M,M,M,M,M,M,M,69.80,VHHH 180300Z 04004KT 9999 FEW016 SCT022 21/15 Q1023 NOSIG
VHHH,2017-01-18 03:30,113.9219,22.3094,69.80,59.00,68.55,40.00,4.00,0.00,30.18,M,6.21,M,FEW,SCT,M,M,1600.00,2200.00,M,M,M,M,M,M,M,M,M,69.80,VHHH 180330Z 04004KT 9999 4400W FEW016 SCT022 21/15 Q1022 NOSIG
VHHH,2017-01-18 03:44,113.9219,22.3094,69.80,59.00,68.55,340.00,10.00,0.00,30.18,M,3.73,M,FEW,SCT,M,M,1600.00,2200.00,M,M,M,M,M,M,M,M,M,69.80,VHHH 180344Z 34010KT 6000 FEW016 SCT022 21/15 Q1022 NOSIG
VHHH,2017-01-18 04:00,113.9219,22.3094,66.20,60.80,82.74,330.00,11.00,0.00,30.18,M,3.11,M,FEW,SCT,M,M,1500.00,2000.00,M,M,M,M,M,M,M,M,M,66.20,VHHH 180400Z 33011KT 5000 FEW015 SCT020 19/16 Q1022 TEMPO 4500 HZ
VHHH,2017-01-18 04:03,113.9219,22.3094,68.00,60.80,77.75,330.00,11.00,0.00,30.18,M,2.98,M,FEW,SCT,M,M,1500.00,2000.00,M,M,HZ,M,M,M,M,M,M,68.00,VHHH 180403Z 33011KT 4800 HZ FEW015 SCT020 20/16 Q1022 NOSIG
VHHH,2017-01-18 04:30,113.9219,22.3094,66.20,60.80,82.74,330.00,10.00,0.00,30.15,M,2.36,M,FEW,SCT,M,M,1500.00,2000.00,M,M,DZ BR,M,M,M,M,M,M,66.20,VHHH 180430Z 33010KT 3800 DZ BR FEW015 SCT020 19/16 Q1021 NOSIG
VHHH,2017-01-18 05:00,113.9219,22.3094,66.20,60.80,82.74,330.00,9.00,0.00,30.15,M,2.49,M,FEW,SCT,M,M,1500.00,2000.00,M,M,-DZ BR,M,M,M,M,M,M,66.20,VHHH 180500Z 33009KT 4000 -DZ BR FEW015 SCT020 19/16 Q1021 NOSIG
VHHH,2017-01-18 05:30,113.9219,22.3094,66.20,60.80,82.74,340.00,8.00,0.00,30.12,M,1.99,M,FEW,SCT,M,M,800.00,1500.00,M,M,-DZ BR,M,M,M,M,M,M,66.20,VHHH 180530Z 34008KT 3200 -DZ BR FEW008 SCT015 19/16 Q1020 NOSIG
VHHH,2017-01-18 05:47,113.9219,22.3094,66.20,60.80,82.74,340.00,5.00,0.00,30.12,M,1.80,M,FEW,SCT,M,M,800.00,1500.00,M,M,-DZ BR,M,M,M,M,M,M,66.20,VHHH 180547Z 34005KT 2900 -DZ BR FEW008 SCT015 19/16 Q1020 NOSIG
VHHH,2017-01-18 06:00,113.9219,22.3094,66.20,62.60,88.18,340.00,5.00,0.00,30.12,M,1.93,M,FEW,SCT,M,M,800.00,1500.00,M,M,-DZ BR,M,M,M,M,M,M,66.20,VHHH 180600Z 34005KT 3100 -DZ BR FEW008 SCT015 19/17 Q1020 NOSIG
VHHH,2017-01-18 06:30,113.9219,22.3094,66.20,62.60,88.18,M,2.00,0.00,30.09,M,2.30,M,FEW,SCT,M,M,1000.00,1600.00,M,M,-DZ BR,M,M,M,M,M,M,66.20,VHHH 180630Z VRB02KT 3700 -DZ BR FEW010 SCT016 19/17 Q1019 NOSIG
VHHH,2017-01-18 07:00,113.9219,22.3094,66.20,62.60,88.18,M,2.00,0.00,30.09,M,2.49,M,FEW,SCT,M,M,1000.00,1800.00,M,M,BR,M,M,M,M,M,M,66.20,VHHH 180700Z VRB02KT 4000 BR FEW010 SCT018 19/17 Q1019 NOSIG
VHHH,2017-01-18 07:30,113.9219,22.3094,68.00,62.60,82.86,350.00,3.00,0.00,30.09,M,2.36,M,FEW,SCT,M,M,1000.00,1800.00,M,M,BR,M,M,M,M,M,M,68.00,VHHH 180730Z 35003KT 3800 BR FEW010 SCT018 20/17 Q1019 NOSIG
VHHH,2017-01-18 08:00,113.9219,22.3094,68.00,62.60,82.86,M,2.00,0.00,30.09,M,2.49,M,FEW,SCT,M,M,1000.00,1800.00,M,M,BR,M,M,M,M,M,M,68.00,VHHH 180800Z VRB02KT 4000 BR FEW010 SCT018 20/17 Q1019 NOSIG
VHHH,2017-01-18 08:30,113.9219,22.3094,68.00,62.60,82.86,50.00,3.00,0.00,30.09,M,3.11,M,FEW,SCT,M,M,1000.00,1800.00,M,M,M,M,M,M,M,M,M,68.00,VHHH 180830Z 05003KT 5000 FEW010 SCT018 20/17 Q1019 NOSIG
VHHH,2017-01-18 09:00,113.9219,22.3094,66.20,62.60,88.18,M,3.00,0.00,30.09,M,2.67,M,FEW,SCT,M,M,1000.00,1800.00,M,M,-DZ BR,M,M,M,M,M,M,66.20,VHHH 180900Z VRB03KT 4300 -DZ BR FEW010 SCT018 19/17 Q1019 NOSIG
VHHH,2017-01-18 09:25,113.9219,22.3094,68.00,62.60,82.86,70.00,3.00,0.00,30.09,M,3.11,M,FEW,SCT,M,M,1000.00,1800.00,M,M,-DZ,M,M,M,M,M,M,68.00,VHHH 180925Z 07003KT 5000 -DZ FEW010 SCT018 20/17 Q1019 NOSIG
VHHH,2017-01-18 09:30,113.9219,22.3094,66.20,62.60,88.18,70.00,3.00,0.00,30.09,M,2.80,M,FEW,SCT,M,M,1000.00,1800.00,M,M,-DZ BR,M,M,M,M,M,M,66.20,VHHH 180930Z 07003KT 4500 -DZ BR FEW010 SCT018 19/17 Q1019 NOSIG
VHHH,2017-01-18 09:50,113.9219,22.3094,68.00,62.60,82.86,M,3.00,0.00,30.09,M,3.11,M,FEW,SCT,M,M,1200.00,2000.00,M,M,-DZ,M,M,M,M,M,M,68.00,VHHH 180950Z VRB03KT 5000 -DZ FEW012 SCT020 20/17 Q1019 NOSIG
VHHH,2017-01-18 10:00,113.9219,22.3094,66.20,62.60,88.18,70.00,3.00,0.00,30.09,M,3.11,M,FEW,SCT,M,M,1200.00,2000.00,M,M,-DZ,M,M,M,M,M,M,66.20,VHHH 181000Z 07003KT 5000 -DZ FEW012 SCT020 19/17 Q1019 NOSIG
VHHH,2017-01-18 10:30,113.9219,22.3094,66.20,62.60,88.18,M,4.00,0.00,30.12,M,3.73,M,FEW,SCT,M,M,1400.00,2500.00,M,M,-DZ,M,M,M,M,M,M,66.20,VHHH 181030Z VRB04KT 6000 -DZ FEW014 SCT025 19/17 Q1020 NOSIG
VHHH,2017-01-18 11:00,113.9219,22.3094,66.20,62.60,88.18,120.00,5.00,0.00,30.12,M,3.73,M,FEW,SCT,M,M,1400.00,2500.00,M,M,-DZ,M,M,M,M,M,M,66.20,VHHH 181100Z 12005KT 090V200 6000 -DZ FEW014 SCT025 19/17 Q1020 NOSIG
VHHH,2017-01-18 11:30,113.9219,22.3094,66.20,64.40,93.92,110.00,5.00,0.00,30.12,M,3.11,M,FEW,SCT,M,M,1400.00,3000.00,M,M,-DZ,M,M,M,M,M,M,66.20,VHHH 181130Z 11005KT 060V170 5000 -DZ FEW014 SCT030 19/18 Q1020 NOSIG
VHHH,2017-01-18 11:43,113.9219,22.3094,66.20,64.40,93.92,80.00,5.00,0.00,30.12,M,3.04,M,FEW,SCT,M,M,1400.00,3000.00,M,M,-DZ BR,M,M,M,M,M,M,66.20,VHHH 181143Z 08005KT 060V130 4900 -DZ BR FEW014 SCT030 19/18 Q1020 NOSIG
VHHH,2017-01-18 12:00,113.9219,22.3094,66.20,64.40,93.92,90.00,4.00,0.00,30.12,M,3.11,M,FEW,SCT,M,M,1400.00,3000.00,M,M,-DZ,M,M,M,M,M,M,66.20,VHHH 181200Z 09004KT 060V140 5000 -DZ FEW014 SCT030 19/18 Q1020 NOSIG
VHHH,2017-01-18 12:30,113.9219,22.3094,66.20,62.60,88.18,70.00,4.00,0.00,30.12,M,3.11,M,FEW,SCT,M,M,1500.00,4000.00,M,M,M,M,M,M,M,M,M,66.20,VHHH 181230Z 07004KT 040V100 5000 FEW015 SCT040 19/17 Q1020 NOSIG
VHHH,2017-01-18 13:00,113.9219,22.3094,68.00,62.60,82.86,80.00,5.00,0.00,30.12,M,3.11,M,FEW,SCT,M,M,1500.00,4000.00,M,M,M,M,M,M,M,M,M,68.00,VHHH 181300Z 08005KT 5000 FEW015 SCT040 20/17 Q1020 NOSIG
VHHH,2017-01-18 13:30,113.9219,22.3094,68.00,62.60,82.86,80.00,4.00,0.00,30.15,M,3.73,M,FEW,SCT,M,M,1500.00,2800.00,M,M,M,M,M,M,M,M,M,68.00,VHHH 181330Z 08004KT 060V150 6000 FEW015 SCT028 20/17 Q1021 NOSIG
VHHH,2017-01-18 14:00,113.9219,22.3094,68.00,62.60,82.86,80.00,6.00,0.00,30.15,M,3.73,M,FEW,SCT,M,M,1500.00,2500.00,M,M,M,M,M,M,M,M,M,68.00,VHHH 181400Z 08006KT 6000 FEW015 SCT025 20/17 Q1021 NOSIG
VHHH,2017-01-18 14:30,113.9219,22.3094,68.00,62.60,82.86,80.00,5.00,0.00,30.15,M,3.11,M,FEW,SCT,M,M,1500.00,2500.00,M,M,M,M,M,M,M,M,M,68.00,VHHH 181430Z 08005KT 5000 FEW015 SCT025 20/17 Q1021 NOSIG
VHHH,2017-01-18 15:00,113.9219,22.3094,68.00,62.60,82.86,70.00,5.00,0.00,30.15,M,3.11,M,FEW,SCT,M,M,1500.00,2500.00,M,M,M,M,M,M,M,M,M,68.00,VHHH 181500Z 07005KT 5000 FEW015 SCT025 20/17 Q1021 NOSIG
VHHH,2017-01-18 15:30,113.9219,22.3094,68.00,62.60,82.86,60.00,6.00,0.00,30.15,M,3.11,M,FEW,SCT,M,M,1500.00,2500.00,M,M,M,M,M,M,M,M,M,68.00,VHHH 181530Z 06006KT 5000 FEW015 SCT025 20/17 Q1021 TEMPO 4000 BR
VHHH,2017-01-18 16:00,113.9219,22.3094,68.00,62.60,82.86,80.00,5.00,0.00,30.15,M,3.73,M,FEW,SCT,M,M,1500.00,2500.00,M,M,M,M,M,M,M,M,M,68.00,VHHH 181600Z 08005KT 6000 FEW015 SCT025 20/17 Q1021 TEMPO 4000 BR
VHHH,2017-01-18 16:30,113.9219,22.3094,68.00,62.60,82.86,50.00,4.00,0.00,30.12,M,3.73,M,FEW,SCT,M,M,1500.00,2500.00,M,M,M,M,M,M,M,M,M,68.00,VHHH 181630Z 05004KT 6000 FEW015 SCT025 20/17 Q1020 TEMPO 4000 BR
VHHH,2017-01-18 17:00,113.9219,22.3094,68.00,62.60,82.86,70.00,3.00,0.00,30.12,M,3.73,M,FEW,SCT,M,M,1200.00,2500.00,M,M,M,M,M,M,M,M,M,68.00,VHHH 181700Z 07003KT 6000 FEW012 SCT025 20/17 Q1020 TEMPO 4000 BR
VHHH,2017-01-18 17:30,113.9219,22.3094,68.00,62.60,82.86,M,2.00,0.00,30.12,M,3.73,M,FEW,SCT,M,M,1000.00,2300.00,M,M,M,M,M,M,M,M,M,68.00,VHHH 181730Z VRB02KT 6000 FEW010 SCT023 20/17 Q1020 TEMPO 4000 BR
VHHH,2017-01-18 18:00,113.9219,22.3094,68.00,62.60,82.86,80.00,3.00,0.00,30.12,M,3.73,M,FEW,SCT,M,M,1000.00,2300.00,M,M,M,M,M,M,M,M,M,68.00,VHHH 181800Z 08003KT 6000 FEW010 SCT023 20/17 Q1020 NOSIG
VHHH,2017-01-18 18:30,113.9219,22.3094,68.00,64.40,88.26,60.00,3.00,0.00,30.12,M,3.73,M,FEW,SCT,M,M,900.00,2300.00,M,M,M,M,M,M,M,M,M,68.00,VHHH 181830Z 06003KT 6000 FEW009 SCT023 20/18 Q1020 NOSIG
VHHH,2017-01-18 19:00,113.9219,22.3094,68.00,64.40,88.26,50.00,2.00,0.00,30.12,M,3.73,M,FEW,SCT,M,M,900.00,2300.00,M,M,M,M,M,M,M,M,M,68.00,VHHH 181900Z 05002KT 6000 FEW009 SCT023 20/18 Q1020 NOSIG
VHHH,2017-01-18 19:30,113.9219,22.3094,68.00,62.60,82.86,60.00,3.00,0.00,30.12,M,3.73,M,FEW,SCT,M,M,900.00,2200.00,M,M,M,M,M,M,M,M,M,68.00,VHHH 181930Z 06003KT 6000 FEW009 SCT022 20/17 Q1020 NOSIG
VHHH,2017-01-18 20:00,113.9219,22.3094,68.00,62.60,82.86,M,2.00,0.00,30.12,M,3.73,M,FEW,SCT,M,M,900.00,2500.00,M,M,M,M,M,M,M,M,M,68.00,VHHH 182000Z VRB02KT 6000 FEW009 SCT025 20/17 Q1020 NOSIG
VHHH,2017-01-18 20:30,113.9219,22.3094,66.20,62.60,88.18,60.00,4.00,0.00,30.09,M,3.11,M,FEW,SCT,M,M,900.00,3000.00,M,M,M,M,M,M,M,M,M,66.20,VHHH 182030Z 06004KT 5000 FEW009 SCT030 19/17 Q1019 NOSIG
VHHH,2017-01-18 21:00,113.9219,22.3094,66.20,62.60,88.18,40.00,4.00,0.00,30.09,M,3.11,M,FEW,SCT,M,M,900.00,3000.00,M,M,M,M,M,M,M,M,M,66.20,VHHH 182100Z 04004KT 5000 FEW009 SCT030 19/17 Q1019 NOSIG
VHHH,2017-01-18 21:30,113.9219,22.3094,66.20,62.60,88.18,40.00,5.00,0.00,30.12,M,3.11,M,FEW,SCT,M,M,1000.00,3500.00,M,M,M,M,M,M,M,M,M,66.20,VHHH 182130Z 04005KT 5000 FEW010 SCT035 19/17 Q1020 TEMPO 3500 BR -RA
VHHH,2017-01-18 22:00,113.9219,22.3094,66.20,62.60,88.18,60.00,6.00,0.00,30.12,M,3.11,M,FEW,SCT,M,M,1200.00,4000.00,M,M,M,M,M,M,M,M,M,66.20,VHHH 182200Z 06006KT 5000 FEW012 SCT040 19/17 Q1020 TEMPO 3500 BR -RA
VHHH,2017-01-18 22:30,113.9219,22.3094,66.20,62.60,88.18,60.00,4.00,0.00,30.12,M,3.11,M,FEW,SCT,M,M,1200.00,4000.00,M,M,M,M,M,M,M,M,M,66.20,VHHH 182230Z 06004KT 5000 FEW012 SCT040 19/17 Q1020 TEMPO 3500 BR -RA
VHHH,2017-01-18 23:00,113.9219,22.3094,66.20,62.60,88.18,70.00,4.00,0.00,30.12,M,3.11,M,FEW,SCT,M,M,1200.00,4000.00,M,M,M,M,M,M,M,M,M,66.20,VHHH 182300Z 07004KT 5000 FEW012 SCT040 19/17 Q1020 TEMPO 3500 BR
VHHH,2017-01-18 23:04,113.9219,22.3094,66.20,62.60,88.18,70.00,5.00,0.00,30.12,M,3.04,M,FEW,SCT,M,M,1200.00,4000.00,M,M,BR,M,M,M,M,M,M,66.20,VHHH 182304Z 07005KT 4900 BR FEW012 SCT040 19/17 Q1020 NOSIG
VHHH,2017-01-18 23:30,113.9219,22.3094,66.20,62.60,88.18,70.00,5.00,0.00,30.12,M,2.30,M,FEW,SCT,M,M,1200.00,4000.00,M,M,BR,M,M,M,M,M,M,66.20,VHHH 182330Z 07005KT 3700 BR FEW012 SCT040 19/17 Q1020 NOSIG
VHHH,2017-01-19 00:00,113.9219,22.3094,68.00,62.60,82.86,70.00,4.00,0.00,30.15,M,2.49,M,FEW,SCT,M,M,1200.00,4000.00,M,M,BR,M,M,M,M,M,M,68.00,VHHH 190000Z 07004KT 4000 BR FEW012 SCT040 20/17 Q1021 NOSIG
VHHH,2017-01-19 00:30,113.9219,22.3094,68.00,62.60,82.86,70.00,5.00,0.00,30.15,M,2.86,M,FEW,SCT,M,M,1200.00,4000.00,M,M,BR,M,M,M,M,M,M,68.00,VHHH 190030Z 07005KT 4600 BR FEW012 SCT040 20/17 Q1021 NOSIG
VHHH,2017-01-19 01:00,113.9219,22.3094,69.80,62.60,77.90,70.00,4.00,0.00,30.15,M,3.11,M,FEW,SCT,M,M,1600.00,4000.00,M,M,M,M,M,M,M,M,M,69.80,VHHH 190100Z 07004KT 5000 FEW016 SCT040 21/17 Q1021 NOSIG
VHHH,2017-01-19 01:06,113.9219,22.3094,69.80,62.60,77.90,50.00,4.00,0.00,30.18,M,3.04,M,FEW,SCT,M,M,1600.00,4000.00,M,M,BR,M,M,M,M,M,M,69.80,VHHH 190106Z 05004KT 4900 BR FEW016 SCT040 21/17 Q1022 NOSIG
VHHH,2017-01-19 01:30,113.9219,22.3094,68.00,62.60,82.86,20.00,4.00,0.00,30.18,M,2.92,M,FEW,SCT,M,M,1200.00,4000.00,M,M,BR,M,M,M,M,M,M,68.00,VHHH 190130Z 02004KT 340V040 4700 BR FEW012 SCT040 20/17 Q1022 NOSIG
VHHH,2017-01-19 02:00,113.9219,22.3094,69.80,64.40,82.98,340.00,7.00,0.00,30.18,M,2.61,M,FEW,SCT,M,M,1200.00,4000.00,M,M,BR,M,M,M,M,M,M,69.80,VHHH 190200Z 34007KT 4200 BR FEW012 SCT040 21/18 Q1022 NOSIG
VHHH,2017-01-19 02:30,113.9219,22.3094,69.80,64.40,82.98,330.00,7.00,0.00,30.18,M,2.42,M,FEW,SCT,M,M,1200.00,3500.00,M,M,BR,M,M,M,M,M,M,69.80,VHHH 190230Z 33007KT 3900 BR FEW012 SCT035 21/18 Q1022 NOSIG
VHHH,2017-01-19 03:00,113.9219,22.3094,69.80,64.40,82.98,320.00,8.00,0.00,30.15,M,2.49,M,FEW,SCT,M,M,1000.00,2000.00,M,M,BR,M,M,M,M,M,M,69.80,VHHH 190300Z 32008KT 4000 BR FEW010 SCT020 21/18 Q1021 NOSIG
VHHH,2017-01-19 03:30,113.9219,22.3094,69.80,64.40,82.98,310.00,9.00,0.00,30.15,M,2.36,M,FEW,SCT,M,M,1200.00,2500.00,M,M,BR,M,M,M,M,M,M,69.80,VHHH 190330Z 31009KT 3800 BR FEW012 SCT025 21/18 Q1021 NOSIG
VHHH,2017-01-19 04:00,113.9219,22.3094,69.80,62.60,77.90,330.00,9.00,0.00,30.15,M,2.55,M,FEW,SCT,M,M,1200.00,2200.00,M,M,BR,M,M,M,M,M,M,69.80,VHHH 190400Z 33009KT 4100 BR FEW012 SCT022 21/17 Q1021 NOSIG
VHHH,2017-01-19 04:30,113.9219,22.3094,69.80,62.60,77.90,320.00,8.00,0.00,30.12,M,2.42,M,FEW,SCT,M,M,1200.00,2200.00,M,M,BR,M,M,M,M,M,M,69.80,VHHH 190430Z 32008KT 3900 BR FEW012 SCT022 21/17 Q1020 NOSIG
VHHH,2017-01-19 05:00,113.9219,22.3094,69.80,62.60,77.90,310.00,9.00,0.00,30.12,M,2.11,M,FEW,SCT,M,M,1200.00,2200.00,M,M,HZ,M,M,M,M,M,M,69.80,VHHH 190500Z 31009KT 3400 HZ FEW012 SCT022 21/17 Q1020 NOSIG
VHHH,2017-01-19 05:30,113.9219,22.3094,69.80,62.60,77.90,300.00,8.00,0.00,30.09,M,2.30,M,FEW,SCT,M,M,1200.00,2200.00,M,M,HZ,M,M,M,M,M,M,69.80,VHHH 190530Z 30008KT 3700 HZ FEW012 SCT022 21/17 Q1019 NOSIG
VHHH,2017-01-19 06:00,113.9219,22.3094,71.60,62.60,73.27,300.00,7.00,0.00,30.09,M,2.30,M,FEW,SCT,M,M,1200.00,2500.00,M,M,HZ,M,M,M,M,M,M,71.60,VHHH 190600Z 30007KT 3700 HZ FEW012 SCT025 22/17 Q1019 NOSIG
VHHH,2017-01-19 06:30,113.9219,22.3094,69.80,62.60,77.90,300.00,7.00,0.00,30.06,M,2.05,M,FEW,SCT,M,M,1200.00,2500.00,M,M,HZ,M,M,M,M,M,M,69.80,VHHH 190630Z 30007KT 3300 HZ FEW012 SCT025 21/17 Q1018 NOSIG
VHHH,2017-01-19 07:00,113.9219,22.3094,71.60,62.60,73.27,310.00,7.00,0.00,30.06,M,2.11,M,FEW,SCT,M,M,1500.00,2800.00,M,M,HZ,M,M,M,M,M,M,71.60,VHHH 190700Z 31007KT 3400 HZ FEW015 SCT028 22/17 Q1018 NOSIG
VHHH,2017-01-19 07:30,113.9219,22.3094,71.60,62.60,73.27,290.00,6.00,0.00,30.06,M,2.30,M,FEW,SCT,M,M,1500.00,2800.00,M,M,HZ,M,M,M,M,M,M,71.60,VHHH 190730Z 29006KT 3700 HZ FEW015 SCT028 22/17 Q1018 NOSIG
VHHH,2017-01-19 08:00,113.9219,22.3094,71.60,62.60,73.27,300.00,5.00,0.00,30.06,M,2.11,M,FEW,SCT,M,M,1500.00,2800.00,M,M,HZ,M,M,M,M,M,M,71.60,VHHH 190800Z 30005KT 3400 HZ FEW015 SCT028 22/17 Q1018 NOSIG
VHHH,2017-01-19 08:30,113.9219,22.3094,69.80,62.60,77.90,300.00,6.00,0.00,30.06,M,2.30,M,FEW,SCT,M,M,1800.00,3000.00,M,M,HZ,M,M,M,M,M,M,69.80,VHHH 190830Z 30006KT 3700 HZ FEW018 SCT030 21/17 Q1018 NOSIG
VHHH,2017-01-19 09:00,113.9219,22.3094,69.80,62.60,77.90,290.00,5.00,0.00,30.06,M,2.36,M,FEW,SCT,M,M,1800.00,3000.00,M,M,HZ,M,M,M,M,M,M,69.80,VHHH 190900Z 29005KT 3800 HZ FEW018 SCT030 21/17 Q1018 NOSIG
VHHH,2017-01-19 09:30,113.9219,22.3094,69.80,62.60,77.90,290.00,4.00,0.00,30.06,M,2.36,M,FEW,SCT,M,M,1800.00,3000.00,M,M,HZ,M,M,M,M,M,M,69.80,VHHH 190930Z 29004KT 260V340 3800 HZ FEW018 SCT030 21/17 Q1018 NOSIG
VHHH,2017-01-19 10:00,113.9219,22.3094,69.80,62.60,77.90,310.00,5.00,0.00,30.06,M,2.36,M,FEW,SCT,M,M,1800.00,3000.00,M,M,HZ,M,M,M,M,M,M,69.80,VHHH 191000Z 31005KT 3800 HZ FEW018 SCT030 21/17 Q1018 NOSIG
VHHH,2017-01-19 10:25,113.9219,22.3094,69.80,62.60,77.90,300.00,5.00,0.00,30.09,M,3.11,M,FEW,SCT,M,M,1800.00,3000.00,M,M,M,M,M,M,M,M,M,69.80,VHHH 191025Z 30005KT 5000 FEW018 SCT030 21/17 Q1019 NOSIG
VHHH,2017-01-19 10:30,113.9219,22.3094,69.80,62.60,77.90,300.00,5.00,0.00,30.09,M,3.11,M,FEW,SCT,M,M,1800.00,3000.00,M,M,M,M,M,M,M,M,M,69.80,VHHH 191030Z 30005KT 5000 FEW018 SCT030 21/17 Q1019 NOSIG
VHHH,2017-01-19 11:00,113.9219,22.3094,69.80,62.60,77.90,310.00,5.00,0.00,30.09,M,3.11,M,FEW,SCT,M,M,1800.00,3000.00,M,M,M,M,M,M,M,M,M,69.80,VHHH 191100Z 31005KT 5000 FEW018 SCT030 21/17 Q1019 NOSIG
VHHH,2017-01-19 11:30,113.9219,22.3094,69.80,62.60,77.90,300.00,3.00,0.00,30.09,M,3.73,M,FEW,SCT,M,M,1800.00,3000.00,M,M,M,M,M,M,M,M,M,69.80,VHHH 191130Z 30003KT 270V330 6000 FEW018 SCT030 21/17 Q1019 NOSIG
VHHH,2017-01-19 12:00,113.9219,22.3094,68.00,60.80,77.75,300.00,8.00,0.00,30.12,M,3.73,M,FEW,SCT,M,M,1800.00,3000.00,M,M,M,M,M,M,M,M,M,68.00,VHHH 191200Z 30008KT 6000 FEW018 SCT030 20/16 Q1020 NOSIG
VHHH,2017-01-19 12:30,113.9219,22.3094,68.00,60.80,77.75,300.00,9.00,0.00,30.12,M,4.35,M,FEW,SCT,M,M,1800.00,3000.00,M,M,M,M,M,M,M,M,M,68.00,VHHH 191230Z 30009KT 7000 FEW018 SCT030 20/16 Q1020 NOSIG
VHHH,2017-01-19 13:00,113.9219,22.3094,68.00,60.80,77.75,320.00,8.00,0.00,30.12,M,4.35,M,FEW,SCT,M,M,1800.00,3000.00,M,M,M,M,M,M,M,M,M,68.00,VHHH 191300Z 32008KT 7000 FEW018 SCT030 20/16 Q1020 NOSIG
VHHH,2017-01-19 13:30,113.9219,22.3094,68.00,60.80,77.75,320.00,9.00,0.00,30.15,M,4.97,M,FEW,SCT,M,M,1500.00,3000.00,M,M,M,M,M,M,M,M,M,68.00,VHHH 191330Z 32009KT 8000 FEW015 SCT030 20/16 Q1021 NOSIG
VHHH,2017-01-19 14:00,113.9219,22.3094,66.20,60.80,82.74,320.00,11.00,0.00,30.15,M,4.97,M,FEW,SCT,M,M,1500.00,3000.00,M,M,M,M,M,M,M,M,M,66.20,VHHH 191400Z 32011KT 8000 FEW015 SCT030 19/16 Q1021 NOSIG
VHHH,2017-01-19 14:30,113.9219,22.3094,66.20,59.00,77.60,330.00,16.00,0.00,30.15,M,5.59,M,FEW,SCT,M,M,1500.00,3000.00,M,M,M,M,M,M,M,M,M,66.20,VHHH 191430Z 33016KT 9000 FEW015 SCT030 19/15 Q1021 NOSIG
VHHH,2017-01-19 15:00,113.9219,22.3094,66.20,60.80,82.74,330.00,14.00,0.00,30.15,M,5.59,M,FEW,SCT,M,M,1500.00,3000.00,M,M,M,M,M,M,M,M,M,66.20,VHHH 191500Z 33014KT 9000 FEW015 SCT030 19/16 Q1021 NOSIG
VHHH,2017-01-19 15:30,113.9219,22.3094,66.20,59.00,77.60,330.00,17.00,0.00,30.15,M,5.59,M,FEW,SCT,M,M,1800.00,3000.00,M,M,M,M,M,M,M,M,M,66.20,VHHH 191530Z 33017KT 9000 FEW018 SCT030 19/15 Q1021 NOSIG
VHHH,2017-01-19 16:00,113.9219,22.3094,66.20,59.00,77.60,330.00,16.00,0.00,30.15,M,4.97,M,FEW,SCT,M,M,1800.00,3000.00,M,M,M,M,M,M,M,M,M,66.20,VHHH 191600Z 33016KT 8000 FEW018 SCT030 19/15 Q1021 NOSIG
VHHH,2017-01-19 16:30,113.9219,22.3094,64.40,59.00,82.62,330.00,16.00,0.00,30.15,M,4.97,M,FEW,SCT,M,M,1600.00,2500.00,M,M,M,M,M,M,M,M,M,64.40,VHHH 191630Z 33016KT 8000 FEW016 SCT025 18/15 Q1021 NOSIG
VHHH,2017-01-19 17:00,113.9219,22.3094,64.40,59.00,82.62,330.00,15.00,0.00,30.15,M,4.97,M,FEW,SCT,M,M,1600.00,2500.00,M,M,M,M,M,M,M,M,M,64.40,VHHH 191700Z 33015KT 8000 FEW016 SCT025 18/15 Q1021 NOSIG
VHHH,2017-01-19 17:30,113.9219,22.3094,64.40,59.00,82.62,330.00,18.00,0.00,30.15,M,4.97,M,FEW,SCT,M,M,1600.00,2500.00,M,M,M,M,M,M,M,M,M,64.40,VHHH 191730Z 33018KT 8000 FEW016 SCT025 18/15 Q1021 NOSIG
VHHH,2017-01-19 18:00,113.9219,22.3094,64.40,59.00,82.62,330.00,15.00,0.00,30.15,M,4.97,M,FEW,SCT,M,M,1600.00,2500.00,M,M,M,M,M,M,M,M,M,64.40,VHHH 191800Z 33015KT 8000 FEW016 SCT025 18/15 Q1021 NOSIG
VHHH,2017-01-19 18:30,113.9219,22.3094,66.20,59.00,77.60,340.00,13.00,0.00,30.15,M,4.97,M,FEW,SCT,M,M,1600.00,2500.00,M,M,M,M,M,M,M,M,M,66.20,VHHH 191830Z 34013KT 8000 FEW016 SCT025 19/15 Q1021 NOSIG
VHHH,2017-01-19 19:00,113.9219,22.3094,64.40,59.00,82.62,350.00,15.00,0.00,30.15,M,5.59,M,FEW,SCT,M,M,1600.00,2500.00,M,M,M,M,M,M,M,M,M,64.40,VHHH 191900Z 35015KT 9000 FEW016 SCT025 18/15 Q1021 NOSIG
VHHH,2017-01-19 19:30,113.9219,22.3094,64.40,57.20,77.45,340.00,14.00,0.00,30.15,M,5.59,M,FEW,SCT,M,M,1500.00,2200.00,M,M,M,M,M,M,M,M,M,64.40,VHHH 191930Z 34014KT 9000 FEW015 SCT022 18/14 Q1021 NOSIG
VHHH,2017-01-19 20:00,113.9219,22.3094,64.40,57.20,77.45,340.00,12.00,0.00,30.15,M,6.21,M,FEW,SCT,M,M,1500.00,2200.00,M,M,M,M,M,M,M,M,M,64.40,VHHH 192000Z 34012KT 9999 FEW015 SCT022 18/14 Q1021 NOSIG
VHHH,2017-01-19 20:30,113.9219,22.3094,64.40,57.20,77.45,350.00,13.00,0.00,30.18,M,6.21,M,FEW,SCT,M,M,1500.00,2200.00,M,M,M,M,M,M,M,M,M,64.40,VHHH 192030Z 35013KT 9999 FEW015 SCT022 18/14 Q1022 NOSIG
VHHH,2017-01-19 21:00,113.9219,22.3094,64.40,55.40,72.56,360.00,13.00,0.00,30.18,M,6.21,M,FEW,SCT,M,M,1500.00,2200.00,M,M,M,M,M,M,M,M,M,64.40,VHHH 192100Z 36013KT 9999 FEW015 SCT022 18/13 Q1022 NOSIG
VHHH,2017-01-19 21:30,113.9219,22.3094,64.40,55.40,72.56,30.00,7.00,0.00,30.18,M,6.21,M,FEW,SCT,M,M,1500.00,2200.00,M,M,M,M,M,M,M,M,M,64.40,VHHH 192130Z 03007KT 360V060 9999 FEW015 SCT022 18/13 Q1022 NOSIG
VHHH,2017-01-19 22:00,113.9219,22.3094,62.60,53.60,72.38,10.00,12.00,0.00,30.18,M,6.21,M,FEW,SCT,M,M,1500.00,2200.00,M,M,M,M,M,M,M,M,M,62.60,VHHH 192200Z 01012KT 9999 FEW015 SCT022 17/12 Q1022 NOSIG
VHHH,2017-01-19 22:30,113.9219,22.3094,62.60,53.60,72.38,10.00,13.00,0.00,30.21,M,6.21,M,FEW,SCT,M,M,1500.00,2200.00,M,M,M,M,M,M,M,M,M,62.60,VHHH 192230Z 01013KT 9999 FEW015 SCT022 17/12 Q1023 NOSIG
VHHH,2017-01-19 23:00,113.9219,22.3094,62.60,53.60,72.38,360.00,12.00,0.00,30.21,M,6.21,M,FEW,SCT,M,M,1800.00,2500.00,M,M,M,M,M,M,M,M,M,62.60,VHHH 192300Z 36012KT 9999 FEW018 SCT025 17/12 Q1023 NOSIG
VHHH,2017-01-19 23:30,113.9219,22.3094,60.80,51.80,72.20,10.00,12.00,0.00,30.21,M,6.21,M,FEW,SCT,M,M,1800.00,2500.00,M,M,M,M,M,M,M,M,M,60.80,VHHH 192330Z 01012KT 9999 FEW018 SCT025 16/11 Q1023 NOSIG
VHHH,2017-01-20 00:00,113.9219,22.3094,60.80,50.00,67.54,20.00,12.00,0.00,30.24,M,6.21,M,FEW,SCT,M,M,2000.00,3000.00,M,M,M,M,M,M,M,M,M,60.80,VHHH 200000Z 02012KT 9999 FEW020 SCT030 16/10 Q1024 NOSIG
VHHH,2017-01-20 00:30,113.9219,22.3094,60.80,50.00,67.54,10.00,11.00,0.00,30.24,M,6.21,M,FEW,SCT,M,M,2000.00,3000.00,M,M,M,M,M,M,M,M,M,60.80,VHHH 200030Z 01011KT 9999 FEW020 SCT030 16/10 Q1024 NOSIG
VHHH,2017-01-20 01:00,113.9219,22.3094,62.60,50.00,63.38,10.00,9.00,0.00,30.27,M,6.21,M,FEW,SCT,M,M,2000.00,3000.00,M,M,M,M,M,M,M,M,M,62.60,VHHH 200100Z 01009KT 9999 FEW020 SCT030 17/10 Q1025 NOSIG
VHHH,2017-01-20 01:30,113.9219,22.3094,62.60,50.00,63.38,20.00,8.00,0.00,30.27,M,6.21,M,FEW,SCT,M,M,2500.00,3500.00,M,M,M,M,M,M,M,M,M,62.60,VHHH 200130Z 02008KT 350V050 9999 FEW025 SCT035 17/10 Q1025 NOSIG
VHHH,2017-01-20 02:00,113.9219,22.3094,62.60,48.20,59.26,360.00,10.00,0.00,30.27,M,6.21,M,FEW,SCT,M,M,2500.00,3500.00,M,M,M,M,M,M,M,M,M,62.60,VHHH 200200Z 36010KT 9999 FEW025 SCT035 17/09 Q1025 NOSIG
VHHH,2017-01-20 02:30,113.9219,22.3094,62.60,48.20,59.26,360.00,10.00,0.00,30.27,M,6.21,M,FEW,SCT,M,M,2500.00,3500.00,M,M,M,M,M,M,M,M,M,62.60,VHHH 200230Z 36010KT 9999 FEW025 SCT035 17/09 Q1025 NOSIG
VHHH,2017-01-20 03:00,113.9219,22.3094,64.40,50.00,59.50,360.00,11.00,0.00,30.27,M,6.21,M,FEW,M,M,M,3500.00,M,M,M,M,M,M,M,M,M,M,64.40,VHHH 200300Z 36011KT 9999 FEW035 18/10 Q1025 NOSIG
VHHH,2017-01-20 03:30,113.9219,22.3094,64.40,50.00,59.50,350.00,9.00,0.00,30.24,M,6.21,M,FEW,M,M,M,3500.00,M,M,M,M,M,M,M,M,M,M,64.40,VHHH 200330Z 35009KT 9999 FEW035 18/10 Q1024 NOSIG
VHHH,2017-01-20 04:00,113.9219,22.3094,66.20,50.00,55.88,340.00,9.00,0.00,30.24,M,6.21,M,FEW,M,M,M,3500.00,M,M,M,M,M,M,M,M,M,M,66.20,VHHH 200400Z 34009KT 9999 FEW035 19/10 Q1024 NOSIG
VHHH,2017-01-20 04:30,113.9219,22.3094,66.20,50.00,55.88,340.00,10.00,0.00,30.21,M,6.21,M,FEW,M,M,M,3500.00,M,M,M,M,M,M,M,M,M,M,66.20,VHHH 200430Z 34010KT 9999 FEW035 19/10 Q1023 NOSIG
VHHH,2017-01-20 05:00,113.9219,22.3094,66.20,50.00,55.88,340.00,9.00,0.00,30.18,M,6.21,M,FEW,M,M,M,3500.00,M,M,M,M,M,M,M,M,M,M,66.20,VHHH 200500Z 34009KT 9999 FEW035 19/10 Q1022 NOSIG
VHHH,2017-01-20 05:30,113.9219,22.3094,66.20,50.00,55.88,330.00,10.00,0.00,30.15,M,6.21,M,FEW,M,M,M,3500.00,M,M,M,M,M,M,M,M,M,M,66.20,VHHH 200530Z 33010KT 9999 FEW035 19/10 Q1021 NOSIG
VHHH,2017-01-20 06:00,113.9219,22.3094,68.00,50.00,52.51,320.00,10.00,0.00,30.15,M,6.21,M,FEW,M,M,M,3500.00,M,M,M,M,M,M,M,M,M,M,68.00,VHHH 200600Z 32010KT 9999 FEW035 20/10 Q1021 NOSIG
VHHH,2017-01-20 06:30,113.9219,22.3094,68.00,51.80,56.13,320.00,13.00,0.00,30.15,M,6.21,M,FEW,M,M,M,3500.00,M,M,M,M,M,M,M,M,M,M,68.00,VHHH 200630Z 32013KT 9999 FEW035 20/11 Q1021 NOSIG
VHHH,2017-01-20 07:00,113.9219,22.3094,68.00,51.80,56.13,320.00,14.00,0.00,30.12,M,6.21,M,FEW,M,M,M,3500.00,M,M,M,M,M,M,M,M,M,M,68.00,VHHH 200700Z 32014KT 9999 FEW035 20/11 Q1020 NOSIG
VHHH,2017-01-20 07:30,113.9219,22.3094,68.00,51.80,56.13,320.00,15.00,0.00,30.12,M,6.21,M,FEW,M,M,M,3500.00,M,M,M,M,M,M,M,M,M,M,68.00,VHHH 200730Z 32015KT 9999 FEW035 20/11 Q1020 NOSIG
VHHH,2017-01-20 08:00,113.9219,22.3094,68.00,51.80,56.13,320.00,14.00,0.00,30.12,M,6.21,M,FEW,M,M,M,3500.00,M,M,M,M,M,M,M,M,M,M,68.00,VHHH 200800Z 32014KT 9999 FEW035 20/11 Q1020 NOSIG
VHHH,2017-01-20 08:30,113.9219,22.3094,68.00,51.80,56.13,320.00,13.00,0.00,30.12,M,6.21,M,FEW,M,M,M,4000.00,M,M,M,M,M,M,M,M,M,M,68.00,VHHH 200830Z 32013KT 9999 FEW040 20/11 Q1020 NOSIG
VHHH,2017-01-20 09:00,113.9219,22.3094,68.00,51.80,56.13,320.00,12.00,0.00,30.12,M,6.21,M,FEW,M,M,M,4000.00,M,M,M,M,M,M,M,M,M,M,68.00,VHHH 200900Z 32012KT 9999 FEW040 20/11 Q1020 NOSIG
VHHH,2017-01-20 09:30,113.9219,22.3094,69.80,51.80,52.77,40.00,10.00,0.00,30.12,M,6.21,M,FEW,M,M,M,4000.00,M,M,M,M,M,M,M,M,M,M,69.80,VHHH 200930Z 04010KT 9999 FEW040 21/11 Q1020 NOSIG
VHHH,2017-01-20 10:00,113.9219,22.3094,66.20,51.80,59.74,40.00,11.00,0.00,30.15,M,6.21,M,FEW,M,M,M,4000.00,M,M,M,M,M,M,M,M,M,M,66.20,VHHH 201000Z 04011KT 9999 FEW040 19/11 Q1021 NOSIG
VHHH,2017-01-20 10:30,113.9219,22.3094,68.00,48.20,49.10,50.00,10.00,0.00,30.15,M,6.21,M,FEW,M,M,M,4000.00,M,M,M,M,M,M,M,M,M,M,68.00,VHHH 201030Z 05010KT 9999 FEW040 20/09 Q1021 NOSIG
VHHH,2017-01-20 11:00,113.9219,22.3094,66.20,48.20,52.25,50.00,12.00,0.00,30.18,M,6.21,M,FEW,M,M,M,4000.00,M,M,M,M,M,M,M,M,M,M,66.20,VHHH 201100Z 05012KT 9999 FEW040 19/09 Q1022 NOSIG
VHHH,2017-01-20 11:30,113.9219,22.3094,66.20,48.20,52.25,40.00,14.00,0.00,30.18,M,6.21,M,FEW,M,M,M,3000.00,M,M,M,M,M,M,M,M,M,M,66.20,VHHH 201130Z 04014KT 9999 FEW030 19/09 Q1022 NOSIG
VHHH,2017-01-20 12:00,113.9219,22.3094,64.40,48.20,55.63,50.00,14.00,0.00,30.18,M,6.21,M,FEW,SCT,M,M,2800.00,3500.00,M,M,M,M,M,M,M,M,M,64.40,VHHH 201200Z 05014KT 9999 FEW028 SCT035 18/09 Q1022 NOSIG
VHHH,2017-01-20 12:30,113.9219,22.3094,64.40,46.40,51.98,50.00,14.00,0.00,30.21,M,6.21,M,FEW,SCT,M,M,2800.00,3500.00,M,M,M,M,M,M,M,M,M,64.40,VHHH 201230Z 05014KT 9999 FEW028 SCT035 18/08 Q1023 NOSIG
VHHH,2017-01-20 13:00,113.9219,22.3094,62.60,46.40,55.37,50.00,14.00,0.00,30.21,M,6.21,M,FEW,SCT,M,M,2800.00,3500.00,M,M,M,M,M,M,M,M,M,62.60,VHHH 201300Z 05014KT 9999 FEW028 SCT035 17/08 Q1023 NOSIG
VHHH,2017-01-20 13:30,113.9219,22.3094,62.60,46.40,55.37,40.00,12.00,0.00,30.24,M,6.21,M,FEW,SCT,M,M,2800.00,3500.00,M,M,M,M,M,M,M,M,M,62.60,VHHH 201330Z 04012KT 9999 FEW028 SCT035 17/08 Q1024 NOSIG
VHHH,2017-01-20 14:00,113.9219,22.3094,62.60,46.40,55.37,40.00,12.00,0.00,30.24,M,6.21,M,FEW,SCT,M,M,2800.00,3500.00,M,M,M,M,M,M,M,M,M,62.60,VHHH 201400Z 04012KT 9999 FEW028 SCT035 17/08 Q1024 NOSIG
VHHH,2017-01-20 14:30,113.9219,22.3094,60.80,46.40,59.01,50.00,11.00,0.00,30.24,M,6.21,M,FEW,SCT,M,M,2800.00,3500.00,M,M,M,M,M,M,M,M,M,60.80,VHHH 201430Z 05011KT 9999 FEW028 SCT035 16/08 Q1024 NOSIG
VHHH,2017-01-20 15:00,113.9219,22.3094,62.60,46.40,55.37,60.00,13.00,0.00,30.24,M,6.21,M,FEW,SCT,M,M,2500.00,3500.00,M,M,M,M,M,M,M,M,M,62.60,VHHH 201500Z 06013KT 9999 FEW025 SCT035 17/08 Q1024 NOSIG
VHHH,2017-01-20 15:30,113.9219,22.3094,60.80,46.40,59.01,50.00,12.00,0.00,30.24,M,6.21,M,FEW,SCT,M,M,2500.00,3500.00,M,M,M,M,M,M,M,M,M,60.80,VHHH 201530Z 05012KT 9999 FEW025 SCT035 16/08 Q1024 NOSIG
VHHH,2017-01-20 16:00,113.9219,22.3094,60.80,46.40,59.01,50.00,18.00,0.00,30.24,M,6.21,M,FEW,SCT,M,M,2500.00,3500.00,M,M,M,M,M,M,M,M,M,60.80,VHHH 201600Z 05018KT 9999 FEW025 SCT035 16/08 Q1024 NOSIG
VHHH,2017-01-20 16:30,113.9219,22.3094,60.80,46.40,59.01,50.00,14.00,0.00,30.27,M,5.59,M,FEW,SCT,M,M,2500.00,3500.00,M,M,M,M,M,M,M,M,M,60.80,VHHH 201630Z 05014KT 9000 FEW025 SCT035 16/08 Q1025 NOSIG
VHHH,2017-01-20 17:00,113.9219,22.3094,59.00,46.40,62.92,40.00,16.00,0.00,30.27,M,5.59,M,FEW,SCT,M,M,2500.00,3500.00,M,M,M,M,M,M,M,M,M,59.00,VHHH 201700Z 04016KT 9000 FEW025 SCT035 15/08 Q1025 NOSIG
VHHH,2017-01-20 17:30,113.9219,22.3094,59.00,46.40,62.92,40.00,14.00,0.00,30.27,M,5.59,M,FEW,SCT,M,M,2500.00,3500.00,M,M,M,M,M,M,M,M,M,59.00,VHHH 201730Z 04014KT 9000 FEW025 SCT035 15/08 Q1025 NOSIG
VHHH,2017-01-20 18:00,113.9219,22.3094,59.00,46.40,62.92,50.00,13.00,0.00,30.27,M,5.59,M,FEW,SCT,M,M,2500.00,3500.00,M,M,M,M,M,M,M,M,M,59.00,VHHH 201800Z 05013KT 9000 FEW025 SCT035 15/08 Q1025 NOSIG
VHHH,2017-01-20 18:30,113.9219,22.3094,59.00,46.40,62.92,40.00,12.00,0.00,30.27,M,5.59,M,FEW,SCT,M,M,2500.00,3500.00,M,M,M,M,M,M,M,M,M,59.00,VHHH 201830Z 04012KT 9000 FEW025 SCT035 15/08 Q1025 NOSIG
VHHH,2017-01-20 19:00,113.9219,22.3094,59.00,46.40,62.92,50.00,10.00,0.00,30.27,M,6.21,M,FEW,SCT,M,M,2500.00,3500.00,M,M,M,M,M,M,M,M,M,59.00,VHHH 201900Z 05010KT 9999 FEW025 SCT035 15/08 Q1025 NOSIG
VHHH,2017-01-20 19:30,113.9219,22.3094,59.00,44.60,58.77,50.00,10.00,0.00,30.27,M,6.21,M,FEW,SCT,M,M,2500.00,3500.00,M,M,M,M,M,M,M,M,M,59.00,VHHH 201930Z 05010KT 9999 FEW025 SCT035 15/07 Q1025 NOSIG
VHHH,2017-01-20 20:00,113.9219,22.3094,59.00,46.40,62.92,20.00,10.00,0.00,30.27,M,6.21,M,FEW,SCT,M,M,2500.00,3500.00,M,M,M,M,M,M,M,M,M,59.00,VHHH 202000Z 02010KT 9999 FEW025 SCT035 15/08 Q1025 NOSIG
VHHH,2017-01-20 20:30,113.9219,22.3094,59.00,44.60,58.77,20.00,8.00,0.00,30.27,M,6.21,M,FEW,SCT,M,M,2500.00,3500.00,M,M,M,M,M,M,M,M,M,59.00,VHHH 202030Z 02008KT 9999 FEW025 SCT035 15/07 Q1025 NOSIG
VHHH,2017-01-20 21:00,113.9219,22.3094,59.00,44.60,58.77,20.00,9.00,0.00,30.27,M,6.21,M,FEW,SCT,M,M,2500.00,3500.00,M,M,M,M,M,M,M,M,M,59.00,VHHH 202100Z 02009KT 9999 FEW025 SCT035 15/07 Q1025 NOSIG
VHHH,2017-01-20 21:30,113.9219,22.3094,57.20,44.60,62.69,40.00,8.00,0.00,30.27,M,6.21,M,FEW,SCT,M,M,2500.00,3500.00,M,M,M,M,M,M,M,M,M,57.20,VHHH 202130Z 04008KT 010V070 9999 FEW025 SCT035 14/07 Q1025 NOSIG
VHHH,2017-01-20 22:00,113.9219,22.3094,57.20,44.60,62.69,20.00,7.00,0.00,30.27,M,6.21,M,FEW,M,M,M,3500.00,M,M,M,M,M,M,M,M,M,M,57.20,VHHH 202200Z 02007KT 330V040 9999 FEW035 14/07 Q1025 NOSIG
VHHH,2017-01-20 22:30,113.9219,22.3094,59.00,44.60,58.77,350.00,5.00,0.00,30.27,M,6.21,M,FEW,M,M,M,3500.00,M,M,M,M,M,M,M,M,M,M,59.00,VHHH 202230Z 35005KT 330V040 9999 FEW035 15/07 Q1025 NOSIG
VHHH,2017-01-20 23:00,113.9219,22.3094,59.00,44.60,58.77,360.00,8.00,0.00,30.30,M,5.59,M,FEW,M,M,M,3500.00,M,M,M,M,M,M,M,M,M,M,59.00,VHHH 202300Z 36008KT 9000 FEW035 15/07 Q1026 NOSIG
VHHH,2017-01-20 23:30,113.9219,22.3094,59.00,44.60,58.77,360.00,7.00,0.00,30.30,M,5.59,M,FEW,M,M,M,3500.00,M,M,M,M,M,M,M,M,M,M,59.00,VHHH 202330Z 36007KT 330V040 9000 FEW035 15/07 Q1026 NOSIG
VHHH,2017-01-21 00:00,113.9219,22.3094,59.00,44.60,58.77,30.00,8.00,0.00,30.30,M,5.59,M,FEW,M,M,M,3500.00,M,M,M,M,M,M,M,M,M,M,59.00,VHHH 210000Z 03008KT 350V060 9000 FEW035 15/07 Q1026 NOSIG
VHHH,2017-01-21 00:30,113.9219,22.3094,59.00,44.60,58.77,50.00,10.00,0.00,30.33,M,4.97,M,FEW,M,M,M,3500.00,M,M,M,M,M,M,M,M,M,M,59.00,VHHH 210030Z 05010KT 8000 FEW035 15/07 Q1027 NOSIG
VHHH,2017-01-21 01:00,113.9219,22.3094,59.00,44.60,58.77,30.00,8.00,0.00,30.33,M,4.97,M,FEW,M,M,M,3500.00,M,M,M,M,M,M,M,M,M,M,59.00,VHHH 210100Z 03008KT 8000 FEW035 15/07 Q1027 NOSIG
VHHH,2017-01-21 01:30,113.9219,22.3094,62.60,46.40,55.37,20.00,5.00,0.00,30.33,M,4.97,M,FEW,M,M,M,3500.00,M,M,M,M,M,M,M,M,M,M,62.60,VHHH 210130Z 02005KT 350V060 8000 FEW035 17/08 Q1027 NOSIG
VHHH,2017-01-21 02:00,113.9219,22.3094,62.60,44.60,51.72,20.00,5.00,0.00,30.33,M,5.59,M,FEW,M,M,M,3500.00,M,M,M,M,M,M,M,M,M,M,62.60,VHHH 210200Z 02005KT 350V050 9000 FEW035 17/07 Q1027 NOSIG
VHHH,2017-01-21 02:30,113.9219,22.3094,62.60,46.40,55.37,340.00,5.00,0.00,30.33,M,5.59,M,FEW,M,M,M,3500.00,M,M,M,M,M,M,M,M,M,M,62.60,VHHH 210230Z 34005KT 9000 FEW035 17/08 Q1027 NOSIG
VHHH,2017-01-21 03:00,113.9219,22.3094,62.60,46.40,55.37,340.00,8.00,0.00,30.33,M,4.97,M,FEW,M,M,M,3500.00,M,M,M,M,M,M,M,M,M,M,62.60,VHHH 210300Z 34008KT 320V040 8000 FEW035 17/08 Q1027 NOSIG
VHHH,2017-01-21 03:30,113.9219,22.3094,64.40,46.40,51.98,340.00,7.00,0.00,30.33,M,4.97,M,FEW,M,M,M,3500.00,M,M,M,M,M,M,M,M,M,M,64.40,VHHH 210330Z 34007KT 8000 FEW035 18/08 Q1027 NOSIG
VHHH,2017-01-21 04:00,113.9219,22.3094,64.40,48.20,55.63,320.00,10.00,0.00,30.30,M,4.35,M,FEW,M,M,M,3500.00,M,M,M,M,M,M,M,M,M,M,64.40,VHHH 210400Z 32010KT 7000 FEW035 18/09 Q1026 NOSIG
VHHH,2017-01-21 04:30,113.9219,22.3094,62.60,46.40,55.37,320.00,11.00,0.00,30.27,M,4.35,M,FEW,M,M,M,3500.00,M,M,M,M,M,M,M,M,M,M,62.60,VHHH 210430Z 32011KT 7000 FEW035 17/08 Q1025 NOSIG
VHHH,2017-01-21 05:00,113.9219,22.3094,64.40,46.40,51.98,330.00,11.00,0.00,30.27,M,3.73,M,FEW,M,M,M,3500.00,M,M,M,M,M,M,M,M,M,M,64.40,VHHH 210500Z 33011KT 6000 FEW035 18/08 Q1025 NOSIG
VHHH,2017-01-21 05:30,113.9219,22.3094,64.40,46.40,51.98,330.00,11.00,0.00,30.24,M,3.73,M,FEW,M,M,M,3500.00,M,M,M,M,M,M,M,M,M,M,64.40,VHHH 210530Z 33011KT 6000 FEW035 18/08 Q1024 NOSIG
VHHH,2017-01-21 06:00,113.9219,22.3094,64.40,46.40,51.98,330.00,10.00,0.00,30.24,M,3.73,M,FEW,M,M,M,3500.00,M,M,M,M,M,M,M,M,M,M,64.40,VHHH 210600Z 33010KT 6000 FEW035 18/08 Q1024 NOSIG
VHHH,2017-01-21 06:30,113.9219,22.3094,66.20,46.40,48.83,320.00,8.00,0.00,30.21,M,3.73,M,FEW,M,M,M,3500.00,M,M,M,M,M,M,M,M,M,M,66.20,VHHH 210630Z 32008KT 6000 FEW035 19/08 Q1023 NOSIG
VHHH,2017-01-21 07:00,113.9219,22.3094,66.20,48.20,52.25,320.00,9.00,0.00,30.21,M,3.73,M,FEW,M,M,M,3500.00,M,M,M,M,M,M,M,M,M,M,66.20,VHHH 210700Z 32009KT 6000 FEW035 19/09 Q1023 NOSIG
VHHH,2017-01-21 07:30,113.9219,22.3094,66.20,48.20,52.25,330.00,9.00,0.00,30.21,M,3.73,M,FEW,M,M,M,3500.00,M,M,M,M,M,M,M,M,M,M,66.20,VHHH 210730Z 33009KT 6000 FEW035 19/09 Q1023 NOSIG
VHHH,2017-01-21 08:00,113.9219,22.3094,66.20,46.40,48.83,330.00,10.00,0.00,30.21,M,3.73,M,FEW,M,M,M,3500.00,M,M,M,M,M,M,M,M,M,M,66.20,VHHH 210800Z 33010KT 6000 FEW035 19/08 Q1023 NOSIG
VHHH,2017-01-21 08:30,113.9219,22.3094,66.20,48.20,52.25,330.00,10.00,0.00,30.21,M,3.73,M,NSC,M,M,M,M,M,M,M,M,M,M,M,M,M,M,66.20,VHHH 210830Z 33010KT 6000 NSC 19/09 Q1023 NOSIG
VHHH,2017-01-21 09:00,113.9219,22.3094,66.20,50.00,55.88,330.00,12.00,0.00,30.21,M,3.73,M,NSC,M,M,M,M,M,M,M,M,M,M,M,M,M,M,66.20,VHHH 210900Z 33012KT 6000 NSC 19/10 Q1023 NOSIG
VHHH,2017-01-21 09:30,113.9219,22.3094,66.20,48.20,52.25,330.00,14.00,0.00,30.21,M,3.73,M,NSC,M,M,M,M,M,M,M,M,M,M,M,M,M,M,66.20,VHHH 210930Z 33014KT 6000 NSC 19/09 Q1023 NOSIG
VHHH,2017-01-21 10:00,113.9219,22.3094,66.20,50.00,55.88,330.00,15.00,0.00,30.24,M,3.73,M,NSC,M,M,M,M,M,M,M,M,M,M,M,M,M,M,66.20,VHHH 211000Z 33015KT 6000 NSC 19/10 Q1024 NOSIG
VHHH,2017-01-21 10:30,113.9219,22.3094,66.20,48.20,52.25,350.00,14.00,0.00,30.24,M,4.97,M,NSC,M,M,M,M,M,M,M,M,M,M,M,M,M,M,66.20,VHHH 211030Z 35014KT 8000 NSC 19/09 Q1024 NOSIG
VHHH,2017-01-21 11:00,113.9219,22.3094,66.20,46.40,48.83,360.00,12.00,0.00,30.24,M,4.97,M,NSC,M,M,M,M,M,M,M,M,M,M,M,M,M,M,66.20,VHHH 211100Z 36012KT 8000 NSC 19/08 Q1024 NOSIG
VHHH,2017-01-21 11:30,113.9219,22.3094,66.20,48.20,52.25,360.00,10.00,0.00,30.24,M,4.97,M,NSC,M,M,M,M,M,M,M,M,M,M,M,M,M,M,66.20,VHHH 211130Z 36010KT 8000 NSC 19/09 Q1024 NOSIG
VHHH,2017-01-21 12:00,113.9219,22.3094,66.20,48.20,52.25,360.00,10.00,0.00,30.27,M,4.97,M,NSC,M,M,M,M,M,M,M,M,M,M,M,M,M,M,66.20,VHHH 211200Z 36010KT 8000 NSC 19/09 Q1025 NOSIG
VHHH,2017-01-21 12:30,113.9219,22.3094,66.20,48.20,52.25,20.00,8.00,0.00,30.27,M,4.97,M,NSC,M,M,M,M,M,M,M,M,M,M,M,M,M,M,66.20,VHHH 211230Z 02008KT 8000 NSC 19/09 Q1025 NOSIG
VHHH,2017-01-21 13:00,113.9219,22.3094,66.20,48.20,52.25,20.00,8.00,0.00,30.30,M,4.97,M,NSC,M,M,M,M,M,M,M,M,M,M,M,M,M,M,66.20,VHHH 211300Z 02008KT 8000 NSC 19/09 Q1026 NOSIG
VHHH,2017-01-21 13:30,113.9219,22.3094,64.40,48.20,55.63,40.00,7.00,0.00,30.30,M,4.97,M,NSC,M,M,M,M,M,M,M,M,M,M,M,M,M,M,64.40,VHHH 211330Z 04007KT 8000 NSC 18/09 Q1026 NOSIG
VHHH,2017-01-21 14:00,113.9219,22.3094,64.40,48.20,55.63,30.00,6.00,0.00,30.30,M,4.97,M,NSC,M,M,M,M,M,M,M,M,M,M,M,M,M,M,64.40,VHHH 211400Z 03006KT 8000 NSC 18/09 Q1026 NOSIG
VHHH,2017-01-21 14:30,113.9219,22.3094,64.40,46.40,51.98,50.00,5.00,0.00,30.30,M,4.97,M,NSC,M,M,M,M,M,M,M,M,M,M,M,M,M,M,64.40,VHHH 211430Z 05005KT 020V090 8000 NSC 18/08 Q1026 NOSIG
VHHH,2017-01-21 15:00,113.9219,22.3094,64.40,46.40,51.98,50.00,7.00,0.00,30.30,M,4.97,M,NSC,M,M,M,M,M,M,M,M,M,M,M,M,M,M,64.40,VHHH 211500Z 05007KT 8000 NSC 18/08 Q1026 NOSIG
VHHH,2017-01-21 15:30,113.9219,22.3094,64.40,46.40,51.98,30.00,7.00,0.00,30.30,M,4.97,M,NSC,M,M,M,M,M,M,M,M,M,M,M,M,M,M,64.40,VHHH 211530Z 03007KT 8000 NSC 18/08 Q1026 NOSIG
VHHH,2017-01-21 16:00,113.9219,22.3094,62.60,50.00,63.38,40.00,7.00,0.00,30.30,M,4.97,M,NSC,M,M,M,M,M,M,M,M,M,M,M,M,M,M,62.60,VHHH 211600Z 04007KT 8000 NSC 17/10 Q1026 NOSIG
VHHH,2017-01-21 16:30,113.9219,22.3094,62.60,48.20,59.26,40.00,9.00,0.00,30.30,M,4.97,M,NSC,M,M,M,M,M,M,M,M,M,M,M,M,M,M,62.60,VHHH 211630Z 04009KT 8000 NSC 17/09 Q1026 NOSIG
VHHH,2017-01-21 17:00,113.9219,22.3094,62.60,44.60,51.72,40.00,10.00,0.00,30.30,M,5.59,M,NSC,M,M,M,M,M,M,M,M,M,M,M,M,M,M,62.60,VHHH 211700Z 04010KT 9000 NSC 17/07 Q1026 NOSIG
VHHH,2017-01-21 17:30,113.9219,22.3094,62.60,39.20,42.00,50.00,11.00,0.00,30.30,M,5.59,M,NSC,M,M,M,M,M,M,M,M,M,M,M,M,M,M,62.60,VHHH 211730Z 05011KT 9000 NSC 17/04 Q1026 NOSIG
VHHH,2017-01-21 18:00,113.9219,22.3094,60.80,35.60,38.85,30.00,9.00,0.00,30.30,M,6.21,M,M,M,M,M,M,M,M,M,M,M,M,M,M,M,M,60.80,VHHH 211800Z 03009KT CAVOK 16/02 Q1026 NOSIG
VHHH,2017-01-21 18:30,113.9219,22.3094,60.80,37.40,41.71,40.00,8.00,0.00,30.30,M,6.21,M,M,M,M,M,M,M,M,M,M,M,M,M,M,M,M,60.80,VHHH 211830Z 04008KT CAVOK 16/03 Q1026 NOSIG
VHHH,2017-01-21 19:00,113.9219,22.3094,60.80,37.40,41.71,30.00,9.00,0.00,30.30,M,6.21,M,M,M,M,M,M,M,M,M,M,M,M,M,M,M,M,60.80,VHHH 211900Z 03009KT CAVOK 16/03 Q1026 NOSIG
VHHH,2017-01-21 19:30,113.9219,22.3094,59.00,35.60,41.42,40.00,9.00,0.00,30.30,M,6.21,M,M,M,M,M,M,M,M,M,M,M,M,M,M,M,M,59.00,VHHH 211930Z 04009KT 010V080 CAVOK 15/02 Q1026 NOSIG
VHHH,2017-01-21 20:00,113.9219,22.3094,59.00,35.60,41.42,50.00,10.00,0.00,30.33,M,6.21,M,M,M,M,M,M,M,M,M,M,M,M,M,M,M,M,59.00,VHHH 212000Z 05010KT CAVOK 15/02 Q1027 NOSIG
VHHH,2017-01-21 20:30,113.9219,22.3094,59.00,33.80,38.56,60.00,8.00,0.00,30.33,M,6.21,M,M,M,M,M,M,M,M,M,M,M,M,M,M,M,M,59.00,VHHH 212030Z 06008KT CAVOK 15/01 Q1027 NOSIG
VHHH,2017-01-21 21:00,113.9219,22.3094,59.00,33.80,38.56,60.00,6.00,0.00,30.33,M,6.21,M,M,M,M,M,M,M,M,M,M,M,M,M,M,M,M,59.00,VHHH 212100Z 06006KT CAVOK 15/01 Q1027 NOSIG
VHHH,2017-01-21 21:30,113.9219,22.3094,59.00,32.00,35.87,70.00,7.00,0.00,30.33,M,6.21,M,M,M,M,M,M,M,M,M,M,M,M,M,M,M,M,59.00,VHHH 212130Z 07007KT CAVOK 15/00 Q1027 NOSIG
VHHH,2017-01-21 22:00,113.9219,22.3094,57.20,30.20,35.57,40.00,11.00,0.00,30.33,M,6.21,M,M,M,M,M,M,M,M,M,M,M,M,M,M,M,M,57.20,VHHH 212200Z 04011KT CAVOK 14/M01 Q1027 NOSIG
VHHH,2017-01-21 22:30,113.9219,22.3094,57.20,30.20,35.57,40.00,15.00,0.00,30.33,M,6.21,M,M,M,M,M,M,M,M,M,M,M,M,M,M,M,M,57.20,VHHH 212230Z 04015KT CAVOK 14/M01 Q1027 NOSIG
VHHH,2017-01-21 23:00,113.9219,22.3094,57.20,32.00,38.26,60.00,11.00,0.00,30.33,M,6.21,M,M,M,M,M,M,M,M,M,M,M,M,M,M,M,M,57.20,VHHH 212300Z 06011KT CAVOK 14/M00 Q1027 NOSIG
VHHH,2017-01-21 23:30,113.9219,22.3094,57.20,28.40,33.05,50.00,11.00,0.00,30.36,M,6.21,M,M,M,M,M,M,M,M,M,M,M,M,M,M,M,M,57.20,VHHH 212330Z 05011KT CAVOK 14/M02 Q1028 NOSIG
VHHH,2017-01-22 00:00,113.9219,22.3094,57.20,32.00,38.26,50.00,13.00,0.00,30.36,M,6.21,M,M,M,M,M,M,M,M,M,M,M,M,M,M,M,M,57.20,VHHH 220000Z 05013KT CAVOK 14/M00 Q1028 NOSIG
VHHH,2017-01-22 00:30,113.9219,22.3094,59.00,32.00,35.87,50.00,11.00,0.00,30.36,M,6.21,M,M,M,M,M,M,M,M,M,M,M,M,M,M,M,M,59.00,VHHH 220030Z 05011KT CAVOK 15/M00 Q1028 NOSIG
VHHH,2017-01-22 01:00,113.9219,22.3094,59.00,33.80,38.56,60.00,10.00,0.00,30.39,M,6.21,M,M,M,M,M,M,M,M,M,M,M,M,M,M,M,M,59.00,VHHH 220100Z 06010KT CAVOK 15/01 Q1029 NOSIG
VHHH,2017-01-22 01:30,113.9219,22.3094,59.00,33.80,38.56,50.00,10.00,0.00,30.39,M,6.21,M,M,M,M,M,M,M,M,M,M,M,M,M,M,M,M,59.00,VHHH 220130Z 05010KT CAVOK 15/01 Q1029 NOSIG
VHHH,2017-01-22 02:00,113.9219,22.3094,60.80,33.80,36.16,60.00,6.00,0.00,30.39,M,6.21,M,M,M,M,M,M,M,M,M,M,M,M,M,M,M,M,60.80,VHHH 220200Z 06006KT CAVOK 16/01 Q1029 NOSIG
VHHH,2017-01-22 02:30,113.9219,22.3094,60.80,33.80,36.16,60.00,6.00,0.00,30.36,M,6.21,M,M,M,M,M,M,M,M,M,M,M,M,M,M,M,M,60.80,VHHH 220230Z 06006KT CAVOK 16/01 Q1028 NOSIG
VHHH,2017-01-22 03:00,113.9219,22.3094,62.60,33.80,33.93,70.00,5.00,0.00,30.36,M,6.21,M,M,M,M,M,M,M,M,M,M,M,M,M,M,M,M,62.60,VHHH 220300Z 07005KT 040V110 CAVOK 17/01 Q1028 NOSIG
VHHH,2017-01-22 03:30,113.9219,22.3094,62.60,35.60,36.45,M,3.00,0.00,30.36,M,6.21,M,M,M,M,M,M,M,M,M,M,M,M,M,M,M,M,62.60,VHHH 220330Z VRB03KT CAVOK 17/02 Q1028 NOSIG
VHHH,2017-01-22 04:00,113.9219,22.3094,64.40,37.40,36.74,350.00,5.00,0.00,30.33,M,6.21,M,M,M,M,M,M,M,M,M,M,M,M,M,M,M,M,64.40,VHHH 220400Z 35005KT 310V030 CAVOK 18/03 Q1027 NOSIG
VHHH,2017-01-22 04:30,113.9219,22.3094,64.40,39.20,39.43,350.00,6.00,0.00,30.30,M,6.21,M,M,M,M,M,M,M,M,M,M,M,M,M,M,M,M,64.40,VHHH 220430Z 35006KT 310V020 CAVOK 18/04 Q1026 NOSIG
VHHH,2017-01-22 05:00,113.9219,22.3094,66.20,39.20,37.03,320.00,7.00,0.00,30.30,M,6.21,M,M,M,M,M,M,M,M,M,M,M,M,M,M,M,M,66.20,VHHH 220500Z 32007KT CAVOK 19/04 Q1026 NOSIG
VHHH,2017-01-22 05:30,113.9219,22.3094,66.20,41.00,39.72,320.00,11.00,0.00,30.27,M,6.21,M,M,M,M,M,M,M,M,M,M,M,M,M,M,M,M,66.20,VHHH 220530Z 32011KT CAVOK 19/05 Q1025 NOSIG
VHHH,2017-01-22 06:00,113.9219,22.3094,68.00,41.00,37.32,310.00,9.00,0.00,30.27,M,5.59,M,NSC,M,M,M,M,M,M,M,M,M,M,M,M,M,M,68.00,VHHH 220600Z 31009KT 9000 NSC 20/05 Q1025 NOSIG
VHHH,2017-01-22 06:30,113.9219,22.3094,66.20,41.00,39.72,310.00,6.00,0.00,30.24,M,5.59,M,NSC,M,M,M,M,M,M,M,M,M,M,M,M,M,M,66.20,VHHH 220630Z 31006KT 290V350 9000 NSC 19/05 Q1024 NOSIG
VHHH,2017-01-22 07:00,113.9219,22.3094,66.20,41.00,39.72,310.00,8.00,0.00,30.24,M,5.59,M,NSC,M,M,M,M,M,M,M,M,M,M,M,M,M,M,66.20,VHHH 220700Z 31008KT 9000 NSC 19/05 Q1024 NOSIG
VHHH,2017-01-22 07:30,113.9219,22.3094,66.20,41.00,39.72,330.00,9.00,0.00,30.24,M,5.59,M,NSC,M,M,M,M,M,M,M,M,M,M,M,M,M,M,66.20,VHHH 220730Z 33009KT 9000 NSC 19/05 Q1024 NOSIG
VHHH,2017-01-22 08:00,113.9219,22.3094,66.20,39.20,37.03,320.00,9.00,0.00,30.21,M,6.21,M,M,M,M,M,M,M,M,M,M,M,M,M,M,M,M,66.20,VHHH 220800Z 32009KT CAVOK 19/04 Q1023 NOSIG
VHHH,2017-01-22 08:30,113.9219,22.3094,66.20,41.00,39.72,300.00,7.00,0.00,30.24,M,6.21,M,M,M,M,M,M,M,M,M,M,M,M,M,M,M,M,66.20,VHHH 220830Z 30007KT CAVOK 19/05 Q1024 NOSIG
VHHH,2017-01-22 09:00,113.9219,22.3094,66.20,39.20,37.03,290.00,4.00,0.00,30.24,M,6.21,M,M,M,M,M,M,M,M,M,M,M,M,M,M,M,M,66.20,VHHH 220900Z 29004KT CAVOK 19/04 Q1024 NOSIG
VHHH,2017-01-22 09:30,113.9219,22.3094,66.20,39.20,37.03,290.00,4.00,0.00,30.24,M,6.21,M,M,M,M,M,M,M,M,M,M,M,M,M,M,M,M,66.20,VHHH 220930Z 29004KT CAVOK 19/04 Q1024 NOSIG
VHHH,2017-01-22 10:00,113.9219,22.3094,66.20,39.20,37.03,280.00,4.00,0.00,30.24,M,6.21,M,M,M,M,M,M,M,M,M,M,M,M,M,M,M,M,66.20,VHHH 221000Z 28004KT CAVOK 19/04 Q1024 NOSIG
VHHH,2017-01-22 10:30,113.9219,22.3094,62.60,42.80,48.28,270.00,4.00,0.00,30.24,M,6.21,M,M,M,M,M,M,M,M,M,M,M,M,M,M,M,M,62.60,VHHH 221030Z 27004KT 240V310 CAVOK 17/06 Q1024 NOSIG
VHHH,2017-01-22 11:00,113.9219,22.3094,62.60,44.60,51.72,260.00,3.00,0.00,30.24,M,6.21,M,M,M,M,M,M,M,M,M,M,M,M,M,M,M,M,62.60,VHHH 221100Z 26003KT 230V290 CAVOK 17/07 Q1024 NOSIG
VHHH,2017-01-22 11:30,113.9219,22.3094,62.60,42.80,48.28,180.00,5.00,0.00,30.24,M,6.21,M,M,M,M,M,M,M,M,M,M,M,M,M,M,M,M,62.60,VHHH 221130Z 18005KT 160V230 CAVOK 17/06 Q1024 NOSIG
VHHH,2017-01-22 12:00,113.9219,22.3094,62.60,41.00,45.04,200.00,5.00,0.00,30.27,M,6.21,M,M,M,M,M,M,M,M,M,M,M,M,M,M,M,M,62.60,VHHH 221200Z 20005KT 170V240 CAVOK 17/05 Q1025 NOSIG
VHHH,2017-01-22 12:30,113.9219,22.3094,62.60,41.00,45.04,210.00,4.00,0.00,30.27,M,6.21,M,M,M,M,M,M,M,M,M,M,M,M,M,M,M,M,62.60,VHHH 221230Z 21004KT 170V260 CAVOK 17/05 Q1025 NOSIG
VHHH,2017-01-22 13:00,113.9219,22.3094,60.80,42.80,51.45,170.00,6.00,0.00,30.27,M,6.21,M,M,M,M,M,M,M,M,M,M,M,M,M,M,M,M,60.80,VHHH 221300Z 17006KT 160V220 CAVOK 16/06 Q1025 NOSIG
VHHH,2017-01-22 13:30,113.9219,22.3094,62.60,42.80,48.28,170.00,6.00,0.00,30.27,M,6.21,M,M,M,M,M,M,M,M,M,M,M,M,M,M,M,M,62.60,VHHH 221330Z 17006KT 150V210 CAVOK 17/06 Q1025 NOSIG
VHHH,2017-01-22 14:00,113.9219,22.3094,62.60,42.80,48.28,140.00,6.00,0.00,30.27,M,6.21,M,M,M,M,M,M,M,M,M,M,M,M,M,M,M,M,62.60,VHHH 221400Z 14006KT 100V210 CAVOK 17/06 Q1025 NOSIG
VHHH,2017-01-22 14:30,113.9219,22.3094,60.80,44.60,55.12,120.00,4.00,0.00,30.27,M,6.21,M,M,M,M,M,M,M,M,M,M,M,M,M,M,M,M,60.80,VHHH 221430Z 12004KT 090V190 CAVOK 16/07 Q1025 NOSIG
VHHH,2017-01-22 15:00,113.9219,22.3094,60.80,44.60,55.12,130.00,6.00,0.00,30.30,M,6.21,M,M,M,M,M,M,M,M,M,M,M,M,M,M,M,M,60.80,VHHH 221500Z 13006KT 110V170 CAVOK 16/07 Q1026 NOSIG
VHHH,2017-01-22 15:30,113.9219,22.3094,60.80,46.40,59.01,90.00,8.00,0.00,30.27,M,5.59,M,NSC,M,M,M,M,M,M,M,M,M,M,M,M,M,M,60.80,VHHH 221530Z 09008KT 9000 NSC 16/08 Q1025 NOSIG
VHHH,2017-01-22 16:00,113.9219,22.3094,59.00,46.40,62.92,100.00,7.00,0.00,30.30,M,5.59,M,NSC,M,M,M,M,M,M,M,M,M,M,M,M,M,M,59.00,VHHH 221600Z 10007KT 9000 NSC 15/08 Q1026 NOSIG
VHHH,2017-01-22 16:30,113.9219,22.3094,60.80,50.00,67.54,100.00,7.00,0.00,30.27,M,5.59,M,NSC,M,M,M,M,M,M,M,M,M,M,M,M,M,M,60.80,VHHH 221630Z 10007KT 9000 NSC 16/10 Q1025 NOSIG
VHHH,2017-01-22 17:00,113.9219,22.3094,60.80,50.00,67.54,130.00,3.00,0.00,30.27,M,5.59,M,NSC,M,M,M,M,M,M,M,M,M,M,M,M,M,M,60.80,VHHH 221700Z 13003KT 100V210 9000 NSC 16/10 Q1025 NOSIG
VHHH,2017-01-22 17:30,113.9219,22.3094,60.80,51.80,72.20,170.00,4.00,0.00,30.27,M,5.59,M,NSC,M,M,M,M,M,M,M,M,M,M,M,M,M,M,60.80,VHHH 221730Z 17004KT 070V240 9000 NSC 16/11 Q1025 NOSIG
VHHH,2017-01-22 18:00,113.9219,22.3094,60.80,51.80,72.20,100.00,6.00,0.00,30.27,M,5.59,M,NSC,M,M,M,M,M,M,M,M,M,M,M,M,M,M,60.80,VHHH 221800Z 10006KT 070V190 9000 NSC 16/11 Q1025 NOSIG
VHHH,2017-01-22 18:30,113.9219,22.3094,62.60,51.80,67.75,110.00,7.00,0.00,30.27,M,6.21,M,M,M,M,M,M,M,M,M,M,M,M,M,M,M,M,62.60,VHHH 221830Z 11007KT 070V130 CAVOK 17/11 Q1025 NOSIG
VHHH,2017-01-22 19:00,113.9219,22.3094,62.60,51.80,67.75,90.00,6.00,0.00,30.27,M,6.21,M,M,M,M,M,M,M,M,M,M,M,M,M,M,M,M,62.60,VHHH 221900Z 09006KT CAVOK 17/11 Q1025 NOSIG
VHHH,2017-01-22 19:30,113.9219,22.3094,60.80,51.80,72.20,90.00,5.00,0.00,30.27,M,6.21,M,M,M,M,M,M,M,M,M,M,M,M,M,M,M,M,60.80,VHHH 221930Z 09005KT CAVOK 16/11 Q1025 NOSIG
VHHH,2017-01-22 20:00,113.9219,22.3094,60.80,51.80,72.20,70.00,8.00,0.00,30.27,M,6.21,M,M,M,M,M,M,M,M,M,M,M,M,M,M,M,M,60.80,VHHH 222000Z 07008KT 040V100 CAVOK 16/11 Q1025 NOSIG
VHHH,2017-01-22 20:30,113.9219,22.3094,60.80,51.80,72.20,60.00,8.00,0.00,30.27,M,5.59,M,NSC,M,M,M,M,M,M,M,M,M,M,M,M,M,M,60.80,VHHH 222030Z 06008KT 9000 NSC 16/11 Q1025 NOSIG
VHHH,2017-01-22 21:00,113.9219,22.3094,60.80,51.80,72.20,60.00,6.00,0.00,30.27,M,5.59,M,NSC,M,M,M,M,M,M,M,M,M,M,M,M,M,M,60.80,VHHH 222100Z 06006KT 9000 NSC 16/11 Q1025 NOSIG
VHHH,2017-01-22 21:30,113.9219,22.3094,59.00,51.80,76.98,50.00,8.00,0.00,30.27,M,5.59,M,NSC,M,M,M,M,M,M,M,M,M,M,M,M,M,M,59.00,VHHH 222130Z 05008KT 9000 NSC 15/11 Q1025 NOSIG
VHHH,2017-01-22 22:00,113.9219,22.3094,59.00,51.80,76.98,50.00,8.00,0.00,30.27,M,4.97,M,NSC,M,M,M,M,M,M,M,M,M,M,M,M,M,M,59.00,VHHH 222200Z 05008KT 8000 NSC 15/11 Q1025 NOSIG
VHHH,2017-01-22 22:30,113.9219,22.3094,59.00,51.80,76.98,50.00,8.00,0.00,30.30,M,4.35,M,NSC,M,M,M,M,M,M,M,M,M,M,M,M,M,M,59.00,VHHH 222230Z 05008KT 7000 NSC 15/11 Q1026 NOSIG
VHHH,2017-01-22 23:00,113.9219,22.3094,59.00,50.00,72.01,40.00,10.00,0.00,30.30,M,4.35,M,NSC,M,M,M,M,M,M,M,M,M,M,M,M,M,M,59.00,VHHH 222300Z 04010KT 7000 NSC 15/10 Q1026 NOSIG
VHHH,2017-01-22 23:30,113.9219,22.3094,59.00,48.20,67.33,50.00,9.00,0.00,30.30,M,4.35,M,NSC,M,M,M,M,M,M,M,M,M,M,M,M,M,M,59.00,VHHH 222330Z 05009KT 7000 NSC 15/09 Q1026 NOSIG
VHHH,2017-01-23 00:00,113.9219,22.3094,59.00,46.40,62.92,40.00,10.00,0.00,30.33,M,4.97,M,NSC,M,M,M,M,M,M,M,M,M,M,M,M,M,M,59.00,VHHH 230000Z 04010KT 8000 NSC 15/08 Q1027 NOSIG
VHHH,2017-01-23 00:30,113.9219,22.3094,60.80,46.40,59.01,40.00,9.00,0.00,30.33,M,5.59,M,NSC,M,M,M,M,M,M,M,M,M,M,M,M,M,M,60.80,VHHH 230030Z 04009KT 9000 NSC 16/08 Q1027 NOSIG
VHHH,2017-01-23 01:00,113.9219,22.3094,62.60,46.40,55.37,50.00,6.00,0.00,30.33,M,5.59,M,NSC,M,M,M,M,M,M,M,M,M,M,M,M,M,M,62.60,VHHH 230100Z 05006KT 9000 NSC 17/08 Q1027 NOSIG
VHHH,2017-01-23 01:30,113.9219,22.3094,62.60,44.60,51.72,50.00,9.00,0.00,30.36,M,6.21,M,M,M,M,M,M,M,M,M,M,M,M,M,M,M,M,62.60,VHHH 230130Z 05009KT CAVOK 17/07 Q1028 NOSIG
VHHH,2017-01-23 02:00,113.9219,22.3094,62.60,44.60,51.72,60.00,6.00,0.00,30.36,M,6.21,M,M,M,M,M,M,M,M,M,M,M,M,M,M,M,M,62.60,VHHH 230200Z 06006KT CAVOK 17/07 Q1028 NOSIG
VHHH,2017-01-23 02:30,113.9219,22.3094,64.40,46.40,51.98,50.00,5.00,0.00,30.36,M,5.59,M,NSC,M,M,M,M,M,M,M,M,M,M,M,M,M,M,64.40,VHHH 230230Z 05005KT 9000 NSC 18/08 Q1028 NOSIG
VHHH,2017-01-23 03:00,113.9219,22.3094,66.20,48.20,52.25,360.00,5.00,0.00,30.33,M,6.21,M,M,M,M,M,M,M,M,M,M,M,M,M,M,M,M,66.20,VHHH 230300Z 36005KT CAVOK 19/09 Q1027 NOSIG
VHHH,2017-01-23 03:30,113.9219,22.3094,68.00,44.60,42.85,20.00,6.00,0.00,30.33,M,6.21,M,M,M,M,M,M,M,M,M,M,M,M,M,M,M,M,68.00,VHHH 230330Z 02006KT CAVOK 20/07 Q1027 NOSIG
VHHH,2017-01-23 04:00,113.9219,22.3094,68.00,42.80,40.00,60.00,6.00,0.00,30.30,M,6.21,M,M,M,M,M,M,M,M,M,M,M,M,M,M,M,M,68.00,VHHH 230400Z 06006KT CAVOK 20/06 Q1026 NOSIG
VHHH,2017-01-23 04:30,113.9219,22.3094,69.80,44.60,40.29,330.00,7.00,0.00,30.30,M,6.21,M,M,M,M,M,M,M,M,M,M,M,M,M,M,M,M,69.80,VHHH 230430Z 33007KT CAVOK 21/07 Q1026 NOSIG
VHHH,2017-01-23 05:00,113.9219,22.3094,68.00,44.60,42.85,330.00,5.00,0.00,30.27,M,6.21,M,M,M,M,M,M,M,M,M,M,M,M,M,M,M,M,68.00,VHHH 230500Z 33005KT CAVOK 20/07 Q1025 NOSIG
VHHH,2017-01-23 05:30,113.9219,22.3094,69.80,44.60,40.29,320.00,8.00,0.00,30.24,M,6.21,M,M,M,M,M,M,M,M,M,M,M,M,M,M,M,M,69.80,VHHH 230530Z 32008KT CAVOK 21/07 Q1024 NOSIG
VHHH,2017-01-23 06:00,113.9219,22.3094,66.20,44.60,45.60,320.00,9.00,0.00,30.24,M,6.21,M,M,M,M,M,M,M,M,M,M,M,M,M,M,M,M,66.20,VHHH 230600Z 32009KT CAVOK 19/07 Q1024 NOSIG
VHHH,2017-01-23 06:30,113.9219,22.3094,68.00,46.40,45.88,280.00,7.00,0.00,30.21,M,6.21,M,M,M,M,M,M,M,M,M,M,M,M,M,M,M,M,68.00,VHHH 230630Z 28007KT CAVOK 20/08 Q1023 NOSIG
VHHH,2017-01-23 07:00,113.9219,22.3094,68.00,46.40,45.88,280.00,7.00,0.00,30.21,M,6.21,M,M,M,M,M,M,M,M,M,M,M,M,M,M,M,M,68.00,VHHH 230700Z 28007KT CAVOK 20/08 Q1023 NOSIG
VHHH,2017-01-23 07:30,113.9219,22.3094,68.00,48.20,49.10,280.00,7.00,0.00,30.21,M,5.59,M,NSC,M,M,M,M,M,M,M,M,M,M,M,M,M,M,68.00,VHHH 230730Z 28007KT 9000 NSC 20/09 Q1023 NOSIG
VHHH,2017-01-23 08:00,113.9219,22.3094,66.20,50.00,55.88,290.00,7.00,0.00,30.21,M,5.59,M,NSC,M,M,M,M,M,M,M,M,M,M,M,M,M,M,66.20,VHHH 230800Z 29007KT 9000 NSC 19/10 Q1023 NOSIG
VHHH,2017-01-23 08:30,113.9219,22.3094,66.20,50.00,55.88,300.00,6.00,0.00,30.21,M,5.59,M,NSC,M,M,M,M,M,M,M,M,M,M,M,M,M,M,66.20,VHHH 230830Z 30006KT 9000 NSC 19/10 Q1023 NOSIG
VHHH,2017-01-23 09:00,113.9219,22.3094,66.20,50.00,55.88,330.00,6.00,0.00,30.21,M,5.59,M,NSC,M,M,M,M,M,M,M,M,M,M,M,M,M,M,66.20,VHHH 230900Z 33006KT 9000 NSC 19/10 Q1023 NOSIG
VHHH,2017-01-23 09:30,113.9219,22.3094,66.20,50.00,55.88,360.00,4.00,0.00,30.21,M,5.59,M,NSC,M,M,M,M,M,M,M,M,M,M,M,M,M,M,66.20,VHHH 230930Z 36004KT 260V070 9000 NSC 19/10 Q1023 NOSIG
VHHH,2017-01-23 10:00,113.9219,22.3094,66.20,50.00,55.88,100.00,7.00,0.00,30.21,M,6.21,M,M,M,M,M,M,M,M,M,M,M,M,M,M,M,M,66.20,VHHH 231000Z 10007KT 070V130 CAVOK 19/10 Q1023 NOSIG
VHHH,2017-01-23 10:30,113.9219,22.3094,66.20,50.00,55.88,100.00,9.00,0.00,30.24,M,6.21,M,M,M,M,M,M,M,M,M,M,M,M,M,M,M,M,66.20,VHHH 231030Z 10009KT CAVOK 19/10 Q1024 NOSIG
VHHH,2017-01-23 11:00,113.9219,22.3094,64.40,48.20,55.63,110.00,12.00,0.00,30.24,M,6.21,M,M,M,M,M,M,M,M,M,M,M,M,M,M,M,M,64.40,VHHH 231100Z 11012KT 090V160 CAVOK 18/09 Q1024 NOSIG
VHHH,2017-01-23 11:30,113.9219,22.3094,64.40,50.00,59.50,110.00,13.00,0.00,30.24,M,6.21,M,M,M,M,M,M,M,M,M,M,M,M,M,M,M,M,64.40,VHHH 231130Z 11013KT CAVOK 18/10 Q1024 NOSIG
VHHH,2017-01-23 12:00,113.9219,22.3094,62.60,51.80,67.75,110.00,12.00,0.00,30.27,M,6.21,M,M,M,M,M,M,M,M,M,M,M,M,M,M,M,M,62.60,VHHH 231200Z 11012KT CAVOK 17/11 Q1025 NOSIG
VHHH,2017-01-23 12:30,113.9219,22.3094,64.40,51.80,63.60,120.00,12.00,0.00,30.27,M,6.21,M,M,M,M,M,M,M,M,M,M,M,M,M,M,M,M,64.40,VHHH 231230Z 12012KT CAVOK 18/11 Q1025 NOSIG
VHHH,2017-01-23 13:00,113.9219,22.3094,62.60,51.80,67.75,100.00,12.00,0.00,30.27,M,6.21,M,M,M,M,M,M,M,M,M,M,M,M,M,M,M,M,62.60,VHHH 231300Z 10012KT CAVOK 17/11 Q1025 NOSIG
VHHH,2017-01-23 13:30,113.9219,22.3094,62.60,51.80,67.75,100.00,13.00,0.00,30.27,M,6.21,M,M,M,M,M,M,M,M,M,M,M,M,M,M,M,M,62.60,VHHH 231330Z 10013KT CAVOK 17/11 Q1025 NOSIG
VHHH,2017-01-23 14:00,113.9219,22.3094,62.60,51.80,67.75,100.00,15.00,0.00,30.27,M,6.21,M,FEW,M,M,M,3000.00,M,M,M,M,M,M,M,M,M,M,62.60,VHHH 231400Z 10015KT 9999 FEW030 17/11 Q1025 NOSIG
VHHH,2017-01-23 14:30,113.9219,22.3094,62.60,53.60,72.38,110.00,14.00,0.00,30.27,M,6.21,M,FEW,M,M,M,3000.00,M,M,M,M,M,M,M,M,M,M,62.60,VHHH 231430Z 11014KT 9999 FEW030 17/12 Q1025 NOSIG
VHHH,2017-01-23 15:00,113.9219,22.3094,62.60,51.80,67.75,110.00,14.00,0.00,30.30,M,6.21,M,FEW,M,M,M,3000.00,M,M,M,M,M,M,M,M,M,M,62.60,VHHH 231500Z 11014KT 9999 FEW030 17/11 Q1026 NOSIG
VHHH,2017-01-23 15:30,113.9219,22.3094,62.60,51.80,67.75,110.00,14.00,0.00,30.30,M,6.21,M,FEW,M,M,M,3000.00,M,M,M,M,M,M,M,M,M,M,62.60,VHHH 231530Z 11014KT 9999 FEW030 17/11 Q1026 NOSIG
VHHH,2017-01-23 16:00,113.9219,22.3094,62.60,51.80,67.75,110.00,14.00,0.00,30.27,M,6.21,M,FEW,M,M,M,3000.00,M,M,M,M,M,M,M,M,M,M,62.60,VHHH 231600Z 11014KT 9999 FEW030 17/11 Q1025 NOSIG
VHHH,2017-01-23 16:30,113.9219,22.3094,62.60,53.60,72.38,110.00,15.00,0.00,30.27,M,6.21,M,FEW,M,M,M,3000.00,M,M,M,M,M,M,M,M,M,M,62.60,VHHH 231630Z 11015KT 9999 FEW030 17/12 Q1025 NOSIG
VHHH,2017-01-23 17:00,113.9219,22.3094,62.60,51.80,67.75,110.00,15.00,0.00,30.27,M,5.59,M,FEW,M,M,M,3000.00,M,M,M,M,M,M,M,M,M,M,62.60,VHHH 231700Z 11015KT 9000 FEW030 17/11 Q1025 NOSIG
VHHH,2017-01-23 17:30,113.9219,22.3094,62.60,51.80,67.75,110.00,17.00,0.00,30.27,M,6.21,M,FEW,M,M,M,3000.00,M,M,M,M,M,M,M,M,M,M,62.60,VHHH 231730Z 11017KT 090V150 9999 FEW030 17/11 Q1025 NOSIG
VHHH,2017-01-23 18:00,113.9219,22.3094,62.60,51.80,67.75,100.00,12.00,0.00,30.27,M,6.21,M,FEW,M,M,M,3000.00,M,M,M,M,M,M,M,M,M,M,62.60,VHHH 231800Z 10012KT 9999 FEW030 17/11 Q1025 NOSIG
VHHH,2017-01-23 18:30,113.9219,22.3094,62.60,51.80,67.75,90.00,9.00,0.00,30.27,M,6.21,M,FEW,M,M,M,3000.00,M,M,M,M,M,M,M,M,M,M,62.60,VHHH 231830Z 09009KT 070V130 9999 FEW030 17/11 Q1025 NOSIG
VHHH,2017-01-23 19:00,113.9219,22.3094,62.60,51.80,67.75,110.00,10.00,0.00,30.27,M,6.21,M,FEW,M,M,M,3000.00,M,M,M,M,M,M,M,M,M,M,62.60,VHHH 231900Z 11010KT 9999 FEW030 17/11 Q1025 NOSIG
VHHH,2017-01-23 19:30,113.9219,22.3094,62.60,51.80,67.75,100.00,10.00,0.00,30.24,M,6.21,M,FEW,M,M,M,3000.00,M,M,M,M,M,M,M,M,M,M,62.60,VHHH 231930Z 10010KT 9999 FEW030 17/11 Q1024 NOSIG
VHHH,2017-01-23 20:00,113.9219,22.3094,62.60,51.80,67.75,100.00,10.00,0.00,30.24,M,6.21,M,FEW,M,M,M,3000.00,M,M,M,M,M,M,M,M,M,M,62.60,VHHH 232000Z 10010KT 9999 FEW030 17/11 Q1024 NOSIG
VHHH,2017-01-23 20:30,113.9219,22.3094,62.60,51.80,67.75,100.00,11.00,0.00,30.24,M,6.21,M,FEW,M,M,M,3000.00,M,M,M,M,M,M,M,M,M,M,62.60,VHHH 232030Z 10011KT 9999 FEW030 17/11 Q1024 NOSIG
VHHH,2017-01-23 21:00,113.9219,22.3094,62.60,51.80,67.75,100.00,8.00,0.00,30.24,M,6.21,M,FEW,M,M,M,3000.00,M,M,M,M,M,M,M,M,M,M,62.60,VHHH 232100Z 10008KT 070V140 9999 FEW030 17/11 Q1024 NOSIG
VHHH,2017-01-23 21:30,113.9219,22.3094,62.60,51.80,67.75,90.00,8.00,0.00,30.24,M,6.21,M,FEW,M,M,M,3000.00,M,M,M,M,M,M,M,M,M,M,62.60,VHHH 232130Z 09008KT 070V130 9999 FEW030 17/11 Q1024 NOSIG
VHHH,2017-01-23 22:00,113.9219,22.3094,60.80,51.80,72.20,100.00,9.00,0.00,30.24,M,6.21,M,FEW,M,M,M,3000.00,M,M,M,M,M,M,M,M,M,M,60.80,VHHH 232200Z 10009KT 070V160 9999 FEW030 16/11 Q1024 NOSIG
VHHH,2017-01-23 22:30,113.9219,22.3094,60.80,51.80,72.20,90.00,7.00,0.00,30.27,M,6.21,M,FEW,M,M,M,3000.00,M,M,M,M,M,M,M,M,M,M,60.80,VHHH 232230Z 09007KT 070V150 9999 FEW030 16/11 Q1025 NOSIG
VHHH,2017-01-23 23:00,113.9219,22.3094,60.80,51.80,72.20,90.00,7.00,0.00,30.27,M,6.21,M,FEW,M,M,M,3000.00,M,M,M,M,M,M,M,M,M,M,60.80,VHHH 232300Z 09007KT 9999 FEW030 16/11 Q1025 NOSIG
VHHH,2017-01-23 23:30,113.9219,22.3094,62.60,51.80,67.75,80.00,7.00,0.00,30.27,M,6.21,M,FEW,M,M,M,3000.00,M,M,M,M,M,M,M,M,M,M,62.60,VHHH 232330Z 08007KT 9999 FEW030 17/11 Q1025 NOSIG
VHHH,2017-01-24 00:00,113.9219,22.3094,62.60,51.80,67.75,80.00,9.00,0.00,30.30,M,6.21,M,FEW,M,M,M,3000.00,M,M,M,M,M,M,M,M,M,M,62.60,VHHH 240000Z 08009KT 9999 FEW030 17/11 Q1026 NOSIG
VHHH,2017-01-24 00:30,113.9219,22.3094,62.60,51.80,67.75,80.00,10.00,0.00,30.30,M,6.21,M,FEW,M,M,M,3000.00,M,M,M,M,M,M,M,M,M,M,62.60,VHHH 240030Z 08010KT 9999 FEW030 17/11 Q1026 NOSIG
VHHH,2017-01-24 01:00,113.9219,22.3094,64.40,51.80,63.60,80.00,10.00,0.00,30.30,M,6.21,M,FEW,M,M,M,3000.00,M,M,M,M,M,M,M,M,M,M,64.40,VHHH 240100Z 08010KT 060V120 9999 FEW030 18/11 Q1026 NOSIG
VHHH,2017-01-24 01:30,113.9219,22.3094,64.40,51.80,63.60,100.00,12.00,0.00,30.30,M,5.59,M,FEW,M,M,M,3000.00,M,M,M,M,M,M,M,M,M,M,64.40,VHHH 240130Z 10012KT 9000 FEW030 18/11 Q1026 NOSIG
VHHH,2017-01-24 02:00,113.9219,22.3094,64.40,51.80,63.60,110.00,10.00,0.00,30.30,M,5.59,M,FEW,M,M,M,3000.00,M,M,M,M,M,M,M,M,M,M,64.40,VHHH 240200Z 11010KT 9000 FEW030 18/11 Q1026 NOSIG
VHHH,2017-01-24 02:30,113.9219,22.3094,66.20,51.80,59.74,70.00,7.00,0.00,30.30,M,5.59,M,FEW,M,M,M,3000.00,M,M,M,M,M,M,M,M,M,M,66.20,VHHH 240230Z 07007KT 040V100 9000 FEW030 19/11 Q1026 NOSIG
VHHH,2017-01-24 03:00,113.9219,22.3094,66.20,51.80,59.74,70.00,6.00,0.00,30.30,M,6.21,M,M,M,M,M,M,M,M,M,M,M,M,M,M,M,M,66.20,VHHH 240300Z 07006KT CAVOK 19/11 Q1026 NOSIG
VHHH,2017-01-24 03:30,113.9219,22.3094,69.80,50.00,49.37,30.00,4.00,0.00,30.30,M,6.21,M,M,M,M,M,M,M,M,M,M,M,M,M,M,M,M,69.80,VHHH 240330Z 03004KT 330V060 CAVOK 21/10 Q1026 NOSIG
VHHH,2017-01-24 04:00,113.9219,22.3094,66.20,51.80,59.74,330.00,6.00,0.00,30.27,M,6.21,M,M,M,M,M,M,M,M,M,M,M,M,M,M,M,M,66.20,VHHH 240400Z 33006KT CAVOK 19/11 Q1025 NOSIG
VHHH,2017-01-24 04:30,113.9219,22.3094,68.00,51.80,56.13,340.00,4.00,0.00,30.27,M,5.59,M,NSC,M,M,M,M,M,M,M,M,M,M,M,M,M,M,68.00,VHHH 240430Z 34004KT 290V040 9000 NSC 20/11 Q1025 NOSIG
VHHH,2017-01-24 05:00,113.9219,22.3094,68.00,51.80,56.13,330.00,6.00,0.00,30.24,M,6.21,M,M,M,M,M,M,M,M,M,M,M,M,M,M,M,M,68.00,VHHH 240500Z 33006KT CAVOK 20/11 Q1024 NOSIG
VHHH,2017-01-24 05:30,113.9219,22.3094,69.80,51.80,52.77,20.00,6.00,0.00,30.24,M,5.59,M,FEW,M,M,M,4500.00,M,M,M,M,M,M,M,M,M,M,69.80,VHHH 240530Z 02006KT 9000 FEW045 21/11 Q1024 NOSIG
VHHH,2017-01-24 06:00,113.9219,22.3094,69.80,48.20,46.16,350.00,7.00,0.00,30.21,M,6.21,M,FEW,M,M,M,4500.00,M,M,M,M,M,M,M,M,M,M,69.80,VHHH 240600Z 35007KT 330V030 9999 FEW045 21/09 Q1023 NOSIG
VHHH,2017-01-24 06:30,113.9219,22.3094,69.80,48.20,46.16,M,7.00,0.00,30.21,M,6.21,M,FEW,M,M,M,4500.00,M,M,M,M,M,M,M,M,M,M,69.80,VHHH 240630Z VRB07KT 9999 FEW045 21/09 Q1023 NOSIG
VHHH,2017-01-24 06:45,113.9219,22.3094,69.80,53.60,56.38,270.00,10.00,0.00,30.21,M,5.59,M,FEW,M,M,M,4000.00,M,M,M,M,M,M,M,M,M,M,69.80,VHHH 240645Z 27010KT 9000 FEW040 21/12 Q1023 NOSIG
VHHH,2017-01-24 07:00,113.9219,22.3094,69.80,51.80,52.77,270.00,7.00,0.00,30.21,M,4.97,M,FEW,M,M,M,4000.00,M,M,M,M,M,M,M,M,M,M,69.80,VHHH 240700Z 27007KT 8000 FEW040 21/11 Q1023 NOSIG
VHHH,2017-01-24 07:30,113.9219,22.3094,68.00,51.80,56.13,260.00,9.00,0.00,30.21,M,4.97,M,FEW,M,M,M,4000.00,M,M,M,M,M,M,M,M,M,M,68.00,VHHH 240730Z 26009KT 8000 FEW040 20/11 Q1023 NOSIG
VHHH,2017-01-24 08:00,113.9219,22.3094,68.00,51.80,56.13,270.00,7.00,0.00,30.21,M,4.97,M,FEW,M,M,M,4000.00,M,M,M,M,M,M,M,M,M,M,68.00,VHHH 240800Z 27007KT 8000 FEW040 20/11 Q1023 NOSIG
VHHH,2017-01-24 08:30,113.9219,22.3094,66.20,51.80,59.74,280.00,5.00,0.00,30.21,M,4.97,M,FEW,M,M,M,4000.00,M,M,M,M,M,M,M,M,M,M,66.20,VHHH 240830Z 28005KT 8000 FEW040 19/11 Q1023 NOSIG
VHHH,2017-01-24 09:00,113.9219,22.3094,68.00,51.80,56.13,280.00,4.00,0.00,30.21,M,4.97,M,FEW,M,M,M,4500.00,M,M,M,M,M,M,M,M,M,M,68.00,VHHH 240900Z 28004KT 8000 FEW045 20/11 Q1023 BECMG 09010KT
VHHH,2017-01-24 09:30,113.9219,22.3094,68.00,50.00,52.51,290.00,3.00,0.00,30.21,M,4.97,M,FEW,M,M,M,4500.00,M,M,M,M,M,M,M,M,M,M,68.00,VHHH 240930Z 29003KT 250V320 8000 FEW045 20/10 Q1023 BECMG 09010KT
VHHH,2017-01-24 09:51,113.9219,22.3094,68.00,50.00,52.51,100.00,10.00,0.00,30.24,M,5.59,M,FEW,M,M,M,4500.00,M,M,M,M,M,M,M,M,M,M,68.00,VHHH 240951Z 10010KT 9000 FEW045 20/10 Q1024 NOSIG
VHHH,2017-01-24 10:00,113.9219,22.3094,66.20,50.00,55.88,100.00,10.00,0.00,30.24,M,5.59,M,FEW,M,M,M,4500.00,M,M,M,M,M,M,M,M,M,M,66.20,VHHH 241000Z 10010KT 9000 FEW045 19/10 Q1024 NOSIG
VHHH,2017-01-24 10:30,113.9219,22.3094,66.20,50.00,55.88,110.00,11.00,0.00,30.24,M,6.21,M,FEW,M,M,M,4500.00,M,M,M,M,M,M,M,M,M,M,66.20,VHHH 241030Z 11011KT 9999 FEW045 19/10 Q1024 NOSIG
VHHH,2017-01-24 11:00,113.9219,22.3094,66.20,51.80,59.74,110.00,13.00,0.00,30.24,M,6.21,M,FEW,M,M,M,4500.00,M,M,M,M,M,M,M,M,M,M,66.20,VHHH 241100Z 11013KT 9999 FEW045 19/11 Q1024 NOSIG
VHHH,2017-01-24 11:30,113.9219,22.3094,64.40,53.60,67.95,110.00,16.00,0.00,30.24,M,6.21,M,FEW,M,M,M,4500.00,M,M,M,M,M,M,M,M,M,M,64.40,VHHH 241130Z 11016KT 9999 FEW045 18/12 Q1024 NOSIG
VHHH,2017-01-24 12:00,113.9219,22.3094,64.40,53.60,67.95,110.00,16.00,0.00,30.24,M,6.21,M,FEW,M,M,M,4500.00,M,M,M,M,M,M,M,M,M,M,64.40,VHHH 241200Z 11016KT 9999 FEW045 18/12 Q1024 NOSIG
VHHH,2017-01-24 12:30,113.9219,22.3094,64.40,53.60,67.95,100.00,14.00,0.00,30.27,M,6.21,M,FEW,M,M,M,4500.00,M,M,M,M,M,M,M,M,M,M,64.40,VHHH 241230Z 10014KT 9999 FEW045 18/12 Q1025 NOSIG
VHHH,2017-01-24 13:00,113.9219,22.3094,64.40,53.60,67.95,100.00,13.00,0.00,30.27,M,6.21,M,FEW,M,M,M,4500.00,M,M,M,M,M,M,M,M,M,M,64.40,VHHH 241300Z 10013KT 9999 FEW045 18/12 Q1025 NOSIG
VHHH,2017-01-24 13:30,113.9219,22.3094,64.40,53.60,67.95,100.00,14.00,0.00,30.27,M,6.21,M,FEW,M,M,M,4500.00,M,M,M,M,M,M,M,M,M,M,64.40,VHHH 241330Z 10014KT 9999 FEW045 18/12 Q1025 NOSIG
VHHH,2017-01-24 14:00,113.9219,22.3094,64.40,55.40,72.56,100.00,13.00,0.00,30.27,M,6.21,M,FEW,M,M,M,4500.00,M,M,M,M,M,M,M,M,M,M,64.40,VHHH 241400Z 10013KT 070V130 9999 FEW045 18/13 Q1025 NOSIG
VHHH,2017-01-24 14:30,113.9219,22.3094,64.40,53.60,67.95,110.00,13.00,0.00,30.30,M,6.21,M,FEW,M,M,M,2500.00,M,M,M,M,M,M,M,M,M,M,64.40,VHHH 241430Z 11013KT 9999 FEW025 18/12 Q1026 NOSIG
VHHH,2017-01-24 15:00,113.9219,22.3094,64.40,53.60,67.95,100.00,12.00,0.00,30.30,M,6.21,M,FEW,M,M,M,2500.00,M,M,M,M,M,M,M,M,M,M,64.40,VHHH 241500Z 10012KT 9999 FEW025 18/12 Q1026 NOSIG
VHHH,2017-01-24 15:30,113.9219,22.3094,64.40,53.60,67.95,90.00,17.00,0.00,30.30,M,6.21,M,FEW,M,M,M,2500.00,M,M,M,M,M,M,M,M,M,M,64.40,VHHH 241530Z 09017KT 9999 FEW025 18/12 Q1026 NOSIG
VHHH,2017-01-24 16:00,113.9219,22.3094,64.40,53.60,67.95,100.00,15.00,0.00,30.30,M,6.21,M,M,M,M,M,M,M,M,M,M,M,M,M,M,M,M,64.40,VHHH 241600Z 10015KT CAVOK 18/12 Q1026 NOSIG
VHHH,2017-01-24 16:30,113.9219,22.3094,64.40,53.60,67.95,90.00,14.00,0.00,30.30,M,6.21,M,FEW,M,M,M,3000.00,M,M,M,M,M,M,M,M,M,M,64.40,VHHH 241630Z 09014KT 9999 FEW030 18/12 Q1026 NOSIG
VHHH,2017-01-24 17:00,113.9219,22.3094,64.40,53.60,67.95,90.00,11.00,0.00,30.30,M,6.21,M,FEW,M,M,M,2500.00,M,M,M,M,M,M,M,M,M,M,64.40,VHHH 241700Z 09011KT 9999 FEW025 18/12 Q1026 NOSIG
VHHH,2017-01-24 17:30,113.9219,22.3094,64.40,53.60,67.95,100.00,10.00,0.00,30.30,M,6.21,M,FEW,M,M,M,2500.00,M,M,M,M,M,M,M,M,M,M,64.40,VHHH 241730Z 10010KT 9999 FEW025 18/12 Q1026 NOSIG
VHHH,2017-01-24 18:00,113.9219,22.3094,64.40,53.60,67.95,100.00,7.00,0.00,30.30,M,6.21,M,FEW,M,M,M,2500.00,M,M,M,M,M,M,M,M,M,M,64.40,VHHH 241800Z 10007KT 9999 FEW025 18/12 Q1026 NOSIG
VHHH,2017-01-24 18:30,113.9219,22.3094,64.40,53.60,67.95,100.00,10.00,0.00,30.30,M,6.21,M,FEW,M,M,M,2500.00,M,M,M,M,M,M,M,M,M,M,64.40,VHHH 241830Z 10010KT 9999 FEW025 18/12 Q1026 NOSIG
VHHH,2017-01-24 19:00,113.9219,22.3094,62.60,53.60,72.38,80.00,7.00,0.00,30.30,M,6.21,M,FEW,M,M,M,3500.00,M,M,M,M,M,M,M,M,M,M,62.60,VHHH 241900Z 08007KT 9999 FEW035 17/12 Q1026 NOSIG
VHHH,2017-01-24 19:30,113.9219,22.3094,62.60,53.60,72.38,110.00,7.00,0.00,30.30,M,6.21,M,FEW,M,M,M,3500.00,M,M,M,M,M,M,M,M,M,M,62.60,VHHH 241930Z 11007KT 9999 FEW035 17/12 Q1026 NOSIG
VHHH,2017-01-24 20:00,113.9219,22.3094,62.60,53.60,72.38,110.00,7.00,0.00,30.30,M,6.21,M,FEW,M,M,M,3500.00,M,M,M,M,M,M,M,M,M,M,62.60,VHHH 242000Z 11007KT 9999 FEW035 17/12 Q1026 NOSIG
VHHH,2017-01-24 20:30,113.9219,22.3094,62.60,53.60,72.38,100.00,9.00,0.00,30.27,M,6.21,M,FEW,M,M,M,3500.00,M,M,M,M,M,M,M,M,M,M,62.60,VHHH 242030Z 10009KT 9999 FEW035 17/12 Q1025 NOSIG
VHHH,2017-01-24 21:00,113.9219,22.3094,62.60,53.60,72.38,80.00,9.00,0.00,30.27,M,6.21,M,FEW,M,M,M,3500.00,M,M,M,M,M,M,M,M,M,M,62.60,VHHH 242100Z 08009KT 9999 FEW035 17/12 Q1025 NOSIG
VHHH,2017-01-24 21:30,113.9219,22.3094,62.60,53.60,72.38,100.00,7.00,0.00,30.27,M,6.21,M,FEW,M,M,M,3500.00,M,M,M,M,M,M,M,M,M,M,62.60,VHHH 242130Z 10007KT 9999 FEW035 17/12 Q1025 NOSIG
VHHH,2017-01-24 22:00,113.9219,22.3094,62.60,53.60,72.38,100.00,9.00,0.00,30.27,M,6.21,M,FEW,M,M,M,3500.00,M,M,M,M,M,M,M,M,M,M,62.60,VHHH 242200Z 10009KT 9999 FEW035 17/12 Q1025 NOSIG
VHHH,2017-01-24 22:30,113.9219,22.3094,62.60,53.60,72.38,100.00,7.00,0.00,30.27,M,6.21,M,FEW,M,M,M,3500.00,M,M,M,M,M,M,M,M,M,M,62.60,VHHH 242230Z 10007KT 9999 FEW035 17/12 Q1025 NOSIG
VHHH,2017-01-24 23:00,113.9219,22.3094,62.60,53.60,72.38,80.00,6.00,0.00,30.30,M,6.21,M,FEW,M,M,M,4500.00,M,M,M,M,M,M,M,M,M,M,62.60,VHHH 242300Z 08006KT 9999 FEW045 17/12 Q1026 NOSIG
VHHH,2017-01-24 23:30,113.9219,22.3094,62.60,53.60,72.38,80.00,7.00,0.00,30.30,M,6.21,M,M,M,M,M,M,M,M,M,M,M,M,M,M,M,M,62.60,VHHH 242330Z 08007KT CAVOK 17/12 Q1026 NOSIG
VHHH,2017-01-25 00:00,113.9219,22.3094,62.60,53.60,72.38,90.00,6.00,0.00,30.30,M,6.21,M,FEW,M,M,M,4500.00,M,M,M,M,M,M,M,M,M,M,62.60,VHHH 250000Z 09006KT 9999 FEW045 17/12 Q1026 NOSIG
VHHH,2017-01-25 00:30,113.9219,22.3094,64.40,53.60,67.95,80.00,5.00,0.00,30.33,M,6.21,M,M,M,M,M,M,M,M,M,M,M,M,M,M,M,M,64.40,VHHH 250030Z 08005KT CAVOK 18/12 Q1027 NOSIG
VHHH,2017-01-25 01:00,113.9219,22.3094,66.20,53.60,63.82,70.00,5.00,0.00,30.33,M,6.21,M,M,M,M,M,M,M,M,M,M,M,M,M,M,M,M,66.20,VHHH 250100Z 07005KT CAVOK 19/12 Q1027 NOSIG
VHHH,2017-01-25 01:30,113.9219,22.3094,66.20,53.60,63.82,M,3.00,0.00,30.33,M,6.21,M,M,M,M,M,M,M,M,M,M,M,M,M,M,M,M,66.20,VHHH 250130Z VRB03KT 310V040 CAVOK 19/12 Q1027 NOSIG
VHHH,2017-01-25 02:00,113.9219,22.3094,66.20,51.80,59.74,10.00,3.00,0.00,30.33,M,6.21,M,M,M,M,M,M,M,M,M,M,M,M,M,M,M,M,66.20,VHHH 250200Z 01003KT CAVOK 19/11 Q1027 NOSIG
VHHH,2017-01-25 02:30,113.9219,22.3094,68.00,51.80,56.13,340.00,5.00,0.00,30.33,M,6.21,M,FEW,M,M,M,3000.00,M,M,M,M,M,M,M,M,M,M,68.00,VHHH 250230Z 34005KT 9999 FEW030 20/11 Q1027 NOSIG
VHHH,2017-01-25 03:00,113.9219,22.3094,66.20,53.60,63.82,330.00,8.00,0.00,30.33,M,5.59,M,FEW,M,M,M,3000.00,M,M,M,M,M,M,M,M,M,M,66.20,VHHH 250300Z 33008KT 9000 FEW030 19/12 Q1027 NOSIG
VHHH,2017-01-25 03:30,113.9219,22.3094,68.00,53.60,59.97,300.00,6.00,0.00,30.30,M,6.21,M,FEW,M,M,M,3000.00,M,M,M,M,M,M,M,M,M,M,68.00,VHHH 250330Z 30006KT 9999 FEW030 20/12 Q1026 NOSIG
VHHH,2017-01-25 04:00,113.9219,22.3094,68.00,55.40,64.04,300.00,7.00,0.00,30.30,M,6.21,M,FEW,M,M,M,3000.00,M,M,M,M,M,M,M,M,M,M,68.00,VHHH 250400Z 30007KT 9999 FEW030 20/13 Q1026 NOSIG
VHHH,2017-01-25 04:30,113.9219,22.3094,68.00,53.60,59.97,300.00,6.00,0.00,30.27,M,5.59,M,NSC,M,M,M,M,M,M,M,M,M,M,M,M,M,M,68.00,VHHH 250430Z 30006KT 9000 NSC 20/12 Q1025 NOSIG
VHHH,2017-01-25 05:00,113.9219,22.3094,69.80,53.60,56.38,280.00,5.00,0.00,30.24,M,5.59,M,NSC,M,M,M,M,M,M,M,M,M,M,M,M,M,M,69.80,VHHH 250500Z 28005KT 9000 NSC 21/12 Q1024 NOSIG
VHHH,2017-01-25 05:30,113.9219,22.3094,69.80,53.60,56.38,300.00,5.00,0.00,30.24,M,4.97,M,NSC,M,M,M,M,M,M,M,M,M,M,M,M,M,M,69.80,VHHH 250530Z 30005KT 8000 NSC 21/12 Q1024 NOSIG
VHHH,2017-01-25 06:00,113.9219,22.3094,71.60,53.60,53.03,270.00,7.00,0.00,30.21,M,4.97,M,NSC,M,M,M,M,M,M,M,M,M,M,M,M,M,M,71.60,VHHH 250600Z 27007KT 8000 NSC 22/12 Q1023 NOSIG
VHHH,2017-01-25 06:30,113.9219,22.3094,69.80,55.40,60.21,270.00,9.00,0.00,30.21,M,4.97,M,NSC,M,M,M,M,M,M,M,M,M,M,M,M,M,M,69.80,VHHH 250630Z 27009KT 8000 NSC 21/13 Q1023 NOSIG
VHHH,2017-01-25 07:00,113.9219,22.3094,68.00,55.40,64.04,250.00,12.00,0.00,30.21,M,5.59,M,NSC,M,M,M,M,M,M,M,M,M,M,M,M,M,M,68.00,VHHH 250700Z 25012KT 9000 NSC 20/13 Q1023 NOSIG
VHHH,2017-01-25 07:30,113.9219,22.3094,69.80,55.40,60.21,250.00,11.00,0.00,30.21,M,6.21,M,M,M,M,M,M,M,M,M,M,M,M,M,M,M,M,69.80,VHHH 250730Z 25011KT CAVOK 21/13 Q1023 NOSIG
VHHH,2017-01-25 08:00,113.9219,22.3094,69.80,55.40,60.21,240.00,9.00,0.00,30.21,M,6.21,M,M,M,M,M,M,M,M,M,M,M,M,M,M,M,M,69.80,VHHH 250800Z 24009KT CAVOK 21/13 Q1023 NOSIG
VHHH,2017-01-25 08:30,113.9219,22.3094,69.80,55.40,60.21,230.00,6.00,0.00,30.21,M,6.21,M,M,M,M,M,M,M,M,M,M,M,M,M,M,M,M,69.80,VHHH 250830Z 23006KT CAVOK 21/13 Q1023 NOSIG
VHHH,2017-01-25 09:00,113.9219,22.3094,69.80,55.40,60.21,280.00,3.00,0.00,30.21,M,6.21,M,M,M,M,M,M,M,M,M,M,M,M,M,M,M,M,69.80,VHHH 250900Z 28003KT 220V030 CAVOK 21/13 Q1023 NOSIG
VHHH,2017-01-25 09:30,113.9219,22.3094,68.00,55.40,64.04,90.00,9.00,0.00,30.21,M,6.21,M,M,M,M,M,M,M,M,M,M,M,M,M,M,M,M,68.00,VHHH 250930Z 09009KT CAVOK 20/13 Q1023 NOSIG
VHHH,2017-01-25 10:00,113.9219,22.3094,68.00,55.40,64.04,100.00,10.00,0.00,30.21,M,6.21,M,M,M,M,M,M,M,M,M,M,M,M,M,M,M,M,68.00,VHHH 251000Z 10010KT CAVOK 20/13 Q1023 NOSIG
VHHH,2017-01-25 10:30,113.9219,22.3094,68.00,55.40,64.04,100.00,10.00,0.00,30.21,M,6.21,M,M,M,M,M,M,M,M,M,M,M,M,M,M,M,M,68.00,VHHH 251030Z 10010KT CAVOK 20/13 Q1023 NOSIG
VHHH,2017-01-25 11:00,113.9219,22.3094,64.40,57.20,77.45,90.00,9.00,0.00,30.24,M,6.21,M,M,M,M,M,M,M,M,M,M,M,M,M,M,M,M,64.40,VHHH 251100Z 09009KT CAVOK 18/14 Q1024 NOSIG
VHHH,2017-01-25 11:30,113.9219,22.3094,66.20,55.40,68.15,100.00,9.00,0.00,30.24,M,6.21,M,M,M,M,M,M,M,M,M,M,M,M,M,M,M,M,66.20,VHHH 251130Z 10009KT CAVOK 19/13 Q1024 NOSIG
VHHH,2017-01-25 12:00,113.9219,22.3094,66.20,55.40,68.15,100.00,10.00,0.00,30.24,M,6.21,M,M,M,M,M,M,M,M,M,M,M,M,M,M,M,M,66.20,VHHH 251200Z 10010KT CAVOK 19/13 Q1024 NOSIG
VHHH,2017-01-25 12:30,113.9219,22.3094,64.40,55.40,72.56,90.00,11.00,0.00,30.27,M,6.21,M,M,M,M,M,M,M,M,M,M,M,M,M,M,M,M,64.40,VHHH 251230Z 09011KT CAVOK 18/13 Q1025 NOSIG
VHHH,2017-01-25 13:00,113.9219,22.3094,64.40,55.40,72.56,100.00,12.00,0.00,30.27,M,6.21,M,M,M,M,M,M,M,M,M,M,M,M,M,M,M,M,64.40,VHHH 251300Z 10012KT CAVOK 18/13 Q1025 NOSIG
VHHH,2017-01-25 13:30,113.9219,22.3094,64.40,55.40,72.56,90.00,11.00,0.00,30.27,M,6.21,M,M,M,M,M,M,M,M,M,M,M,M,M,M,M,M,64.40,VHHH 251330Z 09011KT CAVOK 18/13 Q1025 NOSIG
VHHH,2017-01-25 14:00,113.9219,22.3094,64.40,55.40,72.56,90.00,12.00,0.00,30.27,M,6.21,M,M,M,M,M,M,M,M,M,M,M,M,M,M,M,M,64.40,VHHH 251400Z 09012KT CAVOK 18/13 Q1025 NOSIG
VHHH,2017-01-25 14:30,113.9219,22.3094,64.40,55.40,72.56,80.00,10.00,0.00,30.27,M,6.21,M,M,M,M,M,M,M,M,M,M,M,M,M,M,M,M,64.40,VHHH 251430Z 08010KT CAVOK 18/13 Q1025 NOSIG
VHHH,2017-01-25 15:00,113.9219,22.3094,64.40,55.40,72.56,80.00,10.00,0.00,30.27,M,6.21,M,M,M,M,M,M,M,M,M,M,M,M,M,M,M,M,64.40,VHHH 251500Z 08010KT CAVOK 18/13 Q1025 NOSIG
VHHH,2017-01-25 15:30,113.9219,22.3094,64.40,55.40,72.56,80.00,10.00,0.00,30.27,M,6.21,M,M,M,M,M,M,M,M,M,M,M,M,M,M,M,M,64.40,VHHH 251530Z 08010KT CAVOK 18/13 Q1025 NOSIG
VHHH,2017-01-25 16:00,113.9219,22.3094,64.40,55.40,72.56,80.00,10.00,0.00,30.27,M,6.21,M,M,M,M,M,M,M,M,M,M,M,M,M,M,M,M,64.40,VHHH 251600Z 08010KT CAVOK 18/13 Q1025 NOSIG
VHHH,2017-01-25 16:30,113.9219,22.3094,62.60,55.40,77.29,90.00,8.00,0.00,30.27,M,6.21,M,M,M,M,M,M,M,M,M,M,M,M,M,M,M,M,62.60,VHHH 251630Z 09008KT CAVOK 17/13 Q1025 NOSIG
VHHH,2017-01-25 17:00,113.9219,22.3094,64.40,55.40,72.56,80.00,9.00,0.00,30.27,M,6.21,M,M,M,M,M,M,M,M,M,M,M,M,M,M,M,M,64.40,VHHH 251700Z 08009KT CAVOK 18/13 Q1025 NOSIG
VHHH,2017-01-25 17:30,113.9219,22.3094,62.60,55.40,77.29,110.00,9.00,0.00,30.27,M,6.21,M,M,M,M,M,M,M,M,M,M,M,M,M,M,M,M,62.60,VHHH 251730Z 11009KT 080V170 CAVOK 17/13 Q1025 NOSIG
VHHH,2017-01-25 18:00,113.9219,22.3094,62.60,55.40,77.29,90.00,9.00,0.00,30.24,M,6.21,M,M,M,M,M,M,M,M,M,M,M,M,M,M,M,M,62.60,VHHH 251800Z 09009KT CAVOK 17/13 Q1024 NOSIG
VHHH,2017-01-25 18:30,113.9219,22.3094,62.60,55.40,77.29,90.00,7.00,0.00,30.24,M,6.21,M,FEW,M,M,M,2000.00,M,M,M,M,M,M,M,M,M,M,62.60,VHHH 251830Z 09007KT 9999 FEW020 17/13 Q1024 NOSIG
VHHH,2017-01-25 19:00,113.9219,22.3094,62.60,55.40,77.29,80.00,8.00,0.00,30.24,M,6.21,M,FEW,M,M,M,1500.00,M,M,M,M,M,M,M,M,M,M,62.60,VHHH 251900Z 08008KT 9999 FEW015 17/13 Q1024 NOSIG
VHHH,2017-01-25 19:30,113.9219,22.3094,62.60,55.40,77.29,80.00,7.00,0.00,30.24,M,6.21,M,FEW,SCT,M,M,1400.00,1800.00,M,M,M,M,M,M,M,M,M,62.60,VHHH 251930Z 08007KT 9999 FEW014 SCT018 17/13 Q1024 NOSIG
VHHH,2017-01-25 20:00,113.9219,22.3094,60.80,55.40,82.37,80.00,5.00,0.00,30.24,M,6.21,M,FEW,M,M,M,1400.00,M,M,M,M,M,M,M,M,M,M,60.80,VHHH 252000Z 08005KT 9999 FEW014 16/13 Q1024 NOSIG
VHHH,2017-01-25 21:00,113.9219,22.3094,60.80,55.40,82.37,90.00,5.00,0.00,30.24,M,6.21,M,FEW,SCT,M,M,1400.00,2500.00,M,M,M,M,M,M,M,M,M,60.80,VHHH 252100Z 09005KT 9999 FEW014 SCT025 16/13 Q1024 NOSIG
VHHH,2017-01-25 21:30,113.9219,22.3094,62.60,55.40,77.29,90.00,4.00,0.00,30.27,M,6.21,M,FEW,SCT,M,M,1400.00,2500.00,M,M,M,M,M,M,M,M,M,62.60,VHHH 252130Z 09004KT 9999 FEW014 SCT025 17/13 Q1025 NOSIG
VHHH,2017-01-25 22:00,113.9219,22.3094,60.80,55.40,82.37,30.00,6.00,0.00,30.27,M,6.21,M,FEW,SCT,M,M,1400.00,2000.00,M,M,M,M,M,M,M,M,M,60.80,VHHH 252200Z 03006KT 9999 FEW014 SCT020 16/13 Q1025 NOSIG
VHHH,2017-01-25 22:30,113.9219,22.3094,60.80,55.40,82.37,40.00,8.00,0.00,30.27,M,6.21,M,FEW,SCT,M,M,1400.00,2000.00,M,M,M,M,M,M,M,M,M,60.80,VHHH 252230Z 04008KT 9999 FEW014 SCT020 16/13 Q1025 NOSIG
VHHH,2017-01-25 23:00,113.9219,22.3094,60.80,55.40,82.37,40.00,8.00,0.00,30.27,M,6.21,M,FEW,SCT,M,M,1400.00,2200.00,M,M,M,M,M,M,M,M,M,60.80,VHHH 252300Z 04008KT 9999 FEW014 SCT022 16/13 Q1025 NOSIG
VHHH,2017-01-25 23:30,113.9219,22.3094,60.80,55.40,82.37,40.00,7.00,0.00,30.30,M,6.21,M,FEW,M,M,M,1400.00,M,M,M,M,M,M,M,M,M,M,60.80,VHHH 252330Z 04007KT 9999 FEW014 16/13 Q1026 NOSIG
VHHH,2017-01-26 00:00,113.9219,22.3094,62.60,53.60,72.38,60.00,7.00,0.00,30.30,M,6.21,M,FEW,M,M,M,1400.00,M,M,M,M,M,M,M,M,M,M,62.60,VHHH 260000Z 06007KT 9999 FEW014 17/12 Q1026 NOSIG
VHHH,2017-01-26 00:30,113.9219,22.3094,62.60,51.80,67.75,50.00,11.00,0.00,30.30,M,6.21,M,FEW,M,M,M,1400.00,M,M,M,M,M,M,M,M,M,M,62.60,VHHH 260030Z 05011KT 9999 FEW014 17/11 Q1026 NOSIG
VHHH,2017-01-26 01:00,113.9219,22.3094,62.60,50.00,63.38,40.00,10.00,0.00,30.30,M,6.21,M,FEW,M,M,M,1400.00,M,M,M,M,M,M,M,M,M,M,62.60,VHHH 260100Z 04010KT 9999 FEW014 17/10 Q1026 NOSIG
VHHH,2017-01-26 01:30,113.9219,22.3094,62.60,50.00,63.38,50.00,9.00,0.00,30.33,M,6.21,M,FEW,M,M,M,1400.00,M,M,M,M,M,M,M,M,M,M,62.60,VHHH 260130Z 05009KT 9999 FEW014 17/10 Q1027 NOSIG
VHHH,2017-01-26 02:00,113.9219,22.3094,64.40,50.00,59.50,40.00,7.00,0.00,30.33,M,6.21,M,FEW,M,M,M,2500.00,M,M,M,M,M,M,M,M,M,M,64.40,VHHH 260200Z 04007KT 9999 FEW025 18/10 Q1027 BECMG 30010KT
VHHH,2017-01-26 02:30,113.9219,22.3094,64.40,50.00,59.50,50.00,7.00,0.00,30.30,M,6.21,M,FEW,M,M,M,2500.00,M,M,M,M,M,M,M,M,M,M,64.40,VHHH 260230Z 05007KT 9999 FEW025 18/10 Q1026 BECMG 30010KT
VHHH,2017-01-26 03:00,113.9219,22.3094,66.20,50.00,55.88,40.00,6.00,0.00,30.30,M,6.21,M,FEW,M,M,M,2500.00,M,M,M,M,M,M,M,M,M,M,66.20,VHHH 260300Z 04006KT 9999 FEW025 19/10 Q1026 BECMG 30010KT
VHHH,2017-01-26 03:30,113.9219,22.3094,66.20,50.00,55.88,20.00,4.00,0.00,30.30,M,6.21,M,FEW,M,M,M,2500.00,M,M,M,M,M,M,M,M,M,M,66.20,VHHH 260330Z 02004KT 9999 FEW025 19/10 Q1026 BECMG 30010KT
VHHH,2017-01-26 04:00,113.9219,22.3094,68.00,46.40,45.88,350.00,5.00,0.00,30.27,M,6.21,M,FEW,M,M,M,2500.00,M,M,M,M,M,M,M,M,M,M,68.00,VHHH 260400Z 35005KT 320V020 9999 FEW025 20/08 Q1025 NOSIG
VHHH,2017-01-26 04:30,113.9219,22.3094,66.20,46.40,48.83,340.00,8.00,0.00,30.24,M,6.21,M,FEW,M,M,M,2500.00,M,M,M,M,M,M,M,M,M,M,66.20,VHHH 260430Z 34008KT 9999 FEW025 19/08 Q1024 NOSIG
VHHH,2017-01-26 05:00,113.9219,22.3094,69.80,46.40,43.13,330.00,8.00,0.00,30.24,M,6.21,M,FEW,M,M,M,2500.00,M,M,M,M,M,M,M,M,M,M,69.80,VHHH 260500Z 33008KT 9999 FEW025 21/08 Q1024 NOSIG
VHHH,2017-01-26 05:30,113.9219,22.3094,69.80,48.20,46.16,290.00,9.00,0.00,30.21,M,6.21,M,FEW,M,M,M,2500.00,M,M,M,M,M,M,M,M,M,M,69.80,VHHH 260530Z 29009KT 9999 FEW025 21/09 Q1023 NOSIG
VHHH,2017-01-26 06:00,113.9219,22.3094,68.00,46.40,45.88,280.00,8.00,0.00,30.21,M,6.21,M,FEW,M,M,M,2500.00,M,M,M,M,M,M,M,M,M,M,68.00,VHHH 260600Z 28008KT 9999 FEW025 20/08 Q1023 NOSIG
VHHH,2017-01-26 06:30,113.9219,22.3094,68.00,46.40,45.88,270.00,9.00,0.00,30.18,M,6.21,M,FEW,M,M,M,2500.00,M,M,M,M,M,M,M,M,M,M,68.00,VHHH 260630Z 27009KT 9999 FEW025 20/08 Q1022 NOSIG
VHHH,2017-01-26 07:00,113.9219,22.3094,68.00,48.20,49.10,270.00,8.00,0.00,30.18,M,6.21,M,FEW,M,M,M,2500.00,M,M,M,M,M,M,M,M,M,M,68.00,VHHH 260700Z 27008KT 9999 FEW025 20/09 Q1022 NOSIG
VHHH,2017-01-26 07:30,113.9219,22.3094,68.00,48.20,49.10,260.00,9.00,0.00,30.18,M,6.21,M,FEW,M,M,M,2500.00,M,M,M,M,M,M,M,M,M,M,68.00,VHHH 260730Z 26009KT 9999 FEW025 20/09 Q1022 NOSIG
VHHH,2017-01-26 08:00,113.9219,22.3094,68.00,53.60,59.97,250.00,9.00,0.00,30.18,M,6.21,M,FEW,M,M,M,2500.00,M,M,M,M,M,M,M,M,M,M,68.00,VHHH 260800Z 25009KT 9999 FEW025 20/12 Q1022 NOSIG
VHHH,2017-01-26 08:30,113.9219,22.3094,66.20,53.60,63.82,240.00,6.00,0.00,30.15,M,6.21,M,FEW,M,M,M,2500.00,M,M,M,M,M,M,M,M,M,M,66.20,VHHH 260830Z 24006KT 190V260 9999 FEW025 19/12 Q1021 NOSIG
VHHH,2017-01-26 09:00,113.9219,22.3094,64.40,51.80,63.60,140.00,8.00,0.00,30.15,M,6.21,M,FEW,M,M,M,2500.00,M,M,M,M,M,M,M,M,M,M,64.40,VHHH 260900Z 14008KT 090V170 9999 FEW025 18/11 Q1021 NOSIG
VHHH,2017-01-26 09:30,113.9219,22.3094,64.40,51.80,63.60,140.00,9.00,0.00,30.18,M,6.21,M,FEW,M,M,M,2500.00,M,M,M,M,M,M,M,M,M,M,64.40,VHHH 260930Z 14009KT 100V180 9999 FEW025 18/11 Q1022 NOSIG
VHHH,2017-01-26 10:00,113.9219,22.3094,62.60,51.80,67.75,150.00,11.00,0.00,30.18,M,6.21,M,FEW,M,M,M,2500.00,M,M,M,M,M,M,M,M,M,M,62.60,VHHH 261000Z 15011KT 120V180 9999 FEW025 17/11 Q1022 NOSIG
VHHH,2017-01-26 10:30,113.9219,22.3094,62.60,51.80,67.75,160.00,9.00,0.00,30.18,M,6.21,M,FEW,M,M,M,2500.00,M,M,M,M,M,M,M,M,M,M,62.60,VHHH 261030Z 16009KT 130V190 9999 FEW025 17/11 Q1022 NOSIG
VHHH,2017-01-26 11:00,113.9219,22.3094,62.60,51.80,67.75,150.00,8.00,0.00,30.18,M,6.21,M,FEW,M,M,M,2500.00,M,M,M,M,M,M,M,M,M,M,62.60,VHHH 261100Z 15008KT 110V180 9999 FEW025 17/11 Q1022 NOSIG
VHHH,2017-01-26 11:30,113.9219,22.3094,62.60,51.80,67.75,M,6.00,0.00,30.21,M,6.21,M,FEW,M,M,M,2500.00,M,M,M,M,M,M,M,M,M,M,62.60,VHHH 261130Z VRB06KT 9999 FEW025 17/11 Q1023 NOSIG
VHHH,2017-01-26 12:00,113.9219,22.3094,64.40,51.80,63.60,100.00,10.00,0.00,30.21,M,6.21,M,FEW,M,M,M,2500.00,M,M,M,M,M,M,M,M,M,M,64.40,VHHH 261200Z 10010KT 9999 FEW025 18/11 Q1023 NOSIG
VHHH,2017-01-26 12:30,113.9219,22.3094,64.40,53.60,67.95,90.00,10.00,0.00,30.21,M,6.21,M,FEW,M,M,M,2500.00,M,M,M,M,M,M,M,M,M,M,64.40,VHHH 261230Z 09010KT 9999 FEW025 18/12 Q1023 NOSIG
VHHH,2017-01-26 13:00,113.9219,22.3094,62.60,51.80,67.75,100.00,11.00,0.00,30.21,M,6.21,M,FEW,M,M,M,2500.00,M,M,M,M,M,M,M,M,M,M,62.60,VHHH 261300Z 10011KT 9999 FEW025 17/11 Q1023 NOSIG
VHHH,2017-01-26 13:30,113.9219,22.3094,62.60,51.80,67.75,100.00,11.00,0.00,30.21,M,6.21,M,FEW,M,M,M,2500.00,M,M,M,M,M,M,M,M,M,M,62.60,VHHH 261330Z 10011KT 9999 FEW025 17/11 Q1023 NOSIG
VHHH,2017-01-26 14:00,113.9219,22.3094,62.60,51.80,67.75,100.00,11.00,0.00,30.21,M,6.21,M,FEW,M,M,M,2500.00,M,M,M,M,M,M,M,M,M,M,62.60,VHHH 261400Z 10011KT 9999 FEW025 17/11 Q1023 NOSIG
VHHH,2017-01-26 14:30,113.9219,22.3094,64.40,51.80,63.60,110.00,10.00,0.00,30.21,M,6.21,M,FEW,M,M,M,2500.00,M,M,M,M,M,M,M,M,M,M,64.40,VHHH 261430Z 11010KT 9999 FEW025 18/11 Q1023 NOSIG
VHHH,2017-01-26 15:00,113.9219,22.3094,62.60,53.60,72.38,110.00,12.00,0.00,30.21,M,6.21,M,FEW,M,M,M,2500.00,M,M,M,M,M,M,M,M,M,M,62.60,VHHH 261500Z 11012KT 9999 FEW025 17/12 Q1023 NOSIG
VHHH,2017-01-26 15:30,113.9219,22.3094,62.60,53.60,72.38,110.00,14.00,0.00,30.21,M,6.21,M,FEW,M,M,M,2500.00,M,M,M,M,M,M,M,M,M,M,62.60,VHHH 261530Z 11014KT 9999 FEW025 17/12 Q1023 NOSIG
VHHH,2017-01-26 16:00,113.9219,22.3094,62.60,53.60,72.38,110.00,15.00,0.00,30.21,M,6.21,M,FEW,M,M,M,2500.00,M,M,M,M,M,M,M,M,M,M,62.60,VHHH 261600Z 11015KT 9999 FEW025 17/12 Q1023 NOSIG
VHHH,2017-01-26 16:30,113.9219,22.3094,62.60,53.60,72.38,90.00,11.00,0.00,30.21,M,6.21,M,FEW,M,M,M,3000.00,M,M,M,M,M,M,M,M,M,M,62.60,VHHH 261630Z 09011KT 9999 FEW030 17/12 Q1023 NOSIG
VHHH,2017-01-26 17:00,113.9219,22.3094,62.60,51.80,67.75,80.00,11.00,0.00,30.21,M,6.21,M,FEW,M,M,M,3000.00,M,M,M,M,M,M,M,M,M,M,62.60,VHHH 261700Z 08011KT 9999 FEW030 17/11 Q1023 NOSIG
VHHH,2017-01-26 17:30,113.9219,22.3094,62.60,51.80,67.75,90.00,12.00,0.00,30.21,M,6.21,M,FEW,M,M,M,3000.00,M,M,M,M,M,M,M,M,M,M,62.60,VHHH 261730Z 09012KT 9999 FEW030 17/11 Q1023 NOSIG
VHHH,2017-01-26 18:00,113.9219,22.3094,62.60,51.80,67.75,90.00,12.00,0.00,30.21,M,6.21,M,FEW,M,M,M,3000.00,M,M,M,M,M,M,M,M,M,M,62.60,VHHH 261800Z 09012KT 9999 FEW030 17/11 Q1023 NOSIG
VHHH,2017-01-26 18:30,113.9219,22.3094,60.80,51.80,72.20,90.00,11.00,0.00,30.21,M,6.21,M,FEW,M,M,M,3000.00,M,M,M,M,M,M,M,M,M,M,60.80,VHHH 261830Z 09011KT 9999 FEW030 16/11 Q1023 NOSIG
VHHH,2017-01-26 19:00,113.9219,22.3094,60.80,51.80,72.20,90.00,12.00,0.00,30.21,M,6.21,M,FEW,M,M,M,3000.00,M,M,M,M,M,M,M,M,M,M,60.80,VHHH 261900Z 09012KT 9999 FEW030 16/11 Q1023 NOSIG
VHHH,2017-01-26 19:30,113.9219,22.3094,60.80,51.80,72.20,90.00,13.00,0.00,30.21,M,6.21,M,FEW,M,M,M,3000.00,M,M,M,M,M,M,M,M,M,M,60.80,VHHH 261930Z 09013KT 9999 FEW030 16/11 Q1023 NOSIG
VHHH,2017-01-26 20:00,113.9219,22.3094,60.80,51.80,72.20,90.00,10.00,0.00,30.24,M,6.21,M,FEW,M,M,M,3000.00,M,M,M,M,M,M,M,M,M,M,60.80,VHHH 262000Z 09010KT 9999 FEW030 16/11 Q1024 NOSIG
VHHH,2017-01-26 20:30,113.9219,22.3094,60.80,51.80,72.20,90.00,11.00,0.00,30.24,M,6.21,M,FEW,M,M,M,3000.00,M,M,M,M,M,M,M,M,M,M,60.80,VHHH 262030Z 09011KT 9999 FEW030 16/11 Q1024 NOSIG
VHHH,2017-01-26 21:00,113.9219,22.3094,60.80,51.80,72.20,90.00,9.00,0.00,30.24,M,6.21,M,FEW,M,M,M,3000.00,M,M,M,M,M,M,M,M,M,M,60.80,VHHH 262100Z 09009KT 9999 FEW030 16/11 Q1024 NOSIG
VHHH,2017-01-26 21:30,113.9219,22.3094,60.80,51.80,72.20,80.00,12.00,0.00,30.24,M,6.21,M,FEW,M,M,M,3000.00,M,M,M,M,M,M,M,M,M,M,60.80,VHHH 262130Z 08012KT 9999 FEW030 16/11 Q1024 NOSIG
VHHH,2017-01-26 22:00,113.9219,22.3094,59.00,51.80,76.98,90.00,11.00,0.00,30.24,M,6.21,M,FEW,M,M,M,3000.00,M,M,M,M,M,M,M,M,M,M,59.00,VHHH 262200Z 09011KT 9999 FEW030 15/11 Q1024 NOSIG
VHHH,2017-01-26 22:30,113.9219,22.3094,59.00,51.80,76.98,100.00,8.00,0.00,30.24,M,6.21,M,FEW,M,M,M,3000.00,M,M,M,M,M,M,M,M,M,M,59.00,VHHH 262230Z 10008KT 9999 FEW030 15/11 Q1024 NOSIG
VHHH,2017-01-26 23:00,113.9219,22.3094,60.80,51.80,72.20,70.00,8.00,0.00,30.27,M,6.21,M,FEW,M,M,M,3000.00,M,M,M,M,M,M,M,M,M,M,60.80,VHHH 262300Z 07008KT 040V100 9999 FEW030 16/11 Q1025 NOSIG
VHHH,2017-01-26 23:30,113.9219,22.3094,60.80,51.80,72.20,30.00,6.00,0.00,30.27,M,6.21,M,FEW,M,M,M,3000.00,M,M,M,M,M,M,M,M,M,M,60.80,VHHH 262330Z 03006KT 9999 FEW030 16/11 Q1025 NOSIG
VHHH,2017-01-27 00:00,113.9219,22.3094,60.80,51.80,72.20,60.00,5.00,0.00,30.27,M,6.21,M,FEW,M,M,M,3000.00,M,M,M,M,M,M,M,M,M,M,60.80,VHHH 270000Z 06005KT 9999 FEW030 16/11 Q1025 NOSIG
VHHH,2017-01-27 00:30,113.9219,22.3094,62.60,51.80,67.75,80.00,5.00,0.00,30.27,M,6.21,M,FEW,M,M,M,3000.00,M,M,M,M,M,M,M,M,M,M,62.60,VHHH 270030Z 08005KT 9999 FEW030 17/11 Q1025 NOSIG
VHHH,2017-01-27 01:00,113.9219,22.3094,62.60,51.80,67.75,50.00,4.00,0.00,30.27,M,6.21,M,M,M,M,M,M,M,M,M,M,M,M,M,M,M,M,62.60,VHHH 270100Z 05004KT 020V080 CAVOK 17/11 Q1025 NOSIG
VHHH,2017-01-27 01:30,113.9219,22.3094,64.40,50.00,59.50,40.00,5.00,0.00,30.27,M,6.21,M,M,M,M,M,M,M,M,M,M,M,M,M,M,M,M,64.40,VHHH 270130Z 04005KT CAVOK 18/10 Q1025 NOSIG
VHHH,2017-01-27 02:00,113.9219,22.3094,64.40,48.20,55.63,360.00,4.00,0.00,30.27,M,6.21,M,M,M,M,M,M,M,M,M,M,M,M,M,M,M,M,64.40,VHHH 270200Z 36004KT 340V040 CAVOK 18/09 Q1025 NOSIG
VHHH,2017-01-27 02:30,113.9219,22.3094,64.40,46.40,51.98,360.00,3.00,0.00,30.27,M,6.21,M,M,M,M,M,M,M,M,M,M,M,M,M,M,M,M,64.40,VHHH 270230Z 36003KT 320V060 CAVOK 18/08 Q1025 NOSIG
VHHH,2017-01-27 03:00,113.9219,22.3094,66.20,48.20,52.25,330.00,3.00,0.00,30.27,M,6.21,M,M,M,M,M,M,M,M,M,M,M,M,M,M,M,M,66.20,VHHH 270300Z 33003KT 310V030 CAVOK 19/09 Q1025 NOSIG
VHHH,2017-01-27 03:30,113.9219,22.3094,68.00,46.40,45.88,320.00,4.00,0.00,30.24,M,6.21,M,M,M,M,M,M,M,M,M,M,M,M,M,M,M,M,68.00,VHHH 270330Z 32004KT CAVOK 20/08 Q1024 NOSIG
VHHH,2017-01-27 04:00,113.9219,22.3094,68.00,48.20,49.10,340.00,7.00,0.00,30.24,M,6.21,M,M,M,M,M,M,M,M,M,M,M,M,M,M,M,M,68.00,VHHH 270400Z 34007KT CAVOK 20/09 Q1024 NOSIG
VHHH,2017-01-27 04:30,113.9219,22.3094,68.00,50.00,52.51,320.00,8.00,0.00,30.21,M,6.21,M,M,M,M,M,M,M,M,M,M,M,M,M,M,M,M,68.00,VHHH 270430Z 32008KT CAVOK 20/10 Q1023 NOSIG
VHHH,2017-01-27 05:00,113.9219,22.3094,69.80,50.00,49.37,310.00,8.00,0.00,30.18,M,6.21,M,M,M,M,M,M,M,M,M,M,M,M,M,M,M,M,69.80,VHHH 270500Z 31008KT CAVOK 21/10 Q1022 NOSIG
VHHH,2017-01-27 05:30,113.9219,22.3094,68.00,50.00,52.51,310.00,10.00,0.00,30.18,M,6.21,M,M,M,M,M,M,M,M,M,M,M,M,M,M,M,M,68.00,VHHH 270530Z 31010KT CAVOK 20/10 Q1022 NOSIG
VHHH,2017-01-27 06:00,113.9219,22.3094,69.80,50.00,49.37,300.00,7.00,0.00,30.15,M,6.21,M,M,M,M,M,M,M,M,M,M,M,M,M,M,M,M,69.80,VHHH 270600Z 30007KT CAVOK 21/10 Q1021 NOSIG
VHHH,2017-01-27 06:30,113.9219,22.3094,69.80,50.00,49.37,290.00,8.00,0.00,30.15,M,6.21,M,M,M,M,M,M,M,M,M,M,M,M,M,M,M,M,69.80,VHHH 270630Z 29008KT CAVOK 21/10 Q1021 NOSIG
VHHH,2017-01-27 07:00,113.9219,22.3094,69.80,48.20,46.16,290.00,6.00,0.00,30.12,M,6.21,M,M,M,M,M,M,M,M,M,M,M,M,M,M,M,M,69.80,VHHH 270700Z 29006KT CAVOK 21/09 Q1020 NOSIG
VHHH,2017-01-27 07:30,113.9219,22.3094,69.80,48.20,46.16,270.00,6.00,0.00,30.12,M,6.21,M,M,M,M,M,M,M,M,M,M,M,M,M,M,M,M,69.80,VHHH 270730Z 27006KT CAVOK 21/09 Q1020 NOSIG
VHHH,2017-01-27 08:00,113.9219,22.3094,69.80,48.20,46.16,270.00,5.00,0.00,30.09,M,6.21,M,M,M,M,M,M,M,M,M,M,M,M,M,M,M,M,69.80,VHHH 270800Z 27005KT CAVOK 21/09 Q1019 NOSIG
VHHH,2017-01-27 08:30,113.9219,22.3094,69.80,48.20,46.16,280.00,4.00,0.00,30.09,M,6.21,M,M,M,M,M,M,M,M,M,M,M,M,M,M,M,M,69.80,VHHH 270830Z 28004KT CAVOK 21/09 Q1019 NOSIG
VHHH,2017-01-27 09:00,113.9219,22.3094,69.80,48.20,46.16,290.00,4.00,0.00,30.09,M,6.21,M,M,M,M,M,M,M,M,M,M,M,M,M,M,M,M,69.80,VHHH 270900Z 29004KT CAVOK 21/09 Q1019 NOSIG
VHHH,2017-01-27 09:30,113.9219,22.3094,69.80,48.20,46.16,260.00,4.00,0.00,30.12,M,6.21,M,M,M,M,M,M,M,M,M,M,M,M,M,M,M,M,69.80,VHHH 270930Z 26004KT CAVOK 21/09 Q1020 NOSIG
VHHH,2017-01-27 10:00,113.9219,22.3094,68.00,50.00,52.51,250.00,4.00,0.00,30.12,M,6.21,M,M,M,M,M,M,M,M,M,M,M,M,M,M,M,M,68.00,VHHH 271000Z 25004KT CAVOK 20/10 Q1020 NOSIG
VHHH,2017-01-27 10:30,113.9219,22.3094,64.40,51.80,63.60,160.00,5.00,0.00,30.12,M,6.21,M,M,M,M,M,M,M,M,M,M,M,M,M,M,M,M,64.40,VHHH 271030Z 16005KT 070V210 CAVOK 18/11 Q1020 NOSIG
VHHH,2017-01-27 11:00,113.9219,22.3094,64.40,51.80,63.60,130.00,4.00,0.00,30.12,M,6.21,M,M,M,M,M,M,M,M,M,M,M,M,M,M,M,M,64.40,VHHH 271100Z 13004KT CAVOK 18/11 Q1020 NOSIG
VHHH,2017-01-27 11:30,113.9219,22.3094,64.40,50.00,59.50,140.00,5.00,0.00,30.12,M,6.21,M,M,M,M,M,M,M,M,M,M,M,M,M,M,M,M,64.40,VHHH 271130Z 14005KT 110V180 CAVOK 18/10 Q1020 NOSIG
VHHH,2017-01-27 12:00,113.9219,22.3094,64.40,50.00,59.50,130.00,5.00,0.00,30.12,M,6.21,M,M,M,M,M,M,M,M,M,M,M,M,M,M,M,M,64.40,VHHH 271200Z 13005KT 090V190 CAVOK 18/10 Q1020 NOSIG
VHHH,2017-01-27 12:30,113.9219,22.3094,64.40,50.00,59.50,110.00,4.00,0.00,30.12,M,6.21,M,M,M,M,M,M,M,M,M,M,M,M,M,M,M,M,64.40,VHHH 271230Z 11004KT 060V180 CAVOK 18/10 Q1020 NOSIG
VHHH,2017-01-27 13:00,113.9219,22.3094,64.40,51.80,63.60,90.00,8.00,0.00,30.15,M,6.21,M,M,M,M,M,M,M,M,M,M,M,M,M,M,M,M,64.40,VHHH 271300Z 09008KT 060V130 CAVOK 18/11 Q1021 NOSIG
VHHH,2017-01-27 13:30,113.9219,22.3094,62.60,48.20,59.26,100.00,7.00,0.00,30.15,M,6.21,M,M,M,M,M,M,M,M,M,M,M,M,M,M,M,M,62.60,VHHH 271330Z 10007KT 080V160 CAVOK 17/09 Q1021 NOSIG
VHHH,2017-01-27 14:00,113.9219,22.3094,64.40,51.80,63.60,110.00,5.00,0.00,30.15,M,6.21,M,M,M,M,M,M,M,M,M,M,M,M,M,M,M,M,64.40,VHHH 271400Z 11005KT 070V160 CAVOK 18/11 Q1021 NOSIG
VHHH,2017-01-27 14:30,113.9219,22.3094,64.40,50.00,59.50,90.00,10.00,0.00,30.15,M,6.21,M,M,M,M,M,M,M,M,M,M,M,M,M,M,M,M,64.40,VHHH 271430Z 09010KT CAVOK 18/10 Q1021 NOSIG
VHHH,2017-01-27 15:00,113.9219,22.3094,64.40,48.20,55.63,100.00,10.00,0.00,30.15,M,6.21,M,M,M,M,M,M,M,M,M,M,M,M,M,M,M,M,64.40,VHHH 271500Z 10010KT 080V140 CAVOK 18/09 Q1021 NOSIG
VHHH,2017-01-27 15:30,113.9219,22.3094,64.40,48.20,55.63,120.00,7.00,0.00,30.15,M,6.21,M,M,M,M,M,M,M,M,M,M,M,M,M,M,M,M,64.40,VHHH 271530Z 12007KT 090V190 CAVOK 18/09 Q1021 NOSIG
VHHH,2017-01-27 16:00,113.9219,22.3094,64.40,50.00,59.50,80.00,7.00,0.00,30.12,M,6.21,M,M,M,M,M,M,M,M,M,M,M,M,M,M,M,M,64.40,VHHH 271600Z 08007KT 060V120 CAVOK 18/10 Q1020 NOSIG
VHHH,2017-01-27 16:30,113.9219,22.3094,64.40,51.80,63.60,80.00,7.00,0.00,30.12,M,6.21,M,M,M,M,M,M,M,M,M,M,M,M,M,M,M,M,64.40,VHHH 271630Z 08007KT CAVOK 18/11 Q1020 NOSIG
VHHH,2017-01-27 17:00,113.9219,22.3094,64.40,53.60,67.95,90.00,6.00,0.00,30.12,M,6.21,M,M,M,M,M,M,M,M,M,M,M,M,M,M,M,M,64.40,VHHH 271700Z 09006KT CAVOK 18/12 Q1020 NOSIG
VHHH,2017-01-27 17:30,113.9219,22.3094,64.40,53.60,67.95,80.00,7.00,0.00,30.12,M,6.21,M,M,M,M,M,M,M,M,M,M,M,M,M,M,M,M,64.40,VHHH 271730Z 08007KT CAVOK 18/12 Q1020 NOSIG
VHHH,2017-01-27 18:00,113.9219,22.3094,64.40,55.40,72.56,70.00,6.00,0.00,30.12,M,6.21,M,FEW,M,M,M,4500.00,M,M,M,M,M,M,M,M,M,M,64.40,VHHH 271800Z 07006KT 9999 FEW045 18/13 Q1020 NOSIG
VHHH,2017-01-27 18:30,113.9219,22.3094,62.60,57.20,82.50,70.00,7.00,0.00,30.12,M,6.21,M,FEW,M,M,M,4500.00,M,M,M,M,M,M,M,M,M,M,62.60,VHHH 271830Z 07007KT 9999 FEW045 17/14 Q1020 NOSIG
VHHH,2017-01-27 19:00,113.9219,22.3094,64.40,55.40,72.56,50.00,4.00,0.00,30.09,M,6.21,M,FEW,M,M,M,4500.00,M,M,M,M,M,M,M,M,M,M,64.40,VHHH 271900Z 05004KT 360V080 9999 FEW045 18/13 Q1019 NOSIG
VHHH,2017-01-27 19:30,113.9219,22.3094,62.60,55.40,77.29,90.00,6.00,0.00,30.09,M,6.21,M,FEW,M,M,M,4500.00,M,M,M,M,M,M,M,M,M,M,62.60,VHHH 271930Z 09006KT 9999 FEW045 17/13 Q1019 NOSIG
VHHH,2017-01-27 20:00,113.9219,22.3094,62.60,53.60,72.38,80.00,5.00,0.00,30.09,M,6.21,M,FEW,M,M,M,4500.00,M,M,M,M,M,M,M,M,M,M,62.60,VHHH 272000Z 08005KT 050V110 9999 FEW045 17/12 Q1019 NOSIG
VHHH,2017-01-27 20:30,113.9219,22.3094,62.60,53.60,72.38,90.00,5.00,0.00,30.09,M,6.21,M,FEW,M,M,M,3000.00,M,M,M,M,M,M,M,M,M,M,62.60,VHHH 272030Z 09005KT 9999 FEW030 17/12 Q1019 NOSIG
VHHH,2017-01-27 21:00,113.9219,22.3094,62.60,53.60,72.38,100.00,8.00,0.00,30.09,M,6.21,M,FEW,M,M,M,3000.00,M,M,M,M,M,M,M,M,M,M,62.60,VHHH 272100Z 10008KT 9999 FEW030 17/12 Q1019 NOSIG
VHHH,2017-01-27 21:30,113.9219,22.3094,62.60,53.60,72.38,70.00,9.00,0.00,30.09,M,6.21,M,FEW,M,M,M,3000.00,M,M,M,M,M,M,M,M,M,M,62.60,VHHH 272130Z 07009KT 9999 FEW030 17/12 Q1019 NOSIG
VHHH,2017-01-27 22:00,113.9219,22.3094,62.60,53.60,72.38,90.00,13.00,0.00,30.09,M,6.21,M,FEW,M,M,M,3000.00,M,M,M,M,M,M,M,M,M,M,62.60,VHHH 272200Z 09013KT 9999 FEW030 17/12 Q1019 NOSIG
VHHH,2017-01-27 22:30,113.9219,22.3094,62.60,53.60,72.38,100.00,14.00,0.00,30.06,M,6.21,M,FEW,M,M,M,3000.00,M,M,M,M,M,M,M,M,M,M,62.60,VHHH 272230Z 10014KT 9999 FEW030 17/12 Q1018 NOSIG
VHHH,2017-01-27 23:00,113.9219,22.3094,62.60,53.60,72.38,80.00,10.00,0.00,30.09,M,6.21,M,FEW,M,M,M,3000.00,M,M,M,M,M,M,M,M,M,M,62.60,VHHH 272300Z 08010KT 9999 FEW030 17/12 Q1019 NOSIG
VHHH,2017-01-27 23:30,113.9219,22.3094,64.40,53.60,67.95,80.00,12.00,0.00,30.09,M,6.21,M,FEW,M,M,M,3000.00,M,M,M,M,M,M,M,M,M,M,64.40,VHHH 272330Z 08012KT 9999 FEW030 18/12 Q1019 NOSIG
VHHH,2017-01-28 00:00,113.9219,22.3094,64.40,53.60,67.95,90.00,12.00,0.00,30.09,M,6.21,M,SCT,M,M,M,4000.00,M,M,M,M,M,M,M,M,M,M,64.40,VHHH 280000Z 09012KT 9999 SCT040 18/12 Q1019 NOSIG
VHHH,2017-01-28 00:30,113.9219,22.3094,64.40,51.80,63.60,110.00,11.00,0.00,30.12,M,6.21,M,SCT,M,M,M,4000.00,M,M,M,M,M,M,M,M,M,M,64.40,VHHH 280030Z 11011KT 9999 SCT040 18/11 Q1020 NOSIG
VHHH,2017-01-28 01:00,113.9219,22.3094,66.20,53.60,63.82,80.00,10.00,0.00,30.12,M,6.21,M,FEW,M,M,M,4000.00,M,M,M,M,M,M,M,M,M,M,66.20,VHHH 280100Z 08010KT 9999 FEW040 19/12 Q1020 NOSIG
VHHH,2017-01-28 01:30,113.9219,22.3094,66.20,51.80,59.74,70.00,10.00,0.00,30.12,M,6.21,M,SCT,M,M,M,3500.00,M,M,M,M,M,M,M,M,M,M,66.20,VHHH 280130Z 07010KT 9999 SCT035 19/11 Q1020 NOSIG
VHHH,2017-01-28 02:00,113.9219,22.3094,68.00,50.00,52.51,110.00,12.00,0.00,30.12,M,6.21,M,SCT,M,M,M,3500.00,M,M,M,M,M,M,M,M,M,M,68.00,VHHH 280200Z 11012KT 9999 SCT035 20/10 Q1020 NOSIG
VHHH,2017-01-28 02:30,113.9219,22.3094,68.00,51.80,56.13,90.00,10.00,0.00,30.12,M,6.21,M,SCT,M,M,M,3500.00,M,M,M,M,M,M,M,M,M,M,68.00,VHHH 280230Z 09010KT 9999 SCT035 20/11 Q1020 NOSIG
VHHH,2017-01-28 03:00,113.9219,22.3094,69.80,51.80,52.77,110.00,11.00,0.00,30.12,M,6.21,M,SCT,M,M,M,3500.00,M,M,M,M,M,M,M,M,M,M,69.80,VHHH 280300Z 11011KT 9999 SCT035 21/11 Q1020 NOSIG
VHHH,2017-01-28 03:30,113.9219,22.3094,69.80,51.80,52.77,100.00,11.00,0.00,30.12,M,6.21,M,SCT,M,M,M,3500.00,M,M,M,M,M,M,M,M,M,M,69.80,VHHH 280330Z 10011KT 9999 SCT035 21/11 Q1020 NOSIG
VHHH,2017-01-28 04:00,113.9219,22.3094,69.80,53.60,56.38,120.00,9.00,0.00,30.09,M,6.21,M,SCT,M,M,M,3500.00,M,M,M,M,M,M,M,M,M,M,69.80,VHHH 280400Z 12009KT 080V150 9999 SCT035 21/12 Q1019 NOSIG
VHHH,2017-01-28 04:30,113.9219,22.3094,69.80,53.60,56.38,110.00,11.00,0.00,30.09,M,6.21,M,SCT,M,M,M,3500.00,M,M,M,M,M,M,M,M,M,M,69.80,VHHH 280430Z 11011KT 070V130 9999 SCT035 21/12 Q1019 NOSIG
VHHH,2017-01-28 05:00,113.9219,22.3094,69.80,51.80,52.77,110.00,11.00,0.00,30.06,M,6.21,M,SCT,M,M,M,3000.00,M,M,M,M,M,M,M,M,M,M,69.80,VHHH 280500Z 11011KT 090V150 9999 SCT030 21/11 Q1018 NOSIG
VHHH,2017-01-28 05:30,113.9219,22.3094,69.80,51.80,52.77,110.00,11.00,0.00,30.03,M,6.21,M,FEW,SCT,M,M,2800.00,3500.00,M,M,-RA,M,M,M,M,M,M,69.80,VHHH 280530Z 11011KT 9999 -RA FEW028 SCT035 21/11 Q1017 NOSIG
VHHH,2017-01-28 06:00,113.9219,22.3094,68.00,51.80,56.13,110.00,10.00,0.00,30.03,M,6.21,M,FEW,SCT,M,M,2800.00,3500.00,M,M,M,M,M,M,M,M,M,68.00,VHHH 280600Z 11010KT 090V150 9999 FEW028 SCT035 20/11 Q1017 NOSIG
VHHH,2017-01-28 06:30,113.9219,22.3094,68.00,53.60,59.97,110.00,14.00,0.00,30.03,M,6.21,M,FEW,SCT,M,M,2600.00,3200.00,M,M,-RA,M,M,M,M,M,M,68.00,VHHH 280630Z 11014KT 9999 -RA FEW026 SCT032 20/12 Q1017 NOSIG
VHHH,2017-01-28 07:00,113.9219,22.3094,64.40,57.20,77.45,120.00,12.00,0.00,30.03,M,5.59,M,FEW,SCT,M,M,1800.00,2500.00,M,M,-RA,M,M,M,M,M,M,64.40,VHHH 280700Z 12012KT 9000 4200E -RA FEW018 SCT025 18/14 Q1017 NOSIG
VHHH,2017-01-28 07:30,113.9219,22.3094,62.60,57.20,82.50,100.00,11.00,0.00,30.00,M,5.59,M,FEW,SCT,M,M,1800.00,2500.00,M,M,-RA,M,M,M,M,M,M,62.60,VHHH 280730Z 10011KT 9000 4100E -RA FEW018 SCT025 17/14 Q1016 NOSIG
VHHH,2017-01-28 08:00,113.9219,22.3094,64.40,57.20,77.45,90.00,9.00,0.00,30.00,M,6.21,M,FEW,SCT,M,M,1800.00,2500.00,M,M,M,M,M,M,M,M,M,64.40,VHHH 280800Z 09009KT 9999 FEW018 SCT025 18/14 Q1016 NOSIG
VHHH,2017-01-28 08:30,113.9219,22.3094,64.40,57.20,77.45,80.00,9.00,0.00,30.00,M,6.21,M,FEW,SCT,M,M,1200.00,2800.00,M,M,M,M,M,M,M,M,M,64.40,VHHH 280830Z 08009KT 9999 FEW012 SCT028 18/14 Q1016 NOSIG
VHHH,2017-01-28 09:00,113.9219,22.3094,64.40,57.20,77.45,80.00,8.00,0.00,30.00,M,6.21,M,FEW,SCT,M,M,2500.00,3500.00,M,M,M,M,M,M,M,M,M,64.40,VHHH 280900Z 08008KT 9999 FEW025 SCT035 18/14 Q1016 NOSIG
VHHH,2017-01-28 09:30,113.9219,22.3094,64.40,57.20,77.45,70.00,8.00,0.00,30.00,M,6.21,M,FEW,SCT,M,M,2200.00,3000.00,M,M,M,M,M,M,M,M,M,64.40,VHHH 280930Z 07008KT 9999 FEW022 SCT030 18/14 Q1016 NOSIG
VHHH,2017-01-28 10:00,113.9219,22.3094,64.40,57.20,77.45,70.00,8.00,0.00,30.00,M,6.21,M,FEW,SCT,M,M,2000.00,2500.00,M,M,M,M,M,M,M,M,M,64.40,VHHH 281000Z 07008KT 9999 FEW020 SCT025 18/14 Q1016 NOSIG
VHHH,2017-01-28 10:30,113.9219,22.3094,64.40,57.20,77.45,70.00,7.00,0.00,30.00,M,6.21,M,FEW,SCT,M,M,2000.00,2500.00,M,M,M,M,M,M,M,M,M,64.40,VHHH 281030Z 07007KT 9999 FEW020 SCT025 18/14 Q1016 NOSIG
VHHH,2017-01-28 11:00,113.9219,22.3094,64.40,57.20,77.45,60.00,5.00,0.00,30.00,M,6.21,M,FEW,SCT,M,M,2000.00,3500.00,M,M,M,M,M,M,M,M,M,64.40,VHHH 281100Z 06005KT 9999 FEW020 SCT035 18/14 Q1016 NOSIG
VHHH,2017-01-28 11:30,113.9219,22.3094,66.20,53.60,63.82,30.00,7.00,0.00,30.03,M,6.21,M,FEW,SCT,M,M,2000.00,3000.00,M,M,M,M,M,M,M,M,M,66.20,VHHH 281130Z 03007KT 9999 FEW020 SCT030 19/12 Q1017 NOSIG
VHHH,2017-01-28 12:00,113.9219,22.3094,66.20,55.40,68.15,80.00,7.00,0.00,30.00,M,6.21,M,FEW,SCT,M,M,2000.00,3000.00,M,M,M,M,M,M,M,M,M,66.20,VHHH 281200Z 08007KT 040V110 9999 FEW020 SCT030 19/13 Q1016 NOSIG
VHHH,2017-01-28 12:30,113.9219,22.3094,66.20,55.40,68.15,110.00,10.00,0.00,30.03,M,6.21,M,FEW,SCT,M,M,2000.00,3000.00,M,M,M,M,M,M,M,M,M,66.20,VHHH 281230Z 11010KT 9999 FEW020 SCT030 19/13 Q1017 NOSIG
VHHH,2017-01-28 13:00,113.9219,22.3094,66.20,55.40,68.15,100.00,10.00,0.00,30.00,M,6.21,M,SCT,M,M,M,2500.00,M,M,M,M,M,M,M,M,M,M,66.20,VHHH 281300Z 10010KT 9999 SCT025 19/13 Q1016 NOSIG
VHHH,2017-01-28 13:30,113.9219,22.3094,66.20,57.20,72.74,90.00,11.00,0.00,30.03,M,6.21,M,SCT,M,M,M,2500.00,M,M,M,M,M,M,M,M,M,M,66.20,VHHH 281330Z 09011KT 9999 SCT025 19/14 Q1017 NOSIG
VHHH,2017-01-28 14:00,113.9219,22.3094,66.20,55.40,68.15,100.00,12.00,0.00,30.03,M,6.21,M,FEW,SCT,M,M,2200.00,2800.00,M,M,M,M,M,M,M,M,M,66.20,VHHH 281400Z 10012KT 9999 FEW022 SCT028 19/13 Q1017 NOSIG
VHHH,2017-01-28 14:30,113.9219,22.3094,66.20,55.40,68.15,100.00,14.00,0.00,30.00,M,6.21,M,FEW,SCT,M,M,2200.00,2800.00,M,M,M,M,M,M,M,M,M,66.20,VHHH 281430Z 10014KT 9999 FEW022 SCT028 19/13 Q1016 NOSIG
VHHH,2017-01-28 15:00,113.9219,22.3094,66.20,55.40,68.15,90.00,16.00,0.00,30.00,M,6.21,M,FEW,SCT,M,M,2200.00,2800.00,M,M,M,M,M,M,M,M,M,66.20,VHHH 281500Z 09016KT 9999 FEW022 SCT028 19/13 Q1016 NOSIG
VHHH,2017-01-28 15:30,113.9219,22.3094,66.20,57.20,72.74,80.00,14.00,0.00,30.00,M,6.21,M,FEW,SCT,M,M,2200.00,2800.00,M,M,M,M,M,M,M,M,M,66.20,VHHH 281530Z 08014KT 9999 FEW022 SCT028 19/14 Q1016 NOSIG
VHHH,2017-01-28 16:00,113.9219,22.3094,66.20,57.20,72.74,80.00,16.00,0.00,30.00,M,6.21,M,FEW,SCT,M,M,2200.00,2800.00,M,M,M,M,M,M,M,M,M,66.20,VHHH 281600Z 08016KT 9999 FEW022 SCT028 19/14 Q1016 NOSIG
VHHH,2017-01-28 16:30,113.9219,22.3094,68.00,57.20,68.35,80.00,15.00,0.00,30.00,M,6.21,M,FEW,SCT,M,M,2000.00,2800.00,M,M,M,M,M,M,M,M,M,68.00,VHHH 281630Z 08015KT 9999 FEW020 SCT028 20/14 Q1016 NOSIG
VHHH,2017-01-28 17:00,113.9219,22.3094,66.20,59.00,77.60,80.00,17.00,0.00,29.97,M,6.21,M,FEW,SCT,M,M,2000.00,2800.00,M,M,M,M,M,M,M,M,M,66.20,VHHH 281700Z 08017KT 9999 FEW020 SCT028 19/15 Q1015 NOSIG
VHHH,2017-01-28 17:30,113.9219,22.3094,66.20,59.00,77.60,80.00,18.00,0.00,29.97,M,6.21,M,FEW,SCT,M,M,1800.00,2800.00,M,M,M,M,M,M,M,M,M,66.20,VHHH 281730Z 08018KT 9999 FEW018 SCT028 19/15 Q1015 NOSIG
VHHH,2017-01-28 18:00,113.9219,22.3094,66.20,60.80,82.74,60.00,15.00,0.00,29.97,M,6.21,M,FEW,SCT,M,M,1800.00,2800.00,M,M,M,M,M,M,M,M,M,66.20,VHHH 281800Z 06015KT 9999 FEW018 SCT028 19/16 Q1015 NOSIG
VHHH,2017-01-28 18:30,113.9219,22.3094,68.00,60.80,77.75,70.00,15.00,0.00,29.97,M,6.21,M,FEW,SCT,M,M,1800.00,2800.00,M,M,M,M,M,M,M,M,M,68.00,VHHH 281830Z 07015KT 9999 FEW018 SCT028 20/16 Q1015 NOSIG
VHHH,2017-01-28 19:00,113.9219,22.3094,66.20,60.80,82.74,80.00,16.00,0.00,29.97,M,5.59,M,FEW,SCT,M,M,1500.00,2500.00,M,M,M,M,M,M,M,M,M,66.20,VHHH 281900Z 08016KT 9000 FEW015 SCT025 19/16 Q1015 NOSIG
VHHH,2017-01-28 19:30,113.9219,22.3094,68.00,60.80,77.75,80.00,14.00,0.00,29.97,M,5.59,M,FEW,SCT,M,M,1500.00,2500.00,M,M,M,M,M,M,M,M,M,68.00,VHHH 281930Z 08014KT 9000 FEW015 SCT025 20/16 Q1015 NOSIG
VHHH,2017-01-28 20:00,113.9219,22.3094,68.00,60.80,77.75,90.00,15.00,0.00,29.94,M,5.59,M,FEW,SCT,M,M,1500.00,2500.00,M,M,M,M,M,M,M,M,M,68.00,VHHH 282000Z 09015KT 9000 FEW015 SCT025 20/16 Q1014 NOSIG
VHHH,2017-01-28 20:30,113.9219,22.3094,66.20,62.60,88.18,90.00,15.00,0.00,29.94,M,5.59,M,FEW,SCT,M,M,1300.00,2500.00,M,M,M,M,M,M,M,M,M,66.20,VHHH 282030Z 09015KT 9000 FEW013 SCT025 19/17 Q1014 NOSIG
VHHH,2017-01-28 21:00,113.9219,22.3094,66.20,60.80,82.74,80.00,12.00,0.00,29.94,M,5.59,M,FEW,SCT,M,M,1300.00,2500.00,M,M,M,M,M,M,M,M,M,66.20,VHHH 282100Z 08012KT 9000 FEW013 SCT025 19/16 Q1014 NOSIG
VHHH,2017-01-28 21:30,113.9219,22.3094,68.00,62.60,82.86,100.00,10.00,0.00,29.97,M,5.59,M,FEW,SCT,M,M,1300.00,2500.00,M,M,M,M,M,M,M,M,M,68.00,VHHH 282130Z 10010KT 9000 FEW013 SCT025 20/17 Q1015 NOSIG
VHHH,2017-01-28 22:00,113.9219,22.3094,68.00,62.60,82.86,90.00,9.00,0.00,29.97,M,5.59,M,FEW,SCT,M,M,1300.00,2500.00,M,M,M,M,M,M,M,M,M,68.00,VHHH 282200Z 09009KT 9000 FEW013 SCT025 20/17 Q1015 NOSIG
VHHH,2017-01-28 22:30,113.9219,22.3094,68.00,62.60,82.86,90.00,8.00,0.00,29.97,M,5.59,M,FEW,SCT,M,M,1300.00,2500.00,M,M,M,M,M,M,M,M,M,68.00,VHHH 282230Z 09008KT 9000 FEW013 SCT025 20/17 Q1015 NOSIG
VHHH,2017-01-28 23:00,113.9219,22.3094,68.00,62.60,82.86,100.00,8.00,0.00,30.00,M,5.59,M,FEW,SCT,M,M,1300.00,2500.00,M,M,M,M,M,M,M,M,M,68.00,VHHH 282300Z 10008KT 9000 FEW013 SCT025 20/17 Q1016 NOSIG
VHHH,2017-01-28 23:30,113.9219,22.3094,68.00,62.60,82.86,110.00,10.00,0.00,30.00,M,5.59,M,FEW,SCT,M,M,1300.00,2500.00,M,M,M,M,M,M,M,M,M,68.00,VHHH 282330Z 11010KT 9000 FEW013 SCT025 20/17 Q1016 NOSIG
VHHH,2017-01-29 00:00,113.9219,22.3094,68.00,62.60,82.86,100.00,11.00,0.00,30.00,M,5.59,M,FEW,SCT,M,M,1200.00,2500.00,M,M,M,M,M,M,M,M,M,68.00,VHHH 290000Z 10011KT 9000 FEW012 SCT025 20/17 Q1016 NOSIG
VHHH,2017-01-29 00:30,113.9219,22.3094,69.80,62.60,77.90,100.00,10.00,0.00,30.00,M,6.21,M,FEW,SCT,M,M,1200.00,2500.00,M,M,M,M,M,M,M,M,M,69.80,VHHH 290030Z 10010KT 9999 FEW012 SCT025 21/17 Q1016 NOSIG
VHHH,2017-01-29 01:00,113.9219,22.3094,69.80,62.60,77.90,80.00,13.00,0.00,30.03,M,6.21,M,FEW,SCT,M,M,1200.00,2500.00,M,M,M,M,M,M,M,M,M,69.80,VHHH 290100Z 08013KT 9999 FEW012 SCT025 21/17 Q1017 NOSIG
VHHH,2017-01-29 01:30,113.9219,22.3094,68.00,62.60,82.86,100.00,15.00,0.00,30.03,M,6.21,M,FEW,SCT,M,M,1500.00,2500.00,M,M,M,M,M,M,M,M,M,68.00,VHHH 290130Z 10015KT 9999 FEW015 SCT025 20/17 Q1017 NOSIG
VHHH,2017-01-29 02:00,113.9219,22.3094,69.80,62.60,77.90,80.00,12.00,0.00,30.06,M,6.21,M,FEW,SCT,M,M,1500.00,2500.00,M,M,M,M,M,M,M,M,M,69.80,VHHH 290200Z 08012KT 9999 FEW015 SCT025 21/17 Q1018 NOSIG
VHHH,2017-01-29 02:30,113.9219,22.3094,69.80,62.60,77.90,90.00,11.00,0.00,30.06,M,6.21,M,FEW,SCT,M,M,1500.00,2500.00,M,M,M,M,M,M,M,M,M,69.80,VHHH 290230Z 09011KT 9999 FEW015 SCT025 21/17 Q1018 NOSIG
VHHH,2017-01-29 03:00,113.9219,22.3094,71.60,62.60,73.27,90.00,14.00,0.00,30.03,M,6.21,M,FEW,SCT,M,M,1500.00,2500.00,M,M,M,M,M,M,M,M,M,71.60,VHHH 290300Z 09014KT 9999 FEW015 SCT025 22/17 Q1017 NOSIG
VHHH,2017-01-29 03:30,113.9219,22.3094,71.60,62.60,73.27,90.00,15.00,0.00,30.03,M,6.21,M,FEW,SCT,M,M,1500.00,2500.00,M,M,M,M,M,M,M,M,M,71.60,VHHH 290330Z 09015KT 9999 FEW015 SCT025 22/17 Q1017 NOSIG
VHHH,2017-01-29 04:00,113.9219,22.3094,71.60,62.60,73.27,90.00,12.00,0.00,30.03,M,6.21,M,FEW,SCT,M,M,1500.00,2500.00,M,M,M,M,M,M,M,M,M,71.60,VHHH 290400Z 09012KT 9999 FEW015 SCT025 22/17 Q1017 NOSIG
VHHH,2017-01-29 04:30,113.9219,22.3094,69.80,62.60,77.90,220.00,7.00,0.00,30.03,M,3.11,M,FEW,SCT,M,M,1200.00,2000.00,M,M,M,M,M,M,M,M,M,69.80,VHHH 290430Z 22007KT 130V290 5000 FEW012 SCT020 21/17 Q1017 TEMPO 3000 BR -RA
VHHH,2017-01-29 04:33,113.9219,22.3094,69.80,62.60,77.90,250.00,6.00,0.00,30.00,M,2.98,M,FEW,SCT,M,M,1200.00,2000.00,M,M,BR,M,M,M,M,M,M,69.80,VHHH 290433Z 25006KT 190V300 4800 BR FEW012 SCT020 21/17 Q1016 NOSIG
VHHH,2017-01-29 04:58,113.9219,22.3094,68.00,62.60,82.86,300.00,8.00,0.00,30.00,M,1.68,M,FEW,SCT,M,M,1200.00,2000.00,M,M,BR,M,M,M,M,M,M,68.00,VHHH 290458Z 30008KT 2700 BR FEW012 SCT020 20/17 Q1016 NOSIG
VHHH,2017-01-29 05:00,113.9219,22.3094,68.00,62.60,82.86,300.00,8.00,0.00,30.00,M,1.74,M,FEW,SCT,M,M,1200.00,2000.00,M,M,BR,M,M,M,M,M,M,68.00,VHHH 290500Z 30008KT 2800 BR FEW012 SCT020 20/17 Q1016 NOSIG
VHHH,2017-01-29 05:30,113.9219,22.3094,68.00,62.60,82.86,270.00,7.00,0.00,30.00,M,1.99,M,FEW,SCT,M,M,1200.00,2000.00,M,M,BR,M,M,M,M,M,M,68.00,VHHH 290530Z 27007KT 3200 BR FEW012 SCT020 20/17 Q1016 TEMPO 2500 BR -RA
VHHH,2017-01-29 05:46,113.9219,22.3094,68.00,62.60,82.86,280.00,8.00,0.00,30.00,M,1.74,M,FEW,SCT,M,M,900.00,2000.00,M,M,-RA BR,M,M,M,M,M,M,68.00,VHHH 290546Z 28008KT 2800 -RA BR FEW009 SCT020 20/17 Q1016 NOSIG
VHHH,2017-01-29 06:00,113.9219,22.3094,68.00,64.40,88.26,300.00,5.00,0.00,30.00,M,1.12,M,FEW,SCT,M,M,800.00,2000.00,M,M,-RA BR,M,M,M,M,M,M,68.00,VHHH 290600Z 30005KT 280V340 1800 R07R/1200N R25L/1500D R07L/1600D R25R/P2000D -RA BR FEW008 SCT020 20/18 Q1016 NOSIG
VHHH,2017-01-29 06:19,113.9219,22.3094,66.20,64.40,93.92,M,3.00,0.00,30.00,M,0.87,M,FEW,SCT,M,M,800.00,2000.00,M,M,-RA BR,M,M,M,M,M,M,66.20,VHHH 290619Z VRB03KT 1400 1300N R07R/1300U R25L/1500N R07L/1400N R25R/1700D -RA BR FEW008 SCT020 19/18 Q1016 NOSIG
VHHH,2017-01-29 06:30,113.9219,22.3094,68.00,64.40,88.26,M,3.00,0.00,29.97,M,0.87,M,FEW,SCT,M,M,800.00,2000.00,M,M,-RA BR,M,M,M,M,M,M,68.00,VHHH 290630Z VRB03KT 1400 1300E R07R/1900U R25L/1900U R07L/1400N R25R/1700N -RA BR FEW008 SCT020 20/18 Q1015 NOSIG
VHHH,2017-01-29 06:38,113.9219,22.3094,68.00,64.40,88.26,330.00,5.00,0.00,29.97,M,0.93,M,FEW,SCT,M,M,800.00,2000.00,M,M,-RA BR,M,M,M,M,M,M,68.00,VHHH 290638Z 33005KT 1500 1200E R07R/P2000U R25L/P2000D R07L/1600U R25R/1700N -RA BR FEW008 SCT020 20/18 Q1015 NOSIG
VHHH,2017-01-29 07:00,113.9219,22.3094,66.20,64.40,93.92,330.00,5.00,0.00,29.97,M,1.24,M,FEW,SCT,M,M,800.00,2200.00,M,M,BR,M,M,M,M,M,M,66.20,VHHH 290700Z 33005KT 2000 BR FEW008 SCT022 19/18 Q1015 NOSIG
VHHH,2017-01-29 07:30,113.9219,22.3094,68.00,64.40,88.26,350.00,5.00,0.00,29.97,M,1.24,M,FEW,SCT,M,M,800.00,2500.00,M,M,BR,M,M,M,M,M,M,68.00,VHHH 290730Z 35005KT 2000 BR FEW008 SCT025 20/18 Q1015 NOSIG
VHHH,2017-01-29 08:00,113.9219,22.3094,68.00,64.40,88.26,320.00,5.00,0.00,29.97,M,1.12,M,FEW,SCT,M,M,800.00,2500.00,M,M,BR,M,M,M,M,M,M,68.00,VHHH 290800Z 32005KT 290V350 1800 BR FEW008 SCT025 20/18 Q1015 NOSIG
VHHH,2017-01-29 08:30,113.9219,22.3094,68.00,64.40,88.26,300.00,5.00,0.00,30.00,M,1.49,M,FEW,SCT,M,M,600.00,2000.00,M,M,BR,M,M,M,M,M,M,68.00,VHHH 290830Z 30005KT 2400 BR FEW006 SCT020 20/18 Q1016 NOSIG
VHHH,2017-01-29 09:00,113.9219,22.3094,68.00,64.40,88.26,M,2.00,0.00,30.00,M,1.49,M,FEW,SCT,M,M,800.00,2200.00,M,M,BR,M,M,M,M,M,M,68.00,VHHH 290900Z VRB02KT 2400 BR FEW008 SCT022 20/18 Q1016 NOSIG
VHHH,2017-01-29 09:30,113.9219,22.3094,69.80,64.40,82.98,20.00,4.00,0.00,30.00,M,1.55,M,FEW,SCT,M,M,900.00,1800.00,M,M,BR,M,M,M,M,M,M,69.80,VHHH 290930Z 02004KT 2500 BR FEW009 SCT018 21/18 Q1016 NOSIG
VHHH,2017-01-29 09:32,113.9219,22.3094,69.80,64.40,82.98,20.00,4.00,0.00,30.00,M,2.36,M,FEW,SCT,M,M,900.00,1800.00,M,M,BR,M,M,M,M,M,M,69.80,VHHH 290932Z 02004KT 3800 BR FEW009 SCT018 21/18 Q1016 NOSIG
VHHH,2017-01-29 09:40,113.9219,22.3094,69.80,64.40,82.98,50.00,5.00,0.00,30.00,M,3.11,M,FEW,SCT,M,M,900.00,1800.00,M,M,M,M,M,M,M,M,M,69.80,VHHH 290940Z 05005KT 020V090 5000 FEW009 SCT018 21/18 Q1016 NOSIG
VHHH,2017-01-29 09:54,113.9219,22.3094,69.80,64.40,82.98,110.00,10.00,0.00,30.00,M,6.21,M,FEW,SCT,M,M,900.00,1600.00,M,M,M,M,M,M,M,M,M,69.80,VHHH 290954Z 11010KT 070V180 9999 4700W FEW009 SCT016 21/18 Q1016 NOSIG
VHHH,2017-01-29 10:00,113.9219,22.3094,69.80,64.40,82.98,110.00,9.00,0.00,30.00,M,6.21,M,FEW,SCT,M,M,900.00,1600.00,M,M,M,M,M,M,M,M,M,69.80,VHHH 291000Z 11009KT 9999 FEW009 SCT016 21/18 Q1016 NOSIG
VHHH,2017-01-29 10:30,113.9219,22.3094,69.80,64.40,82.98,110.00,10.00,0.00,30.00,M,6.21,M,FEW,SCT,M,M,900.00,1600.00,M,M,M,M,M,M,M,M,M,69.80,VHHH 291030Z 11010KT 9999 FEW009 SCT016 21/18 Q1016 NOSIG
VHHH,2017-01-29 11:00,113.9219,22.3094,69.80,64.40,82.98,110.00,10.00,0.00,30.00,M,6.21,M,FEW,SCT,M,M,900.00,1400.00,M,M,M,M,M,M,M,M,M,69.80,VHHH 291100Z 11010KT 9999 FEW009 SCT014 21/18 Q1016 NOSIG
VHHH,2017-01-29 11:30,113.9219,22.3094,68.00,64.40,88.26,80.00,8.00,0.00,30.00,M,6.21,M,FEW,SCT,M,M,900.00,1400.00,M,M,M,M,M,M,M,M,M,68.00,VHHH 291130Z 08008KT 9999 FEW009 SCT014 20/18 Q1016 NOSIG
VHHH,2017-01-29 12:00,113.9219,22.3094,69.80,64.40,82.98,80.00,10.00,0.00,30.00,M,6.21,M,FEW,SCT,M,M,900.00,1400.00,M,M,M,M,M,M,M,M,M,69.80,VHHH 291200Z 08010KT 9999 FEW009 SCT014 21/18 Q1016 NOSIG
VHHH,2017-01-29 12:30,113.9219,22.3094,69.80,64.40,82.98,70.00,9.00,0.00,30.03,M,5.59,M,FEW,SCT,M,M,900.00,1400.00,M,M,M,M,M,M,M,M,M,69.80,VHHH 291230Z 07009KT 9000 FEW009 SCT014 21/18 Q1017 NOSIG
VHHH,2017-01-29 12:56,113.9219,22.3094,71.60,64.40,78.04,10.00,5.00,0.00,30.03,M,2.17,M,FEW,SCT,M,M,900.00,1400.00,M,M,BR,M,M,M,M,M,M,71.60,VHHH 291256Z 01005KT 340V060 3500 BR FEW009 SCT014 22/18 Q1017 NOSIG
VHHH,2017-01-29 13:00,113.9219,22.3094,69.80,64.40,82.98,10.00,5.00,0.00,30.03,M,2.73,M,FEW,SCT,M,M,900.00,1400.00,M,M,BR,M,M,M,M,M,M,69.80,VHHH 291300Z 01005KT 340V040 4400 BR FEW009 SCT014 21/18 Q1017 NOSIG
VHHH,2017-01-29 13:30,113.9219,22.3094,69.80,64.40,82.98,80.00,5.00,0.00,30.03,M,3.73,M,FEW,SCT,M,M,900.00,1400.00,M,M,M,M,M,M,M,M,M,69.80,VHHH 291330Z 08005KT 050V120 6000 FEW009 SCT014 21/18 Q1017 TEMPO 3500 BR -RA
VHHH,2017-01-29 14:00,113.9219,22.3094,69.80,64.40,82.98,120.00,7.00,0.00,30.03,M,5.59,M,FEW,SCT,M,M,1000.00,1500.00,M,M,M,M,M,M,M,M,M,69.80,VHHH 291400Z 12007KT 090V170 9000 FEW010 SCT015 21/18 Q1017 TEMPO 3500 BR -RA
VHHH,2017-01-29 14:30,113.9219,22.3094,69.80,66.20,88.34,100.00,7.00,0.00,30.03,M,4.97,M,FEW,SCT,M,M,1000.00,1600.00,M,M,M,M,M,M,M,M,M,69.80,VHHH 291430Z 10007KT 070V130 8000 FEW010 SCT016 21/19 Q1017 TEMPO 3500 BR -RA
VHHH,2017-01-29 15:00,113.9219,22.3094,68.00,66.20,93.97,100.00,7.00,0.00,30.03,M,4.97,M,FEW,SCT,M,M,1000.00,1600.00,M,M,M,M,M,M,M,M,M,68.00,VHHH 291500Z 10007KT 070V130 8000 FEW010 SCT016 20/19 Q1017 TEMPO 3500 BR -RA
VHHH,2017-01-29 15:30,113.9219,22.3094,68.00,66.20,93.97,90.00,7.00,0.00,30.03,M,4.97,M,FEW,SCT,M,M,1000.00,1600.00,M,M,M,M,M,M,M,M,M,68.00,VHHH 291530Z 09007KT 8000 FEW010 SCT016 20/19 Q1017 TEMPO 3500 BR -RA
VHHH,2017-01-29 16:00,113.9219,22.3094,69.80,66.20,88.34,50.00,7.00,0.00,30.03,M,3.73,M,FEW,SCT,M,M,1000.00,1600.00,M,M,M,M,M,M,M,M,M,69.80,VHHH 291600Z 05007KT 6000 FEW010 SCT016 21/19 Q1017 TEMPO 3500 BR -RA
VHHH,2017-01-29 16:30,113.9219,22.3094,68.00,66.20,93.97,80.00,6.00,0.00,30.06,M,4.97,M,FEW,SCT,M,M,1000.00,1600.00,M,M,M,M,M,M,M,M,M,68.00,VHHH 291630Z 08006KT 8000 FEW010 SCT016 20/19 Q1018 NOSIG
VHHH,2017-01-29 17:00,113.9219,22.3094,68.00,64.40,88.26,120.00,7.00,0.00,30.06,M,5.59,M,FEW,SCT,M,M,1000.00,1600.00,M,M,M,M,M,M,M,M,M,68.00,VHHH 291700Z 12007KT 100V160 9000 FEW010 SCT016 20/18 Q1018 NOSIG
VHHH,2017-01-29 17:30,113.9219,22.3094,69.80,66.20,88.34,110.00,6.00,0.00,30.03,M,5.59,M,FEW,SCT,M,M,1000.00,1600.00,M,M,M,M,M,M,M,M,M,69.80,VHHH 291730Z 11006KT 9000 FEW010 SCT016 21/19 Q1017 NOSIG
VHHH,2017-01-29 18:00,113.9219,22.3094,68.00,66.20,93.97,50.00,4.00,0.00,30.03,M,4.35,M,FEW,SCT,M,M,1000.00,1600.00,M,M,M,M,M,M,M,M,M,68.00,VHHH 291800Z 05004KT 7000 FEW010 SCT016 20/19 Q1017 NOSIG
VHHH,2017-01-29 18:30,113.9219,22.3094,69.80,66.20,88.34,80.00,3.00,0.00,30.03,M,4.97,M,FEW,SCT,M,M,1000.00,1600.00,M,M,M,M,M,M,M,M,M,69.80,VHHH 291830Z 08003KT 050V120 8000 FEW010 SCT016 21/19 Q1017 NOSIG
VHHH,2017-01-29 19:00,113.9219,22.3094,68.00,66.20,93.97,330.00,3.00,0.00,30.03,M,3.73,M,FEW,SCT,M,M,800.00,1600.00,M,M,M,M,M,M,M,M,M,68.00,VHHH 291900Z 33003KT 6000 FEW008 SCT016 20/19 Q1017 TEMPO 3500 BR -RA
VHHH,2017-01-29 19:30,113.9219,22.3094,68.00,66.20,93.97,10.00,3.00,0.00,30.03,M,3.11,M,FEW,SCT,M,M,800.00,1600.00,M,M,M,M,M,M,M,M,M,68.00,VHHH 291930Z 01003KT 5000 FEW008 SCT016 20/19 Q1017 TEMPO 3500 BR -RA
VHHH,2017-01-29 20:00,113.9219,22.3094,68.00,66.20,93.97,M,2.00,0.00,30.03,M,3.73,M,FEW,SCT,M,M,800.00,1600.00,M,M,M,M,M,M,M,M,M,68.00,VHHH 292000Z VRB02KT 6000 FEW008 SCT016 20/19 Q1017 TEMPO 3500 BR -RA
VHHH,2017-01-29 20:30,113.9219,22.3094,68.00,66.20,93.97,M,2.00,0.00,30.03,M,3.73,M,FEW,SCT,M,M,800.00,1600.00,M,M,M,M,M,M,M,M,M,68.00,VHHH 292030Z VRB02KT 6000 FEW008 SCT016 20/19 Q1017 TEMPO 3500 BR -RA
VHHH,2017-01-29 20:35,113.9219,22.3094,68.00,66.20,93.97,350.00,4.00,0.00,30.03,M,2.67,M,FEW,SCT,M,M,800.00,1600.00,M,M,BR,M,M,M,M,M,M,68.00,VHHH 292035Z 35004KT 320V030 4300 BR FEW008 SCT016 20/19 Q1017 TEMPO 3500 BR -RA
VHHH,2017-01-29 20:39,113.9219,22.3094,68.00,66.20,93.97,350.00,5.00,0.00,30.03,M,1.49,M,FEW,SCT,M,M,800.00,1600.00,M,M,BR,M,M,M,M,M,M,68.00,VHHH 292039Z 35005KT 330V030 2400 BR FEW008 SCT016 20/19 Q1017 NOSIG
VHHH,2017-01-29 21:00,113.9219,22.3094,68.00,66.20,93.97,30.00,3.00,0.00,30.00,M,1.30,M,FEW,SCT,M,M,800.00,1600.00,M,M,BR,M,M,M,M,M,M,68.00,VHHH 292100Z 03003KT 2100 BR FEW008 SCT016 20/19 Q1016 NOSIG
VHHH,2017-01-29 21:30,113.9219,22.3094,68.00,66.20,93.97,360.00,5.00,0.00,30.03,M,1.62,M,FEW,SCT,M,M,700.00,1600.00,M,M,BR,M,M,M,M,M,M,68.00,VHHH 292130Z 36005KT 2600 BR FEW007 SCT016 20/19 Q1017 NOSIG
VHHH,2017-01-29 22:00,113.9219,22.3094,68.00,66.20,93.97,340.00,6.00,0.00,30.03,M,1.93,M,FEW,SCT,M,M,700.00,1600.00,M,M,BR,M,M,M,M,M,M,68.00,VHHH 292200Z 34006KT 3100 BR FEW007 SCT016 20/19 Q1017 TEMPO 2500 BR -RA
VHHH,2017-01-29 22:30,113.9219,22.3094,68.00,66.20,93.97,40.00,3.00,0.00,30.03,M,2.11,M,FEW,SCT,M,M,1000.00,1800.00,M,M,BR,M,M,M,M,M,M,68.00,VHHH 292230Z 04003KT 3400 BR FEW010 SCT018 20/19 Q1017 TEMPO 2500 BR -RA
VHHH,2017-01-29 23:00,113.9219,22.3094,69.80,66.20,88.34,320.00,3.00,0.00,30.06,M,2.05,M,FEW,SCT,M,M,1000.00,1800.00,M,M,BR,M,M,M,M,M,M,69.80,VHHH 292300Z 32003KT 3300 BR FEW010 SCT018 21/19 Q1018 TEMPO 2500 BR -RA
VHHH,2017-01-29 23:03,113.9219,22.3094,69.80,66.20,88.34,330.00,3.00,0.00,30.06,M,1.55,M,FEW,SCT,M,M,1000.00,1800.00,M,M,BR,M,M,M,M,M,M,69.80,VHHH 292303Z 33003KT 2500 BR FEW010 SCT018 21/19 Q1018 NOSIG
VHHH,2017-01-29 23:30,113.9219,22.3094,68.00,66.20,93.97,340.00,6.00,0.00,30.06,M,1.12,M,FEW,SCT,M,M,1000.00,1800.00,M,M,BR,M,M,M,M,M,M,68.00,VHHH 292330Z 34006KT 1800 BR FEW010 SCT018 20/19 Q1018 NOSIG
VHHH,2017-01-30 00:00,113.9219,22.3094,68.00,66.20,93.97,340.00,6.00,0.00,30.06,M,1.06,M,FEW,SCT,M,M,800.00,1600.00,M,M,BR,M,M,M,M,M,M,68.00,VHHH 300000Z 34006KT 1700 1400E R07R/1800N R25L/P2000U R07L/1900N R25R/P2000N BR FEW008 SCT016 20/19 Q1018 NOSIG
VHHH,2017-01-30 00:30,113.9219,22.3094,69.80,66.20,88.34,M,3.00,0.00,30.06,M,1.18,M,FEW,SCT,M,M,800.00,1800.00,M,M,BR,M,M,M,M,M,M,69.80,VHHH 300030Z VRB03KT 350V060 1900 BR FEW008 SCT018 21/19 Q1018 NOSIG
VHHH,2017-01-30 00:36,113.9219,22.3094,69.80,66.20,88.34,M,2.00,0.00,30.06,M,2.30,M,FEW,SCT,M,M,800.00,1800.00,M,M,BR,M,M,M,M,M,M,69.80,VHHH 300036Z VRB02KT 3700 BR FEW008 SCT018 21/19 Q1018 NOSIG
VHHH,2017-01-30 01:00,113.9219,22.3094,71.60,66.20,83.09,M,3.00,0.00,30.09,M,2.61,M,FEW,M,M,M,800.00,M,M,M,BR,M,M,M,M,M,M,71.60,VHHH 300100Z VRB03KT 4200 BR FEW008 22/19 Q1019 NOSIG
VHHH,2017-01-30 01:07,113.9219,22.3094,71.60,66.20,83.09,M,2.00,0.00,30.09,M,3.11,M,FEW,M,M,M,800.00,M,M,M,M,M,M,M,M,M,M,71.60,VHHH 300107Z VRB02KT 5000 FEW008 22/19 Q1019 TEMPO 3500 BR
VHHH,2017-01-30 01:20,113.9219,22.3094,71.60,66.20,83.09,330.00,5.00,0.00,30.09,M,2.92,M,FEW,M,M,M,800.00,M,M,M,BR,M,M,M,M,M,M,71.60,VHHH 300120Z 33005KT 4700 2300W BR FEW008 22/19 Q1019 NOSIG
VHHH,2017-01-30 01:30,113.9219,22.3094,71.60,66.20,83.09,320.00,6.00,0.00,30.09,M,2.98,M,FEW,SCT,M,M,800.00,1800.00,M,M,BR,M,M,M,M,M,M,71.60,VHHH 300130Z 32006KT 4800 2200W BR FEW008 SCT018 22/19 Q1019 NOSIG
VHHH,2017-01-30 01:37,113.9219,22.3094,69.80,66.20,88.34,330.00,8.00,0.00,30.09,M,1.74,M,FEW,SCT,M,M,800.00,1600.00,M,M,BR,M,M,M,M,M,M,69.80,VHHH 300137Z 33008KT 2800 BR FEW008 SCT016 21/19 Q1019 NOSIG
VHHH,2017-01-30 02:00,113.9219,22.3094,69.80,66.20,88.34,340.00,10.00,0.00,30.09,M,1.24,M,FEW,SCT,M,M,800.00,1600.00,M,M,BR,M,M,M,M,M,M,69.80,VHHH 300200Z 34010KT 2000 BR FEW008 SCT016 21/19 Q1019 NOSIG
VHHH,2017-01-30 02:30,113.9219,22.3094,69.80,66.20,88.34,330.00,10.00,0.00,30.09,M,1.43,M,FEW,SCT,M,M,800.00,1800.00,M,M,BR,M,M,M,M,M,M,69.80,VHHH 300230Z 33010KT 2300 BR FEW008 SCT018 21/19 Q1019 NOSIG
VHHH,2017-01-30 03:00,113.9219,22.3094,69.80,66.20,88.34,330.00,10.00,0.00,30.09,M,1.37,M,FEW,SCT,M,M,800.00,1800.00,M,M,BR,M,M,M,M,M,M,69.80,VHHH 300300Z 33010KT 2200 BR FEW008 SCT018 21/19 Q1019 NOSIG
VHHH,2017-01-30 03:30,113.9219,22.3094,69.80,66.20,88.34,330.00,11.00,0.00,30.09,M,1.24,M,FEW,SCT,M,M,800.00,1600.00,M,M,BR,M,M,M,M,M,M,69.80,VHHH 300330Z 33011KT 2000 BR FEW008 SCT016 21/19 Q1019 NOSIG
VHHH,2017-01-30 04:00,113.9219,22.3094,69.80,66.20,88.34,340.00,10.00,0.00,30.09,M,1.30,M,FEW,SCT,M,M,800.00,1400.00,M,M,BR,M,M,M,M,M,M,69.80,VHHH 300400Z 34010KT 2100 BR FEW008 SCT014 21/19 Q1019 NOSIG
VHHH,2017-01-30 04:30,113.9219,22.3094,71.60,66.20,83.09,320.00,8.00,0.00,30.06,M,1.37,M,FEW,SCT,M,M,600.00,1500.00,M,M,BR,M,M,M,M,M,M,71.60,VHHH 300430Z 32008KT 2200 BR FEW006 SCT015 22/19 Q1018 NOSIG
VHHH,2017-01-30 05:00,113.9219,22.3094,71.60,66.20,83.09,280.00,7.00,0.00,30.06,M,1.55,M,FEW,SCT,M,M,800.00,1600.00,M,M,BR,M,M,M,M,M,M,71.60,VHHH 300500Z 28007KT 240V300 2500 BR FEW008 SCT016 22/19 Q1018 NOSIG
VHHH,2017-01-30 05:30,113.9219,22.3094,71.60,66.20,83.09,320.00,8.00,0.00,30.03,M,1.80,M,FEW,SCT,M,M,800.00,1600.00,M,M,BR,M,M,M,M,M,M,71.60,VHHH 300530Z 32008KT 2900 BR FEW008 SCT016 22/19 Q1017 NOSIG
VHHH,2017-01-30 05:38,113.9219,22.3094,71.60,66.20,83.09,330.00,8.00,0.00,30.03,M,1.86,M,FEW,SCT,M,M,800.00,1600.00,M,M,BR,M,M,M,M,M,M,71.60,VHHH 300538Z 33008KT 3000 BR FEW008 SCT016 22/19 Q1017 NOSIG
VHHH,2017-01-30 05:45,113.9219,22.3094,71.60,66.20,83.09,330.00,7.00,0.00,30.03,M,1.80,M,FEW,SCT,M,M,800.00,1600.00,M,M,BR,M,M,M,M,M,M,71.60,VHHH 300545Z 33007KT 2900 BR FEW008 SCT016 22/19 Q1017 NOSIG
VHHH,2017-01-30 06:00,113.9219,22.3094,71.60,64.40,78.04,340.00,10.00,0.00,30.03,M,2.24,M,FEW,SCT,M,M,800.00,1600.00,M,M,BR,M,M,M,M,M,M,71.60,VHHH 300600Z 34010KT 3600 BR FEW008 SCT016 22/18 Q1017 NOSIG
VHHH,2017-01-30 06:30,113.9219,22.3094,71.60,64.40,78.04,340.00,9.00,0.00,30.03,M,3.04,M,FEW,SCT,M,M,600.00,1600.00,M,M,BR,M,M,M,M,M,M,71.60,VHHH 300630Z 34009KT 4900 BR FEW006 SCT016 22/18 Q1017 NOSIG
VHHH,2017-01-30 06:45,113.9219,22.3094,71.60,64.40,78.04,320.00,12.00,0.00,30.03,M,3.73,M,FEW,SCT,M,M,600.00,1600.00,M,M,M,M,M,M,M,M,M,71.60,VHHH 300645Z 32012KT 6000 FEW006 SCT016 22/18 Q1017 NOSIG
VHHH,2017-01-30 07:00,113.9219,22.3094,71.60,64.40,78.04,320.00,12.00,0.00,30.00,M,4.35,M,FEW,SCT,M,M,600.00,2000.00,M,M,-RA,M,M,M,M,M,M,71.60,VHHH 300700Z 32012KT 7000 -RA FEW006 SCT020 22/18 Q1016 NOSIG
VHHH,2017-01-30 07:30,113.9219,22.3094,71.60,62.60,73.27,330.00,11.00,0.00,30.00,M,4.35,M,FEW,SCT,M,M,600.00,2000.00,M,M,M,M,M,M,M,M,M,71.60,VHHH 300730Z 33011KT 7000 FEW006 SCT020 22/17 Q1016 NOSIG
VHHH,2017-01-30 08:00,113.9219,22.3094,71.60,64.40,78.04,330.00,12.00,0.00,30.00,M,6.21,M,FEW,SCT,M,M,1200.00,2200.00,M,M,M,M,M,M,M,M,M,71.60,VHHH 300800Z 33012KT 9999 FEW012 SCT022 22/18 Q1016 NOSIG
VHHH,2017-01-30 08:30,113.9219,22.3094,71.60,64.40,78.04,330.00,6.00,0.00,30.03,M,6.21,M,FEW,SCT,M,M,1500.00,2500.00,M,M,M,M,M,M,M,M,M,71.60,VHHH 300830Z 33006KT 9999 FEW015 SCT025 22/18 Q1017 NOSIG
VHHH,2017-01-30 09:00,113.9219,22.3094,71.60,64.40,78.04,30.00,3.00,0.00,30.03,M,6.21,M,FEW,SCT,M,M,1500.00,2500.00,M,M,M,M,M,M,M,M,M,71.60,VHHH 300900Z 03003KT 340V070 9999 FEW015 SCT025 22/18 Q1017 NOSIG
VHHH,2017-01-30 09:30,113.9219,22.3094,71.60,64.40,78.04,40.00,4.00,0.00,30.03,M,6.21,M,FEW,SCT,M,M,1500.00,2800.00,M,M,M,M,M,M,M,M,M,71.60,VHHH 300930Z 04004KT 9999 FEW015 SCT028 22/18 Q1017 NOSIG
VHHH,2017-01-30 10:00,113.9219,22.3094,73.40,60.80,64.69,70.00,7.00,0.00,30.06,M,6.21,M,FEW,SCT,M,M,2500.00,3500.00,M,M,M,M,M,M,M,M,M,73.40,VHHH 301000Z 07007KT 9999 FEW025 SCT035 23/16 Q1018 NOSIG
VHHH,2017-01-30 10:30,113.9219,22.3094,71.60,62.60,73.27,70.00,7.00,0.00,30.06,M,6.21,M,FEW,SCT,M,M,2500.00,3500.00,M,M,M,M,M,M,M,M,M,71.60,VHHH 301030Z 07007KT 9999 FEW025 SCT035 22/17 Q1018 NOSIG
VHHH,2017-01-30 11:00,113.9219,22.3094,71.60,62.60,73.27,70.00,4.00,0.00,30.06,M,6.21,M,FEW,SCT,M,M,2000.00,3000.00,M,M,M,M,M,M,M,M,M,71.60,VHHH 301100Z 07004KT 9999 FEW020 SCT030 22/17 Q1018 NOSIG
VHHH,2017-01-30 11:30,113.9219,22.3094,69.80,62.60,77.90,60.00,3.00,0.00,30.06,M,6.21,M,FEW,SCT,M,M,2000.00,3000.00,M,M,M,M,M,M,M,M,M,69.80,VHHH 301130Z 06003KT 030V090 9999 FEW020 SCT030 21/17 Q1018 NOSIG
VHHH,2017-01-30 12:00,113.9219,22.3094,69.80,62.60,77.90,80.00,5.00,0.00,30.09,M,6.21,M,FEW,SCT,M,M,2000.00,3000.00,M,M,-RA,M,M,M,M,M,M,69.80,VHHH 301200Z 08005KT 050V120 9999 -RA FEW020 SCT030 21/17 Q1019 NOSIG
VHHH,2017-01-30 12:30,113.9219,22.3094,68.00,64.40,88.26,100.00,10.00,0.00,30.09,M,4.35,M,FEW,SCT,M,M,1800.00,2500.00,M,M,-RA,M,M,M,M,M,M,68.00,VHHH 301230Z 10010KT 7000 -RA FEW018 SCT025 20/18 Q1019 NOSIG
VHHH,2017-01-30 13:00,113.9219,22.3094,68.00,62.60,82.86,70.00,7.00,0.00,30.09,M,6.21,M,FEW,SCT,M,M,1200.00,2200.00,M,M,M,M,M,M,M,M,M,68.00,VHHH 301300Z 07007KT 9999 FEW012 SCT022 20/17 Q1019 NOSIG
VHHH,2017-01-30 13:30,113.9219,22.3094,66.20,62.60,88.18,120.00,12.00,0.00,30.09,M,5.59,M,FEW,SCT,M,M,900.00,1400.00,M,M,-RA,M,M,M,M,M,M,66.20,VHHH 301330Z 12012KT 9000 -RA FEW009 SCT014 19/17 Q1019 NOSIG
VHHH,2017-01-30 14:00,113.9219,22.3094,66.20,60.80,82.74,110.00,12.00,0.00,30.09,M,6.21,M,FEW,SCT,M,M,1000.00,1500.00,M,M,M,M,M,M,M,M,M,66.20,VHHH 301400Z 11012KT 9999 FEW010 SCT015 19/16 Q1019 NOSIG
VHHH,2017-01-30 14:30,113.9219,22.3094,66.20,60.80,82.74,110.00,11.00,0.00,30.09,M,5.59,M,FEW,SCT,M,M,900.00,1300.00,M,M,-RA,M,M,M,M,M,M,66.20,VHHH 301430Z 11011KT 9000 -RA FEW009 SCT013 19/16 Q1019 NOSIG
VHHH,2017-01-30 15:00,113.9219,22.3094,64.40,60.80,88.09,110.00,19.00,0.00,30.09,M,5.59,M,FEW,SCT,M,M,900.00,1300.00,M,M,M,M,M,M,M,M,M,64.40,VHHH 301500Z 11019KT 9000 FEW009 SCT013 18/16 Q1019 NOSIG
VHHH,2017-01-30 15:30,113.9219,22.3094,64.40,60.80,88.09,100.00,17.00,0.00,30.09,M,5.59,M,FEW,SCT,M,M,900.00,1300.00,M,M,M,M,M,M,M,M,M,64.40,VHHH 301530Z 10017KT 9000 FEW009 SCT013 18/16 Q1019 NOSIG
VHHH,2017-01-30 16:00,113.9219,22.3094,64.40,59.00,82.62,100.00,17.00,0.00,30.09,M,4.97,M,FEW,SCT,M,M,900.00,1200.00,M,M,M,M,M,M,M,M,M,64.40,VHHH 301600Z 10017KT 8000 FEW009 SCT012 18/15 Q1019 NOSIG
VHHH,2017-01-30 16:30,113.9219,22.3094,64.40,59.00,82.62,110.00,15.00,0.00,30.09,M,4.97,M,FEW,SCT,M,M,900.00,1200.00,M,M,-RA,M,M,M,M,M,M,64.40,VHHH 301630Z 11015KT 8000 -RA FEW009 SCT012 18/15 Q1019 NOSIG
VHHH,2017-01-30 17:00,113.9219,22.3094,64.40,59.00,82.62,100.00,13.00,0.00,30.09,M,4.97,M,FEW,SCT,M,M,900.00,1200.00,M,M,-RA,M,M,M,M,M,M,64.40,VHHH 301700Z 10013KT 8000 -RA FEW009 SCT012 18/15 Q1019 NOSIG
VHHH,2017-01-30 17:30,113.9219,22.3094,64.40,59.00,82.62,100.00,13.00,0.00,30.09,M,4.35,M,FEW,SCT,M,M,900.00,1300.00,M,M,-RA,M,M,M,M,M,M,64.40,VHHH 301730Z 10013KT 7000 -RA FEW009 SCT013 18/15 Q1019 NOSIG
VHHH,2017-01-30 18:00,113.9219,22.3094,64.40,59.00,82.62,80.00,10.00,0.00,30.09,M,4.97,M,FEW,SCT,M,M,900.00,1300.00,M,M,-RA,M,M,M,M,M,M,64.40,VHHH 301800Z 08010KT 8000 -RA FEW009 SCT013 18/15 Q1019 NOSIG
VHHH,2017-01-30 18:30,113.9219,22.3094,62.60,60.80,93.83,70.00,9.00,0.00,30.06,M,5.59,M,FEW,SCT,M,M,700.00,1200.00,M,M,-RA,M,M,M,M,M,M,62.60,VHHH 301830Z 07009KT 9000 -RA FEW007 SCT012 17/16 Q1018 NOSIG
VHHH,2017-01-30 19:00,113.9219,22.3094,62.60,59.00,88.00,80.00,10.00,0.00,30.09,M,5.59,M,FEW,SCT,M,M,700.00,1200.00,M,M,-RA,M,M,M,M,M,M,62.60,VHHH 301900Z 08010KT 9000 -RA FEW007 SCT012 17/15 Q1019 NOSIG
VHHH,2017-01-30 19:30,113.9219,22.3094,62.60,59.00,88.00,80.00,9.00,0.00,30.09,M,4.97,M,FEW,SCT,M,M,700.00,1200.00,M,M,-RA,M,M,M,M,M,M,62.60,VHHH 301930Z 08009KT 8000 -RA FEW007 SCT012 17/15 Q1019 NOSIG
VHHH,2017-01-30 20:00,113.9219,22.3094,62.60,59.00,88.00,100.00,9.00,0.00,30.09,M,5.59,19.00,FEW,SCT,M,M,800.00,1400.00,M,M,M,M,M,M,M,M,M,62.60,VHHH 302000Z 10009G19KT 050V130 9000 FEW008 SCT014 17/15 Q1019 NOSIG
VHHH,2017-01-30 20:30,113.9219,22.3094,62.60,59.00,88.00,90.00,7.00,0.00,30.09,M,6.21,M,FEW,SCT,M,M,800.00,1400.00,M,M,M,M,M,M,M,M,M,62.60,VHHH 302030Z 09007KT 9999 FEW008 SCT014 17/15 Q1019 NOSIG
VHHH,2017-01-30 21:00,113.9219,22.3094,62.60,59.00,88.00,110.00,7.00,0.00,30.09,M,6.21,M,FEW,SCT,M,M,800.00,1400.00,M,M,M,M,M,M,M,M,M,62.60,VHHH 302100Z 11007KT 080V140 9999 FEW008 SCT014 17/15 Q1019 NOSIG
VHHH,2017-01-30 21:30,113.9219,22.3094,62.60,59.00,88.00,120.00,10.00,0.00,30.09,M,6.21,M,FEW,SCT,M,M,800.00,1400.00,M,M,M,M,M,M,M,M,M,62.60,VHHH 302130Z 12010KT 9999 FEW008 SCT014 17/15 Q1019 NOSIG
VHHH,2017-01-30 22:00,113.9219,22.3094,62.60,59.00,88.00,120.00,11.00,0.00,30.09,M,6.21,M,FEW,SCT,M,M,800.00,1400.00,M,M,M,M,M,M,M,M,M,62.60,VHHH 302200Z 12011KT 100V160 9999 FEW008 SCT014 17/15 Q1019 NOSIG
VHHH,2017-01-30 22:30,113.9219,22.3094,62.60,57.20,82.50,110.00,10.00,0.00,30.12,M,6.21,M,FEW,SCT,M,M,800.00,1400.00,M,M,M,M,M,M,M,M,M,62.60,VHHH 302230Z 11010KT 9999 FEW008 SCT014 17/14 Q1020 NOSIG
VHHH,2017-01-30 23:00,113.9219,22.3094,62.60,57.20,82.50,110.00,9.00,0.00,30.12,M,6.21,M,FEW,SCT,M,M,800.00,1400.00,M,M,M,M,M,M,M,M,M,62.60,VHHH 302300Z 11009KT 9999 FEW008 SCT014 17/14 Q1020 NOSIG
VHHH,2017-01-30 23:30,113.9219,22.3094,62.60,57.20,82.50,100.00,10.00,0.00,30.12,M,6.21,M,FEW,SCT,M,M,800.00,1400.00,M,M,M,M,M,M,M,M,M,62.60,VHHH 302330Z 10010KT 080V140 9999 FEW008 SCT014 17/14 Q1020 NOSIG
VHHH,2017-01-30 23:52,113.9219,22.3094,62.60,57.20,82.50,40.00,9.00,0.00,30.15,M,5.59,M,FEW,SCT,M,M,800.00,1400.00,M,M,M,M,M,M,M,M,M,62.60,VHHH 302352Z 04009KT 9000 FEW008 SCT014 17/14 Q1021 NOSIG
VHHH,2017-01-31 00:00,113.9219,22.3094,60.80,57.20,87.92,40.00,11.00,0.00,30.15,M,4.97,M,FEW,SCT,M,M,800.00,1500.00,M,M,-RA,M,M,M,M,M,M,60.80,VHHH 310000Z 04011KT 8000 -RA FEW008 SCT015 16/14 Q1021 NOSIG
VHHH,2017-01-31 00:30,113.9219,22.3094,62.60,57.20,82.50,70.00,10.00,0.00,30.15,M,4.35,M,FEW,SCT,M,M,800.00,1500.00,M,M,M,M,M,M,M,M,M,62.60,VHHH 310030Z 07010KT 7000 FEW008 SCT015 17/14 Q1021 NOSIG
VHHH,2017-01-31 01:00,113.9219,22.3094,62.60,57.20,82.50,70.00,10.00,0.00,30.15,M,4.35,M,FEW,SCT,M,M,800.00,1500.00,M,M,M,M,M,M,M,M,M,62.60,VHHH 310100Z 07010KT 7000 FEW008 SCT015 17/14 Q1021 NOSIG
VHHH,2017-01-31 01:30,113.9219,22.3094,62.60,57.20,82.50,70.00,9.00,0.00,30.18,M,4.35,M,FEW,SCT,M,M,800.00,1500.00,M,M,M,M,M,M,M,M,M,62.60,VHHH 310130Z 07009KT 7000 FEW008 SCT015 17/14 Q1022 NOSIG
VHHH,2017-01-31 02:00,113.9219,22.3094,62.60,57.20,82.50,70.00,8.00,0.00,30.18,M,4.97,M,FEW,SCT,M,M,800.00,1500.00,M,M,M,M,M,M,M,M,M,62.60,VHHH 310200Z 07008KT 040V110 8000 FEW008 SCT015 17/14 Q1022 NOSIG
VHHH,2017-01-31 02:30,113.9219,22.3094,62.60,57.20,82.50,60.00,7.00,0.00,30.18,M,6.21,M,FEW,SCT,M,M,800.00,1500.00,M,M,M,M,M,M,M,M,M,62.60,VHHH 310230Z 06007KT 9999 FEW008 SCT015 17/14 Q1022 NOSIG
VHHH,2017-01-31 03:00,113.9219,22.3094,62.60,57.20,82.50,60.00,8.00,0.00,30.18,M,5.59,M,FEW,SCT,M,M,800.00,1500.00,M,M,M,M,M,M,M,M,M,62.60,VHHH 310300Z 06008KT 9000 FEW008 SCT015 17/14 Q1022 NOSIG
VHHH,2017-01-31 03:30,113.9219,22.3094,62.60,57.20,82.50,50.00,8.00,0.00,30.15,M,4.97,M,FEW,SCT,M,M,800.00,1500.00,M,M,M,M,M,M,M,M,M,62.60,VHHH 310330Z 05008KT 8000 FEW008 SCT015 17/14 Q1021 NOSIG
VHHH,2017-01-31 04:00,113.9219,22.3094,62.60,57.20,82.50,40.00,8.00,0.00,30.15,M,4.97,M,FEW,SCT,M,M,800.00,1500.00,M,M,M,M,M,M,M,M,M,62.60,VHHH 310400Z 04008KT 8000 FEW008 SCT015 17/14 Q1021 NOSIG
VHHH,2017-01-31 04:30,113.9219,22.3094,62.60,57.20,82.50,50.00,7.00,0.00,30.12,M,4.97,M,FEW,SCT,M,M,800.00,1500.00,M,M,M,M,M,M,M,M,M,62.60,VHHH 310430Z 05007KT 8000 FEW008 SCT015 17/14 Q1020 NOSIG
VHHH,2017-01-31 05:00,113.9219,22.3094,62.60,57.20,82.50,50.00,6.00,0.00,30.12,M,4.35,M,FEW,SCT,M,M,800.00,1500.00,M,M,M,M,M,M,M,M,M,62.60,VHHH 310500Z 05006KT 7000 FEW008 SCT015 17/14 Q1020 NOSIG
VHHH,2017-01-31 05:30,113.9219,22.3094,64.40,57.20,77.45,50.00,5.00,0.00,30.09,M,4.35,M,FEW,SCT,M,M,800.00,1500.00,M,M,M,M,M,M,M,M,M,64.40,VHHH 310530Z 05005KT 7000 FEW008 SCT015 18/14 Q1019 NOSIG
VHHH,2017-01-31 06:00,113.9219,22.3094,64.40,55.40,72.56,60.00,4.00,0.00,30.09,M,4.97,M,FEW,SCT,M,M,800.00,1500.00,M,M,M,M,M,M,M,M,M,64.40,VHHH 310600Z 06004KT 8000 FEW008 SCT015 18/13 Q1019 NOSIG
VHHH,2017-01-31 06:30,113.9219,22.3094,64.40,55.40,72.56,M,2.00,0.00,30.09,M,4.35,M,FEW,SCT,M,M,1000.00,1800.00,M,M,M,M,M,M,M,M,M,64.40,VHHH 310630Z VRB02KT 7000 FEW010 SCT018 18/13 Q1019 NOSIG
VHHH,2017-01-31 07:00,113.9219,22.3094,64.40,55.40,72.56,M,3.00,0.00,30.06,M,4.35,M,FEW,SCT,M,M,1200.00,2500.00,M,M,M,M,M,M,M,M,M,64.40,VHHH 310700Z VRB03KT 7000 FEW012 SCT025 18/13 Q1018 NOSIG
VHHH,2017-01-31 07:30,113.9219,22.3094,66.20,55.40,68.15,300.00,4.00,0.00,30.06,M,4.35,M,FEW,SCT,M,M,1200.00,2500.00,M,M,M,M,M,M,M,M,M,66.20,VHHH 310730Z 30004KT 7000 FEW012 SCT025 19/13 Q1018 NOSIG
VHHH,2017-01-31 08:00,113.9219,22.3094,64.40,55.40,72.56,310.00,3.00,0.00,30.06,M,4.97,M,FEW,SCT,M,M,1600.00,3500.00,M,M,M,M,M,M,M,M,M,64.40,VHHH 310800Z 31003KT 270V340 8000 FEW016 SCT035 18/13 Q1018 NOSIG
VHHH,2017-01-31 08:30,113.9219,22.3094,66.20,55.40,68.15,M,3.00,0.00,30.06,M,4.97,M,FEW,SCT,M,M,1600.00,3500.00,M,M,M,M,M,M,M,M,M,66.20,VHHH 310830Z VRB03KT 280V360 8000 FEW016 SCT035 19/13 Q1018 NOSIG
VHHH,2017-01-31 09:00,113.9219,22.3094,66.20,55.40,68.15,M,2.00,0.00,30.09,M,4.97,M,FEW,SCT,M,M,1600.00,3500.00,M,M,M,M,M,M,M,M,M,66.20,VHHH 310900Z VRB02KT 8000 FEW016 SCT035 19/13 Q1019 NOSIG
VHHH,2017-01-31 09:30,113.9219,22.3094,66.20,55.40,68.15,360.00,3.00,0.00,30.09,M,4.97,M,FEW,SCT,M,M,1500.00,2500.00,M,M,M,M,M,M,M,M,M,66.20,VHHH 310930Z 36003KT 310V100 8000 FEW015 SCT025 19/13 Q1019 NOSIG
VHHH,2017-01-31 10:00,113.9219,22.3094,66.20,55.40,68.15,70.00,5.00,0.00,30.09,M,5.59,M,FEW,SCT,M,M,1500.00,2500.00,M,M,M,M,M,M,M,M,M,66.20,VHHH 311000Z 07005KT 9000 FEW015 SCT025 19/13 Q1019 NOSIG
VHHH,2017-01-31 10:30,113.9219,22.3094,66.20,55.40,68.15,70.00,5.00,0.00,30.09,M,5.59,M,FEW,SCT,M,M,1500.00,2500.00,M,M,M,M,M,M,M,M,M,66.20,VHHH 311030Z 07005KT 050V120 9000 FEW015 SCT025 19/13 Q1019 NOSIG
VHHH,2017-01-31 11:00,113.9219,22.3094,66.20,55.40,68.15,80.00,8.00,0.00,30.09,M,6.21,M,FEW,SCT,M,M,1800.00,2800.00,M,M,M,M,M,M,M,M,M,66.20,VHHH 311100Z 08008KT 9999 FEW018 SCT028 19/13 Q1019 NOSIG
VHHH,2017-01-31 11:30,113.9219,22.3094,64.40,55.40,72.56,80.00,9.00,0.00,30.12,M,6.21,M,FEW,SCT,M,M,1800.00,2800.00,M,M,M,M,M,M,M,M,M,64.40,VHHH 311130Z 08009KT 9999 FEW018 SCT028 18/13 Q1020 NOSIG
VHHH,2017-01-31 12:00,113.9219,22.3094,66.20,57.20,72.74,70.00,8.00,0.00,30.12,M,6.21,M,FEW,SCT,M,M,1800.00,2800.00,M,M,M,M,M,M,M,M,M,66.20,VHHH 311200Z 07008KT 9999 FEW018 SCT028 19/14 Q1020 NOSIG
VHHH,2017-01-31 12:30,113.9219,22.3094,64.40,55.40,72.56,110.00,7.00,0.00,30.12,M,6.21,M,FEW,SCT,M,M,1800.00,2800.00,M,M,M,M,M,M,M,M,M,64.40,VHHH 311230Z 11007KT 070V150 9999 FEW018 SCT028 18/13 Q1020 NOSIG
VHHH,2017-01-31 13:00,113.9219,22.3094,64.40,57.20,77.45,100.00,6.00,0.00,30.12,M,6.21,M,FEW,SCT,M,M,1800.00,3500.00,M,M,M,M,M,M,M,M,M,64.40,VHHH 311300Z 10006KT 060V130 9999 FEW018 SCT035 18/14 Q1020 NOSIG
VHHH,2017-01-31 13:30,113.9219,22.3094,64.40,57.20,77.45,90.00,5.00,0.00,30.12,M,5.59,M,FEW,SCT,M,M,1800.00,3500.00,M,M,M,M,M,M,M,M,M,64.40,VHHH 311330Z 09005KT 060V120 9000 FEW018 SCT035 18/14 Q1020 NOSIG
VHHH,2017-01-31 14:00,113.9219,22.3094,64.40,57.20,77.45,80.00,6.00,0.00,30.15,M,6.21,M,FEW,M,M,M,1800.00,M,M,M,M,M,M,M,M,M,M,64.40,VHHH 311400Z 08006KT 9999 FEW018 18/14 Q1021 NOSIG
VHHH,2017-01-31 14:30,113.9219,22.3094,64.40,55.40,72.56,80.00,8.00,0.00,30.15,M,6.21,M,FEW,M,M,M,1800.00,M,M,M,M,M,M,M,M,M,M,64.40,VHHH 311430Z 08008KT 9999 FEW018 18/13 Q1021 NOSIG
VHHH,2017-01-31 15:00,113.9219,22.3094,64.40,55.40,72.56,70.00,8.00,0.00,30.15,M,6.21,M,FEW,M,M,M,1800.00,M,M,M,M,M,M,M,M,M,M,64.40,VHHH 311500Z 07008KT 9999 FEW018 18/13 Q1021 NOSIG
VHHH,2017-01-31 15:30,113.9219,22.3094,64.40,55.40,72.56,70.00,7.00,0.00,30.15,M,6.21,M,FEW,M,M,M,1800.00,M,M,M,M,M,M,M,M,M,M,64.40,VHHH 311530Z 07007KT 9999 FEW018 18/13 Q1021 NOSIG
VHHH,2017-01-31 16:00,113.9219,22.3094,64.40,55.40,72.56,70.00,6.00,0.00,30.15,M,6.21,M,FEW,M,M,M,1800.00,M,M,M,M,M,M,M,M,M,M,64.40,VHHH 311600Z 07006KT 9999 FEW018 18/13 Q1021 NOSIG
VHHH,2017-01-31 16:30,113.9219,22.3094,64.40,55.40,72.56,100.00,9.00,0.00,30.15,M,6.21,M,FEW,M,M,M,1800.00,M,M,M,M,M,M,M,M,M,M,64.40,VHHH 311630Z 10009KT 9999 FEW018 18/13 Q1021 NOSIG
VHHH,2017-01-31 17:00,113.9219,22.3094,64.40,55.40,72.56,90.00,7.00,0.00,30.15,M,6.21,M,FEW,M,M,M,1800.00,M,M,M,M,M,M,M,M,M,M,64.40,VHHH 311700Z 09007KT 9999 FEW018 18/13 Q1021 NOSIG
VHHH,2017-01-31 17:30,113.9219,22.3094,64.40,55.40,72.56,80.00,7.00,0.00,30.15,M,6.21,M,FEW,SCT,M,M,1800.00,4000.00,M,M,M,M,M,M,M,M,M,64.40,VHHH 311730Z 08007KT 9999 FEW018 SCT040 18/13 Q1021 NOSIG
VHHH,2017-01-31 18:00,113.9219,22.3094,64.40,57.20,77.45,40.00,7.00,0.00,30.15,M,6.21,M,FEW,SCT,M,M,1800.00,4000.00,M,M,-RA,M,M,M,M,M,M,64.40,VHHH 311800Z 04007KT 9999 -RA FEW018 SCT040 18/14 Q1021 NOSIG
VHHH,2017-01-31 18:30,113.9219,22.3094,64.40,55.40,72.56,50.00,4.00,0.00,30.12,M,6.21,M,FEW,SCT,M,M,1800.00,4000.00,M,M,M,M,M,M,M,M,M,64.40,VHHH 311830Z 05004KT 9999 FEW018 SCT040 18/13 Q1020 NOSIG
VHHH,2017-01-31 19:00,113.9219,22.3094,64.40,57.20,77.45,50.00,3.00,0.00,30.12,M,6.21,M,FEW,SCT,M,M,1800.00,4000.00,M,M,M,M,M,M,M,M,M,64.40,VHHH 311900Z 05003KT 020V080 9999 FEW018 SCT040 18/14 Q1020 NOSIG
VHHH,2017-01-31 19:30,113.9219,22.3094,64.40,55.40,72.56,10.00,6.00,0.00,30.12,M,6.21,M,FEW,SCT,M,M,1800.00,4000.00,M,M,M,M,M,M,M,M,M,64.40,VHHH 311930Z 01006KT 9999 FEW018 SCT040 18/13 Q1020 NOSIG
VHHH,2017-01-31 20:00,113.9219,22.3094,64.40,55.40,72.56,10.00,4.00,0.00,30.12,M,6.21,M,FEW,SCT,M,M,1800.00,4000.00,M,M,M,M,M,M,M,M,M,64.40,VHHH 312000Z 01004KT 340V040 9999 FEW018 SCT040 18/13 Q1020 NOSIG
VHHH,2017-01-31 20:30,113.9219,22.3094,64.40,55.40,72.56,360.00,6.00,0.00,30.12,M,6.21,M,FEW,SCT,M,M,1800.00,4000.00,M,M,M,M,M,M,M,M,M,64.40,VHHH 312030Z 36006KT 330V030 9999 FEW018 SCT040 18/13 Q1020 NOSIG
VHHH,2017-01-31 21:00,113.9219,22.3094,64.40,55.40,72.56,10.00,7.00,0.00,30.12,M,6.21,M,FEW,SCT,M,M,1800.00,4000.00,M,M,M,M,M,M,M,M,M,64.40,VHHH 312100Z 01007KT 9999 FEW018 SCT040 18/13 Q1020 NOSIG
VHHH,2017-01-31 21:30,113.9219,22.3094,62.60,55.40,77.29,10.00,6.00,0.00,30.12,M,6.21,M,FEW,SCT,M,M,1800.00,4000.00,M,M,M,M,M,M,M,M,M,62.60,VHHH 312130Z 01006KT 350V060 9999 FEW018 SCT040 17/13 Q1020 NOSIG
VHHH,2017-01-31 22:00,113.9219,22.3094,62.60,55.40,77.29,60.00,7.00,0.00,30.15,M,6.21,M,FEW,SCT,M,M,1800.00,4000.00,M,M,M,M,M,M,M,M,M,62.60,VHHH 312200Z 06007KT 030V100 9999 FEW018 SCT040 17/13 Q1021 NOSIG
VHHH,2017-01-31 22:30,113.9219,22.3094,62.60,53.60,72.38,50.00,6.00,0.00,30.15,M,6.21,M,FEW,M,M,M,3000.00,M,M,M,M,M,M,M,M,M,M,62.60,VHHH 312230Z 05006KT 9999 FEW030 17/12 Q1021 NOSIG
VHHH,2017-01-31 23:00,113.9219,22.3094,62.60,53.60,72.38,50.00,6.00,0.00,30.15,M,6.21,M,FEW,M,M,M,3000.00,M,M,M,M,M,M,M,M,M,M,62.60,VHHH 312300Z 05006KT 9999 FEW030 17/12 Q1021 NOSIG
VHHH,2017-01-31 23:30,113.9219,22.3094,62.60,55.40,77.29,50.00,7.00,0.00,30.15,M,6.21,M,FEW,M,M,M,3000.00,M,M,M,M,M,M,M,M,M,M,62.60,VHHH 312330Z 05007KT 9999 FEW030 17/13 Q1021 NOSIG
VHHH,2017-02-01 00:00,113.9219,22.3094,64.40,55.40,72.56,60.00,6.00,0.00,30.18,M,6.21,M,FEW,M,M,M,3000.00,M,M,M,M,M,M,M,M,M,M,64.40,VHHH 010000Z 06006KT 9999 FEW030 18/13 Q1022 NOSIG
VHHH,2017-02-01 00:30,113.9219,22.3094,64.40,53.60,67.95,60.00,5.00,0.00,30.18,M,6.21,M,FEW,M,M,M,3000.00,M,M,M,M,M,M,M,M,M,M,64.40,VHHH 010030Z 06005KT 9999 FEW030 18/12 Q1022 NOSIG
VHHH,2017-02-01 01:00,113.9219,22.3094,64.40,53.60,67.95,50.00,6.00,0.00,30.18,M,6.21,M,FEW,M,M,M,3000.00,M,M,M,M,M,M,M,M,M,M,64.40,VHHH 010100Z 05006KT 9999 FEW030 18/12 Q1022 NOSIG
VHHH,2017-02-01 01:30,113.9219,22.3094,66.20,53.60,63.82,60.00,4.00,0.00,30.21,M,6.21,M,FEW,M,M,M,3000.00,M,M,M,M,M,M,M,M,M,M,66.20,VHHH 010130Z 06004KT 040V100 9999 FEW030 19/12 Q1023 NOSIG
VHHH,2017-02-01 02:00,113.9219,22.3094,66.20,53.60,63.82,50.00,4.00,0.00,30.21,M,6.21,M,FEW,M,M,M,3000.00,M,M,M,M,M,M,M,M,M,M,66.20,VHHH 010200Z 05004KT 9999 FEW030 19/12 Q1023 NOSIG
VHHH,2017-02-01 02:30,113.9219,22.3094,66.20,53.60,63.82,40.00,3.00,0.00,30.21,M,6.21,M,FEW,M,M,M,3000.00,M,M,M,M,M,M,M,M,M,M,66.20,VHHH 010230Z 04003KT 010V070 9999 FEW030 19/12 Q1023 NOSIG
VHHH,2017-02-01 03:00,113.9219,22.3094,68.00,53.60,59.97,340.00,4.00,0.00,30.18,M,6.21,M,FEW,M,M,M,3000.00,M,M,M,M,M,M,M,M,M,M,68.00,VHHH 010300Z 34004KT 320V020 9999 FEW030 20/12 Q1022 NOSIG
VHHH,2017-02-01 03:30,113.9219,22.3094,68.00,53.60,59.97,340.00,4.00,0.00,30.18,M,6.21,M,FEW,M,M,M,3500.00,M,M,M,M,M,M,M,M,M,M,68.00,VHHH 010330Z 34004KT 9999 FEW035 20/12 Q1022 NOSIG
VHHH,2017-02-01 04:00,113.9219,22.3094,68.00,53.60,59.97,340.00,6.00,0.00,30.18,M,6.21,M,FEW,M,M,M,3500.00,M,M,M,M,M,M,M,M,M,M,68.00,VHHH 010400Z 34006KT 9999 FEW035 20/12 Q1022 NOSIG
VHHH,2017-02-01 04:30,113.9219,22.3094,69.80,55.40,60.21,310.00,8.00,0.00,30.15,M,6.21,M,FEW,M,M,M,3500.00,M,M,M,M,M,M,M,M,M,M,69.80,VHHH 010430Z 31008KT 9999 FEW035 21/13 Q1021 NOSIG
VHHH,2017-02-01 05:00,113.9219,22.3094,71.60,55.40,56.63,280.00,7.00,0.00,30.15,M,6.21,M,FEW,M,M,M,3500.00,M,M,M,M,M,M,M,M,M,M,71.60,VHHH 010500Z 28007KT 9999 FEW035 22/13 Q1021 NOSIG
VHHH,2017-02-01 05:30,113.9219,22.3094,69.80,55.40,60.21,290.00,6.00,0.00,30.12,M,6.21,M,FEW,M,M,M,3500.00,M,M,M,M,M,M,M,M,M,M,69.80,VHHH 010530Z 29006KT 9999 FEW035 21/13 Q1020 NOSIG
VHHH,2017-02-01 06:00,113.9219,22.3094,69.80,55.40,60.21,290.00,6.00,0.00,30.12,M,6.21,M,FEW,M,M,M,3500.00,M,M,M,M,M,M,M,M,M,M,69.80,VHHH 010600Z 29006KT 9999 FEW035 21/13 Q1020 NOSIG
VHHH,2017-02-01 06:30,113.9219,22.3094,71.60,55.40,56.63,270.00,5.00,0.00,30.12,M,6.21,M,FEW,M,M,M,3500.00,M,M,M,M,M,M,M,M,M,M,71.60,VHHH 010630Z 27005KT 9999 FEW035 22/13 Q1020 NOSIG
VHHH,2017-02-01 07:00,113.9219,22.3094,71.60,55.40,56.63,260.00,7.00,0.00,30.09,M,6.21,M,FEW,M,M,M,4000.00,M,M,M,M,M,M,M,M,M,M,71.60,VHHH 010700Z 26007KT 9999 FEW040 22/13 Q1019 NOSIG
VHHH,2017-02-01 07:30,113.9219,22.3094,71.60,57.20,60.44,270.00,7.00,0.00,30.09,M,6.21,M,FEW,M,M,M,4000.00,M,M,M,M,M,M,M,M,M,M,71.60,VHHH 010730Z 27007KT 240V300 9999 FEW040 22/14 Q1019 NOSIG
VHHH,2017-02-01 08:00,113.9219,22.3094,73.40,57.20,56.88,280.00,7.00,0.00,30.09,M,6.21,M,FEW,M,M,M,4000.00,M,M,M,M,M,M,M,M,M,M,73.40,VHHH 010800Z 28007KT 9999 FEW040 23/14 Q1019 NOSIG
VHHH,2017-02-01 08:30,113.9219,22.3094,71.60,57.20,60.44,270.00,5.00,0.00,30.12,M,6.21,M,FEW,M,M,M,4000.00,M,M,M,M,M,M,M,M,M,M,71.60,VHHH 010830Z 27005KT 9999 FEW040 22/14 Q1020 NOSIG
VHHH,2017-02-01 09:00,113.9219,22.3094,71.60,59.00,64.48,270.00,5.00,0.00,30.12,M,6.21,M,FEW,M,M,M,4000.00,M,M,M,M,M,M,M,M,M,M,71.60,VHHH 010900Z 27005KT 9999 FEW040 22/15 Q1020 BECMG 09010KT
VHHH,2017-02-01 09:30,113.9219,22.3094,71.60,57.20,60.44,290.00,4.00,0.00,30.12,M,6.21,M,FEW,M,M,M,4000.00,M,M,M,M,M,M,M,M,M,M,71.60,VHHH 010930Z 29004KT 260V350 9999 FEW040 22/14 Q1020 BECMG 09010KT
VHHH,2017-02-01 10:00,113.9219,22.3094,71.60,57.20,60.44,M,2.00,0.00,30.12,M,6.21,M,FEW,M,M,M,4000.00,M,M,M,M,M,M,M,M,M,M,71.60,VHHH 011000Z VRB02KT 9999 FEW040 22/14 Q1020 BECMG 09010KT
VHHH,2017-02-01 10:30,113.9219,22.3094,71.60,57.20,60.44,270.00,3.00,0.00,30.12,M,6.21,M,FEW,M,M,M,4000.00,M,M,M,M,M,M,M,M,M,M,71.60,VHHH 011030Z 27003KT 9999 FEW040 22/14 Q1020 NOSIG
VHHH,2017-02-01 11:00,113.9219,22.3094,69.80,59.00,68.55,70.00,6.00,0.00,30.12,M,6.21,M,FEW,M,M,M,4000.00,M,M,M,M,M,M,M,M,M,M,69.80,VHHH 011100Z 07006KT 040V100 9999 FEW040 21/15 Q1020 NOSIG
VHHH,2017-02-01 11:30,113.9219,22.3094,69.80,59.00,68.55,90.00,8.00,0.00,30.15,M,6.21,M,FEW,M,M,M,4000.00,M,M,M,M,M,M,M,M,M,M,69.80,VHHH 011130Z 09008KT 9999 FEW040 21/15 Q1021 NOSIG
VHHH,2017-02-01 12:00,113.9219,22.3094,68.00,59.00,72.92,90.00,10.00,0.00,30.15,M,6.21,M,FEW,M,M,M,4000.00,M,M,M,M,M,M,M,M,M,M,68.00,VHHH 011200Z 09010KT 9999 FEW040 20/15 Q1021 NOSIG
VHHH,2017-02-01 12:30,113.9219,22.3094,68.00,57.20,68.35,100.00,13.00,0.00,30.15,M,6.21,M,FEW,M,M,M,4000.00,M,M,M,M,M,M,M,M,M,M,68.00,VHHH 011230Z 10013KT 9999 FEW040 20/14 Q1021 NOSIG
VHHH,2017-02-01 13:00,113.9219,22.3094,66.20,57.20,72.74,110.00,15.00,0.00,30.18,M,6.21,M,FEW,M,M,M,4500.00,M,M,M,M,M,M,M,M,M,M,66.20,VHHH 011300Z 11015KT 9999 FEW045 19/14 Q1022 NOSIG
VHHH,2017-02-01 13:30,113.9219,22.3094,66.20,57.20,72.74,110.00,14.00,0.00,30.18,M,6.21,M,FEW,M,M,M,4500.00,M,M,M,M,M,M,M,M,M,M,66.20,VHHH 011330Z 11014KT 9999 FEW045 19/14 Q1022 NOSIG
VHHH,2017-02-01 14:00,113.9219,22.3094,66.20,57.20,72.74,100.00,11.00,0.00,30.18,M,6.21,M,M,M,M,M,M,M,M,M,M,M,M,M,M,M,M,66.20,VHHH 011400Z 10011KT CAVOK 19/14 Q1022 NOSIG
VHHH,2017-02-01 14:30,113.9219,22.3094,66.20,57.20,72.74,100.00,10.00,0.00,30.18,M,6.21,M,M,M,M,M,M,M,M,M,M,M,M,M,M,M,M,66.20,VHHH 011430Z 10010KT 080V140 CAVOK 19/14 Q1022 NOSIG
VHHH,2017-02-01 15:00,113.9219,22.3094,66.20,57.20,72.74,110.00,14.00,0.00,30.18,M,6.21,M,M,M,M,M,M,M,M,M,M,M,M,M,M,M,M,66.20,VHHH 011500Z 11014KT CAVOK 19/14 Q1022 NOSIG
VHHH,2017-02-01 15:30,113.9219,22.3094,66.20,57.20,72.74,110.00,13.00,0.00,30.18,M,6.21,M,M,M,M,M,M,M,M,M,M,M,M,M,M,M,M,66.20,VHHH 011530Z 11013KT CAVOK 19/14 Q1022 NOSIG
VHHH,2017-02-01 16:00,113.9219,22.3094,64.40,57.20,77.45,110.00,11.00,0.00,30.21,M,6.21,M,M,M,M,M,M,M,M,M,M,M,M,M,M,M,M,64.40,VHHH 011600Z 11011KT CAVOK 18/14 Q1023 NOSIG
VHHH,2017-02-01 16:30,113.9219,22.3094,66.20,59.00,77.60,100.00,10.00,0.00,30.21,M,6.21,M,FEW,M,M,M,2500.00,M,M,M,M,M,M,M,M,M,M,66.20,VHHH 011630Z 10010KT 9999 FEW025 19/15 Q1023 NOSIG
VHHH,2017-02-01 17:00,113.9219,22.3094,66.20,57.20,72.74,110.00,10.00,0.00,30.21,M,6.21,M,FEW,M,M,M,1600.00,M,M,M,M,M,M,M,M,M,M,66.20,VHHH 011700Z 11010KT 080V140 9999 FEW016 19/14 Q1023 NOSIG
VHHH,2017-02-01 17:30,113.9219,22.3094,64.40,57.20,77.45,100.00,10.00,0.00,30.21,M,6.21,M,FEW,M,M,M,1700.00,M,M,M,M,M,M,M,M,M,M,64.40,VHHH 011730Z 10010KT 9999 FEW017 18/14 Q1023 NOSIG
VHHH,2017-02-01 18:00,113.9219,22.3094,64.40,59.00,82.62,110.00,9.00,0.00,30.18,M,6.21,M,FEW,SCT,M,M,1700.00,2000.00,M,M,M,M,M,M,M,M,M,64.40,VHHH 011800Z 11009KT 9999 FEW017 SCT020 18/15 Q1022 NOSIG
VHHH,2017-02-01 18:30,113.9219,22.3094,64.40,59.00,82.62,110.00,9.00,0.00,30.18,M,6.21,M,FEW,SCT,M,M,1500.00,2000.00,M,M,M,M,M,M,M,M,M,64.40,VHHH 011830Z 11009KT 9999 FEW015 SCT020 18/15 Q1022 NOSIG
VHHH,2017-02-01 19:00,113.9219,22.3094,64.40,57.20,77.45,110.00,9.00,0.00,30.18,M,6.21,M,FEW,SCT,M,M,1400.00,2000.00,M,M,M,M,M,M,M,M,M,64.40,VHHH 011900Z 11009KT 9999 FEW014 SCT020 18/14 Q1022 NOSIG
VHHH,2017-02-01 19:30,113.9219,22.3094,64.40,57.20,77.45,120.00,9.00,0.00,30.18,M,6.21,M,FEW,SCT,M,M,1400.00,2000.00,M,M,M,M,M,M,M,M,M,64.40,VHHH 011930Z 12009KT 9999 FEW014 SCT020 18/14 Q1022 NOSIG
VHHH,2017-02-01 20:00,113.9219,22.3094,64.40,57.20,77.45,120.00,7.00,0.00,30.18,M,6.21,M,FEW,SCT,M,M,1300.00,2000.00,M,M,-DZ,M,M,M,M,M,M,64.40,VHHH 012000Z 12007KT 9999 -DZ FEW013 SCT020 18/14 Q1022 NOSIG
VHHH,2017-02-01 20:30,113.9219,22.3094,64.40,59.00,82.62,120.00,8.00,0.00,30.18,M,4.35,M,FEW,SCT,M,M,1100.00,2000.00,M,M,-DZ,M,M,M,M,M,M,64.40,VHHH 012030Z 12008KT 7000 -DZ FEW011 SCT020 18/15 Q1022 NOSIG
VHHH,2017-02-01 21:00,113.9219,22.3094,62.60,59.00,88.00,90.00,7.00,0.00,30.18,M,4.97,M,FEW,SCT,M,M,900.00,2000.00,M,M,-DZ,M,M,M,M,M,M,62.60,VHHH 012100Z 09007KT 8000 -DZ FEW009 SCT020 17/15 Q1022 NOSIG
VHHH,2017-02-01 21:30,113.9219,22.3094,62.60,59.00,88.00,120.00,11.00,0.00,30.18,M,4.97,M,FEW,SCT,M,M,900.00,2000.00,M,M,-DZ,M,M,M,M,M,M,62.60,VHHH 012130Z 12011KT 8000 -DZ FEW009 SCT020 17/15 Q1022 NOSIG
VHHH,2017-02-01 22:00,113.9219,22.3094,62.60,59.00,88.00,110.00,9.00,0.00,30.18,M,3.73,M,FEW,SCT,M,M,900.00,2000.00,M,M,-DZ,M,M,M,M,M,M,62.60,VHHH 012200Z 11009KT 6000 -DZ FEW009 SCT020 17/15 Q1022 NOSIG
VHHH,2017-02-01 22:30,113.9219,22.3094,62.60,59.00,88.00,100.00,8.00,0.00,30.21,M,4.35,M,FEW,SCT,M,M,900.00,2000.00,M,M,-DZ,M,M,M,M,M,M,62.60,VHHH 012230Z 10008KT 7000 -DZ FEW009 SCT020 17/15 Q1023 NOSIG
VHHH,2017-02-01 22:47,113.9219,22.3094,62.60,59.00,88.00,40.00,10.00,0.00,30.21,M,4.35,M,FEW,SCT,M,M,900.00,2000.00,M,M,-DZ,M,M,M,M,M,M,62.60,VHHH 012247Z 04010KT 7000 -DZ FEW009 SCT020 17/15 Q1023 NOSIG
VHHH,2017-02-01 23:00,113.9219,22.3094,62.60,59.00,88.00,40.00,10.00,0.00,30.21,M,4.97,M,FEW,SCT,M,M,800.00,1800.00,M,M,-DZ,M,M,M,M,M,M,62.60,VHHH 012300Z 04010KT 8000 -DZ FEW008 SCT018 17/15 Q1023 NOSIG
VHHH,2017-02-01 23:30,113.9219,22.3094,62.60,59.00,88.00,60.00,9.00,0.00,30.21,M,4.97,M,FEW,SCT,M,M,800.00,1600.00,M,M,-DZ,M,M,M,M,M,M,62.60,VHHH 012330Z 06009KT 8000 -DZ FEW008 SCT016 17/15 Q1023 NOSIG
VHHH,2017-02-02 00:00,113.9219,22.3094,62.60,59.00,88.00,60.00,7.00,0.00,30.21,M,4.97,M,FEW,SCT,M,M,800.00,1600.00,M,M,-DZ,M,M,M,M,M,M,62.60,VHHH 020000Z 06007KT 8000 -DZ FEW008 SCT016 17/15 Q1023 NOSIG
VHHH,2017-02-02 00:30,113.9219,22.3094,62.60,59.00,88.00,130.00,8.00,0.00,30.24,M,5.59,M,FEW,SCT,M,M,1000.00,1600.00,M,M,-DZ,M,M,M,M,M,M,62.60,VHHH 020030Z 13008KT 110V170 9000 -DZ FEW010 SCT016 17/15 Q1024 NOSIG
VHHH,2017-02-02 01:00,113.9219,22.3094,62.60,57.20,82.50,60.00,6.00,0.00,30.24,M,5.59,M,FEW,SCT,M,M,1000.00,1600.00,M,M,M,M,M,M,M,M,M,62.60,VHHH 020100Z 06006KT 9000 FEW010 SCT016 17/14 Q1024 NOSIG
VHHH,2017-02-02 01:30,113.9219,22.3094,64.40,57.20,77.45,70.00,8.00,0.00,30.24,M,6.21,M,FEW,SCT,M,M,1200.00,1800.00,M,M,M,M,M,M,M,M,M,64.40,VHHH 020130Z 07008KT 9999 FEW012 SCT018 18/14 Q1024 NOSIG
VHHH,2017-02-02 02:00,113.9219,22.3094,64.40,57.20,77.45,50.00,11.00,0.00,30.24,M,5.59,M,FEW,SCT,M,M,1200.00,1800.00,M,M,M,M,M,M,M,M,M,64.40,VHHH 020200Z 05011KT 9000 FEW012 SCT018 18/14 Q1024 NOSIG
VHHH,2017-02-02 02:30,113.9219,22.3094,62.60,57.20,82.50,60.00,10.00,0.00,30.27,M,6.21,M,FEW,SCT,M,M,1200.00,1800.00,M,M,M,M,M,M,M,M,M,62.60,VHHH 020230Z 06010KT 9999 FEW012 SCT018 17/14 Q1025 NOSIG
VHHH,2017-02-02 03:00,113.9219,22.3094,62.60,57.20,82.50,110.00,7.00,0.00,30.24,M,5.59,M,FEW,SCT,M,M,1200.00,1800.00,M,M,M,M,M,M,M,M,M,62.60,VHHH 020300Z 11007KT 070V170 9000 FEW012 SCT018 17/14 Q1024 NOSIG
VHHH,2017-02-02 03:30,113.9219,22.3094,64.40,57.20,77.45,80.00,8.00,0.00,30.24,M,5.59,M,FEW,SCT,M,M,1200.00,1800.00,M,M,M,M,M,M,M,M,M,64.40,VHHH 020330Z 08008KT 9000 FEW012 SCT018 18/14 Q1024 NOSIG
VHHH,2017-02-02 04:00,113.9219,22.3094,62.60,57.20,82.50,70.00,7.00,0.00,30.21,M,5.59,M,FEW,SCT,M,M,1200.00,1800.00,M,M,M,M,M,M,M,M,M,62.60,VHHH 020400Z 07007KT 9000 FEW012 SCT018 17/14 Q1023 NOSIG
VHHH,2017-02-02 04:30,113.9219,22.3094,64.40,55.40,72.56,70.00,5.00,0.00,30.21,M,5.59,M,FEW,SCT,M,M,1400.00,2000.00,M,M,M,M,M,M,M,M,M,64.40,VHHH 020430Z 07005KT 050V140 9000 FEW014 SCT020 18/13 Q1023 NOSIG
VHHH,2017-02-02 05:00,113.9219,22.3094,64.40,55.40,72.56,60.00,7.00,0.00,30.18,M,5.59,M,FEW,SCT,M,M,1500.00,2000.00,M,M,M,M,M,M,M,M,M,64.40,VHHH 020500Z 06007KT 9000 FEW015 SCT020 18/13 Q1022 NOSIG
VHHH,2017-02-02 05:30,113.9219,22.3094,64.40,55.40,72.56,110.00,7.00,0.00,30.18,M,5.59,M,FEW,SCT,M,M,1500.00,2000.00,M,M,M,M,M,M,M,M,M,64.40,VHHH 020530Z 11007KT 070V160 9000 FEW015 SCT020 18/13 Q1022 NOSIG
VHHH,2017-02-02 06:00,113.9219,22.3094,64.40,55.40,72.56,100.00,7.00,0.00,30.15,M,5.59,M,FEW,SCT,M,M,1500.00,2000.00,M,M,M,M,M,M,M,M,M,64.40,VHHH 020600Z 10007KT 070V160 9000 FEW015 SCT020 18/13 Q1021 NOSIG
VHHH,2017-02-02 06:30,113.9219,22.3094,64.40,55.40,72.56,110.00,7.00,0.00,30.15,M,5.59,M,FEW,SCT,M,M,1500.00,2000.00,M,M,M,M,M,M,M,M,M,64.40,VHHH 020630Z 11007KT 060V180 9000 FEW015 SCT020 18/13 Q1021 NOSIG
VHHH,2017-02-02 07:00,113.9219,22.3094,64.40,55.40,72.56,120.00,6.00,0.00,30.12,M,6.21,M,FEW,SCT,M,M,1500.00,2000.00,M,M,M,M,M,M,M,M,M,64.40,VHHH 020700Z 12006KT 080V160 9999 FEW015 SCT020 18/13 Q1020 NOSIG
VHHH,2017-02-02 07:30,113.9219,22.3094,66.20,55.40,68.15,120.00,8.00,0.00,30.12,M,6.21,M,FEW,SCT,M,M,1500.00,2000.00,M,M,M,M,M,M,M,M,M,66.20,VHHH 020730Z 12008KT 080V170 9999 FEW015 SCT020 19/13 Q1020 NOSIG
VHHH,2017-02-02 08:00,113.9219,22.3094,66.20,55.40,68.15,110.00,8.00,0.00,30.12,M,6.21,M,FEW,SCT,M,M,1800.00,2500.00,M,M,M,M,M,M,M,M,M,66.20,VHHH 020800Z 11008KT 090V150 9999 FEW018 SCT025 19/13 Q1020 NOSIG
VHHH,2017-02-02 08:30,113.9219,22.3094,66.20,55.40,68.15,100.00,7.00,0.00,30.12,M,6.21,M,FEW,SCT,M,M,1800.00,2500.00,M,M,M,M,M,M,M,M,M,66.20,VHHH 020830Z 10007KT 070V130 9999 FEW018 SCT025 19/13 Q1020 NOSIG
VHHH,2017-02-02 09:00,113.9219,22.3094,66.20,55.40,68.15,100.00,8.00,0.00,30.12,M,6.21,M,FEW,SCT,M,M,1800.00,2500.00,M,M,M,M,M,M,M,M,M,66.20,VHHH 020900Z 10008KT 060V150 9999 FEW018 SCT025 19/13 Q1020 NOSIG
VHHH,2017-02-02 09:30,113.9219,22.3094,64.40,55.40,72.56,100.00,10.00,0.00,30.12,M,6.21,M,FEW,SCT,M,M,1800.00,2500.00,M,M,M,M,M,M,M,M,M,64.40,VHHH 020930Z 10010KT 9999 FEW018 SCT025 18/13 Q1020 NOSIG
VHHH,2017-02-02 10:00,113.9219,22.3094,64.40,55.40,72.56,110.00,12.00,0.00,30.15,M,6.21,M,FEW,SCT,M,M,1800.00,2500.00,M,M,M,M,M,M,M,M,M,64.40,VHHH 021000Z 11012KT 9999 FEW018 SCT025 18/13 Q1021 NOSIG
VHHH,2017-02-02 10:30,113.9219,22.3094,64.40,55.40,72.56,110.00,12.00,0.00,30.15,M,6.21,M,FEW,SCT,M,M,1800.00,2500.00,M,M,M,M,M,M,M,M,M,64.40,VHHH 021030Z 11012KT 9999 FEW018 SCT025 18/13 Q1021 NOSIG
VHHH,2017-02-02 11:00,113.9219,22.3094,64.40,55.40,72.56,100.00,15.00,0.00,30.15,M,6.21,M,FEW,SCT,M,M,2000.00,2500.00,M,M,M,M,M,M,M,M,M,64.40,VHHH 021100Z 10015KT 9999 FEW020 SCT025 18/13 Q1021 NOSIG
VHHH,2017-02-02 11:30,113.9219,22.3094,64.40,55.40,72.56,100.00,15.00,0.00,30.15,M,6.21,M,FEW,SCT,M,M,2000.00,2500.00,M,M,M,M,M,M,M,M,M,64.40,VHHH 021130Z 10015KT 9999 FEW020 SCT025 18/13 Q1021 NOSIG
VHHH,2017-02-02 12:00,113.9219,22.3094,64.40,55.40,72.56,110.00,14.00,0.00,30.18,M,6.21,M,FEW,SCT,M,M,2000.00,2500.00,M,M,M,M,M,M,M,M,M,64.40,VHHH 021200Z 11014KT 9999 FEW020 SCT025 18/13 Q1022 NOSIG
VHHH,2017-02-02 12:30,113.9219,22.3094,64.40,55.40,72.56,110.00,15.00,0.00,30.18,M,6.21,M,FEW,SCT,M,M,1800.00,2200.00,M,M,M,M,M,M,M,M,M,64.40,VHHH 021230Z 11015KT 9999 FEW018 SCT022 18/13 Q1022 NOSIG
VHHH,2017-02-02 13:00,113.9219,22.3094,64.40,55.40,72.56,110.00,15.00,0.00,30.18,M,6.21,M,FEW,SCT,M,M,1800.00,2200.00,M,M,M,M,M,M,M,M,M,64.40,VHHH 021300Z 11015KT 9999 FEW018 SCT022 18/13 Q1022 NOSIG
VHHH,2017-02-02 13:30,113.9219,22.3094,64.40,55.40,72.56,110.00,15.00,0.00,30.18,M,6.21,M,FEW,SCT,M,M,1800.00,2200.00,M,M,M,M,M,M,M,M,M,64.40,VHHH 021330Z 11015KT 9999 FEW018 SCT022 18/13 Q1022 NOSIG
VHHH,2017-02-02 14:00,113.9219,22.3094,64.40,55.40,72.56,110.00,15.00,0.00,30.18,M,6.21,M,FEW,SCT,M,M,1800.00,2200.00,M,M,M,M,M,M,M,M,M,64.40,VHHH 021400Z 11015KT 9999 FEW018 SCT022 18/13 Q1022 NOSIG
VHHH,2017-02-02 14:30,113.9219,22.3094,64.40,55.40,72.56,100.00,13.00,0.00,30.18,M,6.21,M,FEW,SCT,M,M,1800.00,2200.00,M,M,M,M,M,M,M,M,M,64.40,VHHH 021430Z 10013KT 9999 FEW018 SCT022 18/13 Q1022 NOSIG
VHHH,2017-02-02 15:00,113.9219,22.3094,64.40,55.40,72.56,100.00,13.00,0.00,30.18,M,6.21,M,FEW,SCT,M,M,1800.00,2200.00,M,M,M,M,M,M,M,M,M,64.40,VHHH 021500Z 10013KT 9999 FEW018 SCT022 18/13 Q1022 NOSIG
VHHH,2017-02-02 15:30,113.9219,22.3094,62.60,55.40,77.29,100.00,15.00,0.00,30.18,M,6.21,M,FEW,SCT,M,M,2000.00,2500.00,M,M,M,M,M,M,M,M,M,62.60,VHHH 021530Z 10015KT 9999 FEW020 SCT025 17/13 Q1022 NOSIG
VHHH,2017-02-02 16:00,113.9219,22.3094,64.40,55.40,72.56,100.00,16.00,0.00,30.18,M,6.21,M,FEW,SCT,M,M,2000.00,2500.00,M,M,M,M,M,M,M,M,M,64.40,VHHH 021600Z 10016KT 9999 FEW020 SCT025 18/13 Q1022 NOSIG
VHHH,2017-02-02 16:30,113.9219,22.3094,64.40,55.40,72.56,90.00,17.00,0.00,30.18,M,6.21,M,FEW,SCT,M,M,2000.00,2500.00,M,M,M,M,M,M,M,M,M,64.40,VHHH 021630Z 09017KT 9999 FEW020 SCT025 18/13 Q1022 NOSIG
VHHH,2017-02-02 17:00,113.9219,22.3094,62.60,53.60,72.38,90.00,16.00,0.00,30.18,M,6.21,M,FEW,SCT,M,M,2000.00,2500.00,M,M,M,M,M,M,M,M,M,62.60,VHHH 021700Z 09016KT 9999 FEW020 SCT025 17/12 Q1022 NOSIG
VHHH,2017-02-02 17:30,113.9219,22.3094,62.60,53.60,72.38,90.00,17.00,0.00,30.15,M,6.21,M,FEW,SCT,M,M,2000.00,2800.00,M,M,M,M,M,M,M,M,M,62.60,VHHH 021730Z 09017KT 9999 FEW020 SCT028 17/12 Q1021 NOSIG
VHHH,2017-02-02 18:00,113.9219,22.3094,62.60,53.60,72.38,100.00,15.00,0.00,30.18,M,6.21,M,FEW,SCT,M,M,2000.00,2800.00,M,M,M,M,M,M,M,M,M,62.60,VHHH 021800Z 10015KT 9999 FEW020 SCT028 17/12 Q1022 NOSIG
VHHH,2017-02-02 18:30,113.9219,22.3094,62.60,53.60,72.38,100.00,14.00,0.00,30.15,M,6.21,M,FEW,SCT,M,M,2200.00,2800.00,M,M,M,M,M,M,M,M,M,62.60,VHHH 021830Z 10014KT 050V140 9999 FEW022 SCT028 17/12 Q1021 NOSIG
VHHH,2017-02-02 19:00,113.9219,22.3094,62.60,53.60,72.38,100.00,13.00,0.00,30.18,M,6.21,M,FEW,SCT,M,M,2200.00,2800.00,M,M,M,M,M,M,M,M,M,62.60,VHHH 021900Z 10013KT 070V130 9999 FEW022 SCT028 17/12 Q1022 NOSIG
VHHH,2017-02-02 19:30,113.9219,22.3094,62.60,51.80,67.75,90.00,11.00,0.00,30.15,M,6.21,M,FEW,SCT,M,M,2200.00,2800.00,M,M,M,M,M,M,M,M,M,62.60,VHHH 021930Z 09011KT 9999 FEW022 SCT028 17/11 Q1021 NOSIG
VHHH,2017-02-02 20:00,113.9219,22.3094,62.60,53.60,72.38,90.00,13.00,0.00,30.15,M,6.21,M,FEW,SCT,M,M,2200.00,2800.00,M,M,M,M,M,M,M,M,M,62.60,VHHH 022000Z 09013KT 9999 FEW022 SCT028 17/12 Q1021 NOSIG
VHHH,2017-02-02 20:30,113.9219,22.3094,62.60,51.80,67.75,90.00,12.00,0.00,30.12,M,6.21,M,FEW,SCT,M,M,2200.00,2800.00,M,M,M,M,M,M,M,M,M,62.60,VHHH 022030Z 09012KT 9999 FEW022 SCT028 17/11 Q1020 NOSIG
VHHH,2017-02-02 21:00,113.9219,22.3094,62.60,51.80,67.75,90.00,13.00,0.00,30.15,M,6.21,M,FEW,SCT,M,M,2200.00,2800.00,M,M,M,M,M,M,M,M,M,62.60,VHHH 022100Z 09013KT 9999 FEW022 SCT028 17/11 Q1021 NOSIG
VHHH,2017-02-02 21:30,113.9219,22.3094,60.80,51.80,72.20,100.00,13.00,0.00,30.12,M,6.21,M,FEW,SCT,M,M,2200.00,4000.00,M,M,M,M,M,M,M,M,M,60.80,VHHH 022130Z 10013KT 9999 FEW022 SCT040 16/11 Q1020 NOSIG
VHHH,2017-02-02 22:00,113.9219,22.3094,60.80,51.80,72.20,90.00,10.00,0.00,30.15,M,6.21,M,FEW,M,M,M,4000.00,M,M,M,M,M,M,M,M,M,M,60.80,VHHH 022200Z 09010KT 9999 FEW040 16/11 Q1021 NOSIG
VHHH,2017-02-02 22:30,113.9219,22.3094,60.80,50.00,67.54,90.00,11.00,0.00,30.15,M,6.21,M,FEW,M,M,M,3000.00,M,M,M,M,M,M,M,M,M,M,60.80,VHHH 022230Z 09011KT 9999 FEW030 16/10 Q1021 NOSIG
VHHH,2017-02-02 23:00,113.9219,22.3094,60.80,51.80,72.20,70.00,7.00,0.00,30.15,M,6.21,M,FEW,M,M,M,3000.00,M,M,M,M,M,M,M,M,M,M,60.80,VHHH 022300Z 07007KT 9999 FEW030 16/11 Q1021 NOSIG
VHHH,2017-02-02 23:30,113.9219,22.3094,60.80,51.80,72.20,80.00,9.00,0.00,30.15,M,6.21,M,FEW,M,M,M,3000.00,M,M,M,M,M,M,M,M,M,M,60.80,VHHH 022330Z 08009KT 9999 FEW030 16/11 Q1021 NOSIG
VHHH,2017-02-03 00:00,113.9219,22.3094,60.80,51.80,72.20,80.00,10.00,0.00,30.15,M,6.21,M,FEW,M,M,M,2500.00,M,M,M,M,M,M,M,M,M,M,60.80,VHHH 030000Z 08010KT 9999 FEW025 16/11 Q1021 NOSIG
VHHH,2017-02-03 00:30,113.9219,22.3094,60.80,51.80,72.20,100.00,8.00,0.00,30.18,M,6.21,M,FEW,M,M,M,2500.00,M,M,M,M,M,M,M,M,M,M,60.80,VHHH 030030Z 10008KT 9999 FEW025 16/11 Q1022 NOSIG
VHHH,2017-02-03 01:00,113.9219,22.3094,62.60,51.80,67.75,80.00,6.00,0.00,30.18,M,6.21,M,FEW,M,M,M,2500.00,M,M,M,M,M,M,M,M,M,M,62.60,VHHH 030100Z 08006KT 9999 FEW025 17/11 Q1022 NOSIG
VHHH,2017-02-03 01:30,113.9219,22.3094,62.60,51.80,67.75,80.00,7.00,0.00,30.18,M,6.21,M,FEW,M,M,M,2800.00,M,M,M,M,M,M,M,M,M,M,62.60,VHHH 030130Z 08007KT 9999 FEW028 17/11 Q1022 NOSIG
VHHH,2017-02-03 02:00,113.9219,22.3094,62.60,51.80,67.75,80.00,6.00,0.00,30.18,M,6.21,M,FEW,M,M,M,3000.00,M,M,M,M,M,M,M,M,M,M,62.60,VHHH 030200Z 08006KT 050V110 9999 FEW030 17/11 Q1022 NOSIG
VHHH,2017-02-03 02:30,113.9219,22.3094,64.40,51.80,63.60,70.00,5.00,0.00,30.21,M,6.21,M,FEW,M,M,M,3500.00,M,M,M,M,M,M,M,M,M,M,64.40,VHHH 030230Z 07005KT 9999 FEW035 18/11 Q1023 NOSIG
VHHH,2017-02-03 03:00,113.9219,22.3094,64.40,51.80,63.60,50.00,6.00,0.00,30.18,M,6.21,M,FEW,M,M,M,3500.00,M,M,M,M,M,M,M,M,M,M,64.40,VHHH 030300Z 05006KT 9999 FEW035 18/11 Q1022 NOSIG
VHHH,2017-02-03 03:30,113.9219,22.3094,66.20,51.80,59.74,40.00,5.00,0.00,30.18,M,6.21,M,FEW,M,M,M,3500.00,M,M,M,M,M,M,M,M,M,M,66.20,VHHH 030330Z 04005KT 9999 FEW035 19/11 Q1022 NOSIG
VHHH,2017-02-03 04:00,113.9219,22.3094,66.20,51.80,59.74,40.00,3.00,0.00,30.15,M,6.21,M,FEW,M,M,M,4000.00,M,M,M,M,M,M,M,M,M,M,66.20,VHHH 030400Z 04003KT 010V090 9999 FEW040 19/11 Q1021 NOSIG
VHHH,2017-02-03 04:30,113.9219,22.3094,66.20,51.80,59.74,M,3.00,0.00,30.12,M,6.21,M,FEW,M,M,M,4000.00,M,M,M,M,M,M,M,M,M,M,66.20,VHHH 030430Z VRB03KT 9999 FEW040 19/11 Q1020 NOSIG
VHHH,2017-02-03 05:00,113.9219,22.3094,66.20,51.80,59.74,330.00,4.00,0.00,30.12,M,6.21,M,FEW,M,M,M,4000.00,M,M,M,M,M,M,M,M,M,M,66.20,VHHH 030500Z 33004KT 9999 FEW040 19/11 Q1020 NOSIG
VHHH,2017-02-03 05:30,113.9219,22.3094,66.20,53.60,63.82,340.00,4.00,0.00,30.09,M,6.21,M,FEW,M,M,M,4000.00,M,M,M,M,M,M,M,M,M,M,66.20,VHHH 030530Z 34004KT 310V020 9999 FEW040 19/12 Q1019 NOSIG
VHHH,2017-02-03 06:00,113.9219,22.3094,66.20,51.80,59.74,350.00,3.00,0.00,30.06,M,6.21,M,FEW,M,M,M,3500.00,M,M,M,M,M,M,M,M,M,M,66.20,VHHH 030600Z 35003KT 330V030 9999 FEW035 19/11 Q1018 NOSIG
VHHH,2017-02-03 06:30,113.9219,22.3094,69.80,51.80,52.77,M,2.00,0.00,30.06,M,6.21,M,FEW,M,M,M,3500.00,M,M,M,M,M,M,M,M,M,M,69.80,VHHH 030630Z VRB02KT 9999 FEW035 21/11 Q1018 NOSIG
VHHH,2017-02-03 07:00,113.9219,22.3094,69.80,51.80,52.77,300.00,3.00,0.00,30.06,M,6.21,M,FEW,M,M,M,3500.00,M,M,M,M,M,M,M,M,M,M,69.80,VHHH 030700Z 30003KT 9999 FEW035 21/11 Q1018 NOSIG
VHHH,2017-02-03 07:30,113.9219,22.3094,68.00,51.80,56.13,320.00,4.00,0.00,30.03,M,6.21,M,FEW,M,M,M,4000.00,M,M,M,M,M,M,M,M,M,M,68.00,VHHH 030730Z 32004KT 9999 FEW040 20/11 Q1017 NOSIG
VHHH,2017-02-03 08:00,113.9219,22.3094,68.00,55.40,64.04,310.00,8.00,0.00,30.06,M,6.21,M,FEW,M,M,M,4000.00,M,M,M,M,M,M,M,M,M,M,68.00,VHHH 030800Z 31008KT 9999 FEW040 20/13 Q1018 NOSIG
VHHH,2017-02-03 08:30,113.9219,22.3094,68.00,55.40,64.04,290.00,5.00,0.00,30.06,M,6.21,M,FEW,M,M,M,4000.00,M,M,M,M,M,M,M,M,M,M,68.00,VHHH 030830Z 29005KT 250V320 9999 FEW040 20/13 Q1018 NOSIG
VHHH,2017-02-03 09:00,113.9219,22.3094,68.00,55.40,64.04,250.00,5.00,0.00,30.06,M,6.21,M,FEW,M,M,M,4000.00,M,M,M,M,M,M,M,M,M,M,68.00,VHHH 030900Z 25005KT 9999 FEW040 20/13 Q1018 NOSIG
VHHH,2017-02-03 09:30,113.9219,22.3094,68.00,55.40,64.04,250.00,4.00,0.00,30.06,M,6.21,M,FEW,M,M,M,4000.00,M,M,M,M,M,M,M,M,M,M,68.00,VHHH 030930Z 25004KT 230V290 9999 FEW040 20/13 Q1018 NOSIG
VHHH,2017-02-03 10:00,113.9219,22.3094,66.20,55.40,68.15,290.00,3.00,0.00,30.06,M,6.21,M,FEW,M,M,M,4000.00,M,M,M,M,M,M,M,M,M,M,66.20,VHHH 031000Z 29003KT 9999 FEW040 19/13 Q1018 NOSIG
VHHH,2017-02-03 10:30,113.9219,22.3094,68.00,55.40,64.04,M,2.00,0.00,30.06,M,6.21,M,FEW,M,M,M,4000.00,M,M,M,M,M,M,M,M,M,M,68.00,VHHH 031030Z VRB02KT 9999 FEW040 20/13 Q1018 NOSIG
VHHH,2017-02-03 11:00,113.9219,22.3094,66.20,53.60,63.82,M,3.00,0.00,30.06,M,6.21,M,FEW,M,M,M,4000.00,M,M,M,M,M,M,M,M,M,M,66.20,VHHH 031100Z VRB03KT 9999 FEW040 19/12 Q1018 NOSIG
VHHH,2017-02-03 11:30,113.9219,22.3094,66.20,55.40,68.15,M,3.00,0.00,30.09,M,6.21,M,FEW,M,M,M,4000.00,M,M,M,M,M,M,M,M,M,M,66.20,VHHH 031130Z VRB03KT 9999 FEW040 19/13 Q1019 NOSIG
VHHH,2017-02-03 12:00,113.9219,22.3094,66.20,55.40,68.15,280.00,3.00,0.00,30.09,M,6.21,M,FEW,M,M,M,4000.00,M,M,M,M,M,M,M,M,M,M,66.20,VHHH 031200Z 28003KT 9999 FEW040 19/13 Q1019 NOSIG
VHHH,2017-02-03 12:30,113.9219,22.3094,66.20,53.60,63.82,270.00,2.00,0.00,30.09,M,6.21,M,FEW,M,M,M,4000.00,M,M,M,M,M,M,M,M,M,M,66.20,VHHH 031230Z 27002KT 9999 FEW040 19/12 Q1019 NOSIG
VHHH,2017-02-03 13:00,113.9219,22.3094,66.20,55.40,68.15,M,2.00,0.00,30.09,M,6.21,M,FEW,M,M,M,4000.00,M,M,M,M,M,M,M,M,M,M,66.20,VHHH 031300Z VRB02KT 9999 FEW040 19/13 Q1019 NOSIG
VHHH,2017-02-03 13:30,113.9219,22.3094,66.20,55.40,68.15,60.00,6.00,0.00,30.09,M,6.21,M,FEW,M,M,M,4000.00,M,M,M,M,M,M,M,M,M,M,66.20,VHHH 031330Z 06006KT 9999 FEW040 19/13 Q1019 NOSIG
VHHH,2017-02-03 14:00,113.9219,22.3094,66.20,55.40,68.15,70.00,8.00,0.00,30.09,M,6.21,M,FEW,M,M,M,4000.00,M,M,M,M,M,M,M,M,M,M,66.20,VHHH 031400Z 07008KT 9999 FEW040 19/13 Q1019 NOSIG
VHHH,2017-02-03 14:30,113.9219,22.3094,66.20,53.60,63.82,70.00,8.00,0.00,30.09,M,6.21,M,FEW,M,M,M,4000.00,M,M,M,M,M,M,M,M,M,M,66.20,VHHH 031430Z 07008KT 9999 FEW040 19/12 Q1019 NOSIG
VHHH,2017-02-03 15:00,113.9219,22.3094,66.20,53.60,63.82,60.00,4.00,0.00,30.09,M,6.21,M,FEW,M,M,M,4500.00,M,M,M,M,M,M,M,M,M,M,66.20,VHHH 031500Z 06004KT 9999 FEW045 19/12 Q1019 NOSIG
VHHH,2017-02-03 15:30,113.9219,22.3094,66.20,53.60,63.82,70.00,7.00,0.00,30.09,M,6.21,M,FEW,M,M,M,4500.00,M,M,M,M,M,M,M,M,M,M,66.20,VHHH 031530Z 07007KT 9999 FEW045 19/12 Q1019 NOSIG
VHHH,2017-02-03 16:00,113.9219,22.3094,64.40,53.60,67.95,70.00,8.00,0.00,30.09,M,6.21,M,FEW,M,M,M,4500.00,M,M,M,M,M,M,M,M,M,M,64.40,VHHH 031600Z 07008KT 9999 FEW045 18/12 Q1019 NOSIG
VHHH,2017-02-03 16:30,113.9219,22.3094,64.40,53.60,67.95,80.00,8.00,0.00,30.09,M,6.21,M,FEW,M,M,M,4500.00,M,M,M,M,M,M,M,M,M,M,64.40,VHHH 031630Z 08008KT 9999 FEW045 18/12 Q1019 NOSIG
VHHH,2017-02-03 17:00,113.9219,22.3094,64.40,55.40,72.56,90.00,8.00,0.00,30.06,M,6.21,M,FEW,M,M,M,4500.00,M,M,M,M,M,M,M,M,M,M,64.40,VHHH 031700Z 09008KT 9999 FEW045 18/13 Q1018 NOSIG
VHHH,2017-02-03 17:30,113.9219,22.3094,64.40,53.60,67.95,90.00,11.00,0.00,30.06,M,6.21,M,FEW,M,M,M,4500.00,M,M,M,M,M,M,M,M,M,M,64.40,VHHH 031730Z 09011KT 9999 FEW045 18/12 Q1018 NOSIG
VHHH,2017-02-03 18:00,113.9219,22.3094,64.40,55.40,72.56,90.00,10.00,0.00,30.06,M,6.21,M,FEW,M,M,M,4500.00,M,M,M,M,M,M,M,M,M,M,64.40,VHHH 031800Z 09010KT 9999 FEW045 18/13 Q1018 NOSIG
VHHH,2017-02-03 18:30,113.9219,22.3094,64.40,55.40,72.56,90.00,9.00,0.00,30.06,M,6.21,M,FEW,M,M,M,4500.00,M,M,M,M,M,M,M,M,M,M,64.40,VHHH 031830Z 09009KT 9999 FEW045 18/13 Q1018 NOSIG
VHHH,2017-02-03 19:00,113.9219,22.3094,64.40,55.40,72.56,90.00,8.00,0.00,30.03,M,6.21,M,FEW,M,M,M,4500.00,M,M,M,M,M,M,M,M,M,M,64.40,VHHH 031900Z 09008KT 9999 FEW045 18/13 Q1017 NOSIG
VHHH,2017-02-03 19:30,113.9219,22.3094,64.40,55.40,72.56,90.00,9.00,0.00,30.03,M,6.21,M,FEW,M,M,M,4500.00,M,M,M,M,M,M,M,M,M,M,64.40,VHHH 031930Z 09009KT 9999 FEW045 18/13 Q1017 NOSIG
VHHH,2017-02-03 20:00,113.9219,22.3094,64.40,55.40,72.56,90.00,8.00,0.00,30.03,M,6.21,M,FEW,M,M,M,4500.00,M,M,M,M,M,M,M,M,M,M,64.40,VHHH 032000Z 09008KT 9999 FEW045 18/13 Q1017 NOSIG
VHHH,2017-02-03 20:30,113.9219,22.3094,64.40,53.60,67.95,90.00,9.00,0.00,30.03,M,6.21,M,FEW,M,M,M,4500.00,M,M,M,M,M,M,M,M,M,M,64.40,VHHH 032030Z 09009KT 9999 FEW045 18/12 Q1017 NOSIG
VHHH,2017-02-03 21:00,113.9219,22.3094,62.60,55.40,77.29,90.00,10.00,0.00,30.00,M,6.21,M,FEW,M,M,M,4500.00,M,M,M,M,M,M,M,M,M,M,62.60,VHHH 032100Z 09010KT 9999 FEW045 17/13 Q1016 NOSIG
VHHH,2017-02-03 21:30,113.9219,22.3094,62.60,55.40,77.29,80.00,8.00,0.00,30.03,M,6.21,M,FEW,M,M,M,4500.00,M,M,M,M,M,M,M,M,M,M,62.60,VHHH 032130Z 08008KT 9999 FEW045 17/13 Q1017 NOSIG
VHHH,2017-02-03 22:00,113.9219,22.3094,62.60,55.40,77.29,70.00,10.00,0.00,30.03,M,6.21,M,FEW,M,M,M,4500.00,M,M,M,M,M,M,M,M,M,M,62.60,VHHH 032200Z 07010KT 9999 FEW045 17/13 Q1017 NOSIG
VHHH,2017-02-03 22:30,113.9219,22.3094,64.40,53.60,67.95,100.00,8.00,0.00,30.03,M,6.21,M,FEW,M,M,M,4500.00,M,M,M,M,M,M,M,M,M,M,64.40,VHHH 032230Z 10008KT 9999 FEW045 18/12 Q1017 NOSIG
VHHH,2017-02-03 23:00,113.9219,22.3094,62.60,55.40,77.29,90.00,7.00,0.00,30.03,M,6.21,M,FEW,M,M,M,4000.00,M,M,M,M,M,M,M,M,M,M,62.60,VHHH 032300Z 09007KT 9999 FEW040 17/13 Q1017 NOSIG
VHHH,2017-02-03 23:30,113.9219,22.3094,64.40,55.40,72.56,100.00,7.00,0.00,30.03,M,6.21,M,FEW,M,M,M,4000.00,M,M,M,M,M,M,M,M,M,M,64.40,VHHH 032330Z 10007KT 9999 FEW040 18/13 Q1017 NOSIG
VHHH,2017-02-04 00:00,113.9219,22.3094,64.40,53.60,67.95,100.00,10.00,0.00,30.03,M,6.21,M,FEW,M,M,M,4000.00,M,M,M,M,M,M,M,M,M,M,64.40,VHHH 040000Z 10010KT 9999 FEW040 18/12 Q1017 NOSIG
VHHH,2017-02-04 00:30,113.9219,22.3094,64.40,53.60,67.95,90.00,9.00,0.00,30.03,M,6.21,M,FEW,M,M,M,4000.00,M,M,M,M,M,M,M,M,M,M,64.40,VHHH 040030Z 09009KT 9999 FEW040 18/12 Q1017 NOSIG
VHHH,2017-02-04 01:00,113.9219,22.3094,66.20,53.60,63.82,70.00,8.00,0.00,30.06,M,6.21,M,FEW,M,M,M,4000.00,M,M,M,M,M,M,M,M,M,M,66.20,VHHH 040100Z 07008KT 9999 FEW040 19/12 Q1018 NOSIG
VHHH,2017-02-04 01:30,113.9219,22.3094,68.00,55.40,64.04,90.00,9.00,0.00,30.06,M,6.21,M,FEW,M,M,M,4000.00,M,M,M,M,M,M,M,M,M,M,68.00,VHHH 040130Z 09009KT 060V120 9999 FEW040 20/13 Q1018 NOSIG
VHHH,2017-02-04 02:00,113.9219,22.3094,69.80,53.60,56.38,90.00,10.00,0.00,30.06,M,6.21,M,FEW,M,M,M,4000.00,M,M,M,M,M,M,M,M,M,M,69.80,VHHH 040200Z 09010KT 9999 FEW040 21/12 Q1018 NOSIG
VHHH,2017-02-04 02:30,113.9219,22.3094,69.80,53.60,56.38,90.00,14.00,0.00,30.03,M,6.21,M,M,M,M,M,M,M,M,M,M,M,M,M,M,M,M,69.80,VHHH 040230Z 09014KT CAVOK 21/12 Q1017 NOSIG
VHHH,2017-02-04 03:00,113.9219,22.3094,69.80,53.60,56.38,90.00,11.00,0.00,30.03,M,6.21,M,M,M,M,M,M,M,M,M,M,M,M,M,M,M,M,69.80,VHHH 040300Z 09011KT CAVOK 21/12 Q1017 NOSIG
VHHH,2017-02-04 03:30,113.9219,22.3094,71.60,55.40,56.63,90.00,9.00,0.00,30.00,M,6.21,M,M,M,M,M,M,M,M,M,M,M,M,M,M,M,M,71.60,VHHH 040330Z 09009KT 070V130 CAVOK 22/13 Q1016 NOSIG
VHHH,2017-02-04 04:00,113.9219,22.3094,73.40,55.40,53.29,60.00,10.00,0.00,30.00,M,6.21,M,FEW,M,M,M,3000.00,M,M,M,M,M,M,M,M,M,M,73.40,VHHH 040400Z 06010KT 9999 FEW030 23/13 Q1016 NOSIG
VHHH,2017-02-04 04:30,113.9219,22.3094,73.40,55.40,53.29,50.00,9.00,0.00,29.97,M,6.21,M,FEW,M,M,M,3000.00,M,M,M,M,M,M,M,M,M,M,73.40,VHHH 040430Z 05009KT 9999 FEW030 23/13 Q1015 NOSIG
VHHH,2017-02-04 05:00,113.9219,22.3094,73.40,57.20,56.88,60.00,10.00,0.00,29.94,M,6.21,M,FEW,M,M,M,4000.00,M,M,M,M,M,M,M,M,M,M,73.40,VHHH 040500Z 06010KT 9999 FEW040 23/14 Q1014 NOSIG
VHHH,2017-02-04 05:30,113.9219,22.3094,71.60,57.20,60.44,50.00,10.00,0.00,29.94,M,6.21,M,FEW,M,M,M,4000.00,M,M,M,M,M,M,M,M,M,M,71.60,VHHH 040530Z 05010KT 9999 FEW040 22/14 Q1014 NOSIG
VHHH,2017-02-04 05:43,113.9219,22.3094,71.60,57.20,60.44,340.00,6.00,0.00,29.94,M,6.21,M,FEW,M,M,M,4000.00,M,M,M,M,M,M,M,M,M,M,71.60,VHHH 040543Z 34006KT 260V060 9999 FEW040 22/14 Q1014 NOSIG
VHHH,2017-02-04 06:00,113.9219,22.3094,71.60,57.20,60.44,260.00,7.00,0.00,29.94,M,6.21,M,FEW,M,M,M,4000.00,M,M,M,M,M,M,M,M,M,M,71.60,VHHH 040600Z 26007KT 230V290 9999 FEW040 22/14 Q1014 NOSIG
VHHH,2017-02-04 06:30,113.9219,22.3094,73.40,57.20,56.88,310.00,5.00,0.00,29.91,M,6.21,M,FEW,M,M,M,4500.00,M,M,M,M,M,M,M,M,M,M,73.40,VHHH 040630Z 31005KT 9999 FEW045 23/14 Q1013 NOSIG
VHHH,2017-02-04 07:00,113.9219,22.3094,71.60,55.40,56.63,M,4.00,0.00,29.88,M,6.21,M,FEW,M,M,M,4500.00,M,M,M,M,M,M,M,M,M,M,71.60,VHHH 040700Z VRB04KT 9999 FEW045 22/13 Q1012 NOSIG
VHHH,2017-02-04 07:16,113.9219,22.3094,73.40,57.20,56.88,110.00,10.00,0.00,29.88,M,6.21,M,FEW,M,M,M,4500.00,M,M,M,M,M,M,M,M,M,M,73.40,VHHH 040716Z 11010KT 9999 FEW045 23/14 Q1012 NOSIG
VHHH,2017-02-04 07:30,113.9219,22.3094,73.40,57.20,56.88,120.00,10.00,0.00,29.88,M,6.21,M,FEW,M,M,M,4500.00,M,M,M,M,M,M,M,M,M,M,73.40,VHHH 040730Z 12010KT 090V150 9999 FEW045 23/14 Q1012 NOSIG
VHHH,2017-02-04 08:00,113.9219,22.3094,71.60,57.20,60.44,110.00,10.00,0.00,29.88,M,6.21,M,FEW,M,M,M,4500.00,M,M,M,M,M,M,M,M,M,M,71.60,VHHH 040800Z 11010KT 9999 FEW045 22/14 Q1012 NOSIG
VHHH,2017-02-04 08:30,113.9219,22.3094,71.60,57.20,60.44,M,5.00,0.00,29.91,M,6.21,M,FEW,M,M,M,3500.00,M,M,M,M,M,M,M,M,M,M,71.60,VHHH 040830Z VRB05KT 9999 FEW035 22/14 Q1013 TEMPO 4000 RA
VHHH,2017-02-04 09:00,113.9219,22.3094,69.80,57.20,64.26,300.00,7.00,0.00,29.94,M,6.21,M,FEW,M,M,M,2200.00,M,M,M,M,M,M,M,M,M,M,69.80,VHHH 040900Z 30007KT 250V340 9999 FEW022 21/14 Q1014 TEMPO 4000 RA
VHHH,2017-02-04 09:30,113.9219,22.3094,68.00,59.00,72.92,310.00,13.00,0.00,29.94,M,6.21,M,FEW,SCT,M,M,2000.00,3000.00,M,M,M,M,M,M,M,M,M,68.00,VHHH 040930Z 31013KT 9999 FEW020 SCT030 20/15 Q1014 TEMPO 4000 RA
VHHH,2017-02-04 09:40,113.9219,22.3094,66.20,60.80,82.74,330.00,20.00,0.00,29.97,M,4.35,M,FEW,SCT,M,M,1400.00,2500.00,M,M,-RA,M,M,M,M,M,M,66.20,VHHH 040940Z 33020KT 7000 -RA FEW014 SCT025 19/16 Q1015 TEMPO 4000 RA
VHHH,2017-02-04 10:00,113.9219,22.3094,66.20,60.80,82.74,330.00,21.00,0.00,29.97,M,3.11,M,FEW,SCT,M,M,1200.00,2500.00,M,M,M,M,M,M,M,M,M,66.20,VHHH 041000Z 33021KT 5000 FEW012 SCT025 19/16 Q1015 TEMPO 4000 RA
VHHH,2017-02-04 10:30,113.9219,22.3094,66.20,60.80,82.74,350.00,19.00,0.00,29.97,M,3.11,M,FEW,SCT,M,M,1200.00,2500.00,M,M,-RA,M,M,M,M,M,M,66.20,VHHH 041030Z 35019KT 5000 -RA FEW012 SCT025 19/16 Q1015 TEMPO 4000 RA
VHHH,2017-02-04 11:00,113.9219,22.3094,66.20,60.80,82.74,10.00,9.00,0.00,29.97,M,4.35,M,FEW,SCT,M,M,1200.00,2500.00,M,M,-RA,M,M,M,M,M,M,66.20,VHHH 041100Z 01009KT 7000 -RA FEW012 SCT025 19/16 Q1015 TEMPO 4000 RA
VHHH,2017-02-04 11:30,113.9219,22.3094,66.20,60.80,82.74,80.00,5.00,0.00,29.94,M,3.73,M,FEW,SCT,M,M,1500.00,2500.00,M,M,-RA,M,M,M,M,M,M,66.20,VHHH 041130Z 08005KT 6000 -RA FEW015 SCT025 19/16 Q1014 TEMPO 4000 RA
VHHH,2017-02-04 12:00,113.9219,22.3094,66.20,60.80,82.74,80.00,8.00,0.00,29.94,M,3.73,M,FEW,M,M,M,1500.00,M,M,M,-RA,M,M,M,M,M,M,66.20,VHHH 041200Z 08008KT 060V120 6000 -RA FEW015 19/16 Q1014 NOSIG
VHHH,2017-02-04 12:30,113.9219,22.3094,66.20,59.00,77.60,80.00,5.00,0.00,29.97,M,5.59,M,FEW,M,M,M,1500.00,M,M,M,-RA,M,M,M,M,M,M,66.20,VHHH 041230Z 08005KT 060V120 9000 -RA FEW015 19/15 Q1015 NOSIG
VHHH,2017-02-04 13:00,113.9219,22.3094,66.20,59.00,77.60,360.00,3.00,0.00,29.97,M,6.21,M,FEW,M,M,M,1500.00,M,M,M,-RA,M,M,M,M,M,M,66.20,VHHH 041300Z 36003KT 320V050 9999 -RA FEW015 19/15 Q1015 NOSIG
VHHH,2017-02-04 13:30,113.9219,22.3094,66.20,60.80,82.74,M,3.00,0.00,29.94,M,5.59,M,FEW,M,M,M,1500.00,M,M,M,-RA,M,M,M,M,M,M,66.20,VHHH 041330Z VRB03KT 9000 -RA FEW015 19/16 Q1014 NOSIG
VHHH,2017-02-04 14:00,113.9219,22.3094,66.20,60.80,82.74,80.00,4.00,0.00,29.94,M,4.35,M,FEW,M,M,M,1500.00,M,M,M,-RA,M,M,M,M,M,M,66.20,VHHH 041400Z 08004KT 020V110 7000 -RA FEW015 19/16 Q1014 NOSIG
VHHH,2017-02-04 14:30,113.9219,22.3094,64.40,60.80,88.09,130.00,9.00,0.00,29.94,M,4.97,M,FEW,M,M,M,1500.00,M,M,M,-RA,M,M,M,M,M,M,64.40,VHHH 041430Z 13009KT 100V160 8000 -RA FEW015 18/16 Q1014 NOSIG
VHHH,2017-02-04 15:00,113.9219,22.3094,66.20,59.00,77.60,110.00,13.00,0.00,29.91,M,6.21,M,FEW,M,M,M,1500.00,M,M,M,-RA,M,M,M,M,M,M,66.20,VHHH 041500Z 11013KT 9999 -RA FEW015 19/15 Q1013 NOSIG
VHHH,2017-02-04 15:30,113.9219,22.3094,66.20,59.00,77.60,90.00,8.00,0.00,29.91,M,6.21,M,FEW,SCT,M,M,1500.00,3500.00,M,M,-RA,M,M,M,M,M,M,66.20,VHHH 041530Z 09008KT 9999 -RA FEW015 SCT035 19/15 Q1013 NOSIG
VHHH,2017-02-04 16:00,113.9219,22.3094,68.00,55.40,64.04,110.00,14.00,0.00,29.91,M,6.21,M,FEW,SCT,M,M,1500.00,3500.00,M,M,-RA,M,M,M,M,M,M,68.00,VHHH 041600Z 11014KT 9999 -RA FEW015 SCT035 20/13 Q1013 NOSIG
VHHH,2017-02-04 16:30,113.9219,22.3094,66.20,57.20,72.74,90.00,11.00,0.00,29.91,M,6.21,M,FEW,SCT,M,M,1500.00,3500.00,M,M,-RA,M,M,M,M,M,M,66.20,VHHH 041630Z 09011KT 9999 -RA FEW015 SCT035 19/14 Q1013 NOSIG
VHHH,2017-02-04 17:00,113.9219,22.3094,68.00,57.20,68.35,80.00,8.00,0.00,29.91,M,6.21,M,FEW,SCT,M,M,1500.00,4000.00,M,M,-RA,M,M,M,M,M,M,68.00,VHHH 041700Z 08008KT 9999 -RA FEW015 SCT040 20/14 Q1013 NOSIG
VHHH,2017-02-04 17:19,113.9219,22.3094,66.20,57.20,72.74,10.00,12.00,0.00,29.94,M,6.21,25.00,FEW,SCT,M,M,1500.00,4000.00,M,M,M,M,M,M,M,M,M,66.20,VHHH 041719Z 01012G25KT 330V080 9999 FEW015 SCT040 19/14 Q1014 NOSIG
VHHH,2017-02-04 17:30,113.9219,22.3094,66.20,57.20,72.74,360.00,10.00,0.00,29.94,M,6.21,M,FEW,SCT,M,M,1500.00,4000.00,M,M,M,M,M,M,M,M,M,66.20,VHHH 041730Z 36010KT 9999 FEW015 SCT040 19/14 Q1014 NOSIG
VHHH,2017-02-04 18:00,113.9219,22.3094,66.20,62.60,88.18,340.00,12.00,0.00,29.94,M,3.11,M,FEW,SCT,M,M,1000.00,2500.00,M,M,M,M,M,M,M,M,M,66.20,VHHH 041800Z 34012KT 5000 FEW010 SCT025 19/17 Q1014 TEMPO 4000 BR -RA
VHHH,2017-02-04 18:05,113.9219,22.3094,66.20,62.60,88.18,330.00,13.00,0.00,29.94,M,2.86,M,FEW,SCT,M,M,1000.00,2500.00,M,M,BR -RA,M,M,M,M,M,M,66.20,VHHH 041805Z 33013KT 4600 BR -RA FEW010 SCT025 19/17 Q1014 NOSIG
VHHH,2017-02-04 18:30,113.9219,22.3094,66.20,62.60,88.18,340.00,14.00,0.00,29.94,M,2.67,M,FEW,SCT,M,M,1000.00,2500.00,M,M,BR,M,M,M,M,M,M,66.20,VHHH 041830Z 34014KT 4300 BR FEW010 SCT025 19/17 Q1014 NOSIG
VHHH,2017-02-04 19:00,113.9219,22.3094,66.20,60.80,82.74,40.00,9.00,0.00,29.94,M,3.11,M,FEW,SCT,M,M,1000.00,2500.00,M,M,M,M,M,M,M,M,M,66.20,VHHH 041900Z 04009KT 5000 FEW010 SCT025 19/16 Q1014 TEMPO 4000 BR -RA
VHHH,2017-02-04 19:30,113.9219,22.3094,66.20,60.80,82.74,70.00,7.00,0.00,29.94,M,3.73,M,FEW,SCT,M,M,1000.00,2500.00,M,M,M,M,M,M,M,M,M,66.20,VHHH 041930Z 07007KT 6000 FEW010 SCT025 19/16 Q1014 TEMPO 4000 BR -RA
VHHH,2017-02-04 20:00,113.9219,22.3094,64.40,60.80,88.09,110.00,5.00,0.00,29.91,M,4.97,M,FEW,SCT,M,M,1000.00,2500.00,M,M,M,M,M,M,M,M,M,64.40,VHHH 042000Z 11005KT 8000 FEW010 SCT025 18/16 Q1013 TEMPO 4000 BR -RA
VHHH,2017-02-04 20:30,113.9219,22.3094,64.40,59.00,82.62,110.00,8.00,0.00,29.91,M,6.21,M,FEW,SCT,M,M,1000.00,2500.00,M,M,M,M,M,M,M,M,M,64.40,VHHH 042030Z 11008KT 9999 FEW010 SCT025 18/15 Q1013 TEMPO 4000 BR -RA
VHHH,2017-02-04 21:00,113.9219,22.3094,64.40,59.00,82.62,120.00,5.00,0.00,29.91,M,6.21,M,FEW,SCT,M,M,1000.00,2500.00,M,M,M,M,M,M,M,M,M,64.40,VHHH 042100Z 12005KT 9999 FEW010 SCT025 18/15 Q1013 TEMPO 4000 BR -RA
VHHH,2017-02-04 21:30,113.9219,22.3094,66.20,57.20,72.74,100.00,4.00,0.00,29.91,M,6.21,M,FEW,SCT,M,M,1000.00,2500.00,M,M,M,M,M,M,M,M,M,66.20,VHHH 042130Z 10004KT 9999 FEW010 SCT025 19/14 Q1013 TEMPO 4000 BR -RA
VHHH,2017-02-04 22:00,113.9219,22.3094,64.40,59.00,82.62,100.00,6.00,0.00,29.94,M,6.21,M,FEW,SCT,M,M,1000.00,2500.00,M,M,M,M,M,M,M,M,M,64.40,VHHH 042200Z 10006KT 9999 FEW010 SCT025 18/15 Q1014 NOSIG
VHHH,2017-02-04 22:30,113.9219,22.3094,64.40,59.00,82.62,110.00,4.00,0.00,29.94,M,6.21,M,FEW,SCT,M,M,1000.00,2500.00,M,M,M,M,M,M,M,M,M,64.40,VHHH 042230Z 11004KT 9999 FEW010 SCT025 18/15 Q1014 NOSIG
VHHH,2017-02-04 23:00,113.9219,22.3094,64.40,59.00,82.62,130.00,6.00,0.00,29.94,M,6.21,M,FEW,M,M,M,3000.00,M,M,M,M,M,M,M,M,M,M,64.40,VHHH 042300Z 13006KT 9999 FEW030 18/15 Q1014 NOSIG
VHHH,2017-02-04 23:30,113.9219,22.3094,66.20,60.80,82.74,350.00,5.00,0.00,29.97,M,6.21,M,FEW,M,M,M,3000.00,M,M,M,M,M,M,M,M,M,M,66.20,VHHH 042330Z 35005KT 310V040 9999 FEW030 19/16 Q1015 NOSIG
VHHH,2017-02-04 23:47,113.9219,22.3094,66.20,60.80,82.74,320.00,10.00,0.00,29.97,M,2.55,M,FEW,M,M,M,1000.00,M,M,M,BR,M,M,M,M,M,M,66.20,VHHH 042347Z 32010KT 4100 BR FEW010 19/16 Q1015 NOSIG
VHHH,2017-02-04 23:51,113.9219,22.3094,66.20,62.60,88.18,320.00,11.00,0.00,29.97,M,1.37,M,FEW,M,M,M,1000.00,M,M,M,BR,M,M,M,M,M,M,66.20,VHHH 042351Z 32011KT 2200 BR FEW010 19/17 Q1015 NOSIG
VHHH,2017-02-05 00:00,113.9219,22.3094,66.20,62.60,88.18,320.00,12.00,0.00,29.97,M,1.43,M,FEW,M,M,M,1000.00,M,M,M,BR,M,M,M,M,M,M,66.20,VHHH 050000Z 32012KT 2300 BR FEW010 19/17 Q1015 NOSIG
VHHH,2017-02-05 00:30,113.9219,22.3094,66.20,62.60,88.18,320.00,10.00,0.00,29.97,M,1.24,M,FEW,M,M,M,1000.00,M,M,M,BR,M,M,M,M,M,M,66.20,VHHH 050030Z 32010KT 2000 BR FEW010 19/17 Q1015 NOSIG
VHHH,2017-02-05 01:00,113.9219,22.3094,66.20,62.60,88.18,350.00,10.00,0.00,29.97,M,1.24,M,FEW,M,M,M,800.00,M,M,M,BR,M,M,M,M,M,M,66.20,VHHH 050100Z 35010KT 2000 BR FEW008 19/17 Q1015 NOSIG
VHHH,2017-02-05 01:30,113.9219,22.3094,66.20,62.60,88.18,340.00,12.00,0.00,29.97,M,1.55,M,FEW,M,M,M,800.00,M,M,M,BR,M,M,M,M,M,M,66.20,VHHH 050130Z 34012KT 2500 BR FEW008 19/17 Q1015 NOSIG
VHHH,2017-02-05 02:00,113.9219,22.3094,66.20,62.60,88.18,320.00,10.00,0.00,29.97,M,1.62,M,FEW,M,M,M,1200.00,M,M,M,BR,M,M,M,M,M,M,66.20,VHHH 050200Z 32010KT 2600 BR FEW012 19/17 Q1015 NOSIG
VHHH,2017-02-05 02:30,113.9219,22.3094,68.00,62.60,82.86,330.00,11.00,0.00,29.97,M,1.62,M,FEW,M,M,M,1200.00,M,M,M,BR,M,M,M,M,M,M,68.00,VHHH 050230Z 33011KT 2600 BR FEW012 20/17 Q1015 NOSIG
VHHH,2017-02-05 03:00,113.9219,22.3094,66.20,62.60,88.18,320.00,12.00,0.00,29.97,M,1.43,M,FEW,M,M,M,1200.00,M,M,M,BR,M,M,M,M,M,M,66.20,VHHH 050300Z 32012KT 2300 BR FEW012 19/17 Q1015 NOSIG
VHHH,2017-02-05 03:30,113.9219,22.3094,68.00,60.80,77.75,320.00,10.00,0.00,29.97,M,1.62,M,FEW,M,M,M,1800.00,M,M,M,BR,M,M,M,M,M,M,68.00,VHHH 050330Z 32010KT 2600 BR FEW018 20/16 Q1015 NOSIG
VHHH,2017-02-05 04:00,113.9219,22.3094,66.20,60.80,82.74,330.00,11.00,0.00,29.94,M,1.68,M,FEW,M,M,M,2000.00,M,M,M,BR,M,M,M,M,M,M,66.20,VHHH 050400Z 33011KT 2700 BR FEW020 19/16 Q1014 NOSIG
VHHH,2017-02-05 04:30,113.9219,22.3094,68.00,60.80,77.75,320.00,9.00,0.00,29.94,M,1.93,M,FEW,M,M,M,2200.00,M,M,M,BR,M,M,M,M,M,M,68.00,VHHH 050430Z 32009KT 3100 BR FEW022 20/16 Q1014 NOSIG
VHHH,2017-02-05 05:00,113.9219,22.3094,69.80,60.80,73.09,320.00,8.00,0.00,29.94,M,2.17,M,FEW,M,M,M,2500.00,M,M,M,HZ,M,M,M,M,M,M,69.80,VHHH 050500Z 32008KT 3500 HZ FEW025 21/16 Q1014 NOSIG
VHHH,2017-02-05 05:30,113.9219,22.3094,71.60,60.80,68.75,310.00,7.00,0.00,29.91,M,2.67,M,FEW,M,M,M,2000.00,M,M,M,HZ,M,M,M,M,M,M,71.60,VHHH 050530Z 31007KT 4300 HZ FEW020 22/16 Q1013 NOSIG
VHHH,2017-02-05 05:50,113.9219,22.3094,71.60,59.00,64.48,290.00,5.00,0.00,29.91,M,3.11,M,FEW,M,M,M,2000.00,M,M,M,M,M,M,M,M,M,M,71.60,VHHH 050550Z 29005KT 5000 FEW020 22/15 Q1013 TEMPO 4000 HZ
VHHH,2017-02-05 06:00,113.9219,22.3094,71.60,59.00,64.48,290.00,4.00,0.00,29.88,M,3.11,M,FEW,M,M,M,2000.00,M,M,M,M,M,M,M,M,M,M,71.60,VHHH 050600Z 29004KT 250V310 5000 FEW020 22/15 Q1012 TEMPO 4000 HZ
VHHH,2017-02-05 06:17,113.9219,22.3094,73.40,59.00,60.67,270.00,6.00,0.00,29.88,M,3.04,M,FEW,M,M,M,2000.00,M,M,M,HZ,M,M,M,M,M,M,73.40,VHHH 050617Z 27006KT 4900 HZ FEW020 23/15 Q1012 NOSIG
VHHH,2017-02-05 06:30,113.9219,22.3094,73.40,60.80,64.69,270.00,5.00,0.00,29.88,M,3.11,M,FEW,M,M,M,2000.00,M,M,M,M,M,M,M,M,M,M,73.40,VHHH 050630Z 27005KT 5000 FEW020 23/16 Q1012 TEMPO 4000 HZ
VHHH,2017-02-05 06:45,113.9219,22.3094,73.40,60.80,64.69,270.00,5.00,0.00,29.88,M,3.04,M,FEW,M,M,M,2500.00,M,M,M,HZ,M,M,M,M,M,M,73.40,VHHH 050645Z 27005KT 4900 HZ FEW025 23/16 Q1012 NOSIG
VHHH,2017-02-05 07:00,113.9219,22.3094,73.40,60.80,64.69,270.00,5.00,0.00,29.88,M,3.11,M,FEW,M,M,M,2500.00,M,M,M,M,M,M,M,M,M,M,73.40,VHHH 050700Z 27005KT 5000 FEW025 23/16 Q1012 NOSIG
VHHH,2017-02-05 07:30,113.9219,22.3094,71.60,60.80,68.75,260.00,4.00,0.00,29.88,M,3.73,M,FEW,M,M,M,2500.00,M,M,M,M,M,M,M,M,M,M,71.60,VHHH 050730Z 26004KT 230V290 6000 FEW025 22/16 Q1012 NOSIG
VHHH,2017-02-05 08:00,113.9219,22.3094,71.60,59.00,64.48,M,3.00,0.00,29.88,M,3.73,M,FEW,M,M,M,2500.00,M,M,M,M,M,M,M,M,M,M,71.60,VHHH 050800Z VRB03KT 220V310 6000 FEW025 22/15 Q1012 NOSIG
VHHH,2017-02-05 08:30,113.9219,22.3094,71.60,59.00,64.48,300.00,3.00,0.00,29.88,M,3.73,M,FEW,M,M,M,3000.00,M,M,M,M,M,M,M,M,M,M,71.60,VHHH 050830Z 30003KT 6000 FEW030 22/15 Q1012 NOSIG
VHHH,2017-02-05 09:00,113.9219,22.3094,71.60,59.00,64.48,290.00,3.00,0.00,29.88,M,3.11,M,FEW,M,M,M,3500.00,M,M,M,M,M,M,M,M,M,M,71.60,VHHH 050900Z 29003KT 5000 FEW035 22/15 Q1012 NOSIG
VHHH,2017-02-05 09:30,113.9219,22.3094,71.60,59.00,64.48,270.00,3.00,0.00,29.88,M,3.73,M,FEW,M,M,M,3500.00,M,M,M,M,M,M,M,M,M,M,71.60,VHHH 050930Z 27003KT 6000 FEW035 22/15 Q1012 NOSIG
VHHH,2017-02-05 10:00,113.9219,22.3094,71.60,59.00,64.48,M,3.00,0.00,29.91,M,3.73,M,FEW,M,M,M,3000.00,M,M,M,M,M,M,M,M,M,M,71.60,VHHH 051000Z VRB03KT 6000 FEW030 22/15 Q1013 NOSIG
VHHH,2017-02-05 10:30,113.9219,22.3094,69.80,60.80,73.09,M,1.00,0.00,29.91,M,4.35,M,FEW,M,M,M,3000.00,M,M,M,M,M,M,M,M,M,M,69.80,VHHH 051030Z VRB01KT 7000 FEW030 21/16 Q1013 NOSIG
VHHH,2017-02-05 11:00,113.9219,22.3094,69.80,60.80,73.09,M,2.00,0.00,29.91,M,4.35,M,FEW,M,M,M,3000.00,M,M,M,M,M,M,M,M,M,M,69.80,VHHH 051100Z VRB02KT 7000 FEW030 21/16 Q1013 NOSIG
VHHH,2017-02-05 11:30,113.9219,22.3094,68.00,60.80,77.75,180.00,4.00,0.00,29.91,M,4.97,M,FEW,M,M,M,3500.00,M,M,M,M,M,M,M,M,M,M,68.00,VHHH 051130Z 18004KT 130V260 8000 FEW035 20/16 Q1013 NOSIG
VHHH,2017-02-05 12:00,113.9219,22.3094,68.00,59.00,72.92,M,2.00,0.00,29.91,M,4.97,M,FEW,M,M,M,3500.00,M,M,M,M,M,M,M,M,M,M,68.00,VHHH 051200Z VRB02KT 8000 FEW035 20/15 Q1013 NOSIG
VHHH,2017-02-05 12:30,113.9219,22.3094,69.80,59.00,68.55,170.00,4.00,0.00,29.94,M,5.59,M,NSC,M,M,M,M,M,M,M,M,M,M,M,M,M,M,69.80,VHHH 051230Z 17004KT 150V220 9000 NSC 21/15 Q1014 NOSIG
VHHH,2017-02-05 13:00,113.9219,22.3094,66.20,59.00,77.60,160.00,4.00,0.00,29.94,M,6.21,M,M,M,M,M,M,M,M,M,M,M,M,M,M,M,M,66.20,VHHH 051300Z 16004KT 110V250 CAVOK 19/15 Q1014 NOSIG
VHHH,2017-02-05 13:30,113.9219,22.3094,68.00,57.20,68.35,130.00,4.00,0.00,29.94,M,6.21,M,M,M,M,M,M,M,M,M,M,M,M,M,M,M,M,68.00,VHHH 051330Z 13004KT 100V200 CAVOK 20/14 Q1014 NOSIG
VHHH,2017-02-05 14:00,113.9219,22.3094,66.20,59.00,77.60,130.00,4.00,0.00,29.94,M,6.21,M,M,M,M,M,M,M,M,M,M,M,M,M,M,M,M,66.20,VHHH 051400Z 13004KT 090V190 CAVOK 19/15 Q1014 NOSIG
VHHH,2017-02-05 14:30,113.9219,22.3094,68.00,59.00,72.92,130.00,4.00,0.00,29.94,M,6.21,M,M,M,M,M,M,M,M,M,M,M,M,M,M,M,M,68.00,VHHH 051430Z 13004KT 100V180 CAVOK 20/15 Q1014 NOSIG
VHHH,2017-02-05 15:00,113.9219,22.3094,68.00,59.00,72.92,80.00,9.00,0.00,29.94,M,4.35,M,NSC,M,M,M,M,M,M,M,M,M,M,M,M,M,M,68.00,VHHH 051500Z 08009KT 7000 NSC 20/15 Q1014 NOSIG
VHHH,2017-02-05 15:30,113.9219,22.3094,69.80,59.00,68.55,110.00,10.00,0.00,29.94,M,6.21,M,FEW,M,M,M,4000.00,M,M,M,M,M,M,M,M,M,M,69.80,VHHH 051530Z 11010KT 9999 FEW040 21/15 Q1014 NOSIG
VHHH,2017-02-05 16:00,113.9219,22.3094,68.00,59.00,72.92,110.00,10.00,0.00,29.94,M,6.21,M,FEW,SCT,M,M,3000.00,4000.00,M,M,M,M,M,M,M,M,M,68.00,VHHH 051600Z 11010KT 9999 FEW030 SCT040 20/15 Q1014 NOSIG
VHHH,2017-02-05 16:30,113.9219,22.3094,68.00,60.80,77.75,110.00,11.00,0.00,29.94,M,6.21,M,FEW,SCT,M,M,3000.00,4000.00,M,M,M,M,M,M,M,M,M,68.00,VHHH 051630Z 11011KT 9999 FEW030 SCT040 20/16 Q1014 NOSIG
VHHH,2017-02-05 17:00,113.9219,22.3094,66.20,59.00,77.60,110.00,15.00,0.00,29.97,M,5.59,M,FEW,SCT,M,M,1500.00,4000.00,M,M,M,M,M,M,M,M,M,66.20,VHHH 051700Z 11015KT 9000 FEW015 SCT040 19/15 Q1015 NOSIG
VHHH,2017-02-05 17:30,113.9219,22.3094,66.20,59.00,77.60,100.00,13.00,0.00,29.97,M,6.21,M,FEW,SCT,M,M,1500.00,4000.00,M,M,M,M,M,M,M,M,M,66.20,VHHH 051730Z 10013KT 9999 FEW015 SCT040 19/15 Q1015 NOSIG
VHHH,2017-02-05 18:00,113.9219,22.3094,66.20,59.00,77.60,100.00,11.00,0.00,29.97,M,6.21,M,FEW,SCT,M,M,1500.00,4000.00,M,M,M,M,M,M,M,M,M,66.20,VHHH 051800Z 10011KT 080V140 9999 FEW015 SCT040 19/15 Q1015 NOSIG
VHHH,2017-02-05 18:30,113.9219,22.3094,64.40,59.00,82.62,100.00,11.00,0.00,29.97,M,6.21,M,FEW,SCT,M,M,1500.00,4500.00,M,M,M,M,M,M,M,M,M,64.40,VHHH 051830Z 10011KT 9999 FEW015 SCT045 18/15 Q1015 NOSIG
VHHH,2017-02-05 19:00,113.9219,22.3094,64.40,59.00,82.62,110.00,12.00,0.00,29.94,M,6.21,M,FEW,M,M,M,1500.00,M,M,M,M,M,M,M,M,M,M,64.40,VHHH 051900Z 11012KT 9999 FEW015 18/15 Q1014 NOSIG
VHHH,2017-02-05 19:30,113.9219,22.3094,64.40,59.00,82.62,100.00,13.00,0.00,29.94,M,6.21,M,FEW,M,M,M,1500.00,M,M,M,M,M,M,M,M,M,M,64.40,VHHH 051930Z 10013KT 9999 FEW015 18/15 Q1014 NOSIG
VHHH,2017-02-05 20:00,113.9219,22.3094,64.40,59.00,82.62,100.00,12.00,0.00,29.94,M,6.21,M,FEW,M,M,M,1500.00,M,M,M,M,M,M,M,M,M,M,64.40,VHHH 052000Z 10012KT 9999 FEW015 18/15 Q1014 NOSIG
VHHH,2017-02-05 20:30,113.9219,22.3094,64.40,59.00,82.62,100.00,11.00,0.00,29.94,M,6.21,M,FEW,M,M,M,1500.00,M,M,M,M,M,M,M,M,M,M,64.40,VHHH 052030Z 10011KT 9999 FEW015 18/15 Q1014 NOSIG
VHHH,2017-02-05 21:00,113.9219,22.3094,64.40,59.00,82.62,90.00,9.00,0.00,29.97,M,6.21,M,FEW,M,M,M,1500.00,M,M,M,M,M,M,M,M,M,M,64.40,VHHH 052100Z 09009KT 9999 FEW015 18/15 Q1015 NOSIG
VHHH,2017-02-05 21:30,113.9219,22.3094,64.40,59.00,82.62,80.00,8.00,0.00,29.97,M,6.21,M,FEW,M,M,M,2000.00,M,M,M,M,M,M,M,M,M,M,64.40,VHHH 052130Z 08008KT 9999 FEW020 18/15 Q1015 NOSIG
VHHH,2017-02-05 22:00,113.9219,22.3094,64.40,57.20,77.45,90.00,6.00,0.00,29.97,M,6.21,M,M,M,M,M,M,M,M,M,M,M,M,M,M,M,M,64.40,VHHH 052200Z 09006KT CAVOK 18/14 Q1015 NOSIG
VHHH,2017-02-05 22:30,113.9219,22.3094,62.60,57.20,82.50,120.00,5.00,0.00,29.97,M,6.21,M,M,M,M,M,M,M,M,M,M,M,M,M,M,M,M,62.60,VHHH 052230Z 12005KT 090V210 CAVOK 17/14 Q1015 NOSIG
VHHH,2017-02-05 23:00,113.9219,22.3094,62.60,57.20,82.50,140.00,5.00,0.00,30.00,M,6.21,M,M,M,M,M,M,M,M,M,M,M,M,M,M,M,M,62.60,VHHH 052300Z 14005KT 100V190 CAVOK 17/14 Q1016 NOSIG
VHHH,2017-02-05 23:30,113.9219,22.3094,64.40,59.00,82.62,90.00,7.00,0.00,30.00,M,5.59,M,FEW,M,M,M,2200.00,M,M,M,M,M,M,M,M,M,M,64.40,VHHH 052330Z 09007KT 070V130 9000 FEW022 18/15 Q1016 NOSIG
VHHH,2017-02-06 00:00,113.9219,22.3094,64.40,59.00,82.62,90.00,7.00,0.00,30.00,M,5.59,M,FEW,M,M,M,1600.00,M,M,M,M,M,M,M,M,M,M,64.40,VHHH 060000Z 09007KT 9000 FEW016 18/15 Q1016 NOSIG
VHHH,2017-02-06 00:30,113.9219,22.3094,66.20,60.80,82.74,100.00,8.00,0.00,30.00,M,6.21,M,FEW,SCT,M,M,1600.00,2300.00,M,M,M,M,M,M,M,M,M,66.20,VHHH 060030Z 10008KT 9999 FEW016 SCT023 19/16 Q1016 NOSIG
VHHH,2017-02-06 01:00,113.9219,22.3094,68.00,59.00,72.92,110.00,9.00,0.00,30.00,M,6.21,M,FEW,M,M,M,1800.00,M,M,M,M,M,M,M,M,M,M,68.00,VHHH 060100Z 11009KT 9999 FEW018 20/15 Q1016 NOSIG
VHHH,2017-02-06 01:30,113.9219,22.3094,68.00,60.80,77.75,60.00,6.00,0.00,30.00,M,6.21,M,FEW,M,M,M,1800.00,M,M,M,M,M,M,M,M,M,M,68.00,VHHH 060130Z 06006KT 9999 FEW018 20/16 Q1016 NOSIG
VHHH,2017-02-06 02:00,113.9219,22.3094,69.80,59.00,68.55,50.00,4.00,0.00,30.03,M,6.21,M,FEW,M,M,M,1800.00,M,M,M,M,M,M,M,M,M,M,69.80,VHHH 060200Z 05004KT 9999 FEW018 21/15 Q1017 NOSIG
VHHH,2017-02-06 02:30,113.9219,22.3094,71.60,59.00,64.48,40.00,6.00,0.00,30.03,M,6.21,M,FEW,M,M,M,2500.00,M,M,M,M,M,M,M,M,M,M,71.60,VHHH 060230Z 04006KT 9999 FEW025 22/15 Q1017 NOSIG
VHHH,2017-02-06 03:00,113.9219,22.3094,71.60,59.00,64.48,80.00,7.00,0.00,30.00,M,6.21,M,FEW,M,M,M,2500.00,M,M,M,M,M,M,M,M,M,M,71.60,VHHH 060300Z 08007KT 050V160 9999 FEW025 22/15 Q1016 NOSIG
VHHH,2017-02-06 03:30,113.9219,22.3094,73.40,59.00,60.67,110.00,10.00,0.00,30.00,M,6.21,M,FEW,M,M,M,3000.00,M,M,M,M,M,M,M,M,M,M,73.40,VHHH 060330Z 11010KT 9999 FEW030 23/15 Q1016 NOSIG
VHHH,2017-02-06 04:00,113.9219,22.3094,71.60,57.20,60.44,90.00,11.00,0.00,30.00,M,6.21,M,FEW,M,M,M,3000.00,M,M,M,M,M,M,M,M,M,M,71.60,VHHH 060400Z 09011KT 050V130 9999 FEW030 22/14 Q1016 NOSIG
VHHH,2017-02-06 04:30,113.9219,22.3094,71.60,57.20,60.44,100.00,10.00,0.00,30.00,M,6.21,M,FEW,M,M,M,3000.00,M,M,M,M,M,M,M,M,M,M,71.60,VHHH 060430Z 10010KT 9999 FEW030 22/14 Q1016 NOSIG
VHHH,2017-02-06 05:00,113.9219,22.3094,69.80,57.20,64.26,120.00,11.00,0.00,29.97,M,6.21,M,FEW,M,M,M,3000.00,M,M,M,M,M,M,M,M,M,M,69.80,VHHH 060500Z 12011KT 090V150 9999 FEW030 21/14 Q1015 NOSIG
VHHH,2017-02-06 05:30,113.9219,22.3094,71.60,57.20,60.44,110.00,13.00,0.00,29.94,M,6.21,M,FEW,M,M,M,3000.00,M,M,M,M,M,M,M,M,M,M,71.60,VHHH 060530Z 11013KT 9999 FEW030 22/14 Q1014 NOSIG
VHHH,2017-02-06 06:00,113.9219,22.3094,71.60,55.40,56.63,100.00,10.00,0.00,29.94,M,6.21,M,FEW,SCT,M,M,3000.00,4000.00,M,M,M,M,M,M,M,M,M,71.60,VHHH 060600Z 10010KT 060V120 9999 FEW030 SCT040 22/13 Q1014 NOSIG
VHHH,2017-02-06 06:30,113.9219,22.3094,73.40,55.40,53.29,100.00,14.00,0.00,29.91,M,6.21,M,FEW,M,M,M,3500.00,M,M,M,M,M,M,M,M,M,M,73.40,VHHH 060630Z 10014KT 9999 FEW035 23/13 Q1013 NOSIG
VHHH,2017-02-06 07:00,113.9219,22.3094,73.40,55.40,53.29,100.00,16.00,0.00,29.91,M,6.21,M,FEW,M,M,M,3500.00,M,M,M,M,M,M,M,M,M,M,73.40,VHHH 060700Z 10016KT 9999 FEW035 23/13 Q1013 NOSIG
VHHH,2017-02-06 07:30,113.9219,22.3094,73.40,55.40,53.29,100.00,18.00,0.00,29.91,M,6.21,M,FEW,M,M,M,3500.00,M,M,M,M,M,M,M,M,M,M,73.40,VHHH 060730Z 10018KT 9999 FEW035 23/13 Q1013 NOSIG
VHHH,2017-02-06 08:00,113.9219,22.3094,73.40,53.60,49.90,110.00,23.00,0.00,29.91,M,6.21,M,FEW,M,M,M,3500.00,M,M,M,M,M,M,M,M,M,M,73.40,VHHH 060800Z 11023KT 9999 FEW035 23/12 Q1013 NOSIG
VHHH,2017-02-06 08:30,113.9219,22.3094,71.60,55.40,56.63,110.00,17.00,0.00,29.91,M,6.21,M,FEW,M,M,M,3500.00,M,M,M,M,M,M,M,M,M,M,71.60,VHHH 060830Z 11017KT 9999 FEW035 22/13 Q1013 NOSIG
VHHH,2017-02-06 09:00,113.9219,22.3094,69.80,55.40,60.21,110.00,16.00,0.00,29.91,M,6.21,M,FEW,SCT,M,M,3000.00,4000.00,M,M,M,M,M,M,M,M,M,69.80,VHHH 060900Z 11016KT 9999 FEW030 SCT040 21/13 Q1013 NOSIG
VHHH,2017-02-06 09:30,113.9219,22.3094,68.00,55.40,64.04,110.00,15.00,0.00,29.94,M,6.21,M,FEW,SCT,M,M,3000.00,4000.00,M,M,M,M,M,M,M,M,M,68.00,VHHH 060930Z 11015KT 9999 FEW030 SCT040 20/13 Q1014 NOSIG
VHHH,2017-02-06 10:00,113.9219,22.3094,68.00,53.60,59.97,110.00,17.00,0.00,29.94,M,6.21,M,FEW,SCT,M,M,3000.00,4000.00,M,M,M,M,M,M,M,M,M,68.00,VHHH 061000Z 11017KT 9999 FEW030 SCT040 20/12 Q1014 NOSIG
VHHH,2017-02-06 10:30,113.9219,22.3094,68.00,53.60,59.97,110.00,21.00,0.00,29.94,M,6.21,M,FEW,SCT,M,M,3000.00,4000.00,M,M,M,M,M,M,M,M,M,68.00,VHHH 061030Z 11021KT 9999 FEW030 SCT040 20/12 Q1014 NOSIG
VHHH,2017-02-06 11:00,113.9219,22.3094,66.20,51.80,59.74,110.00,21.00,0.00,29.94,M,6.21,M,FEW,SCT,M,M,3000.00,4000.00,M,M,M,M,M,M,M,M,M,66.20,VHHH 061100Z 11021KT 9999 FEW030 SCT040 19/11 Q1014 NOSIG
VHHH,2017-02-06 11:30,113.9219,22.3094,66.20,53.60,63.82,100.00,17.00,0.00,29.97,M,5.59,M,FEW,SCT,M,M,3000.00,4000.00,M,M,M,M,M,M,M,M,M,66.20,VHHH 061130Z 10017KT 9000 FEW030 SCT040 19/12 Q1015 NOSIG
VHHH,2017-02-06 12:00,113.9219,22.3094,66.20,53.60,63.82,100.00,18.00,0.00,29.97,M,5.59,M,FEW,SCT,M,M,3000.00,4000.00,M,M,M,M,M,M,M,M,M,66.20,VHHH 061200Z 10018KT 9000 FEW030 SCT040 19/12 Q1015 NOSIG
VHHH,2017-02-06 12:30,113.9219,22.3094,66.20,53.60,63.82,100.00,18.00,0.00,30.00,M,5.59,M,FEW,SCT,M,M,3000.00,4000.00,M,M,M,M,M,M,M,M,M,66.20,VHHH 061230Z 10018KT 9000 FEW030 SCT040 19/12 Q1016 NOSIG
VHHH,2017-02-06 13:00,113.9219,22.3094,66.20,53.60,63.82,90.00,19.00,0.00,30.00,M,4.97,M,FEW,SCT,M,M,3000.00,4000.00,M,M,M,M,M,M,M,M,M,66.20,VHHH 061300Z 09019KT 8000 FEW030 SCT040 19/12 Q1016 NOSIG
VHHH,2017-02-06 13:30,113.9219,22.3094,66.20,53.60,63.82,100.00,18.00,0.00,30.00,M,4.97,M,FEW,SCT,M,M,3000.00,4000.00,M,M,M,M,M,M,M,M,M,66.20,VHHH 061330Z 10018KT 8000 FEW030 SCT040 19/12 Q1016 NOSIG
VHHH,2017-02-06 14:00,113.9219,22.3094,66.20,53.60,63.82,100.00,20.00,0.00,30.00,M,4.97,M,FEW,SCT,M,M,3000.00,4000.00,M,M,M,M,M,M,M,M,M,66.20,VHHH 061400Z 10020KT 8000 FEW030 SCT040 19/12 Q1016 NOSIG
VHHH,2017-02-06 14:30,113.9219,22.3094,66.20,53.60,63.82,100.00,21.00,0.00,30.00,M,4.97,M,FEW,SCT,M,M,3000.00,4000.00,M,M,M,M,M,M,M,M,M,66.20,VHHH 061430Z 10021KT 8000 FEW030 SCT040 19/12 Q1016 NOSIG
VHHH,2017-02-06 15:00,113.9219,22.3094,66.20,53.60,63.82,100.00,19.00,0.00,30.00,M,4.35,M,FEW,SCT,M,M,3000.00,4000.00,M,M,M,M,M,M,M,M,M,66.20,VHHH 061500Z 10019KT 7000 FEW030 SCT040 19/12 Q1016 NOSIG
VHHH,2017-02-06 15:30,113.9219,22.3094,64.40,53.60,67.95,100.00,16.00,0.00,30.00,M,4.35,M,FEW,SCT,M,M,3000.00,4000.00,M,M,M,M,M,M,M,M,M,64.40,VHHH 061530Z 10016KT 7000 FEW030 SCT040 18/12 Q1016 NOSIG
VHHH,2017-02-06 16:00,113.9219,22.3094,64.40,55.40,72.56,100.00,12.00,0.00,30.00,M,4.35,M,FEW,SCT,M,M,3000.00,4000.00,M,M,M,M,M,M,M,M,M,64.40,VHHH 061600Z 10012KT 7000 FEW030 SCT040 18/13 Q1016 NOSIG
VHHH,2017-02-06 16:30,113.9219,22.3094,64.40,53.60,67.95,100.00,11.00,0.00,30.00,M,4.35,M,FEW,SCT,M,M,3000.00,4000.00,M,M,M,M,M,M,M,M,M,64.40,VHHH 061630Z 10011KT 060V120 7000 FEW030 SCT040 18/12 Q1016 NOSIG
VHHH,2017-02-06 17:00,113.9219,22.3094,64.40,53.60,67.95,100.00,13.00,0.00,30.00,M,4.35,M,FEW,SCT,M,M,3000.00,4000.00,M,M,M,M,M,M,M,M,M,64.40,VHHH 061700Z 10013KT 7000 FEW030 SCT040 18/12 Q1016 NOSIG
VHHH,2017-02-06 17:30,113.9219,22.3094,64.40,53.60,67.95,100.00,15.00,0.00,30.00,M,4.97,M,FEW,SCT,M,M,3000.00,4000.00,M,M,M,M,M,M,M,M,M,64.40,VHHH 061730Z 10015KT 8000 FEW030 SCT040 18/12 Q1016 NOSIG
VHHH,2017-02-06 18:00,113.9219,22.3094,64.40,53.60,67.95,100.00,16.00,0.00,30.00,M,4.97,M,FEW,SCT,M,M,2500.00,4500.00,M,M,M,M,M,M,M,M,M,64.40,VHHH 061800Z 10016KT 8000 FEW025 SCT045 18/12 Q1016 NOSIG
VHHH,2017-02-06 18:30,113.9219,22.3094,62.60,51.80,67.75,100.00,18.00,0.00,30.00,M,4.97,M,FEW,SCT,M,M,2500.00,4500.00,M,M,M,M,M,M,M,M,M,62.60,VHHH 061830Z 10018KT 8000 FEW025 SCT045 17/11 Q1016 NOSIG
VHHH,2017-02-06 19:00,113.9219,22.3094,62.60,51.80,67.75,100.00,16.00,0.00,30.00,M,4.97,M,FEW,SCT,M,M,2500.00,4500.00,M,M,M,M,M,M,M,M,M,62.60,VHHH 061900Z 10016KT 8000 FEW025 SCT045 17/11 Q1016 NOSIG
VHHH,2017-02-06 19:30,113.9219,22.3094,62.60,51.80,67.75,100.00,15.00,0.00,30.00,M,4.97,M,FEW,SCT,M,M,2500.00,4500.00,M,M,M,M,M,M,M,M,M,62.60,VHHH 061930Z 10015KT 8000 FEW025 SCT045 17/11 Q1016 NOSIG
VHHH,2017-02-06 20:00,113.9219,22.3094,62.60,51.80,67.75,90.00,12.00,0.00,30.00,M,4.97,M,FEW,SCT,M,M,2500.00,4500.00,M,M,M,M,M,M,M,M,M,62.60,VHHH 062000Z 09012KT 8000 FEW025 SCT045 17/11 Q1016 NOSIG
VHHH,2017-02-06 20:30,113.9219,22.3094,62.60,51.80,67.75,100.00,13.00,0.00,30.00,M,4.97,M,FEW,SCT,M,M,2500.00,4500.00,M,M,M,M,M,M,M,M,M,62.60,VHHH 062030Z 10013KT 8000 FEW025 SCT045 17/11 Q1016 NOSIG
VHHH,2017-02-06 21:00,113.9219,22.3094,62.60,51.80,67.75,100.00,15.00,0.00,30.00,M,4.97,M,FEW,SCT,M,M,2500.00,4500.00,M,M,M,M,M,M,M,M,M,62.60,VHHH 062100Z 10015KT 8000 FEW025 SCT045 17/11 Q1016 NOSIG
VHHH,2017-02-06 21:30,113.9219,22.3094,62.60,50.00,63.38,90.00,15.00,0.00,30.00,M,5.59,M,FEW,SCT,M,M,2500.00,4500.00,M,M,M,M,M,M,M,M,M,62.60,VHHH 062130Z 09015KT 9000 FEW025 SCT045 17/10 Q1016 NOSIG
VHHH,2017-02-06 22:00,113.9219,22.3094,62.60,50.00,63.38,90.00,11.00,0.00,30.00,M,5.59,M,FEW,SCT,M,M,3000.00,4500.00,M,M,M,M,M,M,M,M,M,62.60,VHHH 062200Z 09011KT 060V120 9000 FEW030 SCT045 17/10 Q1016 NOSIG
VHHH,2017-02-06 22:30,113.9219,22.3094,62.60,50.00,63.38,90.00,13.00,0.00,30.03,M,5.59,M,FEW,SCT,M,M,3000.00,4500.00,M,M,M,M,M,M,M,M,M,62.60,VHHH 062230Z 09013KT 060V120 9000 FEW030 SCT045 17/10 Q1017 NOSIG
VHHH,2017-02-06 23:00,113.9219,22.3094,62.60,50.00,63.38,90.00,14.00,0.00,30.03,M,5.59,M,FEW,SCT,M,M,2500.00,4500.00,M,M,M,M,M,M,M,M,M,62.60,VHHH 062300Z 09014KT 9000 FEW025 SCT045 17/10 Q1017 NOSIG
VHHH,2017-02-06 23:30,113.9219,22.3094,62.60,51.80,67.75,90.00,15.00,0.00,30.03,M,4.97,M,FEW,SCT,M,M,2200.00,4500.00,M,M,M,M,M,M,M,M,M,62.60,VHHH 062330Z 09015KT 8000 FEW022 SCT045 17/11 Q1017 NOSIG
VHHH,2017-02-07 00:00,113.9219,22.3094,62.60,51.80,67.75,100.00,17.00,0.00,30.03,M,4.97,M,FEW,SCT,M,M,2500.00,4500.00,M,M,M,M,M,M,M,M,M,62.60,VHHH 070000Z 10017KT 8000 FEW025 SCT045 17/11 Q1017 NOSIG
VHHH,2017-02-07 00:30,113.9219,22.3094,62.60,51.80,67.75,100.00,21.00,0.00,30.06,M,4.97,32.00,FEW,SCT,M,M,2500.00,4500.00,M,M,M,M,M,M,M,M,M,62.60,VHHH 070030Z 10021G32KT 8000 FEW025 SCT045 17/11 Q1018 NOSIG
VHHH,2017-02-07 01:00,113.9219,22.3094,64.40,51.80,63.60,100.00,20.00,0.00,30.06,M,4.35,M,FEW,SCT,M,M,2500.00,4500.00,M,M,M,M,M,M,M,M,M,64.40,VHHH 070100Z 10020KT 7000 FEW025 SCT045 18/11 Q1018 NOSIG
VHHH,2017-02-07 01:30,113.9219,22.3094,64.40,51.80,63.60,100.00,22.00,0.00,30.06,M,4.35,32.00,FEW,SCT,M,M,1800.00,4000.00,M,M,M,M,M,M,M,M,M,64.40,VHHH 070130Z 10022G32KT 7000 FEW018 SCT040 18/11 Q1018 NOSIG
VHHH,2017-02-07 02:00,113.9219,22.3094,64.40,51.80,63.60,100.00,20.00,0.00,30.09,M,4.35,M,FEW,M,M,M,1800.00,M,M,M,M,M,M,M,M,M,M,64.40,VHHH 070200Z 10020KT 7000 FEW018 18/11 Q1019 NOSIG
VHHH,2017-02-07 02:30,113.9219,22.3094,64.40,51.80,63.60,100.00,24.00,0.00,30.09,M,3.73,M,FEW,M,M,M,1800.00,M,M,M,M,M,M,M,M,M,M,64.40,VHHH 070230Z 10024KT 6000 FEW018 18/11 Q1019 NOSIG
VHHH,2017-02-07 03:00,113.9219,22.3094,64.40,51.80,63.60,100.00,20.00,0.00,30.06,M,3.73,M,FEW,M,M,M,1800.00,M,M,M,M,M,M,M,M,M,M,64.40,VHHH 070300Z 10020KT 6000 FEW018 18/11 Q1018 NOSIG
VHHH,2017-02-07 03:30,113.9219,22.3094,64.40,51.80,63.60,100.00,20.00,0.00,30.06,M,3.73,M,FEW,M,M,M,1800.00,M,M,M,M,M,M,M,M,M,M,64.40,VHHH 070330Z 10020KT 6000 FEW018 18/11 Q1018 NOSIG
VHHH,2017-02-07 04:00,113.9219,22.3094,66.20,53.60,63.82,100.00,22.00,0.00,30.03,M,3.73,M,FEW,SCT,M,M,1800.00,3000.00,M,M,M,M,M,M,M,M,M,66.20,VHHH 070400Z 10022KT 6000 FEW018 SCT030 19/12 Q1017 NOSIG
VHHH,2017-02-07 04:30,113.9219,22.3094,66.20,53.60,63.82,100.00,19.00,0.00,30.03,M,3.73,M,FEW,SCT,M,M,1800.00,3000.00,M,M,M,M,M,M,M,M,M,66.20,VHHH 070430Z 10019KT 6000 FEW018 SCT030 19/12 Q1017 NOSIG
VHHH,2017-02-07 05:00,113.9219,22.3094,66.20,51.80,59.74,100.00,18.00,0.00,30.00,M,4.35,M,FEW,SCT,M,M,1800.00,3000.00,M,M,M,M,M,M,M,M,M,66.20,VHHH 070500Z 10018KT 7000 FEW018 SCT030 19/11 Q1016 NOSIG
VHHH,2017-02-07 05:30,113.9219,22.3094,66.20,51.80,59.74,100.00,18.00,0.00,30.00,M,4.35,M,FEW,SCT,M,M,1800.00,3000.00,M,M,M,M,M,M,M,M,M,66.20,VHHH 070530Z 10018KT 7000 FEW018 SCT030 19/11 Q1016 NOSIG
VHHH,2017-02-07 06:00,113.9219,22.3094,68.00,51.80,56.13,110.00,17.00,0.00,29.97,M,4.97,M,FEW,SCT,M,M,2000.00,3000.00,M,M,M,M,M,M,M,M,M,68.00,VHHH 070600Z 11017KT 8000 FEW020 SCT030 20/11 Q1015 NOSIG
VHHH,2017-02-07 06:30,113.9219,22.3094,68.00,51.80,56.13,110.00,14.00,0.00,29.97,M,4.97,M,FEW,SCT,M,M,2000.00,3000.00,M,M,M,M,M,M,M,M,M,68.00,VHHH 070630Z 11014KT 8000 FEW020 SCT030 20/11 Q1015 NOSIG
VHHH,2017-02-07 07:00,113.9219,22.3094,68.00,51.80,56.13,100.00,14.00,0.00,29.97,M,5.59,M,FEW,SCT,M,M,2000.00,3500.00,M,M,M,M,M,M,M,M,M,68.00,VHHH 070700Z 10014KT 9000 FEW020 SCT035 20/11 Q1015 NOSIG
VHHH,2017-02-07 07:30,113.9219,22.3094,68.00,51.80,56.13,110.00,12.00,0.00,29.97,M,5.59,M,FEW,SCT,M,M,2000.00,3500.00,M,M,M,M,M,M,M,M,M,68.00,VHHH 070730Z 11012KT 9000 FEW020 SCT035 20/11 Q1015 NOSIG
VHHH,2017-02-07 08:00,113.9219,22.3094,68.00,51.80,56.13,130.00,10.00,0.00,29.97,M,5.59,M,FEW,SCT,M,M,2000.00,3500.00,M,M,M,M,M,M,M,M,M,68.00,VHHH 070800Z 13010KT 100V160 9000 FEW020 SCT035 20/11 Q1015 NOSIG
VHHH,2017-02-07 08:30,113.9219,22.3094,68.00,51.80,56.13,120.00,12.00,0.00,29.97,M,6.21,M,FEW,SCT,M,M,2200.00,3500.00,M,M,M,M,M,M,M,M,M,68.00,VHHH 070830Z 12012KT 090V150 9999 FEW022 SCT035 20/11 Q1015 NOSIG
VHHH,2017-02-07 09:00,113.9219,22.3094,66.20,50.00,55.88,120.00,14.00,0.00,29.97,M,6.21,M,FEW,SCT,M,M,2200.00,3500.00,M,M,M,M,M,M,M,M,M,66.20,VHHH 070900Z 12014KT 9999 FEW022 SCT035 19/10 Q1015 NOSIG
VHHH,2017-02-07 09:30,113.9219,22.3094,66.20,48.20,52.25,110.00,14.00,0.00,29.97,M,6.21,M,FEW,SCT,M,M,2200.00,3500.00,M,M,M,M,M,M,M,M,M,66.20,VHHH 070930Z 11014KT 9999 FEW022 SCT035 19/09 Q1015 NOSIG
VHHH,2017-02-07 10:00,113.9219,22.3094,66.20,50.00,55.88,110.00,12.00,0.00,29.97,M,5.59,M,FEW,SCT,M,M,2200.00,3200.00,M,M,M,M,M,M,M,M,M,66.20,VHHH 071000Z 11012KT 9000 FEW022 SCT032 19/10 Q1015 NOSIG
VHHH,2017-02-07 10:30,113.9219,22.3094,64.40,50.00,59.50,100.00,12.00,0.00,29.97,M,5.59,M,FEW,SCT,M,M,2200.00,3000.00,M,M,M,M,M,M,M,M,M,64.40,VHHH 071030Z 10012KT 9000 FEW022 SCT030 18/10 Q1015 NOSIG
VHHH,2017-02-07 11:00,113.9219,22.3094,64.40,53.60,67.95,100.00,14.00,0.00,29.97,M,6.21,M,FEW,SCT,M,M,2200.00,3000.00,M,M,M,M,M,M,M,M,M,64.40,VHHH 071100Z 10014KT 9999 FEW022 SCT030 18/12 Q1015 NOSIG
VHHH,2017-02-07 11:30,113.9219,22.3094,64.40,53.60,67.95,110.00,15.00,0.00,29.97,M,6.21,M,FEW,SCT,M,M,2200.00,3000.00,M,M,M,M,M,M,M,M,M,64.40,VHHH 071130Z 11015KT 9999 FEW022 SCT030 18/12 Q1015 NOSIG
VHHH,2017-02-07 12:00,113.9219,22.3094,66.20,53.60,63.82,100.00,16.00,0.00,30.00,M,6.21,M,FEW,SCT,M,M,2200.00,3000.00,M,M,M,M,M,M,M,M,M,66.20,VHHH 071200Z 10016KT 9999 FEW022 SCT030 19/12 Q1016 NOSIG
VHHH,2017-02-07 12:30,113.9219,22.3094,64.40,53.60,67.95,90.00,15.00,0.00,30.00,M,6.21,M,FEW,SCT,M,M,2200.00,3000.00,M,M,M,M,M,M,M,M,M,64.40,VHHH 071230Z 09015KT 9999 FEW022 SCT030 18/12 Q1016 NOSIG
VHHH,2017-02-07 13:00,113.9219,22.3094,66.20,53.60,63.82,100.00,15.00,0.00,30.00,M,6.21,M,FEW,SCT,M,M,2200.00,3000.00,M,M,M,M,M,M,M,M,M,66.20,VHHH 071300Z 10015KT 9999 FEW022 SCT030 19/12 Q1016 NOSIG
VHHH,2017-02-07 13:30,113.9219,22.3094,64.40,53.60,67.95,100.00,17.00,0.00,30.00,M,6.21,M,FEW,SCT,M,M,2200.00,3000.00,M,M,M,M,M,M,M,M,M,64.40,VHHH 071330Z 10017KT 9999 FEW022 SCT030 18/12 Q1016 NOSIG
VHHH,2017-02-07 14:00,113.9219,22.3094,64.40,53.60,67.95,110.00,18.00,0.00,30.00,M,6.21,M,FEW,SCT,M,M,2200.00,3000.00,M,M,M,M,M,M,M,M,M,64.40,VHHH 071400Z 11018KT 9999 FEW022 SCT030 18/12 Q1016 NOSIG
VHHH,2017-02-07 14:30,113.9219,22.3094,64.40,55.40,72.56,100.00,20.00,0.00,30.00,M,6.21,M,FEW,SCT,M,M,2200.00,3000.00,M,M,M,M,M,M,M,M,M,64.40,VHHH 071430Z 10020KT 9999 FEW022 SCT030 18/13 Q1016 NOSIG
VHHH,2017-02-07 15:00,113.9219,22.3094,64.40,55.40,72.56,100.00,20.00,0.00,30.00,M,6.21,M,FEW,SCT,M,M,2000.00,3000.00,M,M,M,M,M,M,M,M,M,64.40,VHHH 071500Z 10020KT 9999 FEW020 SCT030 18/13 Q1016 NOSIG
VHHH,2017-02-07 15:30,113.9219,22.3094,64.40,55.40,72.56,90.00,22.00,0.00,30.00,M,6.21,M,FEW,SCT,M,M,2000.00,3000.00,M,M,M,M,M,M,M,M,M,64.40,VHHH 071530Z 09022KT 9999 FEW020 SCT030 18/13 Q1016 NOSIG
VHHH,2017-02-07 16:00,113.9219,22.3094,64.40,55.40,72.56,100.00,19.00,0.00,29.97,M,6.21,M,FEW,SCT,M,M,2000.00,3000.00,M,M,M,M,M,M,M,M,M,64.40,VHHH 071600Z 10019KT 9999 FEW020 SCT030 18/13 Q1015 NOSIG
VHHH,2017-02-07 16:30,113.9219,22.3094,64.40,55.40,72.56,90.00,20.00,0.00,29.97,M,6.21,M,FEW,SCT,M,M,2000.00,3000.00,M,M,M,M,M,M,M,M,M,64.40,VHHH 071630Z 09020KT 9999 FEW020 SCT030 18/13 Q1015 NOSIG
VHHH,2017-02-07 17:00,113.9219,22.3094,66.20,55.40,68.15,90.00,18.00,0.00,29.97,M,6.21,M,FEW,SCT,M,M,2000.00,3000.00,M,M,M,M,M,M,M,M,M,66.20,VHHH 071700Z 09018KT 9999 FEW020 SCT030 19/13 Q1015 NOSIG
VHHH,2017-02-07 17:30,113.9219,22.3094,64.40,55.40,72.56,80.00,15.00,0.00,29.97,M,6.21,M,FEW,SCT,M,M,2000.00,3000.00,M,M,M,M,M,M,M,M,M,64.40,VHHH 071730Z 08015KT 9999 FEW020 SCT030 18/13 Q1015 NOSIG
VHHH,2017-02-07 18:00,113.9219,22.3094,62.60,55.40,77.29,80.00,17.00,0.00,29.97,M,6.21,M,FEW,SCT,M,M,2000.00,3000.00,M,M,M,M,M,M,M,M,M,62.60,VHHH 071800Z 08017KT 9999 FEW020 SCT030 17/13 Q1015 NOSIG
VHHH,2017-02-07 18:30,113.9219,22.3094,64.40,57.20,77.45,100.00,15.00,0.00,29.97,M,6.21,M,FEW,SCT,M,M,2000.00,3000.00,M,M,M,M,M,M,M,M,M,64.40,VHHH 071830Z 10015KT 9999 FEW020 SCT030 18/14 Q1015 NOSIG
VHHH,2017-02-07 19:00,113.9219,22.3094,64.40,57.20,77.45,80.00,11.00,0.00,29.97,M,6.21,M,FEW,SCT,M,M,2000.00,3000.00,M,M,M,M,M,M,M,M,M,64.40,VHHH 071900Z 08011KT 9999 FEW020 SCT030 18/14 Q1015 NOSIG
VHHH,2017-02-07 19:30,113.9219,22.3094,64.40,57.20,77.45,90.00,10.00,0.00,29.97,M,6.21,M,FEW,SCT,M,M,1800.00,2600.00,M,M,M,M,M,M,M,M,M,64.40,VHHH 071930Z 09010KT 9999 FEW018 SCT026 18/14 Q1015 NOSIG
VHHH,2017-02-07 20:00,113.9219,22.3094,62.60,57.20,82.50,90.00,9.00,0.00,29.97,M,6.21,M,FEW,SCT,M,M,1800.00,2600.00,M,M,M,M,M,M,M,M,M,62.60,VHHH 072000Z 09009KT 9999 FEW018 SCT026 17/14 Q1015 NOSIG
VHHH,2017-02-07 20:30,113.9219,22.3094,62.60,57.20,82.50,90.00,11.00,0.00,29.97,M,6.21,M,FEW,SCT,M,M,1800.00,2600.00,M,M,M,M,M,M,M,M,M,62.60,VHHH 072030Z 09011KT 9999 FEW018 SCT026 17/14 Q1015 NOSIG
VHHH,2017-02-07 21:00,113.9219,22.3094,62.60,57.20,82.50,110.00,9.00,0.00,29.97,M,6.21,M,FEW,SCT,M,M,1800.00,2600.00,M,M,M,M,M,M,M,M,M,62.60,VHHH 072100Z 11009KT 9999 FEW018 SCT026 17/14 Q1015 NOSIG
VHHH,2017-02-07 21:30,113.9219,22.3094,62.60,57.20,82.50,110.00,7.00,0.00,29.97,M,6.21,M,FEW,SCT,M,M,1800.00,2600.00,M,M,M,M,M,M,M,M,M,62.60,VHHH 072130Z 11007KT 9999 FEW018 SCT026 17/14 Q1015 NOSIG
VHHH,2017-02-07 22:00,113.9219,22.3094,64.40,57.20,77.45,100.00,7.00,0.00,30.00,M,6.21,M,FEW,SCT,M,M,1800.00,2600.00,M,M,M,M,M,M,M,M,M,64.40,VHHH 072200Z 10007KT 9999 FEW018 SCT026 18/14 Q1016 NOSIG
VHHH,2017-02-07 22:30,113.9219,22.3094,64.40,57.20,77.45,100.00,11.00,0.00,30.00,M,6.21,M,FEW,SCT,M,M,1800.00,2600.00,M,M,M,M,M,M,M,M,M,64.40,VHHH 072230Z 10011KT 9999 FEW018 SCT026 18/14 Q1016 NOSIG
VHHH,2017-02-07 23:00,113.9219,22.3094,64.40,57.20,77.45,100.00,9.00,0.00,30.00,M,6.21,M,FEW,SCT,M,M,1600.00,2400.00,M,M,M,M,M,M,M,M,M,64.40,VHHH 072300Z 10009KT 9999 FEW016 SCT024 18/14 Q1016 NOSIG
VHHH,2017-02-07 23:30,113.9219,22.3094,64.40,57.20,77.45,110.00,9.00,0.00,30.00,M,6.21,M,FEW,SCT,M,M,1600.00,2400.00,M,M,M,M,M,M,M,M,M,64.40,VHHH 072330Z 11009KT 9999 FEW016 SCT024 18/14 Q1016 NOSIG
VHHH,2017-02-08 00:00,113.9219,22.3094,64.40,57.20,77.45,90.00,8.00,0.00,30.03,M,6.21,M,FEW,SCT,M,M,1600.00,2400.00,M,M,M,M,M,M,M,M,M,64.40,VHHH 080000Z 09008KT 9999 FEW016 SCT024 18/14 Q1017 NOSIG
VHHH,2017-02-08 00:30,113.9219,22.3094,64.40,57.20,77.45,80.00,10.00,0.00,30.03,M,6.21,M,FEW,SCT,M,M,1600.00,2400.00,M,M,M,M,M,M,M,M,M,64.40,VHHH 080030Z 08010KT 9999 FEW016 SCT024 18/14 Q1017 NOSIG
VHHH,2017-02-08 01:00,113.9219,22.3094,64.40,55.40,72.56,110.00,12.00,0.00,30.03,M,6.21,M,FEW,SCT,M,M,1600.00,2400.00,M,M,M,M,M,M,M,M,M,64.40,VHHH 080100Z 11012KT 9999 FEW016 SCT024 18/13 Q1017 NOSIG
VHHH,2017-02-08 01:30,113.9219,22.3094,66.20,55.40,68.15,100.00,15.00,0.00,30.03,M,6.21,M,FEW,SCT,M,M,1600.00,2400.00,M,M,M,M,M,M,M,M,M,66.20,VHHH 080130Z 10015KT 9999 FEW016 SCT024 19/13 Q1017 NOSIG
VHHH,2017-02-08 02:00,113.9219,22.3094,66.20,55.40,68.15,100.00,20.00,0.00,29.97,M,6.21,M,FEW,SCT,M,M,1800.00,2800.00,M,M,M,M,M,M,M,M,M,66.20,VHHH 080200Z 10020KT 9999 FEW018 SCT028 19/13 Q1015 NOSIG
VHHH,2017-02-08 02:30,113.9219,22.3094,66.20,55.40,68.15,80.00,17.00,0.00,30.03,M,6.21,M,FEW,SCT,M,M,2000.00,2800.00,M,M,M,M,M,M,M,M,M,66.20,VHHH 080230Z 08017KT 9999 FEW020 SCT028 19/13 Q1017 NOSIG
VHHH,2017-02-08 03:00,113.9219,22.3094,68.00,53.60,59.97,70.00,15.00,0.00,30.03,M,6.21,M,FEW,SCT,M,M,2000.00,2800.00,M,M,M,M,M,M,M,M,M,68.00,VHHH 080300Z 07015KT 9999 FEW020 SCT028 20/12 Q1017 NOSIG
VHHH,2017-02-08 03:30,113.9219,22.3094,68.00,55.40,64.04,100.00,14.00,0.00,30.03,M,6.21,M,FEW,SCT,M,M,2000.00,2800.00,M,M,M,M,M,M,M,M,M,68.00,VHHH 080330Z 10014KT 9999 FEW020 SCT028 20/13 Q1017 NOSIG
VHHH,2017-02-08 04:00,113.9219,22.3094,68.00,55.40,64.04,100.00,9.00,0.00,30.03,M,6.21,M,FEW,SCT,M,M,2000.00,2800.00,M,M,M,M,M,M,M,M,M,68.00,VHHH 080400Z 10009KT 060V130 9999 FEW020 SCT028 20/13 Q1017 NOSIG
VHHH,2017-02-08 04:30,113.9219,22.3094,69.80,55.40,60.21,70.00,12.00,0.00,30.00,M,6.21,M,FEW,SCT,M,M,2000.00,2800.00,M,M,M,M,M,M,M,M,M,69.80,VHHH 080430Z 07012KT 9999 FEW020 SCT028 21/13 Q1016 NOSIG
VHHH,2017-02-08 05:00,113.9219,22.3094,69.80,55.40,60.21,50.00,9.00,0.00,30.00,M,6.21,M,FEW,SCT,M,M,2200.00,3000.00,M,M,M,M,M,M,M,M,M,69.80,VHHH 080500Z 05009KT 9999 FEW022 SCT030 21/13 Q1016 NOSIG
VHHH,2017-02-08 05:30,113.9219,22.3094,69.80,55.40,60.21,50.00,6.00,0.00,30.00,M,6.21,M,FEW,SCT,M,M,2200.00,3000.00,M,M,M,M,M,M,M,M,M,69.80,VHHH 080530Z 05006KT 9999 FEW022 SCT030 21/13 Q1016 NOSIG
VHHH,2017-02-08 06:00,113.9219,22.3094,69.80,57.20,64.26,360.00,4.00,0.00,29.97,M,6.21,M,FEW,SCT,M,M,2200.00,2800.00,M,M,M,M,M,M,M,M,M,69.80,VHHH 080600Z 36004KT 9999 FEW022 SCT028 21/14 Q1015 NOSIG
VHHH,2017-02-08 06:30,113.9219,22.3094,69.80,57.20,64.26,320.00,6.00,0.00,29.97,M,6.21,M,FEW,SCT,M,M,2200.00,2800.00,M,M,M,M,M,M,M,M,M,69.80,VHHH 080630Z 32006KT 9999 FEW022 SCT028 21/14 Q1015 NOSIG
VHHH,2017-02-08 07:00,113.9219,22.3094,68.00,59.00,72.92,330.00,7.00,0.00,29.97,M,5.59,M,FEW,SCT,M,M,2200.00,2800.00,M,M,M,M,M,M,M,M,M,68.00,VHHH 080700Z 33007KT 9000 FEW022 SCT028 20/15 Q1015 NOSIG
VHHH,2017-02-08 07:30,113.9219,22.3094,68.00,57.20,68.35,330.00,9.00,0.00,29.97,M,4.97,M,FEW,SCT,M,M,2200.00,2800.00,M,M,M,M,M,M,M,M,M,68.00,VHHH 080730Z 33009KT 8000 FEW022 SCT028 20/14 Q1015 TEMPO 3500 -RA BR
VHHH,2017-02-08 08:00,113.9219,22.3094,68.00,59.00,72.92,330.00,10.00,0.00,29.97,M,4.35,M,FEW,SCT,M,M,2200.00,2800.00,M,M,M,M,M,M,M,M,M,68.00,VHHH 080800Z 33010KT 7000 FEW022 SCT028 20/15 Q1015 TEMPO 3500 -RA BR
VHHH,2017-02-08 08:30,113.9219,22.3094,68.00,57.20,68.35,330.00,11.00,0.00,29.97,M,4.97,M,FEW,SCT,M,M,2200.00,2800.00,M,M,M,M,M,M,M,M,M,68.00,VHHH 080830Z 33011KT 8000 FEW022 SCT028 20/14 Q1015 NOSIG
VHHH,2017-02-08 09:00,113.9219,22.3094,68.00,57.20,68.35,320.00,14.00,0.00,29.97,M,3.73,M,FEW,SCT,M,M,2200.00,2800.00,M,M,M,M,M,M,M,M,M,68.00,VHHH 080900Z 32014KT 6000 FEW022 SCT028 20/14 Q1015 TEMPO 3500 -RA BR
VHHH,2017-02-08 09:30,113.9219,22.3094,68.00,59.00,72.92,330.00,16.00,0.00,29.97,M,3.11,M,FEW,SCT,M,M,2200.00,2800.00,M,M,M,M,M,M,M,M,M,68.00,VHHH 080930Z 33016KT 5000 FEW022 SCT028 20/15 Q1015 TEMPO 3500 -RA BR
VHHH,2017-02-08 10:00,113.9219,22.3094,68.00,59.00,72.92,330.00,16.00,0.00,29.97,M,3.11,M,FEW,SCT,M,M,2200.00,2800.00,M,M,M,M,M,M,M,M,M,68.00,VHHH 081000Z 33016KT 5000 FEW022 SCT028 20/15 Q1015 TEMPO 3500 -RA BR
VHHH,2017-02-08 10:30,113.9219,22.3094,66.20,59.00,77.60,340.00,17.00,0.00,30.00,M,4.35,M,FEW,SCT,M,M,2200.00,2800.00,M,M,M,M,M,M,M,M,M,66.20,VHHH 081030Z 34017KT 7000 FEW022 SCT028 19/15 Q1016 TEMPO 3500 -RA BR
VHHH,2017-02-08 10:40,113.9219,22.3094,64.40,60.80,88.09,330.00,20.00,0.00,30.00,M,3.73,M,FEW,SCT,M,M,2200.00,2800.00,M,M,M,M,M,M,M,M,M,64.40,VHHH 081040Z 33020KT 6000 FEW022 SCT028 18/16 Q1016 TEMPO 3500 -RA BR
VHHH,2017-02-08 11:00,113.9219,22.3094,62.60,60.80,93.83,330.00,23.00,0.00,30.00,M,4.97,M,FEW,SCT,M,M,600.00,2000.00,M,M,-RA,M,M,M,M,M,M,62.60,VHHH 081100Z 33023KT 8000 -RA FEW006 SCT020 17/16 Q1016 NOSIG
VHHH,2017-02-08 11:30,113.9219,22.3094,60.80,59.00,93.79,330.00,23.00,0.00,30.03,M,4.97,M,FEW,SCT,M,M,500.00,1500.00,M,M,-RA,M,M,M,M,M,M,60.80,VHHH 081130Z 33023KT 8000 -RA FEW005 SCT015 16/15 Q1017 NOSIG
VHHH,2017-02-08 12:00,113.9219,22.3094,60.80,59.00,93.79,330.00,22.00,0.00,30.03,M,4.35,M,FEW,SCT,M,M,500.00,1200.00,M,M,-RA,M,M,M,M,M,M,60.80,VHHH 081200Z 33022KT 7000 -RA FEW005 SCT012 16/15 Q1017 NOSIG
VHHH,2017-02-08 12:30,113.9219,22.3094,59.00,57.20,93.74,330.00,22.00,0.00,30.06,M,4.35,M,FEW,SCT,M,M,700.00,1500.00,M,M,-RA,M,M,M,M,M,M,59.00,VHHH 081230Z 33022KT 7000 -RA FEW007 SCT015 15/14 Q1018 NOSIG
VHHH,2017-02-08 13:00,113.9219,22.3094,60.80,57.20,87.92,340.00,21.00,0.00,30.06,M,4.97,M,FEW,SCT,M,M,700.00,1500.00,M,M,M,M,M,M,M,M,M,60.80,VHHH 081300Z 34021KT 8000 FEW007 SCT015 16/14 Q1018 NOSIG
VHHH,2017-02-08 13:30,113.9219,22.3094,59.00,57.20,93.74,340.00,19.00,0.00,30.09,M,6.21,M,FEW,SCT,M,M,700.00,1500.00,M,M,M,M,M,M,M,M,M,59.00,VHHH 081330Z 34019KT 9999 FEW007 SCT015 15/14 Q1019 NOSIG
VHHH,2017-02-08 14:00,113.9219,22.3094,59.00,55.40,87.83,350.00,17.00,0.00,30.09,M,6.21,M,FEW,SCT,M,M,900.00,1500.00,M,M,M,M,M,M,M,M,M,59.00,VHHH 081400Z 35017KT 9999 FEW009 SCT015 15/13 Q1019 NOSIG
VHHH,2017-02-08 14:30,113.9219,22.3094,59.00,57.20,93.74,350.00,18.00,0.00,30.09,M,4.35,M,FEW,SCT,M,M,900.00,1500.00,M,M,-RA,M,M,M,M,M,M,59.00,VHHH 081430Z 35018KT 7000 -RA FEW009 SCT015 15/14 Q1019 NOSIG
VHHH,2017-02-08 15:00,113.9219,22.3094,59.00,55.40,87.83,10.00,16.00,0.00,30.09,M,6.21,M,FEW,SCT,M,M,900.00,1500.00,M,M,-RA,M,M,M,M,M,M,59.00,VHHH 081500Z 01016KT 9999 -RA FEW009 SCT015 15/13 Q1019 NOSIG
VHHH,2017-02-08 15:30,113.9219,22.3094,59.00,55.40,87.83,360.00,16.00,0.00,30.09,M,6.21,M,FEW,SCT,M,M,900.00,1500.00,M,M,-RA,M,M,M,M,M,M,59.00,VHHH 081530Z 36016KT 9999 -RA FEW009 SCT015 15/13 Q1019 NOSIG
VHHH,2017-02-08 16:00,113.9219,22.3094,59.00,53.60,82.25,20.00,13.00,0.00,30.09,M,6.21,M,FEW,SCT,M,M,1200.00,2000.00,M,M,-RA,M,M,M,M,M,M,59.00,VHHH 081600Z 02013KT 9999 -RA FEW012 SCT020 15/12 Q1019 NOSIG
VHHH,2017-02-08 16:30,113.9219,22.3094,59.00,53.60,82.25,20.00,11.00,0.00,30.09,M,6.21,M,FEW,SCT,M,M,1200.00,2000.00,M,M,M,M,M,M,M,M,M,59.00,VHHH 081630Z 02011KT 9999 FEW012 SCT020 15/12 Q1019 NOSIG
VHHH,2017-02-08 17:00,113.9219,22.3094,59.00,51.80,76.98,10.00,14.00,0.00,30.12,M,6.21,M,FEW,SCT,M,M,1200.00,2500.00,M,M,M,M,M,M,M,M,M,59.00,VHHH 081700Z 01014KT 9999 FEW012 SCT025 15/11 Q1020 NOSIG
VHHH,2017-02-08 17:30,113.9219,22.3094,57.20,51.80,82.12,10.00,15.00,0.00,30.12,M,6.21,M,FEW,SCT,M,M,1200.00,2500.00,M,M,-RA,M,M,M,M,M,M,57.20,VHHH 081730Z 01015KT 9999 -RA FEW012 SCT025 14/11 Q1020 NOSIG
VHHH,2017-02-08 18:00,113.9219,22.3094,57.20,50.00,76.82,10.00,19.00,0.00,30.12,M,6.21,M,FEW,SCT,M,M,1500.00,2500.00,M,M,M,M,M,M,M,M,M,57.20,VHHH 081800Z 01019KT 9999 FEW015 SCT025 14/10 Q1020 NOSIG
VHHH,2017-02-08 18:30,113.9219,22.3094,57.20,48.20,71.83,20.00,16.00,0.00,30.12,M,6.21,M,FEW,SCT,M,M,1500.00,2500.00,M,M,M,M,M,M,M,M,M,57.20,VHHH 081830Z 02016KT 9999 FEW015 SCT025 14/09 Q1020 NOSIG
VHHH,2017-02-08 19:00,113.9219,22.3094,57.20,48.20,71.83,10.00,18.00,0.00,30.12,M,6.21,M,FEW,SCT,M,M,1800.00,2800.00,M,M,M,M,M,M,M,M,M,57.20,VHHH 081900Z 01018KT 9999 FEW018 SCT028 14/09 Q1020 NOSIG
VHHH,2017-02-08 19:30,113.9219,22.3094,55.40,44.60,66.91,10.00,16.00,0.00,30.12,M,6.21,M,FEW,SCT,M,M,1800.00,2800.00,M,M,M,M,M,M,M,M,M,55.40,VHHH 081930Z 01016KT 9999 FEW018 SCT028 13/07 Q1020 NOSIG
VHHH,2017-02-08 20:00,113.9219,22.3094,55.40,46.40,71.64,10.00,17.00,0.00,30.12,M,6.21,M,FEW,SCT,M,M,1800.00,2800.00,M,M,M,M,M,M,M,M,M,55.40,VHHH 082000Z 01017KT 9999 FEW018 SCT028 13/08 Q1020 NOSIG
VHHH,2017-02-08 20:30,113.9219,22.3094,55.40,44.60,66.91,10.00,16.00,0.00,30.12,M,6.21,M,FEW,SCT,M,M,1800.00,2800.00,M,M,M,M,M,M,M,M,M,55.40,VHHH 082030Z 01016KT 9999 FEW018 SCT028 13/07 Q1020 NOSIG
VHHH,2017-02-08 21:00,113.9219,22.3094,55.40,44.60,66.91,360.00,15.00,0.00,30.12,M,6.21,M,FEW,SCT,M,M,1800.00,2800.00,M,M,M,M,M,M,M,M,M,55.40,VHHH 082100Z 36015KT 9999 FEW018 SCT028 13/07 Q1020 NOSIG
VHHH,2017-02-08 21:30,113.9219,22.3094,55.40,44.60,66.91,10.00,15.00,0.00,30.15,M,6.21,M,FEW,SCT,M,M,1800.00,2800.00,M,M,M,M,M,M,M,M,M,55.40,VHHH 082130Z 01015KT 9999 FEW018 SCT028 13/07 Q1021 NOSIG
VHHH,2017-02-08 22:00,113.9219,22.3094,53.60,42.80,66.70,10.00,14.00,0.00,30.15,M,6.21,M,FEW,SCT,M,M,1800.00,2800.00,M,M,M,M,M,M,M,M,M,53.60,VHHH 082200Z 01014KT 9999 FEW018 SCT028 12/06 Q1021 NOSIG
VHHH,2017-02-08 22:30,113.9219,22.3094,53.60,42.80,66.70,30.00,9.00,0.00,30.15,M,6.21,M,FEW,SCT,M,M,2000.00,3000.00,M,M,M,M,M,M,M,M,M,53.60,VHHH 082230Z 03009KT 9999 FEW020 SCT030 12/06 Q1021 NOSIG
VHHH,2017-02-08 23:00,113.9219,22.3094,53.60,41.00,62.23,30.00,12.00,0.00,30.18,M,6.21,M,FEW,SCT,M,M,2500.00,3500.00,M,M,M,M,M,M,M,M,M,53.60,VHHH 082300Z 03012KT 9999 FEW025 SCT035 12/05 Q1022 NOSIG
VHHH,2017-02-08 23:30,113.9219,22.3094,53.60,41.00,62.23,40.00,12.00,0.00,30.18,M,6.21,M,FEW,SCT,M,M,2500.00,3500.00,M,M,M,M,M,M,M,M,M,53.60,VHHH 082330Z 04012KT 9999 FEW025 SCT035 12/05 Q1022 NOSIG
VHHH,2017-02-09 00:00,113.9219,22.3094,51.80,39.20,61.99,20.00,11.00,0.00,30.18,M,6.21,M,FEW,M,M,M,2800.00,M,M,M,M,M,M,M,M,M,M,51.80,VHHH 090000Z 02011KT 350V050 9999 FEW028 11/04 Q1022 NOSIG
VHHH,2017-02-09 00:30,113.9219,22.3094,53.60,39.20,58.02,20.00,11.00,0.00,30.18,M,6.21,M,FEW,M,M,M,2800.00,M,M,M,M,M,M,M,M,M,M,53.60,VHHH 090030Z 02011KT 340V060 9999 FEW028 12/04 Q1022 NOSIG
VHHH,2017-02-09 01:00,113.9219,22.3094,53.60,35.60,50.36,40.00,11.00,0.00,30.18,M,6.21,M,FEW,M,M,M,2800.00,M,M,M,M,M,M,M,M,M,M,53.60,VHHH 090100Z 04011KT 9999 FEW028 12/02 Q1022 NOSIG
VHHH,2017-02-09 01:30,113.9219,22.3094,53.60,35.60,50.36,10.00,13.00,0.00,30.21,M,6.21,M,FEW,M,M,M,2800.00,M,M,M,M,M,M,M,M,M,M,53.60,VHHH 090130Z 01013KT 9999 FEW028 12/02 Q1023 NOSIG
VHHH,2017-02-09 02:00,113.9219,22.3094,55.40,37.40,50.64,10.00,10.00,0.00,30.21,M,6.21,M,FEW,M,M,M,3500.00,M,M,M,M,M,M,M,M,M,M,55.40,VHHH 090200Z 01010KT 330V040 9999 FEW035 13/03 Q1023 NOSIG
VHHH,2017-02-09 02:30,113.9219,22.3094,57.20,37.40,47.44,360.00,11.00,0.00,30.21,M,6.21,M,FEW,M,M,M,3500.00,M,M,M,M,M,M,M,M,M,M,57.20,VHHH 090230Z 36011KT 9999 FEW035 14/03 Q1023 NOSIG
VHHH,2017-02-09 03:00,113.9219,22.3094,57.20,37.40,47.44,350.00,14.00,0.00,30.21,M,6.21,M,FEW,M,M,M,4000.00,M,M,M,M,M,M,M,M,M,M,57.20,VHHH 090300Z 35014KT 9999 FEW040 14/03 Q1023 NOSIG
VHHH,2017-02-09 03:30,113.9219,22.3094,57.20,35.60,44.19,350.00,13.00,0.00,30.18,M,6.21,M,FEW,M,M,M,4000.00,M,M,M,M,M,M,M,M,M,M,57.20,VHHH 090330Z 35013KT 9999 FEW040 14/02 Q1022 NOSIG
VHHH,2017-02-09 04:00,113.9219,22.3094,59.00,35.60,41.42,350.00,13.00,0.00,30.18,M,6.21,M,FEW,M,M,M,4000.00,M,M,M,M,M,M,M,M,M,M,59.00,VHHH 090400Z 35013KT 320V020 9999 FEW040 15/02 Q1022 NOSIG
VHHH,2017-02-09 04:30,113.9219,22.3094,57.20,39.20,50.91,330.00,15.00,0.00,30.15,M,6.21,M,FEW,M,M,M,4000.00,M,M,M,M,M,M,M,M,M,M,57.20,VHHH 090430Z 33015KT 9999 FEW040 14/04 Q1021 NOSIG
VHHH,2017-02-09 05:00,113.9219,22.3094,57.20,37.40,47.44,340.00,17.00,0.00,30.15,M,6.21,M,FEW,M,M,M,4000.00,M,M,M,M,M,M,M,M,M,M,57.20,VHHH 090500Z 34017KT 9999 FEW040 14/03 Q1021 NOSIG
VHHH,2017-02-09 05:30,113.9219,22.3094,57.20,39.20,50.91,340.00,17.00,0.00,30.12,M,6.21,M,FEW,M,M,M,4000.00,M,M,M,M,M,M,M,M,M,M,57.20,VHHH 090530Z 34017KT 9999 FEW040 14/04 Q1020 NOSIG
VHHH,2017-02-09 06:00,113.9219,22.3094,59.00,37.40,44.47,340.00,15.00,0.00,30.12,M,6.21,M,FEW,M,M,M,4000.00,M,M,M,M,M,M,M,M,M,M,59.00,VHHH 090600Z 34015KT 9999 FEW040 15/03 Q1020 NOSIG
VHHH,2017-02-09 06:30,113.9219,22.3094,59.00,37.40,44.47,350.00,14.00,0.00,30.09,M,6.21,M,FEW,M,M,M,4000.00,M,M,M,M,M,M,M,M,M,M,59.00,VHHH 090630Z 35014KT 9999 FEW040 15/03 Q1019 NOSIG
VHHH,2017-02-09 07:00,113.9219,22.3094,59.00,37.40,44.47,340.00,16.00,0.00,30.09,M,6.21,M,FEW,M,M,M,4000.00,M,M,M,M,M,M,M,M,M,M,59.00,VHHH 090700Z 34016KT 9999 FEW040 15/03 Q1019 NOSIG
VHHH,2017-02-09 07:30,113.9219,22.3094,60.80,37.40,41.71,350.00,14.00,0.00,30.09,M,6.21,M,FEW,M,M,M,4000.00,M,M,M,M,M,M,M,M,M,M,60.80,VHHH 090730Z 35014KT 9999 FEW040 16/03 Q1019 NOSIG
VHHH,2017-02-09 08:00,113.9219,22.3094,60.80,39.20,44.76,350.00,13.00,0.00,30.09,M,6.21,M,FEW,M,M,M,4000.00,M,M,M,M,M,M,M,M,M,M,60.80,VHHH 090800Z 35013KT 9999 FEW040 16/04 Q1019 NOSIG
VHHH,2017-02-09 08:30,113.9219,22.3094,60.80,37.40,41.71,10.00,14.00,0.00,30.09,M,6.21,M,FEW,M,M,M,4000.00,M,M,M,M,M,M,M,M,M,M,60.80,VHHH 090830Z 01014KT 9999 FEW040 16/03 Q1019 NOSIG
VHHH,2017-02-09 09:00,113.9219,22.3094,60.80,37.40,41.71,10.00,13.00,0.00,30.09,M,6.21,M,M,M,M,M,M,M,M,M,M,M,M,M,M,M,M,60.80,VHHH 090900Z 01013KT CAVOK 16/03 Q1019 NOSIG
VHHH,2017-02-09 09:30,113.9219,22.3094,59.00,37.40,44.47,10.00,14.00,0.00,30.09,M,6.21,M,M,M,M,M,M,M,M,M,M,M,M,M,M,M,M,59.00,VHHH 090930Z 01014KT CAVOK 15/03 Q1019 NOSIG
VHHH,2017-02-09 10:00,113.9219,22.3094,59.00,37.40,44.47,360.00,14.00,0.00,30.09,M,6.21,M,M,M,M,M,M,M,M,M,M,M,M,M,M,M,M,59.00,VHHH 091000Z 36014KT CAVOK 15/03 Q1019 NOSIG
VHHH,2017-02-09 10:30,113.9219,22.3094,59.00,37.40,44.47,10.00,14.00,0.00,30.09,M,6.21,M,M,M,M,M,M,M,M,M,M,M,M,M,M,M,M,59.00,VHHH 091030Z 01014KT CAVOK 15/03 Q1019 NOSIG
VHHH,2017-02-09 11:00,113.9219,22.3094,57.20,37.40,47.44,10.00,16.00,0.00,30.12,M,6.21,M,M,M,M,M,M,M,M,M,M,M,M,M,M,M,M,57.20,VHHH 091100Z 01016KT CAVOK 14/03 Q1020 NOSIG
VHHH,2017-02-09 11:30,113.9219,22.3094,57.20,37.40,47.44,10.00,16.00,0.00,30.12,M,6.21,M,M,M,M,M,M,M,M,M,M,M,M,M,M,M,M,57.20,VHHH 091130Z 01016KT CAVOK 14/03 Q1020 NOSIG
VHHH,2017-02-09 12:00,113.9219,22.3094,57.20,37.40,47.44,30.00,12.00,0.00,30.12,M,6.21,M,M,M,M,M,M,M,M,M,M,M,M,M,M,M,M,57.20,VHHH 091200Z 03012KT CAVOK 14/03 Q1020 NOSIG
VHHH,2017-02-09 12:30,113.9219,22.3094,57.20,37.40,47.44,30.00,11.00,0.00,30.15,M,6.21,M,M,M,M,M,M,M,M,M,M,M,M,M,M,M,M,57.20,VHHH 091230Z 03011KT CAVOK 14/03 Q1021 NOSIG
VHHH,2017-02-09 13:00,113.9219,22.3094,55.40,35.60,47.16,40.00,10.00,0.00,30.15,M,6.21,M,M,M,M,M,M,M,M,M,M,M,M,M,M,M,M,55.40,VHHH 091300Z 04010KT CAVOK 13/02 Q1021 NOSIG
VHHH,2017-02-09 13:30,113.9219,22.3094,55.40,33.80,43.90,40.00,12.00,0.00,30.18,M,6.21,M,M,M,M,M,M,M,M,M,M,M,M,M,M,M,M,55.40,VHHH 091330Z 04012KT CAVOK 13/01 Q1022 NOSIG
VHHH,2017-02-09 14:00,113.9219,22.3094,53.60,32.00,43.61,40.00,10.00,0.00,30.18,M,6.21,M,M,M,M,M,M,M,M,M,M,M,M,M,M,M,M,53.60,VHHH 091400Z 04010KT 360V070 CAVOK 12/00 Q1022 NOSIG
VHHH,2017-02-09 14:30,113.9219,22.3094,53.60,32.00,43.61,30.00,10.00,0.00,30.18,M,6.21,M,M,M,M,M,M,M,M,M,M,M,M,M,M,M,M,53.60,VHHH 091430Z 03010KT 350V050 CAVOK 12/M00 Q1022 NOSIG
VHHH,2017-02-09 15:00,113.9219,22.3094,53.60,32.00,43.61,30.00,11.00,0.00,30.18,M,6.21,M,M,M,M,M,M,M,M,M,M,M,M,M,M,M,M,53.60,VHHH 091500Z 03011KT CAVOK 12/M00 Q1022 NOSIG
VHHH,2017-02-09 15:30,113.9219,22.3094,51.80,32.00,46.59,30.00,11.00,0.00,30.18,M,6.21,M,M,M,M,M,M,M,M,M,M,M,M,M,M,M,M,51.80,VHHH 091530Z 03011KT CAVOK 11/00 Q1022 NOSIG
VHHH,2017-02-09 16:00,113.9219,22.3094,51.80,32.00,46.59,30.00,10.00,0.00,30.18,M,6.21,M,M,M,M,M,M,M,M,M,M,M,M,M,M,M,M,51.80,VHHH 091600Z 03010KT 360V060 CAVOK 11/00 Q1022 NOSIG
VHHH,2017-02-09 16:30,113.9219,22.3094,51.80,32.00,46.59,30.00,8.00,0.00,30.18,M,6.21,M,M,M,M,M,M,M,M,M,M,M,M,M,M,M,M,51.80,VHHH 091630Z 03008KT 350V070 CAVOK 11/00 Q1022 NOSIG
VHHH,2017-02-09 17:00,113.9219,22.3094,51.80,32.00,46.59,40.00,13.00,0.00,30.18,M,6.21,M,M,M,M,M,M,M,M,M,M,M,M,M,M,M,M,51.80,VHHH 091700Z 04013KT 360V060 CAVOK 11/00 Q1022 NOSIG
VHHH,2017-02-09 17:30,113.9219,22.3094,51.80,32.00,46.59,40.00,11.00,0.00,30.21,M,6.21,M,M,M,M,M,M,M,M,M,M,M,M,M,M,M,M,51.80,VHHH 091730Z 04011KT CAVOK 11/M00 Q1023 NOSIG
VHHH,2017-02-09 18:00,113.9219,22.3094,51.80,32.00,46.59,30.00,12.00,0.00,30.18,M,6.21,M,M,M,M,M,M,M,M,M,M,M,M,M,M,M,M,51.80,VHHH 091800Z 03012KT CAVOK 11/00 Q1022 NOSIG
VHHH,2017-02-09 18:30,113.9219,22.3094,50.00,32.00,49.81,30.00,10.00,0.00,30.18,M,5.59,M,FEW,M,M,M,4000.00,M,M,M,M,M,M,M,M,M,M,45.54,VHHH 091830Z 03010KT 9000 FEW040 10/00 Q1022 NOSIG
VHHH,2017-02-09 19:00,113.9219,22.3094,51.80,32.00,46.59,30.00,13.00,0.00,30.18,M,5.59,M,FEW,M,M,M,4000.00,M,M,M,M,M,M,M,M,M,M,51.80,VHHH 091900Z 03013KT 9000 FEW040 11/00 Q1022 NOSIG
VHHH,2017-02-09 19:30,113.9219,22.3094,50.00,32.00,49.81,30.00,14.00,0.00,30.18,M,5.59,M,FEW,M,M,M,4000.00,M,M,M,M,M,M,M,M,M,M,44.36,VHHH 091930Z 03014KT 9000 FEW040 10/00 Q1022 NOSIG
VHHH,2017-02-09 20:00,113.9219,22.3094,50.00,32.00,49.81,30.00,14.00,0.00,30.18,M,5.59,M,FEW,M,M,M,4000.00,M,M,M,M,M,M,M,M,M,M,44.36,VHHH 092000Z 03014KT 9000 FEW040 10/00 Q1022 NOSIG
VHHH,2017-02-09 20:30,113.9219,22.3094,50.00,32.00,49.81,20.00,10.00,0.00,30.18,M,5.59,M,FEW,M,M,M,4000.00,M,M,M,M,M,M,M,M,M,M,45.54,VHHH 092030Z 02010KT 9000 FEW040 10/00 Q1022 NOSIG
VHHH,2017-02-09 21:00,113.9219,22.3094,50.00,32.00,49.81,30.00,10.00,0.00,30.18,M,5.59,M,FEW,M,M,M,4000.00,M,M,M,M,M,M,M,M,M,M,45.54,VHHH 092100Z 03010KT 9000 FEW040 10/00 Q1022 NOSIG
VHHH,2017-02-09 21:30,113.9219,22.3094,50.00,32.00,49.81,20.00,9.00,0.00,30.18,M,5.59,M,FEW,M,M,M,4000.00,M,M,M,M,M,M,M,M,M,M,45.90,VHHH 092130Z 02009KT 9000 FEW040 10/00 Q1022 NOSIG
VHHH,2017-02-09 22:00,113.9219,22.3094,50.00,32.00,49.81,20.00,10.00,0.00,30.21,M,5.59,M,FEW,M,M,M,4000.00,M,M,M,M,M,M,M,M,M,M,45.54,VHHH 092200Z 02010KT 9000 FEW040 10/00 Q1023 NOSIG
VHHH,2017-02-09 22:30,113.9219,22.3094,50.00,32.00,49.81,20.00,10.00,0.00,30.21,M,5.59,M,FEW,M,M,M,4000.00,M,M,M,M,M,M,M,M,M,M,45.54,VHHH 092230Z 02010KT 9000 FEW040 10/M00 Q1023 NOSIG
VHHH,2017-02-09 23:00,113.9219,22.3094,51.80,32.00,46.59,20.00,11.00,0.00,30.21,M,4.97,M,FEW,M,M,M,3500.00,M,M,M,M,M,M,M,M,M,M,51.80,VHHH 092300Z 02011KT 8000 FEW035 11/00 Q1023 NOSIG
VHHH,2017-02-09 23:30,113.9219,22.3094,51.80,32.00,46.59,40.00,8.00,0.00,30.24,M,4.97,M,FEW,M,M,M,3500.00,M,M,M,M,M,M,M,M,M,M,51.80,VHHH 092330Z 04008KT 010V080 8000 FEW035 11/00 Q1024 NOSIG
VHHH,2017-02-10 00:00,113.9219,22.3094,51.80,32.00,46.59,30.00,14.00,0.00,30.24,M,4.97,M,FEW,M,M,M,3500.00,M,M,M,M,M,M,M,M,M,M,51.80,VHHH 100000Z 03014KT 8000 FEW035 11/00 Q1024 NOSIG
VHHH,2017-02-10 00:30,113.9219,22.3094,51.80,32.00,46.59,50.00,10.00,0.00,30.24,M,4.97,M,FEW,M,M,M,3500.00,M,M,M,M,M,M,M,M,M,M,51.80,VHHH 100030Z 05010KT 8000 FEW035 11/M00 Q1024 NOSIG
VHHH,2017-02-10 01:00,113.9219,22.3094,51.80,32.00,46.59,40.00,13.00,0.00,30.27,M,4.97,M,FEW,M,M,M,4000.00,M,M,M,M,M,M,M,M,M,M,51.80,VHHH 100100Z 04013KT 8000 FEW040 11/00 Q1025 NOSIG
VHHH,2017-02-10 01:30,113.9219,22.3094,51.80,32.00,46.59,40.00,14.00,0.00,30.27,M,4.97,M,FEW,M,M,M,4000.00,M,M,M,M,M,M,M,M,M,M,51.80,VHHH 100130Z 04014KT 8000 FEW040 11/00 Q1025 NOSIG
VHHH,2017-02-10 02:00,113.9219,22.3094,53.60,33.80,46.88,40.00,13.00,0.00,30.27,M,4.97,M,FEW,M,M,M,4000.00,M,M,M,M,M,M,M,M,M,M,53.60,VHHH 100200Z 04013KT 8000 FEW040 12/01 Q1025 NOSIG
VHHH,2017-02-10 02:30,113.9219,22.3094,53.60,32.00,43.61,40.00,11.00,0.00,30.27,M,4.97,M,FEW,M,M,M,4000.00,M,M,M,M,M,M,M,M,M,M,53.60,VHHH 100230Z 04011KT 8000 FEW040 12/00 Q1025 NOSIG
VHHH,2017-02-10 03:00,113.9219,22.3094,55.40,33.80,43.90,40.00,8.00,0.00,30.27,M,5.59,M,FEW,M,M,M,4000.00,M,M,M,M,M,M,M,M,M,M,55.40,VHHH 100300Z 04008KT 010V090 9000 FEW040 13/01 Q1025 NOSIG
VHHH,2017-02-10 03:30,113.9219,22.3094,55.40,33.80,43.90,50.00,7.00,0.00,30.27,M,5.59,M,FEW,M,M,M,4500.00,M,M,M,M,M,M,M,M,M,M,55.40,VHHH 100330Z 05007KT 020V080 9000 FEW045 13/01 Q1025 NOSIG
VHHH,2017-02-10 04:00,113.9219,22.3094,55.40,33.80,43.90,30.00,6.00,0.00,30.24,M,5.59,M,FEW,M,M,M,4500.00,M,M,M,M,M,M,M,M,M,M,55.40,VHHH 100400Z 03006KT 360V070 9000 FEW045 13/01 Q1024 NOSIG
VHHH,2017-02-10 04:30,113.9219,22.3094,57.20,33.80,41.13,360.00,10.00,0.00,30.24,M,5.59,M,FEW,M,M,M,4500.00,M,M,M,M,M,M,M,M,M,M,57.20,VHHH 100430Z 36010KT 9000 FEW045 14/01 Q1024 NOSIG
VHHH,2017-02-10 05:00,113.9219,22.3094,57.20,35.60,44.19,340.00,10.00,0.00,30.21,M,5.59,M,FEW,M,M,M,4500.00,M,M,M,M,M,M,M,M,M,M,57.20,VHHH 100500Z 34010KT 9000 FEW045 14/02 Q1023 NOSIG
VHHH,2017-02-10 05:30,113.9219,22.3094,57.20,33.80,41.13,360.00,10.00,0.00,30.21,M,5.59,M,FEW,M,M,M,4500.00,M,M,M,M,M,M,M,M,M,M,57.20,VHHH 100530Z 36010KT 9000 FEW045 14/01 Q1023 NOSIG
VHHH,2017-02-10 06:00,113.9219,22.3094,57.20,33.80,41.13,340.00,10.00,0.00,30.18,M,4.97,M,FEW,M,M,M,4500.00,M,M,M,M,M,M,M,M,M,M,57.20,VHHH 100600Z 34010KT 8000 FEW045 14/01 Q1022 NOSIG
VHHH,2017-02-10 06:30,113.9219,22.3094,57.20,35.60,44.19,330.00,11.00,0.00,30.18,M,4.97,M,FEW,M,M,M,4500.00,M,M,M,M,M,M,M,M,M,M,57.20,VHHH 100630Z 33011KT 8000 FEW045 14/02 Q1022 NOSIG
VHHH,2017-02-10 07:00,113.9219,22.3094,57.20,35.60,44.19,330.00,13.00,0.00,30.18,M,4.97,M,FEW,M,M,M,4000.00,M,M,M,M,M,M,M,M,M,M,57.20,VHHH 100700Z 33013KT 8000 FEW040 14/02 Q1022 NOSIG
VHHH,2017-02-10 07:30,113.9219,22.3094,59.00,33.80,38.56,340.00,13.00,0.00,30.18,M,4.97,M,FEW,M,M,M,4000.00,M,M,M,M,M,M,M,M,M,M,59.00,VHHH 100730Z 34013KT 8000 FEW040 15/01 Q1022 NOSIG
VHHH,2017-02-10 08:00,113.9219,22.3094,59.00,33.80,38.56,10.00,10.00,0.00,30.18,M,4.97,M,FEW,M,M,M,4000.00,M,M,M,M,M,M,M,M,M,M,59.00,VHHH 100800Z 01010KT 330V040 8000 FEW040 15/01 Q1022 NOSIG
VHHH,2017-02-10 08:30,113.9219,22.3094,59.00,33.80,38.56,350.00,12.00,0.00,30.18,M,4.97,M,FEW,M,M,M,4000.00,M,M,M,M,M,M,M,M,M,M,59.00,VHHH 100830Z 35012KT 8000 FEW040 15/01 Q1022 NOSIG
VHHH,2017-02-10 09:00,113.9219,22.3094,59.00,33.80,38.56,20.00,9.00,0.00,30.18,M,4.97,M,FEW,M,M,M,4500.00,M,M,M,M,M,M,M,M,M,M,59.00,VHHH 100900Z 02009KT 8000 FEW045 15/01 Q1022 NOSIG
VHHH,2017-02-10 09:30,113.9219,22.3094,59.00,33.80,38.56,20.00,9.00,0.00,30.18,M,4.97,M,FEW,M,M,M,4500.00,M,M,M,M,M,M,M,M,M,M,59.00,VHHH 100930Z 02009KT 8000 FEW045 15/01 Q1022 NOSIG
VHHH,2017-02-10 10:00,113.9219,22.3094,57.20,33.80,41.13,10.00,11.00,0.00,30.21,M,4.97,M,FEW,M,M,M,4500.00,M,M,M,M,M,M,M,M,M,M,57.20,VHHH 101000Z 01011KT 8000 FEW045 14/01 Q1023 NOSIG
VHHH,2017-02-10 10:30,113.9219,22.3094,57.20,33.80,41.13,30.00,12.00,0.00,30.21,M,5.59,M,FEW,M,M,M,4500.00,M,M,M,M,M,M,M,M,M,M,57.20,VHHH 101030Z 03012KT 9000 FEW045 14/01 Q1023 NOSIG
VHHH,2017-02-10 11:00,113.9219,22.3094,57.20,33.80,41.13,40.00,10.00,0.00,30.21,M,5.59,M,FEW,M,M,M,4500.00,M,M,M,M,M,M,M,M,M,M,57.20,VHHH 101100Z 04010KT 9000 FEW045 14/01 Q1023 NOSIG
VHHH,2017-02-10 11:30,113.9219,22.3094,57.20,32.00,38.26,30.00,12.00,0.00,30.24,M,5.59,M,FEW,M,M,M,4500.00,M,M,M,M,M,M,M,M,M,M,57.20,VHHH 101130Z 03012KT 9000 FEW045 14/00 Q1024 NOSIG
VHHH,2017-02-10 12:00,113.9219,22.3094,57.20,33.80,41.13,20.00,11.00,0.00,30.24,M,5.59,M,FEW,M,M,M,4500.00,M,M,M,M,M,M,M,M,M,M,57.20,VHHH 101200Z 02011KT 9000 FEW045 14/01 Q1024 NOSIG
VHHH,2017-02-10 12:30,113.9219,22.3094,57.20,32.00,38.26,40.00,8.00,0.00,30.24,M,5.59,M,FEW,M,M,M,4500.00,M,M,M,M,M,M,M,M,M,M,57.20,VHHH 101230Z 04008KT 9000 FEW045 14/00 Q1024 NOSIG
VHHH,2017-02-10 13:00,113.9219,22.3094,57.20,32.00,38.26,30.00,11.00,0.00,30.24,M,5.59,M,FEW,M,M,M,4500.00,M,M,M,M,M,M,M,M,M,M,57.20,VHHH 101300Z 03011KT 9000 FEW045 14/00 Q1024 NOSIG
VHHH,2017-02-10 13:30,113.9219,22.3094,57.20,32.00,38.26,40.00,10.00,0.00,30.27,M,6.21,M,FEW,M,M,M,4500.00,M,M,M,M,M,M,M,M,M,M,57.20,VHHH 101330Z 04010KT 9999 FEW045 14/M00 Q1025 NOSIG
VHHH,2017-02-10 14:00,113.9219,22.3094,57.20,32.00,38.26,30.00,10.00,0.00,30.27,M,6.21,M,FEW,M,M,M,4500.00,M,M,M,M,M,M,M,M,M,M,57.20,VHHH 101400Z 03010KT 9999 FEW045 14/M00 Q1025 NOSIG
VHHH,2017-02-10 14:30,113.9219,22.3094,55.40,32.00,40.84,10.00,10.00,0.00,30.27,M,6.21,M,FEW,M,M,M,4500.00,M,M,M,M,M,M,M,M,M,M,55.40,VHHH 101430Z 01010KT 9999 FEW045 13/M00 Q1025 NOSIG
VHHH,2017-02-10 15:00,113.9219,22.3094,57.20,32.00,38.26,40.00,10.00,0.00,30.27,M,6.21,M,FEW,M,M,M,4500.00,M,M,M,M,M,M,M,M,M,M,57.20,VHHH 101500Z 04010KT 9999 FEW045 14/M00 Q1025 NOSIG
VHHH,2017-02-10 15:30,113.9219,22.3094,55.40,30.20,37.97,30.00,9.00,0.00,30.27,M,6.21,M,FEW,M,M,M,4500.00,M,M,M,M,M,M,M,M,M,M,55.40,VHHH 101530Z 03009KT 9999 FEW045 13/M01 Q1025 NOSIG
VHHH,2017-02-10 16:00,113.9219,22.3094,57.20,30.20,35.57,30.00,9.00,0.00,30.27,M,6.21,M,FEW,M,M,M,4500.00,M,M,M,M,M,M,M,M,M,M,57.20,VHHH 101600Z 03009KT 9999 FEW045 14/M01 Q1025 NOSIG
VHHH,2017-02-10 16:30,113.9219,22.3094,55.40,32.00,40.84,30.00,7.00,0.00,30.27,M,6.21,M,FEW,M,M,M,4500.00,M,M,M,M,M,M,M,M,M,M,55.40,VHHH 101630Z 03007KT 360V060 9999 FEW045 13/M00 Q1025 NOSIG
VHHH,2017-02-10 17:00,113.9219,22.3094,55.40,32.00,40.84,40.00,7.00,0.00,30.27,M,6.21,M,FEW,M,M,M,4500.00,M,M,M,M,M,M,M,M,M,M,55.40,VHHH 101700Z 04007KT 9999 FEW045 13/00 Q1025 NOSIG
VHHH,2017-02-10 17:30,113.9219,22.3094,53.60,32.00,43.61,30.00,8.00,0.00,30.30,M,6.21,M,FEW,M,M,M,4500.00,M,M,M,M,M,M,M,M,M,M,53.60,VHHH 101730Z 03008KT 9999 FEW045 12/00 Q1026 NOSIG
VHHH,2017-02-10 18:00,113.9219,22.3094,53.60,32.00,43.61,30.00,8.00,0.00,30.27,M,6.21,M,FEW,M,M,M,4500.00,M,M,M,M,M,M,M,M,M,M,53.60,VHHH 101800Z 03008KT 9999 FEW045 12/00 Q1025 NOSIG
VHHH,2017-02-10 18:30,113.9219,22.3094,53.60,32.00,43.61,50.00,8.00,0.00,30.27,M,6.21,M,FEW,M,M,M,4500.00,M,M,M,M,M,M,M,M,M,M,53.60,VHHH 101830Z 05008KT 9999 FEW045 12/00 Q1025 NOSIG
VHHH,2017-02-10 19:00,113.9219,22.3094,53.60,32.00,43.61,40.00,9.00,0.00,30.27,M,6.21,M,FEW,M,M,M,4500.00,M,M,M,M,M,M,M,M,M,M,53.60,VHHH 101900Z 04009KT 9999 FEW045 12/00 Q1025 NOSIG
VHHH,2017-02-10 19:30,113.9219,22.3094,53.60,32.00,43.61,50.00,10.00,0.00,30.27,M,6.21,M,FEW,M,M,M,4500.00,M,M,M,M,M,M,M,M,M,M,53.60,VHHH 101930Z 05010KT 9999 FEW045 12/00 Q1025 NOSIG
VHHH,2017-02-10 20:00,113.9219,22.3094,53.60,32.00,43.61,40.00,12.00,0.00,30.27,M,6.21,M,FEW,M,M,M,4500.00,M,M,M,M,M,M,M,M,M,M,53.60,VHHH 102000Z 04012KT 9999 FEW045 12/M00 Q1025 NOSIG
VHHH,2017-02-10 20:30,113.9219,22.3094,53.60,32.00,43.61,50.00,14.00,0.00,30.27,M,6.21,M,FEW,M,M,M,4500.00,M,M,M,M,M,M,M,M,M,M,53.60,VHHH 102030Z 05014KT 9999 FEW045 12/00 Q1025 NOSIG
VHHH,2017-02-10 21:00,113.9219,22.3094,53.60,32.00,43.61,40.00,12.00,0.00,30.27,M,6.21,M,FEW,M,M,M,4500.00,M,M,M,M,M,M,M,M,M,M,53.60,VHHH 102100Z 04012KT 9999 FEW045 12/00 Q1025 NOSIG
VHHH,2017-02-10 21:30,113.9219,22.3094,51.80,32.00,46.59,40.00,12.00,0.00,30.27,M,6.21,M,FEW,M,M,M,4500.00,M,M,M,M,M,M,M,M,M,M,51.80,VHHH 102130Z 04012KT 9999 FEW045 11/00 Q1025 NOSIG
VHHH,2017-02-10 22:00,113.9219,22.3094,53.60,32.00,43.61,40.00,10.00,0.00,30.30,M,6.21,M,FEW,M,M,M,4500.00,M,M,M,M,M,M,M,M,M,M,53.60,VHHH 102200Z 04010KT 9999 FEW045 12/00 Q1026 NOSIG
VHHH,2017-02-10 22:30,113.9219,22.3094,53.60,32.00,43.61,50.00,9.00,0.00,30.30,M,6.21,M,FEW,M,M,M,4500.00,M,M,M,M,M,M,M,M,M,M,53.60,VHHH 102230Z 05009KT 9999 FEW045 12/00 Q1026 NOSIG
VHHH,2017-02-10 23:00,113.9219,22.3094,51.80,32.00,46.59,50.00,13.00,0.00,30.30,M,6.21,M,FEW,M,M,M,4500.00,M,M,M,M,M,M,M,M,M,M,51.80,VHHH 102300Z 05013KT 9999 FEW045 11/00 Q1026 NOSIG
VHHH,2017-02-10 23:30,113.9219,22.3094,51.80,32.00,46.59,50.00,11.00,0.00,30.33,M,6.21,M,M,M,M,M,M,M,M,M,M,M,M,M,M,M,M,51.80,VHHH 102330Z 05011KT CAVOK 11/00 Q1027 NOSIG
VHHH,2017-02-11 00:00,113.9219,22.3094,51.80,32.00,46.59,50.00,6.00,0.00,30.33,M,6.21,M,M,M,M,M,M,M,M,M,M,M,M,M,M,M,M,51.80,VHHH 110000Z 05006KT 360V110 CAVOK 11/00 Q1027 NOSIG
VHHH,2017-02-11 00:30,113.9219,22.3094,53.60,32.00,43.61,40.00,6.00,0.00,30.36,M,6.21,M,M,M,M,M,M,M,M,M,M,M,M,M,M,M,M,53.60,VHHH 110030Z 04006KT 350V080 CAVOK 12/00 Q1028 NOSIG
VHHH,2017-02-11 01:00,113.9219,22.3094,53.60,32.00,43.61,50.00,10.00,0.00,30.36,M,5.59,M,NSC,M,M,M,M,M,M,M,M,M,M,M,M,M,M,53.60,VHHH 110100Z 05010KT 9000 NSC 12/00 Q1028 NOSIG
VHHH,2017-02-11 01:30,113.9219,22.3094,53.60,32.00,43.61,50.00,12.00,0.00,30.36,M,6.21,M,M,M,M,M,M,M,M,M,M,M,M,M,M,M,M,53.60,VHHH 110130Z 05012KT CAVOK 12/M00 Q1028 NOSIG
VHHH,2017-02-11 02:00,113.9219,22.3094,55.40,32.00,40.84,50.00,8.00,0.00,30.36,M,6.21,M,M,M,M,M,M,M,M,M,M,M,M,M,M,M,M,55.40,VHHH 110200Z 05008KT CAVOK 13/M00 Q1028 NOSIG
VHHH,2017-02-11 02:30,113.9219,22.3094,55.40,32.00,40.84,50.00,8.00,0.00,30.36,M,6.21,M,M,M,M,M,M,M,M,M,M,M,M,M,M,M,M,55.40,VHHH 110230Z 05008KT CAVOK 13/M00 Q1028 NOSIG
VHHH,2017-02-11 03:00,113.9219,22.3094,57.20,32.00,38.26,60.00,5.00,0.00,30.36,M,6.21,M,M,M,M,M,M,M,M,M,M,M,M,M,M,M,M,57.20,VHHH 110300Z 06005KT 040V100 CAVOK 14/M00 Q1028 NOSIG
VHHH,2017-02-11 03:30,113.9219,22.3094,60.80,32.00,33.64,20.00,3.00,0.00,30.36,M,6.21,M,M,M,M,M,M,M,M,M,M,M,M,M,M,M,M,60.80,VHHH 110330Z 02003KT 320V080 CAVOK 16/00 Q1028 NOSIG
VHHH,2017-02-11 04:00,113.9219,22.3094,59.00,33.80,38.56,340.00,10.00,0.00,30.33,M,5.59,M,NSC,M,M,M,M,M,M,M,M,M,M,M,M,M,M,59.00,VHHH 110400Z 34010KT 9000 NSC 15/01 Q1027 NOSIG
VHHH,2017-02-11 04:30,113.9219,22.3094,59.00,35.60,41.42,320.00,10.00,0.00,30.33,M,5.59,M,NSC,M,M,M,M,M,M,M,M,M,M,M,M,M,M,59.00,VHHH 110430Z 32010KT 9000 NSC 15/02 Q1027 NOSIG
VHHH,2017-02-11 05:00,113.9219,22.3094,60.80,37.40,41.71,320.00,10.00,0.00,30.30,M,5.59,M,NSC,M,M,M,M,M,M,M,M,M,M,M,M,M,M,60.80,VHHH 110500Z 32010KT 9000 NSC 16/03 Q1026 NOSIG
VHHH,2017-02-11 05:30,113.9219,22.3094,59.00,35.60,41.42,320.00,9.00,0.00,30.30,M,4.97,M,NSC,M,M,M,M,M,M,M,M,M,M,M,M,M,M,59.00,VHHH 110530Z 32009KT 8000 NSC 15/02 Q1026 NOSIG
VHHH,2017-02-11 06:00,113.9219,22.3094,60.80,35.60,38.85,330.00,8.00,0.00,30.27,M,4.97,M,NSC,M,M,M,M,M,M,M,M,M,M,M,M,M,M,60.80,VHHH 110600Z 33008KT 8000 NSC 16/02 Q1025 NOSIG
VHHH,2017-02-11 06:30,113.9219,22.3094,60.80,37.40,41.71,340.00,8.00,0.00,30.27,M,4.97,M,NSC,M,M,M,M,M,M,M,M,M,M,M,M,M,M,60.80,VHHH 110630Z 34008KT 8000 NSC 16/03 Q1025 NOSIG
VHHH,2017-02-11 07:00,113.9219,22.3094,60.80,37.40,41.71,330.00,7.00,0.00,30.24,M,4.97,M,NSC,M,M,M,M,M,M,M,M,M,M,M,M,M,M,60.80,VHHH 110700Z 33007KT 8000 NSC 16/03 Q1024 NOSIG
VHHH,2017-02-11 07:30,113.9219,22.3094,62.60,37.40,39.14,320.00,8.00,0.00,30.24,M,4.97,M,NSC,M,M,M,M,M,M,M,M,M,M,M,M,M,M,62.60,VHHH 110730Z 32008KT 8000 NSC 17/03 Q1024 NOSIG
VHHH,2017-02-11 08:00,113.9219,22.3094,60.80,37.40,41.71,300.00,7.00,0.00,30.24,M,4.97,M,NSC,M,M,M,M,M,M,M,M,M,M,M,M,M,M,60.80,VHHH 110800Z 30007KT 270V330 8000 NSC 16/03 Q1024 NOSIG
VHHH,2017-02-11 08:30,113.9219,22.3094,62.60,37.40,39.14,310.00,5.00,0.00,30.24,M,5.59,M,NSC,M,M,M,M,M,M,M,M,M,M,M,M,M,M,62.60,VHHH 110830Z 31005KT 9000 NSC 17/03 Q1024 NOSIG
VHHH,2017-02-11 09:00,113.9219,22.3094,60.80,37.40,41.71,290.00,4.00,0.00,30.27,M,4.97,M,NSC,M,M,M,M,M,M,M,M,M,M,M,M,M,M,60.80,VHHH 110900Z 29004KT 8000 NSC 16/03 Q1025 NOSIG
VHHH,2017-02-11 09:30,113.9219,22.3094,60.80,37.40,41.71,260.00,5.00,0.00,30.27,M,4.97,M,NSC,M,M,M,M,M,M,M,M,M,M,M,M,M,M,60.80,VHHH 110930Z 26005KT 8000 NSC 16/03 Q1025 NOSIG
VHHH,2017-02-11 10:00,113.9219,22.3094,60.80,37.40,41.71,240.00,5.00,0.00,30.27,M,5.59,M,NSC,M,M,M,M,M,M,M,M,M,M,M,M,M,M,60.80,VHHH 111000Z 24005KT 9000 NSC 16/03 Q1025 NOSIG
VHHH,2017-02-11 10:30,113.9219,22.3094,59.00,37.40,44.47,200.00,6.00,0.00,30.27,M,5.59,M,NSC,M,M,M,M,M,M,M,M,M,M,M,M,M,M,59.00,VHHH 111030Z 20006KT 180V240 9000 NSC 15/03 Q1025 NOSIG
VHHH,2017-02-11 11:00,113.9219,22.3094,59.00,39.20,47.72,160.00,7.00,0.00,30.27,M,5.59,M,NSC,M,M,M,M,M,M,M,M,M,M,M,M,M,M,59.00,VHHH 111100Z 16007KT 150V210 9000 NSC 15/04 Q1025 NOSIG
VHHH,2017-02-11 11:30,113.9219,22.3094,57.20,39.20,50.91,180.00,5.00,0.00,30.27,M,5.59,M,NSC,M,M,M,M,M,M,M,M,M,M,M,M,M,M,57.20,VHHH 111130Z 18005KT 160V230 9000 NSC 14/04 Q1025 NOSIG
VHHH,2017-02-11 12:00,113.9219,22.3094,59.00,39.20,47.72,140.00,5.00,0.00,30.30,M,5.59,M,NSC,M,M,M,M,M,M,M,M,M,M,M,M,M,M,59.00,VHHH 111200Z 14005KT 110V220 9000 NSC 15/04 Q1026 NOSIG
VHHH,2017-02-11 12:30,113.9219,22.3094,59.00,39.20,47.72,160.00,4.00,0.00,30.30,M,5.59,M,NSC,M,M,M,M,M,M,M,M,M,M,M,M,M,M,59.00,VHHH 111230Z 16004KT 120V230 9000 NSC 15/04 Q1026 NOSIG
VHHH,2017-02-11 13:00,113.9219,22.3094,57.20,39.20,50.91,M,4.00,0.00,30.30,M,5.59,M,NSC,M,M,M,M,M,M,M,M,M,M,M,M,M,M,57.20,VHHH 111300Z VRB04KT 9000 NSC 14/04 Q1026 NOSIG
VHHH,2017-02-11 13:30,113.9219,22.3094,57.20,41.00,54.60,150.00,5.00,0.00,30.30,M,5.59,M,NSC,M,M,M,M,M,M,M,M,M,M,M,M,M,M,57.20,VHHH 111330Z 15005KT 120V200 9000 NSC 14/05 Q1026 NOSIG
VHHH,2017-02-11 14:00,113.9219,22.3094,55.40,41.00,58.27,140.00,5.00,0.00,30.33,M,5.59,M,NSC,M,M,M,M,M,M,M,M,M,M,M,M,M,M,55.40,VHHH 111400Z 14005KT 110V200 9000 NSC 13/05 Q1027 NOSIG
VHHH,2017-02-11 14:30,113.9219,22.3094,57.20,41.00,54.60,110.00,6.00,0.00,30.33,M,6.21,M,M,M,M,M,M,M,M,M,M,M,M,M,M,M,M,57.20,VHHH 111430Z 11006KT 080V150 CAVOK 14/05 Q1027 NOSIG
VHHH,2017-02-11 15:00,113.9219,22.3094,59.00,41.00,51.18,90.00,6.00,0.00,30.33,M,6.21,M,M,M,M,M,M,M,M,M,M,M,M,M,M,M,M,59.00,VHHH 111500Z 09006KT 070V140 CAVOK 15/05 Q1027 NOSIG
VHHH,2017-02-11 15:30,113.9219,22.3094,57.20,42.80,58.52,110.00,7.00,0.00,30.33,M,6.21,M,M,M,M,M,M,M,M,M,M,M,M,M,M,M,M,57.20,VHHH 111530Z 11007KT CAVOK 14/06 Q1027 NOSIG
VHHH,2017-02-11 16:00,113.9219,22.3094,57.20,42.80,58.52,130.00,5.00,0.00,30.33,M,6.21,M,M,M,M,M,M,M,M,M,M,M,M,M,M,M,M,57.20,VHHH 111600Z 13005KT 090V180 CAVOK 14/06 Q1027 NOSIG
VHHH,2017-02-11 16:30,113.9219,22.3094,57.20,42.80,58.52,100.00,6.00,0.00,30.33,M,6.21,M,M,M,M,M,M,M,M,M,M,M,M,M,M,M,M,57.20,VHHH 111630Z 10006KT 070V140 CAVOK 14/06 Q1027 NOSIG
VHHH,2017-02-11 17:00,113.9219,22.3094,57.20,42.80,58.52,100.00,6.00,0.00,30.33,M,6.21,M,M,M,M,M,M,M,M,M,M,M,M,M,M,M,M,57.20,VHHH 111700Z 10006KT 070V150 CAVOK 14/06 Q1027 NOSIG
VHHH,2017-02-11 17:30,113.9219,22.3094,57.20,44.60,62.69,110.00,7.00,0.00,30.33,M,6.21,M,M,M,M,M,M,M,M,M,M,M,M,M,M,M,M,57.20,VHHH 111730Z 11007KT 090V150 CAVOK 14/07 Q1027 NOSIG
VHHH,2017-02-11 18:00,113.9219,22.3094,55.40,42.80,62.46,110.00,5.00,0.00,30.33,M,6.21,M,M,M,M,M,M,M,M,M,M,M,M,M,M,M,M,55.40,VHHH 111800Z 11005KT CAVOK 13/06 Q1027 NOSIG
VHHH,2017-02-11 18:30,113.9219,22.3094,55.40,42.80,62.46,120.00,5.00,0.00,30.33,M,6.21,M,M,M,M,M,M,M,M,M,M,M,M,M,M,M,M,55.40,VHHH 111830Z 12005KT CAVOK 13/06 Q1027 NOSIG
VHHH,2017-02-11 19:00,113.9219,22.3094,55.40,42.80,62.46,130.00,5.00,0.00,30.33,M,6.21,M,M,M,M,M,M,M,M,M,M,M,M,M,M,M,M,55.40,VHHH 111900Z 13005KT CAVOK 13/06 Q1027 NOSIG
VHHH,2017-02-11 19:30,113.9219,22.3094,55.40,44.60,66.91,110.00,6.00,0.00,30.33,M,6.21,M,M,M,M,M,M,M,M,M,M,M,M,M,M,M,M,55.40,VHHH 111930Z 11006KT CAVOK 13/07 Q1027 NOSIG
VHHH,2017-02-11 20:00,113.9219,22.3094,55.40,44.60,66.91,100.00,7.00,0.00,30.33,M,6.21,M,M,M,M,M,M,M,M,M,M,M,M,M,M,M,M,55.40,VHHH 112000Z 10007KT CAVOK 13/07 Q1027 NOSIG
VHHH,2017-02-11 20:30,113.9219,22.3094,53.60,44.60,71.45,90.00,6.00,0.00,30.30,M,6.21,M,M,M,M,M,M,M,M,M,M,M,M,M,M,M,M,53.60,VHHH 112030Z 09006KT CAVOK 12/07 Q1026 NOSIG
VHHH,2017-02-11 21:00,113.9219,22.3094,55.40,46.40,71.64,100.00,6.00,0.00,30.30,M,6.21,M,M,M,M,M,M,M,M,M,M,M,M,M,M,M,M,55.40,VHHH 112100Z 10006KT CAVOK 13/08 Q1026 NOSIG
VHHH,2017-02-11 21:30,113.9219,22.3094,53.60,46.40,76.50,130.00,5.00,0.00,30.33,M,5.59,M,NSC,M,M,M,M,M,M,M,M,M,M,M,M,M,M,53.60,VHHH 112130Z 13005KT 9000 NSC 12/08 Q1027 NOSIG
VHHH,2017-02-11 22:00,113.9219,22.3094,53.60,44.60,71.45,110.00,4.00,0.00,30.33,M,5.59,M,NSC,M,M,M,M,M,M,M,M,M,M,M,M,M,M,53.60,VHHH 112200Z 11004KT 080V150 9000 NSC 12/07 Q1027 NOSIG
VHHH,2017-02-11 22:30,113.9219,22.3094,53.60,46.40,76.50,80.00,7.00,0.00,30.33,M,5.59,M,NSC,M,M,M,M,M,M,M,M,M,M,M,M,M,M,53.60,VHHH 112230Z 08007KT 9000 NSC 12/08 Q1027 NOSIG
VHHH,2017-02-11 23:00,113.9219,22.3094,55.40,46.40,71.64,70.00,7.00,0.00,30.33,M,4.97,M,NSC,M,M,M,M,M,M,M,M,M,M,M,M,M,M,55.40,VHHH 112300Z 07007KT 8000 NSC 13/08 Q1027 NOSIG
VHHH,2017-02-11 23:30,113.9219,22.3094,55.40,46.40,71.64,60.00,10.00,0.00,30.36,M,4.35,M,NSC,M,M,M,M,M,M,M,M,M,M,M,M,M,M,55.40,VHHH 112330Z 06010KT 7000 NSC 13/08 Q1028 NOSIG
VHHH,2017-02-12 00:00,113.9219,22.3094,57.20,46.40,67.12,60.00,9.00,0.00,30.36,M,4.35,M,NSC,M,M,M,M,M,M,M,M,M,M,M,M,M,M,57.20,VHHH 120000Z 06009KT 7000 NSC 14/08 Q1028 NOSIG
VHHH,2017-02-12 00:30,113.9219,22.3094,57.20,46.40,67.12,60.00,7.00,0.00,30.36,M,3.73,M,NSC,M,M,M,M,M,M,M,M,M,M,M,M,M,M,57.20,VHHH 120030Z 06007KT 6000 NSC 14/08 Q1028 NOSIG
VHHH,2017-02-12 01:00,113.9219,22.3094,59.00,46.40,62.92,70.00,6.00,0.00,30.36,M,4.97,M,NSC,M,M,M,M,M,M,M,M,M,M,M,M,M,M,59.00,VHHH 120100Z 07006KT 8000 NSC 15/08 Q1028 NOSIG
VHHH,2017-02-12 01:30,113.9219,22.3094,60.80,44.60,55.12,70.00,6.00,0.00,30.36,M,4.97,M,NSC,M,M,M,M,M,M,M,M,M,M,M,M,M,M,60.80,VHHH 120130Z 07006KT 040V100 8000 NSC 16/07 Q1028 NOSIG
VHHH,2017-02-12 02:00,113.9219,22.3094,60.80,44.60,55.12,M,3.00,0.00,30.39,M,4.97,M,NSC,M,M,M,M,M,M,M,M,M,M,M,M,M,M,60.80,VHHH 120200Z VRB03KT 8000 NSC 16/07 Q1029 NOSIG
VHHH,2017-02-12 02:30,113.9219,22.3094,60.80,35.60,38.85,60.00,6.00,0.00,30.36,M,6.21,M,FEW,M,M,M,3000.00,M,M,M,M,M,M,M,M,M,M,60.80,VHHH 120230Z 06006KT 030V090 9999 FEW030 16/02 Q1028 NOSIG
VHHH,2017-02-12 03:00,113.9219,22.3094,60.80,37.40,41.71,330.00,5.00,0.00,30.36,M,6.21,M,FEW,M,M,M,3000.00,M,M,M,M,M,M,M,M,M,M,60.80,VHHH 120300Z 33005KT 9999 FEW030 16/03 Q1028 NOSIG
VHHH,2017-02-12 03:30,113.9219,22.3094,62.60,37.40,39.14,320.00,6.00,0.00,30.36,M,6.21,M,FEW,M,M,M,3000.00,M,M,M,M,M,M,M,M,M,M,62.60,VHHH 120330Z 32006KT 280V360 9999 FEW030 17/03 Q1028 NOSIG
VHHH,2017-02-12 04:00,113.9219,22.3094,62.60,37.40,39.14,330.00,7.00,0.00,30.33,M,6.21,M,FEW,M,M,M,3000.00,M,M,M,M,M,M,M,M,M,M,62.60,VHHH 120400Z 33007KT 9999 FEW030 17/03 Q1027 NOSIG
VHHH,2017-02-12 04:30,113.9219,22.3094,62.60,37.40,39.14,320.00,8.00,0.00,30.33,M,6.21,M,FEW,M,M,M,3000.00,M,M,M,M,M,M,M,M,M,M,62.60,VHHH 120430Z 32008KT 9999 FEW030 17/03 Q1027 NOSIG
VHHH,2017-02-12 05:00,113.9219,22.3094,64.40,41.00,42.28,310.00,8.00,0.00,30.30,M,4.97,M,FEW,M,M,M,3000.00,M,M,M,M,M,M,M,M,M,M,64.40,VHHH 120500Z 31008KT 8000 FEW030 18/05 Q1026 NOSIG
VHHH,2017-02-12 05:30,113.9219,22.3094,64.40,42.80,45.32,300.00,7.00,0.00,30.27,M,4.97,M,FEW,M,M,M,3500.00,M,M,M,M,M,M,M,M,M,M,64.40,VHHH 120530Z 30007KT 8000 FEW035 18/06 Q1025 NOSIG
VHHH,2017-02-12 06:00,113.9219,22.3094,64.40,41.00,42.28,300.00,7.00,0.00,30.27,M,4.97,M,FEW,M,M,M,3500.00,M,M,M,M,M,M,M,M,M,M,64.40,VHHH 120600Z 30007KT 8000 FEW035 18/05 Q1025 NOSIG
VHHH,2017-02-12 06:30,113.9219,22.3094,66.20,41.00,39.72,300.00,7.00,0.00,30.24,M,4.97,M,FEW,M,M,M,3500.00,M,M,M,M,M,M,M,M,M,M,66.20,VHHH 120630Z 30007KT 8000 FEW035 19/05 Q1024 NOSIG
VHHH,2017-02-12 07:00,113.9219,22.3094,64.40,41.00,42.28,300.00,7.00,0.00,30.24,M,4.97,M,FEW,M,M,M,3500.00,M,M,M,M,M,M,M,M,M,M,64.40,VHHH 120700Z 30007KT 8000 FEW035 18/05 Q1024 NOSIG
VHHH,2017-02-12 07:30,113.9219,22.3094,64.40,39.20,39.43,270.00,7.00,0.00,30.24,M,4.97,M,FEW,M,M,M,4000.00,M,M,M,M,M,M,M,M,M,M,64.40,VHHH 120730Z 27007KT 8000 FEW040 18/04 Q1024 NOSIG
VHHH,2017-02-12 08:00,113.9219,22.3094,64.40,41.00,42.28,270.00,6.00,0.00,30.24,M,4.97,M,NSC,M,M,M,M,M,M,M,M,M,M,M,M,M,M,64.40,VHHH 120800Z 27006KT 230V290 8000 NSC 18/05 Q1024 NOSIG
VHHH,2017-02-12 08:30,113.9219,22.3094,64.40,42.80,45.32,270.00,6.00,0.00,30.24,M,5.59,M,NSC,M,M,M,M,M,M,M,M,M,M,M,M,M,M,64.40,VHHH 120830Z 27006KT 9000 NSC 18/06 Q1024 NOSIG
VHHH,2017-02-12 09:00,113.9219,22.3094,64.40,41.00,42.28,250.00,7.00,0.00,30.24,M,5.59,M,NSC,M,M,M,M,M,M,M,M,M,M,M,M,M,M,64.40,VHHH 120900Z 25007KT 230V290 9000 NSC 18/05 Q1024 NOSIG
VHHH,2017-02-12 09:30,113.9219,22.3094,62.60,44.60,51.72,250.00,7.00,0.00,30.24,M,6.21,M,M,M,M,M,M,M,M,M,M,M,M,M,M,M,M,62.60,VHHH 120930Z 25007KT 210V280 CAVOK 17/07 Q1024 NOSIG
VHHH,2017-02-12 10:00,113.9219,22.3094,60.80,42.80,51.45,240.00,5.00,0.00,30.24,M,6.21,M,M,M,M,M,M,M,M,M,M,M,M,M,M,M,M,60.80,VHHH 121000Z 24005KT 210V270 CAVOK 16/06 Q1024 NOSIG
VHHH,2017-02-12 10:30,113.9219,22.3094,60.80,42.80,51.45,160.00,8.00,0.00,30.27,M,6.21,M,M,M,M,M,M,M,M,M,M,M,M,M,M,M,M,60.80,VHHH 121030Z 16008KT 130V200 CAVOK 16/06 Q1025 NOSIG
VHHH,2017-02-12 11:00,113.9219,22.3094,60.80,42.80,51.45,150.00,6.00,0.00,30.27,M,6.21,M,M,M,M,M,M,M,M,M,M,M,M,M,M,M,M,60.80,VHHH 121100Z 15006KT 120V210 CAVOK 16/06 Q1025 NOSIG
VHHH,2017-02-12 11:30,113.9219,22.3094,59.00,44.60,58.77,140.00,5.00,0.00,30.27,M,6.21,M,M,M,M,M,M,M,M,M,M,M,M,M,M,M,M,59.00,VHHH 121130Z 14005KT 110V210 CAVOK 15/07 Q1025 NOSIG
VHHH,2017-02-12 12:00,113.9219,22.3094,59.00,42.80,54.86,130.00,5.00,0.00,30.27,M,6.21,M,M,M,M,M,M,M,M,M,M,M,M,M,M,M,M,59.00,VHHH 121200Z 13005KT CAVOK 15/06 Q1025 NOSIG
VHHH,2017-02-12 12:30,113.9219,22.3094,60.80,42.80,51.45,110.00,7.00,0.00,30.30,M,6.21,M,M,M,M,M,M,M,M,M,M,M,M,M,M,M,M,60.80,VHHH 121230Z 11007KT 080V150 CAVOK 16/06 Q1026 NOSIG
VHHH,2017-02-12 13:00,113.9219,22.3094,60.80,42.80,51.45,120.00,6.00,0.00,30.30,M,6.21,M,M,M,M,M,M,M,M,M,M,M,M,M,M,M,M,60.80,VHHH 121300Z 12006KT 080V170 CAVOK 16/06 Q1026 NOSIG
VHHH,2017-02-12 13:30,113.9219,22.3094,59.00,42.80,54.86,100.00,10.00,0.00,30.30,M,6.21,M,M,M,M,M,M,M,M,M,M,M,M,M,M,M,M,59.00,VHHH 121330Z 10010KT CAVOK 15/06 Q1026 NOSIG
VHHH,2017-02-12 14:00,113.9219,22.3094,60.80,46.40,59.01,100.00,11.00,0.00,30.30,M,6.21,M,M,M,M,M,M,M,M,M,M,M,M,M,M,M,M,60.80,VHHH 121400Z 10011KT CAVOK 16/08 Q1026 NOSIG
VHHH,2017-02-12 14:30,113.9219,22.3094,59.00,46.40,62.92,90.00,10.00,0.00,30.30,M,6.21,M,M,M,M,M,M,M,M,M,M,M,M,M,M,M,M,59.00,VHHH 121430Z 09010KT CAVOK 15/08 Q1026 NOSIG
VHHH,2017-02-12 15:00,113.9219,22.3094,59.00,48.20,67.33,100.00,10.00,0.00,30.30,M,6.21,M,M,M,M,M,M,M,M,M,M,M,M,M,M,M,M,59.00,VHHH 121500Z 10010KT CAVOK 15/09 Q1026 NOSIG
VHHH,2017-02-12 15:30,113.9219,22.3094,59.00,48.20,67.33,100.00,10.00,0.00,30.33,M,6.21,M,M,M,M,M,M,M,M,M,M,M,M,M,M,M,M,59.00,VHHH 121530Z 10010KT CAVOK 15/09 Q1027 NOSIG
VHHH,2017-02-12 16:00,113.9219,22.3094,59.00,48.20,67.33,90.00,10.00,0.00,30.33,M,6.21,M,M,M,M,M,M,M,M,M,M,M,M,M,M,M,M,59.00,VHHH 121600Z 09010KT CAVOK 15/09 Q1027 NOSIG
VHHH,2017-02-12 16:30,113.9219,22.3094,59.00,48.20,67.33,90.00,10.00,0.00,30.33,M,6.21,M,M,M,M,M,M,M,M,M,M,M,M,M,M,M,M,59.00,VHHH 121630Z 09010KT CAVOK 15/09 Q1027 NOSIG
VHHH,2017-02-12 17:00,113.9219,22.3094,59.00,48.20,67.33,90.00,11.00,0.00,30.30,M,6.21,M,FEW,M,M,M,3500.00,M,M,M,M,M,M,M,M,M,M,59.00,VHHH 121700Z 09011KT 9999 FEW035 15/09 Q1026 NOSIG
VHHH,2017-02-12 17:30,113.9219,22.3094,59.00,48.20,67.33,90.00,11.00,0.00,30.30,M,6.21,M,FEW,M,M,M,3500.00,M,M,M,M,M,M,M,M,M,M,59.00,VHHH 121730Z 09011KT 9999 FEW035 15/09 Q1026 NOSIG
VHHH,2017-02-12 18:00,113.9219,22.3094,57.20,48.20,71.83,90.00,12.00,0.00,30.30,M,6.21,M,FEW,M,M,M,3500.00,M,M,M,M,M,M,M,M,M,M,57.20,VHHH 121800Z 09012KT 9999 FEW035 14/09 Q1026 NOSIG
VHHH,2017-02-12 18:30,113.9219,22.3094,57.20,48.20,71.83,90.00,12.00,0.00,30.30,M,6.21,M,FEW,M,M,M,3500.00,M,M,M,M,M,M,M,M,M,M,57.20,VHHH 121830Z 09012KT 9999 FEW035 14/09 Q1026 NOSIG
VHHH,2017-02-12 19:00,113.9219,22.3094,57.20,48.20,71.83,90.00,9.00,0.00,30.30,M,6.21,M,FEW,M,M,M,3500.00,M,M,M,M,M,M,M,M,M,M,57.20,VHHH 121900Z 09009KT 9999 FEW035 14/09 Q1026 NOSIG
VHHH,2017-02-12 19:30,113.9219,22.3094,57.20,48.20,71.83,100.00,9.00,0.00,30.30,M,6.21,M,FEW,M,M,M,3500.00,M,M,M,M,M,M,M,M,M,M,57.20,VHHH 121930Z 10009KT 9999 FEW035 14/09 Q1026 NOSIG
VHHH,2017-02-12 20:00,113.9219,22.3094,55.40,46.40,71.64,100.00,7.00,0.00,30.30,M,6.21,M,FEW,M,M,M,3500.00,M,M,M,M,M,M,M,M,M,M,55.40,VHHH 122000Z 10007KT 9999 FEW035 13/08 Q1026 NOSIG
VHHH,2017-02-12 20:30,113.9219,22.3094,57.20,46.40,67.12,100.00,7.00,0.00,30.30,M,6.21,M,FEW,M,M,M,3500.00,M,M,M,M,M,M,M,M,M,M,57.20,VHHH 122030Z 10007KT 9999 FEW035 14/08 Q1026 NOSIG
VHHH,2017-02-12 21:00,113.9219,22.3094,57.20,44.60,62.69,80.00,7.00,0.00,30.30,M,6.21,M,FEW,M,M,M,3500.00,M,M,M,M,M,M,M,M,M,M,57.20,VHHH 122100Z 08007KT 9999 FEW035 14/07 Q1026 NOSIG
VHHH,2017-02-12 21:30,113.9219,22.3094,57.20,46.40,67.12,80.00,8.00,0.00,30.30,M,6.21,M,FEW,M,M,M,3500.00,M,M,M,M,M,M,M,M,M,M,57.20,VHHH 122130Z 08008KT 9999 FEW035 14/08 Q1026 NOSIG
VHHH,2017-02-12 22:00,113.9219,22.3094,57.20,46.40,67.12,90.00,6.00,0.00,30.33,M,6.21,M,FEW,M,M,M,3500.00,M,M,M,M,M,M,M,M,M,M,57.20,VHHH 122200Z 09006KT 9999 FEW035 14/08 Q1027 NOSIG
VHHH,2017-02-12 22:30,113.9219,22.3094,57.20,46.40,67.12,80.00,5.00,0.00,30.33,M,6.21,M,M,M,M,M,M,M,M,M,M,M,M,M,M,M,M,57.20,VHHH 122230Z 08005KT CAVOK 14/08 Q1027 NOSIG
VHHH,2017-02-12 23:00,113.9219,22.3094,55.40,46.40,71.64,130.00,5.00,0.00,30.33,M,6.21,M,M,M,M,M,M,M,M,M,M,M,M,M,M,M,M,55.40,VHHH 122300Z 13005KT 090V200 CAVOK 13/08 Q1027 NOSIG
VHHH,2017-02-12 23:30,113.9219,22.3094,57.20,46.40,67.12,130.00,4.00,0.00,30.33,M,6.21,M,M,M,M,M,M,M,M,M,M,M,M,M,M,M,M,57.20,VHHH 122330Z 13004KT 050V200 CAVOK 14/08 Q1027 NOSIG
VHHH,2017-02-13 00:00,113.9219,22.3094,57.20,44.60,62.69,80.00,6.00,0.00,30.36,M,6.21,M,M,M,M,M,M,M,M,M,M,M,M,M,M,M,M,57.20,VHHH 130000Z 08006KT 050V120 CAVOK 14/07 Q1028 NOSIG
VHHH,2017-02-13 00:30,113.9219,22.3094,60.80,44.60,55.12,80.00,5.00,0.00,30.36,M,6.21,M,M,M,M,M,M,M,M,M,M,M,M,M,M,M,M,60.80,VHHH 130030Z 08005KT CAVOK 16/07 Q1028 NOSIG
VHHH,2017-02-13 01:00,113.9219,22.3094,60.80,41.00,48.00,60.00,4.00,0.00,30.36,M,6.21,M,M,M,M,M,M,M,M,M,M,M,M,M,M,M,M,60.80,VHHH 130100Z 06004KT CAVOK 16/05 Q1028 NOSIG
VHHH,2017-02-13 01:30,113.9219,22.3094,62.60,39.20,42.00,50.00,4.00,0.00,30.36,M,6.21,M,M,M,M,M,M,M,M,M,M,M,M,M,M,M,M,62.60,VHHH 130130Z 05004KT CAVOK 17/04 Q1028 NOSIG
VHHH,2017-02-13 02:00,113.9219,22.3094,62.60,39.20,42.00,40.00,4.00,0.00,30.36,M,6.21,M,M,M,M,M,M,M,M,M,M,M,M,M,M,M,M,62.60,VHHH 130200Z 04004KT CAVOK 17/04 Q1028 NOSIG
VHHH,2017-02-13 02:30,113.9219,22.3094,62.60,42.80,48.28,330.00,4.00,0.00,30.36,M,6.21,M,M,M,M,M,M,M,M,M,M,M,M,M,M,M,M,62.60,VHHH 130230Z 33004KT CAVOK 17/06 Q1028 NOSIG
VHHH,2017-02-13 03:00,113.9219,22.3094,64.40,41.00,42.28,330.00,6.00,0.00,30.36,M,6.21,M,M,M,M,M,M,M,M,M,M,M,M,M,M,M,M,64.40,VHHH 130300Z 33006KT CAVOK 18/05 Q1028 NOSIG
VHHH,2017-02-13 03:30,113.9219,22.3094,64.40,42.80,45.32,330.00,8.00,0.00,30.36,M,6.21,M,M,M,M,M,M,M,M,M,M,M,M,M,M,M,M,64.40,VHHH 130330Z 33008KT CAVOK 18/06 Q1028 NOSIG
VHHH,2017-02-13 04:00,113.9219,22.3094,64.40,42.80,45.32,340.00,9.00,0.00,30.33,M,5.59,M,NSC,M,M,M,M,M,M,M,M,M,M,M,M,M,M,64.40,VHHH 130400Z 34009KT 9000 NSC 18/06 Q1027 NOSIG
VHHH,2017-02-13 04:30,113.9219,22.3094,66.20,44.60,45.60,340.00,9.00,0.00,30.33,M,5.59,M,FEW,M,M,M,3500.00,M,M,M,M,M,M,M,M,M,M,66.20,VHHH 130430Z 34009KT 9000 FEW035 19/07 Q1027 NOSIG
VHHH,2017-02-13 05:00,113.9219,22.3094,66.20,44.60,45.60,320.00,7.00,0.00,30.33,M,5.59,M,FEW,M,M,M,3500.00,M,M,M,M,M,M,M,M,M,M,66.20,VHHH 130500Z 32007KT 9000 FEW035 19/07 Q1027 NOSIG
VHHH,2017-02-13 05:30,113.9219,22.3094,66.20,46.40,48.83,270.00,8.00,0.00,30.30,M,4.97,M,FEW,M,M,M,3500.00,M,M,M,M,M,M,M,M,M,M,66.20,VHHH 130530Z 27008KT 8000 FEW035 19/08 Q1026 NOSIG
VHHH,2017-02-13 06:00,113.9219,22.3094,68.00,44.60,42.85,270.00,10.00,0.00,30.30,M,4.35,M,FEW,M,M,M,3500.00,M,M,M,M,M,M,M,M,M,M,68.00,VHHH 130600Z 27010KT 7000 FEW035 20/07 Q1026 NOSIG
VHHH,2017-02-13 06:30,113.9219,22.3094,66.20,46.40,48.83,270.00,9.00,0.00,30.30,M,4.97,M,NSC,M,M,M,M,M,M,M,M,M,M,M,M,M,M,66.20,VHHH 130630Z 27009KT 8000 NSC 19/08 Q1026 NOSIG
VHHH,2017-02-13 07:00,113.9219,22.3094,66.20,46.40,48.83,260.00,9.00,0.00,30.27,M,5.59,M,NSC,M,M,M,M,M,M,M,M,M,M,M,M,M,M,66.20,VHHH 130700Z 26009KT 9000 NSC 19/08 Q1025 NOSIG
VHHH,2017-02-13 07:30,113.9219,22.3094,66.20,46.40,48.83,270.00,9.00,0.00,30.27,M,6.21,M,M,M,M,M,M,M,M,M,M,M,M,M,M,M,M,66.20,VHHH 130730Z 27009KT CAVOK 19/08 Q1025 NOSIG
VHHH,2017-02-13 08:00,113.9219,22.3094,68.00,44.60,42.85,260.00,9.00,0.00,30.27,M,6.21,M,M,M,M,M,M,M,M,M,M,M,M,M,M,M,M,68.00,VHHH 130800Z 26009KT CAVOK 20/07 Q1025 NOSIG
VHHH,2017-02-13 08:30,113.9219,22.3094,68.00,46.40,45.88,280.00,6.00,0.00,30.27,M,6.21,M,M,M,M,M,M,M,M,M,M,M,M,M,M,M,M,68.00,VHHH 130830Z 28006KT 250V310 CAVOK 20/08 Q1025 NOSIG
VHHH,2017-02-13 09:00,113.9219,22.3094,66.20,46.40,48.83,310.00,5.00,0.00,30.27,M,6.21,M,M,M,M,M,M,M,M,M,M,M,M,M,M,M,M,66.20,VHHH 130900Z 31005KT 250V360 CAVOK 19/08 Q1025 BECMG 09010KT
VHHH,2017-02-13 09:30,113.9219,22.3094,66.20,46.40,48.83,60.00,7.00,0.00,30.27,M,6.21,M,M,M,M,M,M,M,M,M,M,M,M,M,M,M,M,66.20,VHHH 130930Z 06007KT CAVOK 19/08 Q1025 NOSIG
VHHH,2017-02-13 10:00,113.9219,22.3094,64.40,46.40,51.98,100.00,11.00,0.00,30.30,M,6.21,M,M,M,M,M,M,M,M,M,M,M,M,M,M,M,M,64.40,VHHH 131000Z 10011KT CAVOK 18/08 Q1026 NOSIG
VHHH,2017-02-13 10:30,113.9219,22.3094,64.40,48.20,55.63,100.00,11.00,0.00,30.30,M,6.21,M,M,M,M,M,M,M,M,M,M,M,M,M,M,M,M,64.40,VHHH 131030Z 10011KT CAVOK 18/09 Q1026 NOSIG
VHHH,2017-02-13 11:00,113.9219,22.3094,62.60,46.40,55.37,120.00,6.00,0.00,30.30,M,6.21,M,M,M,M,M,M,M,M,M,M,M,M,M,M,M,M,62.60,VHHH 131100Z 12006KT 080V180 CAVOK 17/08 Q1026 NOSIG
VHHH,2017-02-13 11:30,113.9219,22.3094,62.60,48.20,59.26,110.00,12.00,0.00,30.30,M,6.21,M,M,M,M,M,M,M,M,M,M,M,M,M,M,M,M,62.60,VHHH 131130Z 11012KT CAVOK 17/09 Q1026 NOSIG
VHHH,2017-02-13 12:00,113.9219,22.3094,62.60,48.20,59.26,110.00,11.00,0.00,30.33,M,6.21,M,M,M,M,M,M,M,M,M,M,M,M,M,M,M,M,62.60,VHHH 131200Z 11011KT 090V150 CAVOK 17/09 Q1027 NOSIG
VHHH,2017-02-13 12:30,113.9219,22.3094,62.60,50.00,63.38,110.00,12.00,0.00,30.33,M,6.21,M,M,M,M,M,M,M,M,M,M,M,M,M,M,M,M,62.60,VHHH 131230Z 11012KT CAVOK 17/10 Q1027 NOSIG
VHHH,2017-02-13 13:00,113.9219,22.3094,62.60,51.80,67.75,100.00,12.00,0.00,30.33,M,6.21,M,M,M,M,M,M,M,M,M,M,M,M,M,M,M,M,62.60,VHHH 131300Z 10012KT CAVOK 17/11 Q1027 NOSIG
VHHH,2017-02-13 13:30,113.9219,22.3094,62.60,51.80,67.75,90.00,9.00,0.00,30.33,M,6.21,M,M,M,M,M,M,M,M,M,M,M,M,M,M,M,M,62.60,VHHH 131330Z 09009KT 080V150 CAVOK 17/11 Q1027 NOSIG
VHHH,2017-02-13 14:00,113.9219,22.3094,62.60,50.00,63.38,110.00,8.00,0.00,30.36,M,6.21,M,M,M,M,M,M,M,M,M,M,M,M,M,M,M,M,62.60,VHHH 131400Z 11008KT 090V160 CAVOK 17/10 Q1028 NOSIG
VHHH,2017-02-13 14:30,113.9219,22.3094,62.60,48.20,59.26,110.00,6.00,0.00,30.36,M,6.21,M,M,M,M,M,M,M,M,M,M,M,M,M,M,M,M,62.60,VHHH 131430Z 11006KT 080V160 CAVOK 17/09 Q1028 NOSIG
VHHH,2017-02-13 15:00,113.9219,22.3094,62.60,48.20,59.26,90.00,9.00,0.00,30.36,M,6.21,M,M,M,M,M,M,M,M,M,M,M,M,M,M,M,M,62.60,VHHH 131500Z 09009KT CAVOK 17/09 Q1028 NOSIG
VHHH,2017-02-13 15:30,113.9219,22.3094,62.60,48.20,59.26,80.00,10.00,0.00,30.36,M,6.21,M,M,M,M,M,M,M,M,M,M,M,M,M,M,M,M,62.60,VHHH 131530Z 08010KT CAVOK 17/09 Q1028 NOSIG
VHHH,2017-02-13 16:00,113.9219,22.3094,62.60,48.20,59.26,80.00,8.00,0.00,30.36,M,6.21,M,M,M,M,M,M,M,M,M,M,M,M,M,M,M,M,62.60,VHHH 131600Z 08008KT CAVOK 17/09 Q1028 NOSIG
VHHH,2017-02-13 16:30,113.9219,22.3094,62.60,48.20,59.26,80.00,8.00,0.00,30.36,M,6.21,M,M,M,M,M,M,M,M,M,M,M,M,M,M,M,M,62.60,VHHH 131630Z 08008KT CAVOK 17/09 Q1028 NOSIG
VHHH,2017-02-13 17:00,113.9219,22.3094,62.60,50.00,63.38,90.00,8.00,0.00,30.36,M,6.21,M,M,M,M,M,M,M,M,M,M,M,M,M,M,M,M,62.60,VHHH 131700Z 09008KT CAVOK 17/10 Q1028 NOSIG
VHHH,2017-02-13 17:30,113.9219,22.3094,62.60,48.20,59.26,90.00,8.00,0.00,30.36,M,6.21,M,M,M,M,M,M,M,M,M,M,M,M,M,M,M,M,62.60,VHHH 131730Z 09008KT CAVOK 17/09 Q1028 NOSIG
VHHH,2017-02-13 18:00,113.9219,22.3094,62.60,46.40,55.37,100.00,10.00,0.00,30.33,M,6.21,M,M,M,M,M,M,M,M,M,M,M,M,M,M,M,M,62.60,VHHH 131800Z 10010KT CAVOK 17/08 Q1027 NOSIG
VHHH,2017-02-13 19:30,113.9219,22.3094,62.60,44.60,51.72,110.00,9.00,0.00,30.33,M,6.21,M,M,M,M,M,M,M,M,M,M,M,M,M,M,M,M,62.60,VHHH 131930Z 11009KT CAVOK 17/07 Q1027 NOSIG
VHHH,2017-02-13 20:00,113.9219,22.3094,62.60,44.60,51.72,100.00,10.00,0.00,30.33,M,6.21,M,M,M,M,M,M,M,M,M,M,M,M,M,M,M,M,62.60,VHHH 132000Z 10010KT CAVOK 17/07 Q1027 NOSIG
VHHH,2017-02-13 20:30,113.9219,22.3094,62.60,44.60,51.72,90.00,7.00,0.00,30.33,M,6.21,M,M,M,M,M,M,M,M,M,M,M,M,M,M,M,M,62.60,VHHH 132030Z 09007KT 070V140 CAVOK 17/07 Q1027 NOSIG
VHHH,2017-02-13 21:00,113.9219,22.3094,62.60,42.80,48.28,100.00,8.00,0.00,30.33,M,6.21,M,M,M,M,M,M,M,M,M,M,M,M,M,M,M,M,62.60,VHHH 132100Z 10008KT 070V130 CAVOK 17/06 Q1027 NOSIG
VHHH,2017-02-13 21:30,113.9219,22.3094,62.60,44.60,51.72,100.00,9.00,0.00,30.33,M,6.21,M,M,M,M,M,M,M,M,M,M,M,M,M,M,M,M,62.60,VHHH 132130Z 10009KT CAVOK 17/07 Q1027 NOSIG
VHHH,2017-02-13 22:00,113.9219,22.3094,60.80,46.40,59.01,110.00,9.00,0.00,30.33,M,6.21,M,M,M,M,M,M,M,M,M,M,M,M,M,M,M,M,60.80,VHHH 132200Z 11009KT CAVOK 16/08 Q1027 NOSIG
VHHH,2017-02-13 22:30,113.9219,22.3094,62.60,42.80,48.28,110.00,10.00,0.00,30.36,M,6.21,M,M,M,M,M,M,M,M,M,M,M,M,M,M,M,M,62.60,VHHH 132230Z 11010KT CAVOK 17/06 Q1028 NOSIG
VHHH,2017-02-13 23:00,113.9219,22.3094,60.80,42.80,51.45,100.00,8.00,0.00,30.36,M,6.21,M,M,M,M,M,M,M,M,M,M,M,M,M,M,M,M,60.80,VHHH 132300Z 10008KT CAVOK 16/06 Q1028 NOSIG
VHHH,2017-02-13 23:30,113.9219,22.3094,60.80,44.60,55.12,100.00,10.00,0.00,30.36,M,6.21,M,M,M,M,M,M,M,M,M,M,M,M,M,M,M,M,60.80,VHHH 132330Z 10010KT 060V140 CAVOK 16/07 Q1028 NOSIG
VHHH,2017-02-14 00:00,113.9219,22.3094,62.60,44.60,51.72,100.00,10.00,0.00,30.39,M,6.21,M,M,M,M,M,M,M,M,M,M,M,M,M,M,M,M,62.60,VHHH 140000Z 10010KT 070V130 CAVOK 17/07 Q1029 NOSIG
VHHH,2017-02-14 00:30,113.9219,22.3094,64.40,44.60,48.55,90.00,11.00,0.00,30.39,M,6.21,M,M,M,M,M,M,M,M,M,M,M,M,M,M,M,M,64.40,VHHH 140030Z 09011KT CAVOK 18/07 Q1029 NOSIG
VHHH,2017-02-14 01:00,113.9219,22.3094,64.40,42.80,45.32,100.00,13.00,0.00,30.39,M,6.21,M,M,M,M,M,M,M,M,M,M,M,M,M,M,M,M,64.40,VHHH 140100Z 10013KT CAVOK 18/06 Q1029 NOSIG
VHHH,2017-02-14 01:30,113.9219,22.3094,66.20,42.80,42.57,80.00,11.00,0.00,30.42,M,6.21,M,FEW,M,M,M,4500.00,M,M,M,M,M,M,M,M,M,M,66.20,VHHH 140130Z 08011KT 9999 FEW045 19/06 Q1030 NOSIG
VHHH,2017-02-14 02:00,113.9219,22.3094,68.00,42.80,40.00,70.00,12.00,0.00,30.42,M,6.21,M,FEW,M,M,M,4500.00,M,M,M,M,M,M,M,M,M,M,68.00,VHHH 140200Z 07012KT 9999 FEW045 20/06 Q1030 NOSIG
VHHH,2017-02-14 02:30,113.9219,22.3094,68.00,42.80,40.00,90.00,9.00,0.00,30.42,M,6.21,M,FEW,M,M,M,4500.00,M,M,M,M,M,M,M,M,M,M,68.00,VHHH 140230Z 09009KT 060V140 9999 FEW045 20/06 Q1030 NOSIG
VHHH,2017-02-14 03:00,113.9219,22.3094,68.00,41.00,37.32,90.00,8.00,0.00,30.42,M,6.21,M,FEW,M,M,M,4500.00,M,M,M,M,M,M,M,M,M,M,68.00,VHHH 140300Z 09008KT 040V130 9999 FEW045 20/05 Q1030 NOSIG
VHHH,2017-02-14 03:30,113.9219,22.3094,71.60,41.00,33.00,70.00,6.00,0.00,30.39,M,6.21,M,FEW,M,M,M,4500.00,M,M,M,M,M,M,M,M,M,M,70.01,VHHH 140330Z 07006KT 030V130 9999 FEW045 22/05 Q1029 NOSIG
VHHH,2017-02-14 04:00,113.9219,22.3094,71.60,41.00,33.00,40.00,5.00,0.00,30.39,M,6.21,M,M,M,M,M,M,M,M,M,M,M,M,M,M,M,M,70.01,VHHH 140400Z 04005KT 350V100 CAVOK 22/05 Q1029 NOSIG
VHHH,2017-02-14 04:30,113.9219,22.3094,69.80,41.00,35.09,320.00,7.00,0.00,30.39,M,6.21,M,M,M,M,M,M,M,M,M,M,M,M,M,M,M,M,69.80,VHHH 140430Z 32007KT CAVOK 21/05 Q1029 NOSIG
VHHH,2017-02-14 05:00,113.9219,22.3094,69.80,41.00,35.09,290.00,5.00,0.00,30.36,M,6.21,M,M,M,M,M,M,M,M,M,M,M,M,M,M,M,M,69.80,VHHH 140500Z 29005KT CAVOK 21/05 Q1028 NOSIG
VHHH,2017-02-14 05:30,113.9219,22.3094,69.80,42.80,37.61,270.00,6.00,0.00,30.36,M,6.21,M,M,M,M,M,M,M,M,M,M,M,M,M,M,M,M,69.80,VHHH 140530Z 27006KT CAVOK 21/06 Q1028 NOSIG
VHHH,2017-02-14 06:00,113.9219,22.3094,69.80,42.80,37.61,260.00,12.00,0.00,30.33,M,6.21,M,M,M,M,M,M,M,M,M,M,M,M,M,M,M,M,69.80,VHHH 140600Z 26012KT CAVOK 21/06 Q1027 NOSIG
VHHH,2017-02-14 06:30,113.9219,22.3094,69.80,44.60,40.29,260.00,12.00,0.00,30.33,M,6.21,M,M,M,M,M,M,M,M,M,M,M,M,M,M,M,M,69.80,VHHH 140630Z 26012KT CAVOK 21/07 Q1027 NOSIG
VHHH,2017-02-14 07:00,113.9219,22.3094,69.80,44.60,40.29,270.00,9.00,0.00,30.30,M,6.21,M,M,M,M,M,M,M,M,M,M,M,M,M,M,M,M,69.80,VHHH 140700Z 27009KT CAVOK 21/07 Q1026 NOSIG
VHHH,2017-02-14 07:30,113.9219,22.3094,69.80,44.60,40.29,300.00,5.00,0.00,30.30,M,6.21,M,M,M,M,M,M,M,M,M,M,M,M,M,M,M,M,69.80,VHHH 140730Z 30005KT CAVOK 21/07 Q1026 NOSIG
VHHH,2017-02-14 08:00,113.9219,22.3094,71.60,42.80,35.37,360.00,4.00,0.00,30.30,M,6.21,M,M,M,M,M,M,M,M,M,M,M,M,M,M,M,M,70.12,VHHH 140800Z 36004KT 320V050 CAVOK 22/06 Q1026 BECMG 09010KT
VHHH,2017-02-14 08:16,113.9219,22.3094,71.60,42.80,35.37,90.00,10.00,0.00,30.30,M,6.21,M,M,M,M,M,M,M,M,M,M,M,M,M,M,M,M,70.12,VHHH 140816Z 09010KT 060V170 CAVOK 22/06 Q1026 NOSIG
VHHH,2017-02-14 08:30,113.9219,22.3094,71.60,42.80,35.37,100.00,11.00,0.00,30.30,M,6.21,M,M,M,M,M,M,M,M,M,M,M,M,M,M,M,M,70.12,VHHH 140830Z 10011KT CAVOK 22/06 Q1026 NOSIG
VHHH,2017-02-14 09:00,113.9219,22.3094,71.60,39.20,30.77,190.00,5.00,0.00,30.30,M,6.21,M,M,M,M,M,M,M,M,M,M,M,M,M,M,M,M,69.91,VHHH 140900Z 19005KT 110V250 CAVOK 22/04 Q1026 NOSIG
VHHH,2017-02-14 09:30,113.9219,22.3094,69.80,39.20,32.72,M,3.00,0.00,30.30,M,6.21,M,M,M,M,M,M,M,M,M,M,M,M,M,M,M,M,69.80,VHHH 140930Z VRB03KT CAVOK 21/04 Q1026 NOSIG
VHHH,2017-02-14 09:41,113.9219,22.3094,69.80,41.00,35.09,110.00,10.00,0.00,30.30,M,6.21,M,M,M,M,M,M,M,M,M,M,M,M,M,M,M,M,69.80,VHHH 140941Z 11010KT 080V140 CAVOK 21/05 Q1026 NOSIG
VHHH,2017-02-14 10:00,113.9219,22.3094,66.20,42.80,42.57,110.00,13.00,0.00,30.30,M,6.21,M,M,M,M,M,M,M,M,M,M,M,M,M,M,M,M,66.20,VHHH 141000Z 11013KT 090V180 CAVOK 19/06 Q1026 NOSIG
VHHH,2017-02-14 10:30,113.9219,22.3094,66.20,42.80,42.57,100.00,13.00,0.00,30.33,M,6.21,M,M,M,M,M,M,M,M,M,M,M,M,M,M,M,M,66.20,VHHH 141030Z 10013KT CAVOK 19/06 Q1027 NOSIG
VHHH,2017-02-14 11:00,113.9219,22.3094,66.20,44.60,45.60,110.00,15.00,0.00,30.33,M,6.21,M,M,M,M,M,M,M,M,M,M,M,M,M,M,M,M,66.20,VHHH 141100Z 11015KT CAVOK 19/07 Q1027 NOSIG
VHHH,2017-02-14 11:30,113.9219,22.3094,66.20,48.20,52.25,120.00,14.00,0.00,30.33,M,6.21,M,M,M,M,M,M,M,M,M,M,M,M,M,M,M,M,66.20,VHHH 141130Z 12014KT CAVOK 19/09 Q1027 NOSIG
VHHH,2017-02-14 12:00,113.9219,22.3094,66.20,48.20,52.25,110.00,15.00,0.00,30.33,M,6.21,M,M,M,M,M,M,M,M,M,M,M,M,M,M,M,M,66.20,VHHH 141200Z 11015KT CAVOK 19/09 Q1027 NOSIG
VHHH,2017-02-14 12:30,113.9219,22.3094,66.20,50.00,55.88,100.00,14.00,0.00,30.33,M,6.21,M,M,M,M,M,M,M,M,M,M,M,M,M,M,M,M,66.20,VHHH 141230Z 10014KT CAVOK 19/10 Q1027 NOSIG
VHHH,2017-02-14 13:00,113.9219,22.3094,66.20,48.20,52.25,100.00,15.00,0.00,30.33,M,6.21,M,M,M,M,M,M,M,M,M,M,M,M,M,M,M,M,66.20,VHHH 141300Z 10015KT CAVOK 19/09 Q1027 NOSIG
VHHH,2017-02-14 13:30,113.9219,22.3094,66.20,51.80,59.74,90.00,13.00,0.00,30.36,M,6.21,M,M,M,M,M,M,M,M,M,M,M,M,M,M,M,M,66.20,VHHH 141330Z 09013KT CAVOK 19/11 Q1028 NOSIG
VHHH,2017-02-14 14:00,113.9219,22.3094,64.40,53.60,67.95,100.00,14.00,0.00,30.36,M,6.21,M,M,M,M,M,M,M,M,M,M,M,M,M,M,M,M,64.40,VHHH 141400Z 10014KT CAVOK 18/12 Q1028 NOSIG
VHHH,2017-02-14 14:30,113.9219,22.3094,64.40,51.80,63.60,100.00,14.00,0.00,30.36,M,6.21,M,M,M,M,M,M,M,M,M,M,M,M,M,M,M,M,64.40,VHHH 141430Z 10014KT 080V140 CAVOK 18/11 Q1028 NOSIG
VHHH,2017-02-14 15:00,113.9219,22.3094,64.40,53.60,67.95,100.00,11.00,0.00,30.36,M,6.21,M,M,M,M,M,M,M,M,M,M,M,M,M,M,M,M,64.40,VHHH 141500Z 10011KT 080V140 CAVOK 18/12 Q1028 NOSIG
VHHH,2017-02-14 15:30,113.9219,22.3094,64.40,53.60,67.95,110.00,12.00,0.00,30.36,M,6.21,M,M,M,M,M,M,M,M,M,M,M,M,M,M,M,M,64.40,VHHH 141530Z 11012KT CAVOK 18/12 Q1028 NOSIG
VHHH,2017-02-14 16:00,113.9219,22.3094,62.60,53.60,72.38,120.00,13.00,0.00,30.36,M,6.21,M,M,M,M,M,M,M,M,M,M,M,M,M,M,M,M,62.60,VHHH 141600Z 12013KT CAVOK 17/12 Q1028 NOSIG
VHHH,2017-02-14 16:30,113.9219,22.3094,62.60,53.60,72.38,100.00,12.00,0.00,30.36,M,6.21,M,M,M,M,M,M,M,M,M,M,M,M,M,M,M,M,62.60,VHHH 141630Z 10012KT CAVOK 17/12 Q1028 NOSIG
VHHH,2017-02-14 17:00,113.9219,22.3094,62.60,53.60,72.38,100.00,13.00,0.00,30.33,M,6.21,M,M,M,M,M,M,M,M,M,M,M,M,M,M,M,M,62.60,VHHH 141700Z 10013KT 080V150 CAVOK 17/12 Q1027 NOSIG
VHHH,2017-02-14 17:30,113.9219,22.3094,62.60,53.60,72.38,90.00,11.00,0.00,30.33,M,6.21,M,M,M,M,M,M,M,M,M,M,M,M,M,M,M,M,62.60,VHHH 141730Z 09011KT CAVOK 17/12 Q1027 NOSIG
VHHH,2017-02-14 18:00,113.9219,22.3094,62.60,51.80,67.75,110.00,13.00,0.00,30.33,M,6.21,M,M,M,M,M,M,M,M,M,M,M,M,M,M,M,M,62.60,VHHH 141800Z 11013KT CAVOK 17/11 Q1027 NOSIG
VHHH,2017-02-14 18:30,113.9219,22.3094,62.60,50.00,63.38,110.00,13.00,0.00,30.30,M,6.21,M,M,M,M,M,M,M,M,M,M,M,M,M,M,M,M,62.60,VHHH 141830Z 11013KT CAVOK 17/10 Q1026 NOSIG
VHHH,2017-02-14 19:00,113.9219,22.3094,62.60,46.40,55.37,100.00,14.00,0.00,30.30,M,6.21,M,M,M,M,M,M,M,M,M,M,M,M,M,M,M,M,62.60,VHHH 141900Z 10014KT CAVOK 17/08 Q1026 NOSIG
VHHH,2017-02-14 19:30,113.9219,22.3094,62.60,42.80,48.28,110.00,14.00,0.00,30.30,M,6.21,M,M,M,M,M,M,M,M,M,M,M,M,M,M,M,M,62.60,VHHH 141930Z 11014KT CAVOK 17/06 Q1026 NOSIG
VHHH,2017-02-14 20:00,113.9219,22.3094,60.80,42.80,51.45,110.00,15.00,0.00,30.30,M,6.21,M,M,M,M,M,M,M,M,M,M,M,M,M,M,M,M,60.80,VHHH 142000Z 11015KT CAVOK 16/06 Q1026 NOSIG
VHHH,2017-02-14 20:30,113.9219,22.3094,62.60,41.00,45.04,110.00,17.00,0.00,30.30,M,6.21,M,M,M,M,M,M,M,M,M,M,M,M,M,M,M,M,62.60,VHHH 142030Z 11017KT CAVOK 17/05 Q1026 NOSIG
VHHH,2017-02-14 21:00,113.9219,22.3094,60.80,41.00,48.00,110.00,17.00,0.00,30.30,M,6.21,M,M,M,M,M,M,M,M,M,M,M,M,M,M,M,M,60.80,VHHH 142100Z 11017KT CAVOK 16/05 Q1026 NOSIG
VHHH,2017-02-14 21:30,113.9219,22.3094,62.60,39.20,42.00,100.00,20.00,0.00,30.30,M,6.21,M,M,M,M,M,M,M,M,M,M,M,M,M,M,M,M,62.60,VHHH 142130Z 10020KT CAVOK 17/04 Q1026 NOSIG
VHHH,2017-02-14 22:00,113.9219,22.3094,62.60,42.80,48.28,100.00,17.00,0.00,30.30,M,6.21,M,M,M,M,M,M,M,M,M,M,M,M,M,M,M,M,62.60,VHHH 142200Z 10017KT CAVOK 17/06 Q1026 NOSIG
VHHH,2017-02-14 22:30,113.9219,22.3094,62.60,41.00,45.04,100.00,15.00,0.00,30.30,M,6.21,M,M,M,M,M,M,M,M,M,M,M,M,M,M,M,M,62.60,VHHH 142230Z 10015KT CAVOK 17/05 Q1026 NOSIG
VHHH,2017-02-14 23:00,113.9219,22.3094,62.60,42.80,48.28,100.00,13.00,0.00,30.33,M,6.21,M,M,M,M,M,M,M,M,M,M,M,M,M,M,M,M,62.60,VHHH 142300Z 10013KT CAVOK 17/06 Q1027 NOSIG
VHHH,2017-02-14 23:30,113.9219,22.3094,62.60,42.80,48.28,100.00,14.00,0.00,30.33,M,6.21,M,M,M,M,M,M,M,M,M,M,M,M,M,M,M,M,62.60,VHHH 142330Z 10014KT CAVOK 17/06 Q1027 NOSIG
VHHH,2017-02-15 00:00,113.9219,22.3094,62.60,42.80,48.28,100.00,14.00,0.00,30.33,M,6.21,M,M,M,M,M,M,M,M,M,M,M,M,M,M,M,M,62.60,VHHH 150000Z 10014KT CAVOK 17/06 Q1027 NOSIG
VHHH,2017-02-15 00:30,113.9219,22.3094,64.40,41.00,42.28,100.00,14.00,0.00,30.33,M,6.21,M,M,M,M,M,M,M,M,M,M,M,M,M,M,M,M,64.40,VHHH 150030Z 10014KT CAVOK 18/05 Q1027 NOSIG
VHHH,2017-02-15 01:00,113.9219,22.3094,66.20,41.00,39.72,90.00,12.00,0.00,30.33,M,6.21,M,M,M,M,M,M,M,M,M,M,M,M,M,M,M,M,66.20,VHHH 150100Z 09012KT CAVOK 19/05 Q1027 NOSIG
VHHH,2017-02-15 01:30,113.9219,22.3094,68.00,42.80,40.00,100.00,12.00,0.00,30.33,M,6.21,M,M,M,M,M,M,M,M,M,M,M,M,M,M,M,M,68.00,VHHH 150130Z 10012KT CAVOK 20/06 Q1027 NOSIG
VHHH,2017-02-15 02:00,113.9219,22.3094,68.00,41.00,37.32,90.00,13.00,0.00,30.36,M,6.21,M,M,M,M,M,M,M,M,M,M,M,M,M,M,M,M,68.00,VHHH 150200Z 09013KT CAVOK 20/05 Q1028 NOSIG
VHHH,2017-02-15 02:30,113.9219,22.3094,69.80,41.00,35.09,110.00,12.00,0.00,30.36,M,6.21,M,M,M,M,M,M,M,M,M,M,M,M,M,M,M,M,69.80,VHHH 150230Z 11012KT CAVOK 21/05 Q1028 NOSIG
VHHH,2017-02-15 03:00,113.9219,22.3094,69.80,42.80,37.61,100.00,11.00,0.00,30.36,M,6.21,M,M,M,M,M,M,M,M,M,M,M,M,M,M,M,M,69.80,VHHH 150300Z 10011KT 080V160 CAVOK 21/06 Q1028 NOSIG
VHHH,2017-02-15 03:30,113.9219,22.3094,71.60,41.00,33.00,100.00,12.00,0.00,30.33,M,6.21,M,M,M,M,M,M,M,M,M,M,M,M,M,M,M,M,70.01,VHHH 150330Z 10012KT CAVOK 22/05 Q1027 NOSIG
VHHH,2017-02-15 04:30,113.9219,22.3094,71.60,41.00,33.00,110.00,15.00,0.00,30.30,M,6.21,M,M,M,M,M,M,M,M,M,M,M,M,M,M,M,M,70.01,VHHH 150430Z 11015KT 090V150 CAVOK 22/05 Q1026 NOSIG
VHHH,2017-02-15 05:00,113.9219,22.3094,71.60,41.00,33.00,110.00,12.00,0.00,30.30,M,6.21,M,M,M,M,M,M,M,M,M,M,M,M,M,M,M,M,70.01,VHHH 150500Z 11012KT CAVOK 22/05 Q1026 NOSIG
VHHH,2017-02-15 05:20,113.9219,22.3094,71.60,39.20,30.77,270.00,8.00,0.00,30.27,M,6.21,M,M,M,M,M,M,M,M,M,M,M,M,M,M,M,M,69.91,VHHH 150520Z 27008KT 230V300 CAVOK 22/04 Q1025 NOSIG
VHHH,2017-02-15 05:30,113.9219,22.3094,69.80,48.20,46.16,270.00,9.00,0.00,30.27,M,6.21,M,M,M,M,M,M,M,M,M,M,M,M,M,M,M,M,69.80,VHHH 150530Z 27009KT CAVOK 21/09 Q1025 NOSIG
VHHH,2017-02-15 06:00,113.9219,22.3094,69.80,48.20,46.16,270.00,9.00,0.00,30.27,M,6.21,M,M,M,M,M,M,M,M,M,M,M,M,M,M,M,M,69.80,VHHH 150600Z 27009KT CAVOK 21/09 Q1025 NOSIG
VHHH,2017-02-15 06:30,113.9219,22.3094,69.80,46.40,43.13,280.00,8.00,0.00,30.24,M,6.21,M,M,M,M,M,M,M,M,M,M,M,M,M,M,M,M,69.80,VHHH 150630Z 28008KT CAVOK 21/08 Q1024 NOSIG
VHHH,2017-02-15 07:00,113.9219,22.3094,69.80,46.40,43.13,280.00,7.00,0.00,30.24,M,6.21,M,M,M,M,M,M,M,M,M,M,M,M,M,M,M,M,69.80,VHHH 150700Z 28007KT CAVOK 21/08 Q1024 NOSIG
VHHH,2017-02-15 07:30,113.9219,22.3094,69.80,46.40,43.13,290.00,6.00,0.00,30.21,M,6.21,M,M,M,M,M,M,M,M,M,M,M,M,M,M,M,M,69.80,VHHH 150730Z 29006KT CAVOK 21/08 Q1023 NOSIG
VHHH,2017-02-15 08:00,113.9219,22.3094,68.00,46.40,45.88,300.00,5.00,0.00,30.21,M,6.21,M,M,M,M,M,M,M,M,M,M,M,M,M,M,M,M,68.00,VHHH 150800Z 30005KT CAVOK 20/08 Q1023 NOSIG
VHHH,2017-02-15 08:30,113.9219,22.3094,68.00,46.40,45.88,290.00,5.00,0.00,30.21,M,6.21,M,M,M,M,M,M,M,M,M,M,M,M,M,M,M,M,68.00,VHHH 150830Z 29005KT CAVOK 20/08 Q1023 NOSIG
VHHH,2017-02-15 09:00,113.9219,22.3094,71.60,44.60,37.89,320.00,4.00,0.00,30.21,M,6.21,M,M,M,M,M,M,M,M,M,M,M,M,M,M,M,M,70.24,VHHH 150900Z 32004KT 290V010 CAVOK 22/07 Q1023 NOSIG
VHHH,2017-02-15 09:30,113.9219,22.3094,69.80,44.60,40.29,280.00,4.00,0.00,30.21,M,6.21,M,M,M,M,M,M,M,M,M,M,M,M,M,M,M,M,69.80,VHHH 150930Z 28004KT 250V320 CAVOK 21/07 Q1023 NOSIG
VHHH,2017-02-15 09:55,113.9219,22.3094,69.80,42.80,37.61,110.00,10.00,0.00,30.21,M,6.21,M,M,M,M,M,M,M,M,M,M,M,M,M,M,M,M,69.80,VHHH 150955Z 11010KT 080V140 CAVOK 21/06 Q1023 NOSIG
VHHH,2017-02-15 10:00,113.9219,22.3094,68.00,46.40,45.88,110.00,10.00,0.00,30.21,M,6.21,M,M,M,M,M,M,M,M,M,M,M,M,M,M,M,M,68.00,VHHH 151000Z 11010KT CAVOK 20/08 Q1023 NOSIG
VHHH,2017-02-15 10:30,113.9219,22.3094,68.00,44.60,42.85,150.00,5.00,0.00,30.21,M,6.21,M,M,M,M,M,M,M,M,M,M,M,M,M,M,M,M,68.00,VHHH 151030Z 15005KT 090V240 CAVOK 20/07 Q1023 NOSIG
VHHH,2017-02-15 11:00,113.9219,22.3094,66.20,46.40,48.83,120.00,9.00,0.00,30.21,M,6.21,M,M,M,M,M,M,M,M,M,M,M,M,M,M,M,M,66.20,VHHH 151100Z 12009KT 090V170 CAVOK 19/08 Q1023 NOSIG
VHHH,2017-02-15 11:30,113.9219,22.3094,66.20,48.20,52.25,110.00,10.00,0.00,30.21,M,6.21,M,M,M,M,M,M,M,M,M,M,M,M,M,M,M,M,66.20,VHHH 151130Z 11010KT 090V190 CAVOK 19/09 Q1023 NOSIG
VHHH,2017-02-15 12:00,113.9219,22.3094,66.20,46.40,48.83,110.00,7.00,0.00,30.24,M,6.21,M,M,M,M,M,M,M,M,M,M,M,M,M,M,M,M,66.20,VHHH 151200Z 11007KT 090V150 CAVOK 19/08 Q1024 NOSIG
VHHH,2017-02-15 12:30,113.9219,22.3094,66.20,46.40,48.83,110.00,9.00,0.00,30.24,M,6.21,M,M,M,M,M,M,M,M,M,M,M,M,M,M,M,M,66.20,VHHH 151230Z 11009KT 070V160 CAVOK 19/08 Q1024 NOSIG
VHHH,2017-02-15 13:00,113.9219,22.3094,66.20,50.00,55.88,90.00,11.00,0.00,30.24,M,6.21,M,M,M,M,M,M,M,M,M,M,M,M,M,M,M,M,66.20,VHHH 151300Z 09011KT 070V140 CAVOK 19/10 Q1024 NOSIG
VHHH,2017-02-15 13:30,113.9219,22.3094,66.20,51.80,59.74,90.00,12.00,0.00,30.24,M,6.21,M,M,M,M,M,M,M,M,M,M,M,M,M,M,M,M,66.20,VHHH 151330Z 09012KT CAVOK 19/11 Q1024 NOSIG
VHHH,2017-02-15 14:00,113.9219,22.3094,66.20,51.80,59.74,100.00,11.00,0.00,30.24,M,6.21,M,M,M,M,M,M,M,M,M,M,M,M,M,M,M,M,66.20,VHHH 151400Z 10011KT 070V130 CAVOK 19/11 Q1024 NOSIG
VHHH,2017-02-15 14:30,113.9219,22.3094,64.40,53.60,67.95,100.00,10.00,0.00,30.24,M,6.21,M,M,M,M,M,M,M,M,M,M,M,M,M,M,M,M,64.40,VHHH 151430Z 10010KT CAVOK 18/12 Q1024 NOSIG
VHHH,2017-02-15 15:00,113.9219,22.3094,66.20,55.40,68.15,90.00,11.00,0.00,30.24,M,6.21,M,M,M,M,M,M,M,M,M,M,M,M,M,M,M,M,66.20,VHHH 151500Z 09011KT CAVOK 19/13 Q1024 NOSIG
VHHH,2017-02-15 15:30,113.9219,22.3094,64.40,53.60,67.95,110.00,8.00,0.00,30.24,M,6.21,M,M,M,M,M,M,M,M,M,M,M,M,M,M,M,M,64.40,VHHH 151530Z 11008KT CAVOK 18/12 Q1024 NOSIG
VHHH,2017-02-15 16:00,113.9219,22.3094,64.40,55.40,72.56,100.00,11.00,0.00,30.24,M,6.21,M,FEW,M,M,M,4500.00,M,M,M,M,M,M,M,M,M,M,64.40,VHHH 151600Z 10011KT 9999 FEW045 18/13 Q1024 NOSIG
VHHH,2017-02-15 16:30,113.9219,22.3094,64.40,55.40,72.56,100.00,9.00,0.00,30.21,M,6.21,M,FEW,M,M,M,4500.00,M,M,M,M,M,M,M,M,M,M,64.40,VHHH 151630Z 10009KT 9999 FEW045 18/13 Q1023 NOSIG
VHHH,2017-02-15 17:00,113.9219,22.3094,66.20,55.40,68.15,100.00,8.00,0.00,30.21,M,6.21,M,M,M,M,M,M,M,M,M,M,M,M,M,M,M,M,66.20,VHHH 151700Z 10008KT 070V150 CAVOK 19/13 Q1023 NOSIG
VHHH,2017-02-15 17:30,113.9219,22.3094,64.40,55.40,72.56,90.00,9.00,0.00,30.21,M,6.21,M,M,M,M,M,M,M,M,M,M,M,M,M,M,M,M,64.40,VHHH 151730Z 09009KT CAVOK 18/13 Q1023 NOSIG
VHHH,2017-02-15 18:00,113.9219,22.3094,64.40,55.40,72.56,80.00,6.00,0.00,30.21,M,6.21,M,FEW,M,M,M,3000.00,M,M,M,M,M,M,M,M,M,M,64.40,VHHH 151800Z 08006KT 9999 FEW030 18/13 Q1023 NOSIG
VHHH,2017-02-15 18:30,113.9219,22.3094,64.40,55.40,72.56,90.00,9.00,0.00,30.18,M,6.21,M,FEW,M,M,M,3000.00,M,M,M,M,M,M,M,M,M,M,64.40,VHHH 151830Z 09009KT 9999 FEW030 18/13 Q1022 NOSIG
VHHH,2017-02-15 19:00,113.9219,22.3094,64.40,55.40,72.56,80.00,9.00,0.00,30.18,M,6.21,M,FEW,M,M,M,2500.00,M,M,M,M,M,M,M,M,M,M,64.40,VHHH 151900Z 08009KT 9999 FEW025 18/13 Q1022 NOSIG
VHHH,2017-02-15 19:30,113.9219,22.3094,64.40,55.40,72.56,80.00,9.00,0.00,30.18,M,6.21,M,FEW,M,M,M,2500.00,M,M,M,M,M,M,M,M,M,M,64.40,VHHH 151930Z 08009KT 9999 FEW025 18/13 Q1022 NOSIG
VHHH,2017-02-15 20:00,113.9219,22.3094,64.40,55.40,72.56,90.00,9.00,0.00,30.18,M,6.21,M,FEW,M,M,M,2500.00,M,M,M,M,M,M,M,M,M,M,64.40,VHHH 152000Z 09009KT 9999 FEW025 18/13 Q1022 NOSIG
VHHH,2017-02-15 20:30,113.9219,22.3094,62.60,55.40,77.29,80.00,9.00,0.00,30.18,M,6.21,M,FEW,M,M,M,2500.00,M,M,M,M,M,M,M,M,M,M,62.60,VHHH 152030Z 08009KT 9999 FEW025 17/13 Q1022 NOSIG
VHHH,2017-02-15 21:00,113.9219,22.3094,62.60,55.40,77.29,70.00,7.00,0.00,30.15,M,6.21,M,FEW,M,M,M,2500.00,M,M,M,M,M,M,M,M,M,M,62.60,VHHH 152100Z 07007KT 9999 FEW025 17/13 Q1021 NOSIG
VHHH,2017-02-15 21:30,113.9219,22.3094,62.60,55.40,77.29,70.00,7.00,0.00,30.15,M,6.21,M,FEW,M,M,M,2500.00,M,M,M,M,M,M,M,M,M,M,62.60,VHHH 152130Z 07007KT 9999 FEW025 17/13 Q1021 NOSIG
VHHH,2017-02-15 22:00,113.9219,22.3094,62.60,53.60,72.38,80.00,6.00,0.00,30.18,M,6.21,M,FEW,M,M,M,2500.00,M,M,M,M,M,M,M,M,M,M,62.60,VHHH 152200Z 08006KT 9999 FEW025 17/12 Q1022 NOSIG
VHHH,2017-02-15 22:30,113.9219,22.3094,62.60,53.60,72.38,80.00,6.00,0.00,30.18,M,6.21,M,FEW,M,M,M,2500.00,M,M,M,M,M,M,M,M,M,M,62.60,VHHH 152230Z 08006KT 9999 FEW025 17/12 Q1022 NOSIG
VHHH,2017-02-15 23:00,113.9219,22.3094,62.60,53.60,72.38,90.00,5.00,0.00,30.18,M,6.21,M,FEW,M,M,M,2500.00,M,M,M,M,M,M,M,M,M,M,62.60,VHHH 152300Z 09005KT 9999 FEW025 17/12 Q1022 NOSIG
VHHH,2017-02-15 23:30,113.9219,22.3094,62.60,53.60,72.38,60.00,3.00,0.00,30.18,M,6.21,M,FEW,M,M,M,2500.00,M,M,M,M,M,M,M,M,M,M,62.60,VHHH 152330Z 06003KT 010V080 9999 FEW025 17/12 Q1022 NOSIG
VHHH,2017-02-16 00:00,113.9219,22.3094,64.40,53.60,67.95,M,2.00,0.00,30.21,M,6.21,M,FEW,M,M,M,2500.00,M,M,M,M,M,M,M,M,M,M,64.40,VHHH 160000Z VRB02KT 9999 FEW025 18/12 Q1023 NOSIG
VHHH,2017-02-16 00:30,113.9219,22.3094,66.20,55.40,68.15,M,3.00,0.00,30.21,M,6.21,M,FEW,M,M,M,2500.00,M,M,M,M,M,M,M,M,M,M,66.20,VHHH 160030Z VRB03KT 9999 FEW025 19/13 Q1023 NOSIG
VHHH,2017-02-16 01:00,113.9219,22.3094,66.20,55.40,68.15,340.00,2.00,0.00,30.21,M,6.21,M,FEW,M,M,M,2800.00,M,M,M,M,M,M,M,M,M,M,66.20,VHHH 160100Z 34002KT 9999 FEW028 19/13 Q1023 NOSIG
VHHH,2017-02-16 01:30,113.9219,22.3094,68.00,55.40,64.04,50.00,4.00,0.00,30.21,M,6.21,M,FEW,M,M,M,2800.00,M,M,M,M,M,M,M,M,M,M,68.00,VHHH 160130Z 05004KT 9999 FEW028 20/13 Q1023 NOSIG
VHHH,2017-02-16 02:00,113.9219,22.3094,68.00,55.40,64.04,50.00,9.00,0.00,30.21,M,6.21,M,FEW,M,M,M,2500.00,M,M,M,M,M,M,M,M,M,M,68.00,VHHH 160200Z 05009KT 9999 FEW025 20/13 Q1023 NOSIG
VHHH,2017-02-16 02:30,113.9219,22.3094,68.00,55.40,64.04,50.00,7.00,0.00,30.21,M,6.21,M,FEW,M,M,M,2500.00,M,M,M,M,M,M,M,M,M,M,68.00,VHHH 160230Z 05007KT 9999 FEW025 20/13 Q1023 NOSIG
VHHH,2017-02-16 03:00,113.9219,22.3094,69.80,55.40,60.21,30.00,5.00,0.00,30.21,M,6.21,M,FEW,M,M,M,3000.00,M,M,M,M,M,M,M,M,M,M,69.80,VHHH 160300Z 03005KT 9999 FEW030 21/13 Q1023 NOSIG
VHHH,2017-02-16 03:30,113.9219,22.3094,69.80,55.40,60.21,360.00,4.00,0.00,30.18,M,6.21,M,FEW,M,M,M,3000.00,M,M,M,M,M,M,M,M,M,M,69.80,VHHH 160330Z 36004KT 9999 FEW030 21/13 Q1022 BECMG 26010KT
VHHH,2017-02-16 04:00,113.9219,22.3094,71.60,57.20,60.44,280.00,7.00,0.00,30.18,M,6.21,M,FEW,M,M,M,3000.00,M,M,M,M,M,M,M,M,M,M,71.60,VHHH 160400Z 28007KT 9999 FEW030 22/14 Q1022 NOSIG
VHHH,2017-02-16 04:30,113.9219,22.3094,71.60,57.20,60.44,270.00,8.00,0.00,30.18,M,6.21,M,FEW,M,M,M,3000.00,M,M,M,M,M,M,M,M,M,M,71.60,VHHH 160430Z 27008KT 9999 FEW030 22/14 Q1022 NOSIG
VHHH,2017-02-16 05:00,113.9219,22.3094,69.80,55.40,60.21,270.00,9.00,0.00,30.15,M,6.21,M,FEW,M,M,M,3000.00,M,M,M,M,M,M,M,M,M,M,69.80,VHHH 160500Z 27009KT 9999 FEW030 21/13 Q1021 NOSIG
VHHH,2017-02-16 05:30,113.9219,22.3094,69.80,55.40,60.21,270.00,8.00,0.00,30.15,M,6.21,M,FEW,M,M,M,3000.00,M,M,M,M,M,M,M,M,M,M,69.80,VHHH 160530Z 27008KT 9999 FEW030 21/13 Q1021 NOSIG
VHHH,2017-02-16 06:00,113.9219,22.3094,71.60,55.40,56.63,270.00,7.00,0.00,30.12,M,6.21,M,FEW,M,M,M,3000.00,M,M,M,M,M,M,M,M,M,M,71.60,VHHH 160600Z 27007KT 9999 FEW030 22/13 Q1020 NOSIG
VHHH,2017-02-16 06:30,113.9219,22.3094,71.60,57.20,60.44,280.00,8.00,0.00,30.12,M,6.21,M,FEW,M,M,M,3000.00,M,M,M,M,M,M,M,M,M,M,71.60,VHHH 160630Z 28008KT 9999 FEW030 22/14 Q1020 NOSIG
VHHH,2017-02-16 07:00,113.9219,22.3094,71.60,57.20,60.44,270.00,8.00,0.00,30.09,M,6.21,M,FEW,M,M,M,3000.00,M,M,M,M,M,M,M,M,M,M,71.60,VHHH 160700Z 27008KT 9999 FEW030 22/14 Q1019 NOSIG
VHHH,2017-02-16 07:30,113.9219,22.3094,71.60,57.20,60.44,280.00,7.00,0.00,30.09,M,6.21,M,FEW,M,M,M,3000.00,M,M,M,M,M,M,M,M,M,M,71.60,VHHH 160730Z 28007KT 9999 FEW030 22/14 Q1019 NOSIG
VHHH,2017-02-16 08:00,113.9219,22.3094,71.60,57.20,60.44,280.00,5.00,0.00,30.09,M,6.21,M,FEW,M,M,M,3000.00,M,M,M,M,M,M,M,M,M,M,71.60,VHHH 160800Z 28005KT 9999 FEW030 22/14 Q1019 NOSIG
VHHH,2017-02-16 08:30,113.9219,22.3094,73.40,57.20,56.88,280.00,6.00,0.00,30.09,M,6.21,M,FEW,M,M,M,3000.00,M,M,M,M,M,M,M,M,M,M,73.40,VHHH 160830Z 28006KT 9999 FEW030 23/14 Q1019 NOSIG
VHHH,2017-02-16 09:00,113.9219,22.3094,71.60,57.20,60.44,20.00,4.00,0.00,30.09,M,6.21,M,FEW,M,M,M,3000.00,M,M,M,M,M,M,M,M,M,M,71.60,VHHH 160900Z 02004KT 290V060 9999 FEW030 22/14 Q1019 NOSIG
VHHH,2017-02-16 09:30,113.9219,22.3094,71.60,55.40,56.63,30.00,5.00,0.00,30.09,M,6.21,M,M,M,M,M,M,M,M,M,M,M,M,M,M,M,M,71.60,VHHH 160930Z 03005KT CAVOK 22/13 Q1019 NOSIG
VHHH,2017-02-16 10:00,113.9219,22.3094,69.80,55.40,60.21,60.00,6.00,0.00,30.09,M,6.21,M,M,M,M,M,M,M,M,M,M,M,M,M,M,M,M,69.80,VHHH 161000Z 06006KT CAVOK 21/13 Q1019 NOSIG
VHHH,2017-02-16 10:30,113.9219,22.3094,69.80,55.40,60.21,110.00,4.00,0.00,30.09,M,6.21,M,M,M,M,M,M,M,M,M,M,M,M,M,M,M,M,69.80,VHHH 161030Z 11004KT 010V180 CAVOK 21/13 Q1019 NOSIG
VHHH,2017-02-16 11:00,113.9219,22.3094,69.80,53.60,56.38,110.00,5.00,0.00,30.09,M,6.21,M,M,M,M,M,M,M,M,M,M,M,M,M,M,M,M,69.80,VHHH 161100Z 11005KT 060V210 CAVOK 21/12 Q1019 NOSIG
VHHH,2017-02-16 11:30,113.9219,22.3094,69.80,53.60,56.38,90.00,4.00,0.00,30.12,M,6.21,M,M,M,M,M,M,M,M,M,M,M,M,M,M,M,M,69.80,VHHH 161130Z 09004KT 030V180 CAVOK 21/12 Q1020 NOSIG
VHHH,2017-02-16 12:00,113.9219,22.3094,68.00,53.60,59.97,70.00,8.00,0.00,30.12,M,6.21,M,M,M,M,M,M,M,M,M,M,M,M,M,M,M,M,68.00,VHHH 161200Z 07008KT CAVOK 20/12 Q1020 NOSIG
VHHH,2017-02-16 12:30,113.9219,22.3094,68.00,51.80,56.13,100.00,7.00,0.00,30.12,M,6.21,M,M,M,M,M,M,M,M,M,M,M,M,M,M,M,M,68.00,VHHH 161230Z 10007KT CAVOK 20/11 Q1020 NOSIG
VHHH,2017-02-16 13:00,113.9219,22.3094,68.00,50.00,52.51,70.00,8.00,0.00,30.12,M,6.21,M,M,M,M,M,M,M,M,M,M,M,M,M,M,M,M,68.00,VHHH 161300Z 07008KT CAVOK 20/10 Q1020 NOSIG
VHHH,2017-02-16 13:30,113.9219,22.3094,68.00,50.00,52.51,70.00,8.00,0.00,30.12,M,6.21,M,M,M,M,M,M,M,M,M,M,M,M,M,M,M,M,68.00,VHHH 161330Z 07008KT CAVOK 20/10 Q1020 NOSIG
VHHH,2017-02-16 14:00,113.9219,22.3094,68.00,51.80,56.13,60.00,10.00,0.00,30.12,M,6.21,M,M,M,M,M,M,M,M,M,M,M,M,M,M,M,M,68.00,VHHH 161400Z 06010KT CAVOK 20/11 Q1020 NOSIG
VHHH,2017-02-16 14:30,113.9219,22.3094,66.20,53.60,63.82,70.00,9.00,0.00,30.15,M,6.21,M,M,M,M,M,M,M,M,M,M,M,M,M,M,M,M,66.20,VHHH 161430Z 07009KT CAVOK 19/12 Q1021 NOSIG
VHHH,2017-02-16 15:00,113.9219,22.3094,66.20,53.60,63.82,70.00,9.00,0.00,30.15,M,6.21,M,M,M,M,M,M,M,M,M,M,M,M,M,M,M,M,66.20,VHHH 161500Z 07009KT CAVOK 19/12 Q1021 NOSIG
VHHH,2017-02-16 15:30,113.9219,22.3094,66.20,53.60,63.82,100.00,6.00,0.00,30.12,M,6.21,M,M,M,M,M,M,M,M,M,M,M,M,M,M,M,M,66.20,VHHH 161530Z 10006KT 070V150 CAVOK 19/12 Q1020 NOSIG
VHHH,2017-02-16 16:00,113.9219,22.3094,66.20,53.60,63.82,110.00,6.00,0.00,30.12,M,6.21,M,M,M,M,M,M,M,M,M,M,M,M,M,M,M,M,66.20,VHHH 161600Z 11006KT 070V180 CAVOK 19/12 Q1020 NOSIG
VHHH,2017-02-16 16:30,113.9219,22.3094,66.20,53.60,63.82,80.00,5.00,0.00,30.12,M,6.21,M,M,M,M,M,M,M,M,M,M,M,M,M,M,M,M,66.20,VHHH 161630Z 08005KT CAVOK 19/12 Q1020 NOSIG
VHHH,2017-02-16 17:00,113.9219,22.3094,66.20,51.80,59.74,M,4.00,0.00,30.12,M,6.21,M,M,M,M,M,M,M,M,M,M,M,M,M,M,M,M,66.20,VHHH 161700Z VRB04KT CAVOK 19/11 Q1020 NOSIG
VHHH,2017-02-16 17:30,113.9219,22.3094,66.20,53.60,63.82,M,2.00,0.00,30.12,M,6.21,M,M,M,M,M,M,M,M,M,M,M,M,M,M,M,M,66.20,VHHH 161730Z VRB02KT CAVOK 19/12 Q1020 NOSIG
VHHH,2017-02-16 18:00,113.9219,22.3094,64.40,53.60,67.95,100.00,5.00,0.00,30.12,M,6.21,M,M,M,M,M,M,M,M,M,M,M,M,M,M,M,M,64.40,VHHH 161800Z 10005KT 050V130 CAVOK 18/12 Q1020 NOSIG
VHHH,2017-02-16 18:30,113.9219,22.3094,64.40,51.80,63.60,90.00,4.00,0.00,30.12,M,6.21,M,M,M,M,M,M,M,M,M,M,M,M,M,M,M,M,64.40,VHHH 161830Z 09004KT 060V170 CAVOK 18/11 Q1020 NOSIG
VHHH,2017-02-16 19:00,113.9219,22.3094,62.60,51.80,67.75,160.00,4.00,0.00,30.09,M,6.21,M,M,M,M,M,M,M,M,M,M,M,M,M,M,M,M,62.60,VHHH 161900Z 16004KT 150V220 CAVOK 17/11 Q1019 NOSIG
VHHH,2017-02-16 19:30,113.9219,22.3094,62.60,51.80,67.75,100.00,4.00,0.00,30.09,M,6.21,M,M,M,M,M,M,M,M,M,M,M,M,M,M,M,M,62.60,VHHH 161930Z 10004KT 060V140 CAVOK 17/11 Q1019 NOSIG
VHHH,2017-02-16 20:00,113.9219,22.3094,62.60,57.20,82.50,60.00,5.00,0.00,30.09,M,6.21,M,M,M,M,M,M,M,M,M,M,M,M,M,M,M,M,62.60,VHHH 162000Z 06005KT 030V090 CAVOK 17/14 Q1019 NOSIG
VHHH,2017-02-16 20:30,113.9219,22.3094,64.40,55.40,72.56,50.00,4.00,0.00,30.12,M,6.21,M,M,M,M,M,M,M,M,M,M,M,M,M,M,M,M,64.40,VHHH 162030Z 05004KT 020V090 CAVOK 18/13 Q1020 NOSIG
VHHH,2017-02-16 21:00,113.9219,22.3094,64.40,59.00,82.62,340.00,10.00,0.00,30.12,M,5.59,M,FEW,M,M,M,4000.00,M,M,M,M,M,M,M,M,M,M,64.40,VHHH 162100Z 34010KT 9000 FEW040 18/15 Q1020 NOSIG
VHHH,2017-02-16 21:30,113.9219,22.3094,64.40,59.00,82.62,330.00,8.00,0.00,30.12,M,5.59,M,FEW,M,M,M,4000.00,M,M,M,M,M,M,M,M,M,M,64.40,VHHH 162130Z 33008KT 9000 FEW040 18/15 Q1020 NOSIG
VHHH,2017-02-16 22:00,113.9219,22.3094,62.60,57.20,82.50,340.00,7.00,0.00,30.12,M,5.59,M,FEW,M,M,M,4000.00,M,M,M,M,M,M,M,M,M,M,62.60,VHHH 162200Z 34007KT 9000 FEW040 17/14 Q1020 NOSIG
VHHH,2017-02-16 22:30,113.9219,22.3094,60.80,55.40,82.37,160.00,5.00,0.00,30.15,M,6.21,M,FEW,M,M,M,2500.00,M,M,M,M,M,M,M,M,M,M,60.80,VHHH 162230Z 16005KT 100V220 9999 FEW025 16/13 Q1021 NOSIG
VHHH,2017-02-16 23:00,113.9219,22.3094,60.80,55.40,82.37,130.00,6.00,0.00,30.15,M,6.21,M,FEW,M,M,M,2500.00,M,M,M,M,M,M,M,M,M,M,60.80,VHHH 162300Z 13006KT 090V170 9999 FEW025 16/13 Q1021 NOSIG
VHHH,2017-02-16 23:30,113.9219,22.3094,62.60,57.20,82.50,80.00,3.00,0.00,30.15,M,6.21,M,FEW,M,M,M,2500.00,M,M,M,M,M,M,M,M,M,M,62.60,VHHH 162330Z 08003KT 050V130 9999 FEW025 17/14 Q1021 NOSIG
VHHH,2017-02-17 00:00,113.9219,22.3094,64.40,57.20,77.45,120.00,4.00,0.00,30.18,M,6.21,M,M,M,M,M,M,M,M,M,M,M,M,M,M,M,M,64.40,VHHH 170000Z 12004KT 080V180 CAVOK 18/14 Q1022 NOSIG
VHHH,2017-02-17 00:30,113.9219,22.3094,68.00,59.00,72.92,70.00,4.00,0.00,30.18,M,6.21,M,M,M,M,M,M,M,M,M,M,M,M,M,M,M,M,68.00,VHHH 170030Z 07004KT CAVOK 20/15 Q1022 NOSIG
VHHH,2017-02-17 01:00,113.9219,22.3094,69.80,59.00,68.55,60.00,7.00,0.00,30.18,M,6.21,M,M,M,M,M,M,M,M,M,M,M,M,M,M,M,M,69.80,VHHH 170100Z 06007KT CAVOK 21/15 Q1022 NOSIG
VHHH,2017-02-17 01:30,113.9219,22.3094,69.80,57.20,64.26,50.00,6.00,0.00,30.18,M,6.21,M,FEW,M,M,M,4000.00,M,M,M,M,M,M,M,M,M,M,69.80,VHHH 170130Z 05006KT 9999 FEW040 21/14 Q1022 NOSIG
VHHH,2017-02-17 02:00,113.9219,22.3094,69.80,57.20,64.26,30.00,4.00,0.00,30.18,M,5.59,M,FEW,M,M,M,3500.00,M,M,M,M,M,M,M,M,M,M,69.80,VHHH 170200Z 03004KT 9000 FEW035 21/14 Q1022 NOSIG
VHHH,2017-02-17 02:30,113.9219,22.3094,71.60,59.00,64.48,300.00,5.00,0.00,30.18,M,6.21,M,FEW,M,M,M,3500.00,M,M,M,M,M,M,M,M,M,M,71.60,VHHH 170230Z 30005KT 9999 FEW035 22/15 Q1022 NOSIG
VHHH,2017-02-17 03:00,113.9219,22.3094,71.60,59.00,64.48,320.00,5.00,0.00,30.18,M,3.73,M,FEW,M,M,M,3500.00,M,M,M,M,M,M,M,M,M,M,71.60,VHHH 170300Z 32005KT 6000 FEW035 22/15 Q1022 NOSIG
VHHH,2017-02-17 03:30,113.9219,22.3094,73.40,59.00,60.67,300.00,6.00,0.00,30.18,M,3.73,M,FEW,M,M,M,3500.00,M,M,M,M,M,M,M,M,M,M,73.40,VHHH 170330Z 30006KT 6000 FEW035 23/15 Q1022 NOSIG
VHHH,2017-02-17 04:00,113.9219,22.3094,73.40,57.20,56.88,270.00,7.00,0.00,30.15,M,3.11,M,FEW,M,M,M,3500.00,M,M,M,M,M,M,M,M,M,M,73.40,VHHH 170400Z 27007KT 5000 FEW035 23/14 Q1021 NOSIG
VHHH,2017-02-17 04:30,113.9219,22.3094,73.40,59.00,60.67,270.00,8.00,0.00,30.15,M,3.73,M,FEW,M,M,M,3500.00,M,M,M,M,M,M,M,M,M,M,73.40,VHHH 170430Z 27008KT 6000 FEW035 23/15 Q1021 NOSIG
VHHH,2017-02-17 05:00,113.9219,22.3094,75.20,59.00,57.12,270.00,7.00,0.00,30.15,M,3.73,M,FEW,M,M,M,4000.00,M,M,M,M,M,M,M,M,M,M,75.20,VHHH 170500Z 27007KT 6000 FEW040 24/15 Q1021 NOSIG
VHHH,2017-02-17 05:30,113.9219,22.3094,75.20,57.20,53.55,270.00,8.00,0.00,30.12,M,4.35,M,FEW,M,M,M,4000.00,M,M,M,M,M,M,M,M,M,M,75.20,VHHH 170530Z 27008KT 7000 FEW040 24/14 Q1020 NOSIG
VHHH,2017-02-17 06:00,113.9219,22.3094,75.20,55.40,50.17,260.00,9.00,0.00,30.09,M,5.59,M,FEW,M,M,M,4000.00,M,M,M,M,M,M,M,M,M,M,75.20,VHHH 170600Z 26009KT 9000 FEW040 24/13 Q1019 NOSIG
VHHH,2017-02-17 06:30,113.9219,22.3094,77.00,55.40,47.25,270.00,9.00,0.00,30.09,M,6.21,M,FEW,M,M,M,3500.00,M,M,M,M,M,M,M,M,M,M,77.00,VHHH 170630Z 27009KT 9999 FEW035 25/13 Q1019 NOSIG
VHHH,2017-02-17 07:00,113.9219,22.3094,75.20,51.80,43.97,270.00,9.00,0.00,30.09,M,6.21,M,FEW,M,M,M,3500.00,M,M,M,M,M,M,M,M,M,M,75.20,VHHH 170700Z 27009KT 9999 FEW035 24/11 Q1019 NOSIG
VHHH,2017-02-17 07:30,113.9219,22.3094,77.00,50.00,38.74,260.00,7.00,0.00,30.06,M,6.21,M,M,M,M,M,M,M,M,M,M,M,M,M,M,M,M,77.00,VHHH 170730Z 26007KT CAVOK 25/10 Q1018 NOSIG
VHHH,2017-02-17 08:00,113.9219,22.3094,77.00,53.60,44.25,270.00,7.00,0.00,30.06,M,6.21,M,M,M,M,M,M,M,M,M,M,M,M,M,M,M,M,77.00,VHHH 170800Z 27007KT CAVOK 25/12 Q1018 NOSIG
VHHH,2017-02-17 08:30,113.9219,22.3094,77.00,55.40,47.25,270.00,6.00,0.00,30.06,M,6.21,M,M,M,M,M,M,M,M,M,M,M,M,M,M,M,M,77.00,VHHH 170830Z 27006KT CAVOK 25/13 Q1018 NOSIG
VHHH,2017-02-17 09:00,113.9219,22.3094,75.20,57.20,53.55,30.00,4.00,0.00,30.09,M,6.21,M,M,M,M,M,M,M,M,M,M,M,M,M,M,M,M,75.20,VHHH 170900Z 03004KT 340V050 CAVOK 24/14 Q1019 NOSIG
VHHH,2017-02-17 09:30,113.9219,22.3094,73.40,55.40,53.29,40.00,6.00,0.00,30.09,M,6.21,M,M,M,M,M,M,M,M,M,M,M,M,M,M,M,M,73.40,VHHH 170930Z 04006KT CAVOK 23/13 Q1019 NOSIG
VHHH,2017-02-17 10:00,113.9219,22.3094,75.20,57.20,53.55,30.00,5.00,0.00,30.09,M,6.21,M,M,M,M,M,M,M,M,M,M,M,M,M,M,M,M,75.20,VHHH 171000Z 03005KT CAVOK 24/14 Q1019 NOSIG
VHHH,2017-02-17 10:30,113.9219,22.3094,73.40,55.40,53.29,70.00,7.00,0.00,30.09,M,6.21,M,M,M,M,M,M,M,M,M,M,M,M,M,M,M,M,73.40,VHHH 171030Z 07007KT CAVOK 23/13 Q1019 NOSIG
VHHH,2017-02-17 11:00,113.9219,22.3094,71.60,57.20,60.44,140.00,4.00,0.00,30.09,M,6.21,M,M,M,M,M,M,M,M,M,M,M,M,M,M,M,M,71.60,VHHH 171100Z 14004KT CAVOK 22/14 Q1019 NOSIG
VHHH,2017-02-17 11:30,113.9219,22.3094,71.60,57.20,60.44,M,2.00,0.00,30.09,M,6.21,M,M,M,M,M,M,M,M,M,M,M,M,M,M,M,M,71.60,VHHH 171130Z VRB02KT CAVOK 22/14 Q1019 NOSIG
VHHH,2017-02-17 12:00,113.9219,22.3094,71.60,57.20,60.44,60.00,5.00,0.00,30.12,M,6.21,M,M,M,M,M,M,M,M,M,M,M,M,M,M,M,M,71.60,VHHH 171200Z 06005KT CAVOK 22/14 Q1020 NOSIG
VHHH,2017-02-17 12:30,113.9219,22.3094,71.60,57.20,60.44,70.00,5.00,0.00,30.12,M,6.21,M,M,M,M,M,M,M,M,M,M,M,M,M,M,M,M,71.60,VHHH 171230Z 07005KT CAVOK 22/14 Q1020 NOSIG
VHHH,2017-02-17 13:00,113.9219,22.3094,69.80,55.40,60.21,M,2.00,0.00,30.15,M,6.21,M,M,M,M,M,M,M,M,M,M,M,M,M,M,M,M,69.80,VHHH 171300Z VRB02KT CAVOK 21/13 Q1021 NOSIG
VHHH,2017-02-17 13:30,113.9219,22.3094,69.80,55.40,60.21,70.00,5.00,0.00,30.15,M,6.21,M,M,M,M,M,M,M,M,M,M,M,M,M,M,M,M,69.80,VHHH 171330Z 07005KT CAVOK 21/13 Q1021 NOSIG
VHHH,2017-02-17 14:00,113.9219,22.3094,69.80,55.40,60.21,M,3.00,0.00,30.15,M,6.21,M,M,M,M,M,M,M,M,M,M,M,M,M,M,M,M,69.80,VHHH 171400Z VRB03KT CAVOK 21/13 Q1021 NOSIG
VHHH,2017-02-17 14:30,113.9219,22.3094,68.00,55.40,64.04,80.00,4.00,0.00,30.15,M,6.21,M,M,M,M,M,M,M,M,M,M,M,M,M,M,M,M,68.00,VHHH 171430Z 08004KT CAVOK 20/13 Q1021 NOSIG
VHHH,2017-02-17 15:00,113.9219,22.3094,69.80,55.40,60.21,M,2.00,0.00,30.15,M,6.21,M,M,M,M,M,M,M,M,M,M,M,M,M,M,M,M,69.80,VHHH 171500Z VRB02KT CAVOK 21/13 Q1021 NOSIG
VHHH,2017-02-17 15:30,113.9219,22.3094,68.00,55.40,64.04,80.00,4.00,0.00,30.15,M,6.21,M,M,M,M,M,M,M,M,M,M,M,M,M,M,M,M,68.00,VHHH 171530Z 08004KT CAVOK 20/13 Q1021 NOSIG
VHHH,2017-02-17 16:00,113.9219,22.3094,69.80,53.60,56.38,60.00,5.00,0.00,30.15,M,6.21,M,M,M,M,M,M,M,M,M,M,M,M,M,M,M,M,69.80,VHHH 171600Z 06005KT CAVOK 21/12 Q1021 NOSIG
VHHH,2017-02-17 16:30,113.9219,22.3094,68.00,53.60,59.97,M,2.00,0.00,30.15,M,6.21,M,M,M,M,M,M,M,M,M,M,M,M,M,M,M,M,68.00,VHHH 171630Z VRB02KT CAVOK 20/12 Q1021 NOSIG
VHHH,2017-02-17 17:00,113.9219,22.3094,68.00,53.60,59.97,M,2.00,0.00,30.15,M,6.21,M,M,M,M,M,M,M,M,M,M,M,M,M,M,M,M,68.00,VHHH 171700Z VRB02KT CAVOK 20/12 Q1021 NOSIG
VHHH,2017-02-17 17:30,113.9219,22.3094,68.00,55.40,64.04,M,3.00,0.00,30.15,M,6.21,M,M,M,M,M,M,M,M,M,M,M,M,M,M,M,M,68.00,VHHH 171730Z VRB03KT CAVOK 20/13 Q1021 NOSIG
VHHH,2017-02-17 18:00,113.9219,22.3094,66.20,51.80,59.74,M,2.00,0.00,30.15,M,6.21,M,M,M,M,M,M,M,M,M,M,M,M,M,M,M,M,66.20,VHHH 171800Z VRB02KT CAVOK 19/11 Q1021 NOSIG
VHHH,2017-02-17 18:30,113.9219,22.3094,64.40,50.00,59.50,M,2.00,0.00,30.15,M,6.21,M,M,M,M,M,M,M,M,M,M,M,M,M,M,M,M,64.40,VHHH 171830Z VRB02KT CAVOK 18/10 Q1021 NOSIG
VHHH,2017-02-17 19:00,113.9219,22.3094,64.40,50.00,59.50,170.00,3.00,0.00,30.15,M,6.21,M,M,M,M,M,M,M,M,M,M,M,M,M,M,M,M,64.40,VHHH 171900Z 17003KT CAVOK 18/10 Q1021 NOSIG
VHHH,2017-02-17 19:30,113.9219,22.3094,66.20,50.00,55.88,170.00,3.00,0.00,30.15,M,6.21,M,M,M,M,M,M,M,M,M,M,M,M,M,M,M,M,66.20,VHHH 171930Z 17003KT CAVOK 19/10 Q1021 NOSIG
VHHH,2017-02-17 20:00,113.9219,22.3094,64.40,51.80,63.60,80.00,2.00,0.00,30.15,M,6.21,M,M,M,M,M,M,M,M,M,M,M,M,M,M,M,M,64.40,VHHH 172000Z 08002KT CAVOK 18/11 Q1021 NOSIG
VHHH,2017-02-17 20:30,113.9219,22.3094,64.40,51.80,63.60,M,2.00,0.00,30.15,M,6.21,M,M,M,M,M,M,M,M,M,M,M,M,M,M,M,M,64.40,VHHH 172030Z VRB02KT CAVOK 18/11 Q1021 NOSIG
VHHH,2017-02-17 21:00,113.9219,22.3094,64.40,50.00,59.50,M,2.00,0.00,30.15,M,6.21,M,M,M,M,M,M,M,M,M,M,M,M,M,M,M,M,64.40,VHHH 172100Z VRB02KT CAVOK 18/10 Q1021 NOSIG
VHHH,2017-02-17 21:30,113.9219,22.3094,62.60,51.80,67.75,170.00,3.00,0.00,30.15,M,6.21,M,M,M,M,M,M,M,M,M,M,M,M,M,M,M,M,62.60,VHHH 172130Z 17003KT CAVOK 17/11 Q1021 NOSIG
VHHH,2017-02-17 22:00,113.9219,22.3094,64.40,51.80,63.60,M,0.00,0.00,30.15,M,6.21,M,M,M,M,M,M,M,M,M,M,M,M,M,M,M,M,64.40,VHHH 172200Z VRB00KT CAVOK 18/11 Q1021 NOSIG
VHHH,2017-02-17 22:30,113.9219,22.3094,64.40,51.80,63.60,170.00,2.00,0.00,30.18,M,6.21,M,M,M,M,M,M,M,M,M,M,M,M,M,M,M,M,64.40,VHHH 172230Z 17002KT CAVOK 18/11 Q1022 NOSIG
VHHH,2017-02-17 23:00,113.9219,22.3094,62.60,50.00,63.38,M,4.00,0.00,30.18,M,6.21,M,M,M,M,M,M,M,M,M,M,M,M,M,M,M,M,62.60,VHHH 172300Z VRB04KT CAVOK 17/10 Q1022 NOSIG
VHHH,2017-02-17 23:30,113.9219,22.3094,64.40,50.00,59.50,170.00,4.00,0.00,30.18,M,6.21,M,M,M,M,M,M,M,M,M,M,M,M,M,M,M,M,64.40,VHHH 172330Z 17004KT CAVOK 18/10 Q1022 NOSIG
VHHH,2017-02-18 00:00,113.9219,22.3094,66.20,50.00,55.88,150.00,3.00,0.00,30.18,M,6.21,M,M,M,M,M,M,M,M,M,M,M,M,M,M,M,M,66.20,VHHH 180000Z 15003KT CAVOK 19/10 Q1022 NOSIG
VHHH,2017-02-18 00:30,113.9219,22.3094,71.60,51.80,49.64,340.00,3.00,0.00,30.21,M,6.21,M,M,M,M,M,M,M,M,M,M,M,M,M,M,M,M,71.60,VHHH 180030Z 34003KT CAVOK 22/11 Q1023 NOSIG
VHHH,2017-02-18 01:00,113.9219,22.3094,71.60,53.60,53.03,360.00,2.00,0.00,30.21,M,6.21,M,M,M,M,M,M,M,M,M,M,M,M,M,M,M,M,71.60,VHHH 180100Z 36002KT CAVOK 22/12 Q1023 NOSIG
VHHH,2017-02-18 01:30,113.9219,22.3094,73.40,50.00,43.69,M,3.00,0.00,30.21,M,6.21,M,M,M,M,M,M,M,M,M,M,M,M,M,M,M,M,73.40,VHHH 180130Z VRB03KT CAVOK 23/10 Q1023 NOSIG
VHHH,2017-02-18 02:00,113.9219,22.3094,73.40,50.00,43.69,340.00,3.00,0.00,30.21,M,6.21,M,M,M,M,M,M,M,M,M,M,M,M,M,M,M,M,73.40,VHHH 180200Z 34003KT CAVOK 23/10 Q1023 NOSIG
VHHH,2017-02-18 02:30,113.9219,22.3094,75.20,53.60,46.98,310.00,4.00,0.00,30.18,M,6.21,M,M,M,M,M,M,M,M,M,M,M,M,M,M,M,M,75.20,VHHH 180230Z 31004KT CAVOK 24/12 Q1022 NOSIG
VHHH,2017-02-18 03:00,113.9219,22.3094,75.20,51.80,43.97,310.00,5.00,0.00,30.18,M,6.21,M,M,M,M,M,M,M,M,M,M,M,M,M,M,M,M,75.20,VHHH 180300Z 31005KT CAVOK 24/11 Q1022 NOSIG
VHHH,2017-02-18 03:30,113.9219,22.3094,75.20,51.80,43.97,310.00,5.00,0.00,30.18,M,5.59,M,NSC,M,M,M,M,M,M,M,M,M,M,M,M,M,M,75.20,VHHH 180330Z 31005KT 9000 NSC 24/11 Q1022 NOSIG
VHHH,2017-02-18 04:00,113.9219,22.3094,77.00,55.40,47.25,330.00,4.00,0.00,30.15,M,6.21,M,M,M,M,M,M,M,M,M,M,M,M,M,M,M,M,77.00,VHHH 180400Z 33004KT CAVOK 25/13 Q1021 NOSIG
VHHH,2017-02-18 04:30,113.9219,22.3094,75.20,57.20,53.55,300.00,6.00,0.00,30.15,M,6.21,M,M,M,M,M,M,M,M,M,M,M,M,M,M,M,M,75.20,VHHH 180430Z 30006KT CAVOK 24/14 Q1021 NOSIG
VHHH,2017-02-18 05:00,113.9219,22.3094,75.20,57.20,53.55,290.00,6.00,0.00,30.12,M,6.21,M,M,M,M,M,M,M,M,M,M,M,M,M,M,M,M,75.20,VHHH 180500Z 29006KT 250V310 CAVOK 24/14 Q1020 NOSIG
VHHH,2017-02-18 05:30,113.9219,22.3094,77.00,55.40,47.25,270.00,8.00,0.00,30.12,M,6.21,M,M,M,M,M,M,M,M,M,M,M,M,M,M,M,M,77.00,VHHH 180530Z 27008KT CAVOK 25/13 Q1020 NOSIG
VHHH,2017-02-18 06:30,113.9219,22.3094,78.80,51.80,39.02,280.00,7.00,0.00,30.09,M,6.21,M,M,M,M,M,M,M,M,M,M,M,M,M,M,M,M,78.80,VHHH 180630Z 28007KT CAVOK 26/11 Q1019 NOSIG
VHHH,2017-02-18 07:00,113.9219,22.3094,77.00,59.00,53.80,320.00,5.00,0.00,30.06,M,6.21,M,M,M,M,M,M,M,M,M,M,M,M,M,M,M,M,77.00,VHHH 180700Z 32005KT 290V360 CAVOK 25/15 Q1018 BECMG 09010KT
VHHH,2017-02-18 07:30,113.9219,22.3094,78.80,57.20,47.52,90.00,9.00,0.00,30.06,M,6.21,M,M,M,M,M,M,M,M,M,M,M,M,M,M,M,M,78.80,VHHH 180730Z 09009KT CAVOK 26/14 Q1018 NOSIG
VHHH,2017-02-18 08:00,113.9219,22.3094,78.80,57.20,47.52,60.00,13.00,0.00,30.06,M,6.21,M,M,M,M,M,M,M,M,M,M,M,M,M,M,M,M,78.80,VHHH 180800Z 06013KT CAVOK 26/14 Q1018 NOSIG
VHHH,2017-02-18 08:30,113.9219,22.3094,77.00,59.00,53.80,60.00,10.00,0.00,30.06,M,6.21,M,M,M,M,M,M,M,M,M,M,M,M,M,M,M,M,77.00,VHHH 180830Z 06010KT CAVOK 25/15 Q1018 NOSIG
VHHH,2017-02-18 09:00,113.9219,22.3094,75.20,59.00,57.12,90.00,11.00,0.00,30.06,M,6.21,M,M,M,M,M,M,M,M,M,M,M,M,M,M,M,M,75.20,VHHH 180900Z 09011KT CAVOK 24/15 Q1018 NOSIG
VHHH,2017-02-18 09:30,113.9219,22.3094,73.40,59.00,60.67,80.00,13.00,0.00,30.06,M,6.21,M,M,M,M,M,M,M,M,M,M,M,M,M,M,M,M,73.40,VHHH 180930Z 08013KT CAVOK 23/15 Q1018 NOSIG
VHHH,2017-02-18 10:00,113.9219,22.3094,69.80,60.80,73.09,80.00,15.00,0.00,30.06,M,6.21,M,FEW,M,M,M,1400.00,M,M,M,M,M,M,M,M,M,M,69.80,VHHH 181000Z 08015KT 9999 FEW014 21/16 Q1018 NOSIG
VHHH,2017-02-18 10:30,113.9219,22.3094,69.80,60.80,73.09,90.00,15.00,0.00,30.09,M,5.59,M,FEW,M,M,M,1400.00,M,M,M,M,M,M,M,M,M,M,69.80,VHHH 181030Z 09015KT 9000 FEW014 21/16 Q1019 NOSIG
VHHH,2017-02-18 11:00,113.9219,22.3094,68.00,60.80,77.75,80.00,12.00,0.00,30.09,M,5.59,M,FEW,M,M,M,1400.00,M,M,M,M,M,M,M,M,M,M,68.00,VHHH 181100Z 08012KT 9000 FEW014 20/16 Q1019 NOSIG
VHHH,2017-02-18 11:30,113.9219,22.3094,68.00,60.80,77.75,110.00,14.00,0.00,30.09,M,4.97,M,FEW,M,M,M,1400.00,M,M,M,M,M,M,M,M,M,M,68.00,VHHH 181130Z 11014KT 8000 FEW014 20/16 Q1019 NOSIG
VHHH,2017-02-18 12:00,113.9219,22.3094,66.20,60.80,82.74,110.00,14.00,0.00,30.09,M,5.59,M,FEW,M,M,M,1400.00,M,M,M,M,M,M,M,M,M,M,66.20,VHHH 181200Z 11014KT 9000 FEW014 19/16 Q1019 NOSIG
VHHH,2017-02-18 12:30,113.9219,22.3094,66.20,60.80,82.74,90.00,15.00,0.00,30.12,M,5.59,M,FEW,M,M,M,1400.00,M,M,M,M,M,M,M,M,M,M,66.20,VHHH 181230Z 09015KT 9000 FEW014 19/16 Q1020 NOSIG
VHHH,2017-02-18 13:00,113.9219,22.3094,66.20,60.80,82.74,90.00,14.00,0.00,30.12,M,4.97,M,FEW,M,M,M,1400.00,M,M,M,M,M,M,M,M,M,M,66.20,VHHH 181300Z 09014KT 8000 FEW014 19/16 Q1020 NOSIG
VHHH,2017-02-18 13:30,113.9219,22.3094,66.20,60.80,82.74,100.00,15.00,0.00,30.15,M,4.97,M,FEW,M,M,M,1400.00,M,M,M,M,M,M,M,M,M,M,66.20,VHHH 181330Z 10015KT 8000 FEW014 19/16 Q1021 NOSIG
VHHH,2017-02-18 14:00,113.9219,22.3094,66.20,60.80,82.74,110.00,14.00,0.00,30.15,M,4.97,M,FEW,M,M,M,1400.00,M,M,M,M,M,M,M,M,M,M,66.20,VHHH 181400Z 11014KT 8000 FEW014 19/16 Q1021 NOSIG
VHHH,2017-02-18 14:30,113.9219,22.3094,66.20,59.00,77.60,110.00,14.00,0.00,30.15,M,4.97,M,FEW,M,M,M,1600.00,M,M,M,M,M,M,M,M,M,M,66.20,VHHH 181430Z 11014KT 8000 FEW016 19/15 Q1021 NOSIG
VHHH,2017-02-18 15:00,113.9219,22.3094,68.00,59.00,72.92,100.00,15.00,0.00,30.15,M,4.97,M,FEW,M,M,M,1500.00,M,M,M,M,M,M,M,M,M,M,68.00,VHHH 181500Z 10015KT 8000 FEW015 20/15 Q1021 NOSIG
VHHH,2017-02-18 15:30,113.9219,22.3094,66.20,60.80,82.74,110.00,14.00,0.00,30.15,M,4.97,M,FEW,SCT,M,M,1500.00,2200.00,M,M,M,M,M,M,M,M,M,66.20,VHHH 181530Z 11014KT 8000 FEW015 SCT022 19/16 Q1021 NOSIG
VHHH,2017-02-18 16:00,113.9219,22.3094,66.20,59.00,77.60,110.00,12.00,0.00,30.15,M,4.97,M,FEW,SCT,M,M,1500.00,2200.00,M,M,M,M,M,M,M,M,M,66.20,VHHH 181600Z 11012KT 8000 FEW015 SCT022 19/15 Q1021 NOSIG
VHHH,2017-02-18 16:30,113.9219,22.3094,66.20,60.80,82.74,110.00,11.00,0.00,30.15,M,4.97,M,FEW,SCT,M,M,1500.00,2200.00,M,M,M,M,M,M,M,M,M,66.20,VHHH 181630Z 11011KT 8000 FEW015 SCT022 19/16 Q1021 NOSIG
VHHH,2017-02-18 17:00,113.9219,22.3094,66.20,60.80,82.74,100.00,12.00,0.00,30.18,M,4.97,M,FEW,SCT,M,M,1800.00,2400.00,M,M,M,M,M,M,M,M,M,66.20,VHHH 181700Z 10012KT 8000 FEW018 SCT024 19/16 Q1022 NOSIG
VHHH,2017-02-18 17:30,113.9219,22.3094,66.20,59.00,77.60,110.00,14.00,0.00,30.15,M,4.35,M,FEW,SCT,M,M,1600.00,2500.00,M,M,M,M,M,M,M,M,M,66.20,VHHH 181730Z 11014KT 7000 FEW016 SCT025 19/15 Q1021 NOSIG
VHHH,2017-02-18 18:00,113.9219,22.3094,66.20,57.20,72.74,100.00,12.00,0.00,30.15,M,4.35,M,FEW,SCT,M,M,1600.00,2500.00,M,M,M,M,M,M,M,M,M,66.20,VHHH 181800Z 10012KT 7000 FEW016 SCT025 19/14 Q1021 NOSIG
VHHH,2017-02-18 18:30,113.9219,22.3094,64.40,57.20,77.45,100.00,11.00,0.00,30.15,M,4.97,M,FEW,SCT,M,M,1600.00,2700.00,M,M,M,M,M,M,M,M,M,64.40,VHHH 181830Z 10011KT 8000 FEW016 SCT027 18/14 Q1021 NOSIG
VHHH,2017-02-18 19:00,113.9219,22.3094,64.40,57.20,77.45,100.00,13.00,0.00,30.15,M,4.97,M,FEW,SCT,M,M,1600.00,2700.00,M,M,M,M,M,M,M,M,M,64.40,VHHH 181900Z 10013KT 8000 FEW016 SCT027 18/14 Q1021 NOSIG
VHHH,2017-02-18 19:30,113.9219,22.3094,64.40,57.20,77.45,100.00,16.00,0.00,30.12,M,4.97,M,FEW,SCT,M,M,1600.00,2700.00,M,M,M,M,M,M,M,M,M,64.40,VHHH 181930Z 10016KT 8000 FEW016 SCT027 18/14 Q1020 NOSIG
VHHH,2017-02-18 20:00,113.9219,22.3094,64.40,57.20,77.45,90.00,15.00,0.00,30.12,M,4.97,M,FEW,SCT,M,M,1800.00,2800.00,M,M,M,M,M,M,M,M,M,64.40,VHHH 182000Z 09015KT 8000 FEW018 SCT028 18/14 Q1020 NOSIG
VHHH,2017-02-18 20:30,113.9219,22.3094,64.40,57.20,77.45,90.00,17.00,0.00,30.12,M,4.97,M,FEW,SCT,M,M,1800.00,2800.00,M,M,M,M,M,M,M,M,M,64.40,VHHH 182030Z 09017KT 8000 FEW018 SCT028 18/14 Q1020 NOSIG
VHHH,2017-02-18 21:00,113.9219,22.3094,64.40,57.20,77.45,90.00,18.00,0.00,30.09,M,5.59,M,FEW,SCT,M,M,1800.00,2800.00,M,M,M,M,M,M,M,M,M,64.40,VHHH 182100Z 09018KT 9000 FEW018 SCT028 18/14 Q1019 NOSIG
VHHH,2017-02-18 21:30,113.9219,22.3094,62.60,57.20,82.50,100.00,15.00,0.00,30.09,M,6.21,M,FEW,SCT,M,M,1800.00,2800.00,M,M,M,M,M,M,M,M,M,62.60,VHHH 182130Z 10015KT 9999 FEW018 SCT028 17/14 Q1019 NOSIG
VHHH,2017-02-18 22:00,113.9219,22.3094,62.60,55.40,77.29,90.00,16.00,0.00,30.09,M,6.21,M,FEW,M,M,M,1800.00,M,M,M,M,M,M,M,M,M,M,62.60,VHHH 182200Z 09016KT 9999 FEW018 17/13 Q1019 NOSIG
VHHH,2017-02-18 22:30,113.9219,22.3094,62.60,53.60,72.38,90.00,17.00,0.00,30.12,M,6.21,M,FEW,SCT,M,M,1600.00,2300.00,M,M,M,M,M,M,M,M,M,62.60,VHHH 182230Z 09017KT 9999 FEW016 SCT023 17/12 Q1020 NOSIG
VHHH,2017-02-18 23:00,113.9219,22.3094,62.60,53.60,72.38,90.00,13.00,0.00,30.12,M,6.21,M,FEW,M,M,M,1600.00,M,M,M,M,M,M,M,M,M,M,62.60,VHHH 182300Z 09013KT 9999 FEW016 17/12 Q1020 NOSIG
VHHH,2017-02-18 23:30,113.9219,22.3094,62.60,53.60,72.38,80.00,13.00,0.00,30.12,M,6.21,M,FEW,M,M,M,1600.00,M,M,M,M,M,M,M,M,M,M,62.60,VHHH 182330Z 08013KT 9999 FEW016 17/12 Q1020 NOSIG
VHHH,2017-02-19 00:00,113.9219,22.3094,64.40,53.60,67.95,70.00,11.00,0.00,30.12,M,6.21,M,FEW,M,M,M,1600.00,M,M,M,M,M,M,M,M,M,M,64.40,VHHH 190000Z 07011KT 9999 FEW016 18/12 Q1020 NOSIG
VHHH,2017-02-19 00:30,113.9219,22.3094,64.40,53.60,67.95,80.00,10.00,0.00,30.12,M,6.21,M,FEW,M,M,M,1600.00,M,M,M,M,M,M,M,M,M,M,64.40,VHHH 190030Z 08010KT 9999 FEW016 18/12 Q1020 NOSIG
VHHH,2017-02-19 01:00,113.9219,22.3094,64.40,55.40,72.56,90.00,12.00,0.00,30.12,M,6.21,M,FEW,M,M,M,1600.00,M,M,M,M,M,M,M,M,M,M,64.40,VHHH 190100Z 09012KT 9999 FEW016 18/13 Q1020 NOSIG
VHHH,2017-02-19 01:30,113.9219,22.3094,66.20,55.40,68.15,100.00,13.00,0.00,30.12,M,6.21,M,FEW,SCT,M,M,1600.00,2500.00,M,M,M,M,M,M,M,M,M,66.20,VHHH 190130Z 10013KT 9999 FEW016 SCT025 19/13 Q1020 NOSIG
VHHH,2017-02-19 02:00,113.9219,22.3094,66.20,55.40,68.15,100.00,10.00,0.00,30.12,M,6.21,M,FEW,SCT,M,M,1600.00,2500.00,M,M,M,M,M,M,M,M,M,66.20,VHHH 190200Z 10010KT 9999 FEW016 SCT025 19/13 Q1020 NOSIG
VHHH,2017-02-19 02:30,113.9219,22.3094,68.00,57.20,68.35,80.00,11.00,0.00,30.12,M,6.21,M,FEW,SCT,M,M,1600.00,2500.00,M,M,M,M,M,M,M,M,M,68.00,VHHH 190230Z 08011KT 9999 FEW016 SCT025 20/14 Q1020 NOSIG
VHHH,2017-02-19 03:00,113.9219,22.3094,66.20,57.20,72.74,60.00,10.00,0.00,30.12,M,6.21,M,FEW,SCT,M,M,1600.00,2200.00,M,M,M,M,M,M,M,M,M,66.20,VHHH 190300Z 06010KT 9999 FEW016 SCT022 19/14 Q1020 NOSIG
VHHH,2017-02-19 03:30,113.9219,22.3094,68.00,57.20,68.35,70.00,8.00,0.00,30.09,M,6.21,M,FEW,SCT,M,M,1600.00,2200.00,M,M,M,M,M,M,M,M,M,68.00,VHHH 190330Z 07008KT 9999 FEW016 SCT022 20/14 Q1019 NOSIG
VHHH,2017-02-19 04:00,113.9219,22.3094,66.20,57.20,72.74,90.00,8.00,0.00,30.09,M,6.21,M,FEW,SCT,M,M,1600.00,2200.00,M,M,M,M,M,M,M,M,M,66.20,VHHH 190400Z 09008KT 060V140 9999 FEW016 SCT022 19/14 Q1019 NOSIG
VHHH,2017-02-19 04:30,113.9219,22.3094,69.80,57.20,64.26,70.00,9.00,0.00,30.06,M,6.21,M,FEW,SCT,M,M,1600.00,2200.00,M,M,M,M,M,M,M,M,M,69.80,VHHH 190430Z 07009KT 9999 FEW016 SCT022 21/14 Q1018 NOSIG
VHHH,2017-02-19 05:00,113.9219,22.3094,68.00,57.20,68.35,60.00,9.00,0.00,30.06,M,6.21,M,FEW,SCT,M,M,1600.00,2200.00,M,M,M,M,M,M,M,M,M,68.00,VHHH 190500Z 06009KT 9999 FEW016 SCT022 20/14 Q1018 NOSIG
VHHH,2017-02-19 05:30,113.9219,22.3094,66.20,57.20,72.74,60.00,7.00,0.00,30.03,M,6.21,M,FEW,SCT,M,M,1500.00,2000.00,M,M,M,M,M,M,M,M,M,66.20,VHHH 190530Z 06007KT 9999 FEW015 SCT020 19/14 Q1017 NOSIG
VHHH,2017-02-19 06:00,113.9219,22.3094,66.20,57.20,72.74,90.00,7.00,0.00,30.00,M,5.59,M,FEW,SCT,M,M,1500.00,2000.00,M,M,M,M,M,M,M,M,M,66.20,VHHH 190600Z 09007KT 050V110 9000 FEW015 SCT020 19/14 Q1016 NOSIG
VHHH,2017-02-19 06:30,113.9219,22.3094,68.00,57.20,68.35,90.00,6.00,0.00,30.00,M,5.59,M,FEW,SCT,M,M,1500.00,2000.00,M,M,M,M,M,M,M,M,M,68.00,VHHH 190630Z 09006KT 060V150 9000 FEW015 SCT020 20/14 Q1016 NOSIG
VHHH,2017-02-19 07:00,113.9219,22.3094,68.00,57.20,68.35,M,4.00,0.00,29.97,M,5.59,M,FEW,SCT,M,M,1500.00,2000.00,M,M,M,M,M,M,M,M,M,68.00,VHHH 190700Z VRB04KT 9000 FEW015 SCT020 20/14 Q1015 NOSIG
VHHH,2017-02-19 07:30,113.9219,22.3094,68.00,57.20,68.35,120.00,6.00,0.00,29.97,M,5.59,M,FEW,SCT,M,M,1500.00,2000.00,M,M,M,M,M,M,M,M,M,68.00,VHHH 190730Z 12006KT 080V190 9000 FEW015 SCT020 20/14 Q1015 NOSIG
VHHH,2017-02-19 08:00,113.9219,22.3094,68.00,59.00,72.92,110.00,9.00,0.00,29.94,M,5.59,M,FEW,SCT,M,M,1500.00,2800.00,M,M,M,M,M,M,M,M,M,68.00,VHHH 190800Z 11009KT 9000 FEW015 SCT028 20/15 Q1014 NOSIG
VHHH,2017-02-19 08:30,113.9219,22.3094,68.00,59.00,72.92,80.00,7.00,0.00,29.94,M,5.59,M,FEW,SCT,M,M,1500.00,2800.00,M,M,M,M,M,M,M,M,M,68.00,VHHH 190830Z 08007KT 9000 FEW015 SCT028 20/15 Q1014 NOSIG
VHHH,2017-02-19 09:00,113.9219,22.3094,68.00,59.00,72.92,70.00,9.00,0.00,29.94,M,4.97,M,FEW,SCT,M,M,1800.00,2800.00,M,M,M,M,M,M,M,M,M,68.00,VHHH 190900Z 07009KT 8000 FEW018 SCT028 20/15 Q1014 NOSIG
VHHH,2017-02-19 09:30,113.9219,22.3094,68.00,59.00,72.92,70.00,7.00,0.00,29.94,M,5.59,M,FEW,SCT,M,M,1800.00,2500.00,M,M,M,M,M,M,M,M,M,68.00,VHHH 190930Z 07007KT 9000 FEW018 SCT025 20/15 Q1014 NOSIG
VHHH,2017-02-19 10:00,113.9219,22.3094,68.00,59.00,72.92,100.00,6.00,0.00,29.94,M,6.21,M,FEW,SCT,M,M,1800.00,2500.00,M,M,M,M,M,M,M,M,M,68.00,VHHH 191000Z 10006KT 070V150 9999 FEW018 SCT025 20/15 Q1014 NOSIG
VHHH,2017-02-19 10:30,113.9219,22.3094,68.00,59.00,72.92,70.00,5.00,0.00,29.94,M,5.59,M,FEW,SCT,M,M,1800.00,2500.00,M,M,M,M,M,M,M,M,M,68.00,VHHH 191030Z 07005KT 040V100 9000 FEW018 SCT025 20/15 Q1014 NOSIG
VHHH,2017-02-19 11:00,113.9219,22.3094,68.00,59.00,72.92,90.00,6.00,0.00,29.97,M,5.59,M,FEW,SCT,M,M,1500.00,2200.00,M,M,-RA,M,M,M,M,M,M,68.00,VHHH 191100Z 09006KT 070V130 9000 -RA FEW015 SCT022 20/15 Q1015 NOSIG
VHHH,2017-02-19 11:30,113.9219,22.3094,68.00,59.00,72.92,100.00,5.00,0.00,29.97,M,5.59,M,FEW,SCT,M,M,1500.00,2200.00,M,M,-RA,M,M,M,M,M,M,68.00,VHHH 191130Z 10005KT 030V180 9000 -RA FEW015 SCT022 20/15 Q1015 NOSIG
VHHH,2017-02-19 12:00,113.9219,22.3094,66.20,59.00,77.60,100.00,4.00,0.00,29.97,M,4.97,M,FEW,SCT,M,M,1500.00,2200.00,M,M,-RA,M,M,M,M,M,M,66.20,VHHH 191200Z 10004KT 050V170 8000 -RA FEW015 SCT022 19/15 Q1015 NOSIG
VHHH,2017-02-19 12:30,113.9219,22.3094,66.20,60.80,82.74,M,3.00,0.00,29.97,M,3.73,M,FEW,SCT,M,M,1500.00,2200.00,M,M,-RA,M,M,M,M,M,M,66.20,VHHH 191230Z VRB03KT 6000 -RA FEW015 SCT022 19/16 Q1015 NOSIG
VHHH,2017-02-19 13:00,113.9219,22.3094,66.20,60.80,82.74,60.00,3.00,0.00,29.97,M,4.35,M,FEW,SCT,M,M,1500.00,3000.00,M,M,-RA,M,M,M,M,M,M,66.20,VHHH 191300Z 06003KT 030V100 7000 -RA FEW015 SCT030 19/16 Q1015 NOSIG
VHHH,2017-02-19 13:30,113.9219,22.3094,66.20,60.80,82.74,80.00,5.00,0.00,29.97,M,4.35,M,FEW,SCT,M,M,1800.00,3000.00,M,M,M,M,M,M,M,M,M,66.20,VHHH 191330Z 08005KT 7000 FEW018 SCT030 19/16 Q1015 NOSIG
VHHH,2017-02-19 14:00,113.9219,22.3094,66.20,60.80,82.74,60.00,5.00,0.00,29.97,M,4.35,M,FEW,SCT,M,M,1600.00,2500.00,M,M,M,M,M,M,M,M,M,66.20,VHHH 191400Z 06005KT 7000 FEW016 SCT025 19/16 Q1015 NOSIG
VHHH,2017-02-19 14:30,113.9219,22.3094,66.20,60.80,82.74,60.00,6.00,0.00,29.94,M,4.35,M,FEW,SCT,M,M,1600.00,2500.00,M,M,M,M,M,M,M,M,M,66.20,VHHH 191430Z 06006KT 7000 FEW016 SCT025 19/16 Q1014 NOSIG
VHHH,2017-02-19 15:00,113.9219,22.3094,66.20,60.80,82.74,60.00,7.00,0.00,29.94,M,3.73,M,FEW,SCT,M,M,1600.00,2500.00,M,M,M,M,M,M,M,M,M,66.20,VHHH 191500Z 06007KT 6000 FEW016 SCT025 19/16 Q1014 NOSIG
VHHH,2017-02-19 15:30,113.9219,22.3094,66.20,60.80,82.74,60.00,6.00,0.00,29.94,M,4.35,M,FEW,SCT,M,M,1600.00,2500.00,M,M,M,M,M,M,M,M,M,66.20,VHHH 191530Z 06006KT 7000 FEW016 SCT025 19/16 Q1014 NOSIG
VHHH,2017-02-19 16:00,113.9219,22.3094,66.20,60.80,82.74,70.00,6.00,0.00,29.94,M,4.35,M,FEW,SCT,M,M,1600.00,2500.00,M,M,M,M,M,M,M,M,M,66.20,VHHH 191600Z 07006KT 7000 FEW016 SCT025 19/16 Q1014 NOSIG
VHHH,2017-02-19 16:30,113.9219,22.3094,66.20,60.80,82.74,80.00,7.00,0.00,29.91,M,4.35,M,FEW,SCT,M,M,1600.00,2500.00,M,M,-RA,M,M,M,M,M,M,66.20,VHHH 191630Z 08007KT 7000 -RA FEW016 SCT025 19/16 Q1013 NOSIG
VHHH,2017-02-19 17:00,113.9219,22.3094,68.00,60.80,77.75,70.00,8.00,0.00,29.91,M,4.35,M,FEW,SCT,M,M,1600.00,2500.00,M,M,M,M,M,M,M,M,M,68.00,VHHH 191700Z 07008KT 7000 FEW016 SCT025 20/16 Q1013 NOSIG
VHHH,2017-02-19 17:30,113.9219,22.3094,66.20,60.80,82.74,80.00,10.00,0.00,29.91,M,4.35,M,FEW,SCT,M,M,1500.00,2200.00,M,M,M,M,M,M,M,M,M,66.20,VHHH 191730Z 08010KT 7000 FEW015 SCT022 19/16 Q1013 NOSIG
VHHH,2017-02-19 18:00,113.9219,22.3094,68.00,60.80,77.75,80.00,8.00,0.00,29.91,M,4.35,M,FEW,SCT,M,M,1500.00,2200.00,M,M,M,M,M,M,M,M,M,68.00,VHHH 191800Z 08008KT 7000 FEW015 SCT022 20/16 Q1013 NOSIG
VHHH,2017-02-19 18:30,113.9219,22.3094,66.20,60.80,82.74,100.00,3.00,0.00,29.91,M,4.35,M,FEW,SCT,M,M,1500.00,2200.00,M,M,M,M,M,M,M,M,M,66.20,VHHH 191830Z 10003KT 060V180 7000 FEW015 SCT022 19/16 Q1013 NOSIG
VHHH,2017-02-19 19:00,113.9219,22.3094,66.20,62.60,88.18,240.00,3.00,0.00,29.91,M,3.73,M,FEW,SCT,M,M,1500.00,2200.00,M,M,M,M,M,M,M,M,M,66.20,VHHH 191900Z 24003KT 6000 FEW015 SCT022 19/17 Q1013 NOSIG
VHHH,2017-02-19 19:30,113.9219,22.3094,66.20,62.60,88.18,270.00,3.00,0.00,29.91,M,3.73,M,FEW,SCT,M,M,1500.00,2200.00,M,M,M,M,M,M,M,M,M,66.20,VHHH 191930Z 27003KT 6000 FEW015 SCT022 19/17 Q1013 NOSIG
VHHH,2017-02-19 20:00,113.9219,22.3094,66.20,62.60,88.18,260.00,5.00,0.00,29.91,M,3.11,M,FEW,SCT,M,M,1200.00,2200.00,M,M,M,M,M,M,M,M,M,66.20,VHHH 192000Z 26005KT 5000 FEW012 SCT022 19/17 Q1013 NOSIG
VHHH,2017-02-19 20:30,113.9219,22.3094,66.20,62.60,88.18,330.00,5.00,0.00,29.91,M,3.73,M,FEW,SCT,M,M,1200.00,2200.00,M,M,M,M,M,M,M,M,M,66.20,VHHH 192030Z 33005KT 6000 FEW012 SCT022 19/17 Q1013 NOSIG
VHHH,2017-02-19 21:00,113.9219,22.3094,66.20,62.60,88.18,M,2.00,0.00,29.91,M,3.11,M,FEW,SCT,M,M,1200.00,2200.00,M,M,M,M,M,M,M,M,M,66.20,VHHH 192100Z VRB02KT 5000 FEW012 SCT022 19/17 Q1013 TEMPO 4000 BR
VHHH,2017-02-19 21:30,113.9219,22.3094,66.20,62.60,88.18,M,2.00,0.00,29.91,M,3.11,M,FEW,SCT,M,M,1200.00,2200.00,M,M,M,M,M,M,M,M,M,66.20,VHHH 192130Z VRB02KT 5000 FEW012 SCT022 19/17 Q1013 TEMPO 4000 BR
VHHH,2017-02-19 22:00,113.9219,22.3094,66.20,62.60,88.18,130.00,4.00,0.00,29.91,M,3.11,M,FEW,SCT,M,M,800.00,2200.00,M,M,M,M,M,M,M,M,M,66.20,VHHH 192200Z 13004KT 5000 FEW008 SCT022 19/17 Q1013 TEMPO 4000 BR
VHHH,2017-02-19 22:30,113.9219,22.3094,66.20,62.60,88.18,80.00,5.00,0.00,29.91,M,3.11,M,FEW,SCT,M,M,600.00,1800.00,M,M,M,M,M,M,M,M,M,66.20,VHHH 192230Z 08005KT 5000 FEW006 SCT018 19/17 Q1013 TEMPO 4000 BR
VHHH,2017-02-19 22:47,113.9219,22.3094,66.20,62.60,88.18,70.00,3.00,0.00,29.94,M,3.04,M,FEW,SCT,M,M,600.00,1800.00,M,M,BR,M,M,M,M,M,M,66.20,VHHH 192247Z 07003KT 4900 BR FEW006 SCT018 19/17 Q1014 NOSIG
VHHH,2017-02-19 23:00,113.9219,22.3094,66.20,62.60,88.18,70.00,3.00,0.00,29.94,M,2.55,M,FEW,SCT,M,M,600.00,1800.00,M,M,BR,M,M,M,M,M,M,66.20,VHHH 192300Z 07003KT 4100 BR FEW006 SCT018 19/17 Q1014 NOSIG
VHHH,2017-02-19 23:30,113.9219,22.3094,66.20,64.40,93.92,20.00,3.00,0.00,29.94,M,1.93,M,FEW,SCT,M,M,600.00,1800.00,M,M,BR,M,M,M,M,M,M,66.20,VHHH 192330Z 02003KT 3100 BR FEW006 SCT018 19/18 Q1014 TEMPO 2500 BR
VHHH,2017-02-19 23:42,113.9219,22.3094,66.20,64.40,93.92,30.00,4.00,0.00,29.94,M,1.80,M,FEW,SCT,M,M,600.00,1800.00,M,M,BR,M,M,M,M,M,M,66.20,VHHH 192342Z 03004KT 2900 BR FEW006 SCT018 19/18 Q1014 NOSIG
VHHH,2017-02-20 00:00,113.9219,22.3094,66.20,62.60,88.18,70.00,4.00,0.00,29.94,M,2.11,M,FEW,SCT,M,M,600.00,1800.00,M,M,BR,M,M,M,M,M,M,66.20,VHHH 200000Z 07004KT 3400 BR FEW006 SCT018 19/17 Q1014 NOSIG
VHHH,2017-02-20 00:30,113.9219,22.3094,68.00,62.60,82.86,70.00,7.00,0.00,29.97,M,2.73,M,FEW,SCT,M,M,800.00,1800.00,M,M,BR,M,M,M,M,M,M,68.00,VHHH 200030Z 07007KT 4400 BR FEW008 SCT018 20/17 Q1015 NOSIG
VHHH,2017-02-20 01:00,113.9219,22.3094,69.80,64.40,82.98,60.00,7.00,0.00,29.97,M,2.36,M,FEW,SCT,M,M,800.00,1800.00,M,M,BR,M,M,M,M,M,M,69.80,VHHH 200100Z 06007KT 3800 BR FEW008 SCT018 21/18 Q1015 NOSIG
VHHH,2017-02-20 01:30,113.9219,22.3094,68.00,64.40,88.26,50.00,6.00,0.00,29.97,M,2.61,M,FEW,SCT,M,M,800.00,1600.00,M,M,BR,M,M,M,M,M,M,68.00,VHHH 200130Z 05006KT 4200 BR FEW008 SCT016 20/18 Q1015 NOSIG
VHHH,2017-02-20 02:00,113.9219,22.3094,69.80,64.40,82.98,20.00,6.00,0.00,29.97,M,2.42,M,FEW,SCT,M,M,1000.00,1600.00,M,M,BR,M,M,M,M,M,M,69.80,VHHH 200200Z 02006KT 3900 BR FEW010 SCT016 21/18 Q1015 NOSIG
VHHH,2017-02-20 02:30,113.9219,22.3094,68.00,64.40,88.26,330.00,6.00,0.00,29.97,M,1.99,M,FEW,SCT,M,M,1000.00,1600.00,M,M,BR,M,M,M,M,M,M,68.00,VHHH 200230Z 33006KT 3200 BR FEW010 SCT016 20/18 Q1015 NOSIG
VHHH,2017-02-20 03:00,113.9219,22.3094,69.80,64.40,82.98,340.00,4.00,0.00,29.97,M,2.11,M,FEW,SCT,M,M,1200.00,1800.00,M,M,BR,M,M,M,M,M,M,69.80,VHHH 200300Z 34004KT 3400 BR FEW012 SCT018 21/18 Q1015 NOSIG
VHHH,2017-02-20 03:30,113.9219,22.3094,71.60,64.40,78.04,300.00,5.00,0.00,29.97,M,2.11,M,FEW,SCT,M,M,1500.00,2500.00,M,M,BR,M,M,M,M,M,M,71.60,VHHH 200330Z 30005KT 3400 BR FEW015 SCT025 22/18 Q1015 NOSIG
VHHH,2017-02-20 04:00,113.9219,22.3094,71.60,64.40,78.04,300.00,4.00,0.00,29.94,M,2.24,M,FEW,SCT,M,M,1500.00,2500.00,M,M,BR,M,M,M,M,M,M,71.60,VHHH 200400Z 30004KT 3600 BR FEW015 SCT025 22/18 Q1014 NOSIG
VHHH,2017-02-20 04:30,113.9219,22.3094,71.60,64.40,78.04,320.00,3.00,0.00,29.94,M,2.55,M,FEW,SCT,M,M,1500.00,2500.00,M,M,BR,M,M,M,M,M,M,71.60,VHHH 200430Z 32003KT 4100 BR FEW015 SCT025 22/18 Q1014 NOSIG
VHHH,2017-02-20 05:00,113.9219,22.3094,73.40,64.40,73.44,290.00,6.00,0.00,29.91,M,2.17,M,FEW,SCT,M,M,1500.00,2500.00,M,M,BR,M,M,M,M,M,M,73.40,VHHH 200500Z 29006KT 3500 BR FEW015 SCT025 23/18 Q1013 NOSIG
VHHH,2017-02-20 05:30,113.9219,22.3094,75.20,64.40,69.14,280.00,5.00,0.00,29.91,M,2.17,M,FEW,SCT,M,M,2000.00,3000.00,M,M,HZ,M,M,M,M,M,M,75.20,VHHH 200530Z 28005KT 3500 HZ FEW020 SCT030 24/18 Q1013 NOSIG
VHHH,2017-02-20 06:00,113.9219,22.3094,75.20,64.40,69.14,280.00,6.00,0.00,29.88,M,2.30,M,FEW,M,M,M,2500.00,M,M,M,HZ,M,M,M,M,M,M,75.20,VHHH 200600Z 28006KT 3700 HZ FEW025 24/18 Q1012 NOSIG
VHHH,2017-02-20 06:30,113.9219,22.3094,77.00,64.40,65.12,270.00,7.00,0.00,29.88,M,3.11,M,FEW,M,M,M,2500.00,M,M,M,M,M,M,M,M,M,M,77.00,VHHH 200630Z 27007KT 5000 FEW025 25/18 Q1012 NOSIG
VHHH,2017-02-20 07:00,113.9219,22.3094,77.00,64.40,65.12,270.00,8.00,0.00,29.88,M,3.11,M,FEW,M,M,M,2500.00,M,M,M,M,M,M,M,M,M,M,77.00,VHHH 200700Z 27008KT 5000 FEW025 25/18 Q1012 NOSIG
VHHH,2017-02-20 07:09,113.9219,22.3094,77.00,64.40,65.12,270.00,8.00,0.00,29.88,M,3.04,M,FEW,M,M,M,2500.00,M,M,M,HZ,M,M,M,M,M,M,77.00,VHHH 200709Z 27008KT 4900 HZ FEW025 25/18 Q1012 NOSIG
VHHH,2017-02-20 07:21,113.9219,22.3094,78.80,64.40,61.36,270.00,8.00,0.00,29.88,M,3.73,M,FEW,M,M,M,2500.00,M,M,M,M,M,M,M,M,M,M,80.56,VHHH 200721Z 27008KT 6000 FEW025 26/18 Q1012 NOSIG
VHHH,2017-02-20 07:30,113.9219,22.3094,77.00,64.40,65.12,270.00,7.00,0.00,29.85,M,3.11,M,FEW,M,M,M,2500.00,M,M,M,M,M,M,M,M,M,M,77.00,VHHH 200730Z 27007KT 5000 FEW025 25/18 Q1011 NOSIG
VHHH,2017-02-20 07:39,113.9219,22.3094,77.00,64.40,65.12,280.00,7.00,0.00,29.85,M,3.04,M,FEW,M,M,M,2500.00,M,M,M,HZ,M,M,M,M,M,M,77.00,VHHH 200739Z 28007KT 4900 HZ FEW025 25/18 Q1011 NOSIG
VHHH,2017-02-20 07:52,113.9219,22.3094,75.20,64.40,69.14,260.00,8.00,0.00,29.85,M,3.11,M,FEW,M,M,M,2500.00,M,M,M,M,M,M,M,M,M,M,75.20,VHHH 200752Z 26008KT 5000 FEW025 24/18 Q1011 TEMPO 4000 HZ
VHHH,2017-02-20 08:00,113.9219,22.3094,77.00,64.40,65.12,240.00,8.00,0.00,29.85,M,3.11,M,FEW,M,M,M,2500.00,M,M,M,M,M,M,M,M,M,M,77.00,VHHH 200800Z 24008KT 5000 FEW025 25/18 Q1011 TEMPO 4000 HZ
VHHH,2017-02-20 08:30,113.9219,22.3094,77.00,64.40,65.12,270.00,8.00,0.00,29.88,M,4.97,M,FEW,M,M,M,2500.00,M,M,M,M,M,M,M,M,M,M,77.00,VHHH 200830Z 27008KT 8000 3700E FEW025 25/18 Q1012 TEMPO 4000 HZ
VHHH,2017-02-20 09:00,113.9219,22.3094,75.20,64.40,69.14,260.00,8.00,0.00,29.88,M,6.21,M,FEW,M,M,M,2500.00,M,M,M,M,M,M,M,M,M,M,75.20,VHHH 200900Z 26008KT 9999 FEW025 24/18 Q1012 NOSIG
VHHH,2017-02-20 09:30,113.9219,22.3094,75.20,62.60,64.91,260.00,6.00,0.00,29.88,M,6.21,M,FEW,M,M,M,2500.00,M,M,M,M,M,M,M,M,M,M,75.20,VHHH 200930Z 26006KT 9999 FEW025 24/17 Q1012 NOSIG
VHHH,2017-02-20 10:00,113.9219,22.3094,75.20,64.40,69.14,280.00,5.00,0.00,29.88,M,6.21,M,FEW,M,M,M,2500.00,M,M,M,M,M,M,M,M,M,M,75.20,VHHH 201000Z 28005KT 9999 FEW025 24/18 Q1012 NOSIG
VHHH,2017-02-20 10:30,113.9219,22.3094,73.40,64.40,73.44,40.00,5.00,0.00,29.88,M,6.21,M,FEW,M,M,M,3000.00,M,M,M,M,M,M,M,M,M,M,73.40,VHHH 201030Z 04005KT 350V060 9999 FEW030 23/18 Q1012 NOSIG
VHHH,2017-02-20 11:00,113.9219,22.3094,73.40,64.40,73.44,60.00,5.00,0.00,29.88,M,4.97,M,FEW,M,M,M,3000.00,M,M,M,M,M,M,M,M,M,M,73.40,VHHH 201100Z 06005KT 8000 FEW030 23/18 Q1012 NOSIG
VHHH,2017-02-20 11:30,113.9219,22.3094,71.60,64.40,78.04,80.00,5.00,0.00,29.91,M,6.21,M,FEW,M,M,M,3000.00,M,M,M,M,M,M,M,M,M,M,71.60,VHHH 201130Z 08005KT 9999 FEW030 22/18 Q1013 NOSIG
VHHH,2017-02-20 12:00,113.9219,22.3094,71.60,64.40,78.04,90.00,6.00,0.00,29.91,M,6.21,M,FEW,M,M,M,3000.00,M,M,M,M,M,M,M,M,M,M,71.60,VHHH 201200Z 09006KT 060V140 9999 FEW030 22/18 Q1013 NOSIG
VHHH,2017-02-20 12:30,113.9219,22.3094,71.60,62.60,73.27,100.00,3.00,0.00,29.94,M,6.21,M,FEW,M,M,M,3000.00,M,M,M,M,M,M,M,M,M,M,71.60,VHHH 201230Z 10003KT 040V210 9999 FEW030 22/17 Q1014 NOSIG
VHHH,2017-02-20 13:00,113.9219,22.3094,71.60,64.40,78.04,M,4.00,0.00,29.94,M,6.21,M,FEW,M,M,M,3000.00,M,M,M,M,M,M,M,M,M,M,71.60,VHHH 201300Z VRB04KT 9999 FEW030 22/18 Q1014 NOSIG
VHHH,2017-02-20 13:30,113.9219,22.3094,71.60,66.20,83.09,100.00,8.00,0.00,29.94,M,6.21,M,FEW,M,M,M,3000.00,M,M,M,M,M,M,M,M,M,M,71.60,VHHH 201330Z 10008KT 9999 FEW030 22/19 Q1014 NOSIG
VHHH,2017-02-20 14:00,113.9219,22.3094,71.60,66.20,83.09,90.00,12.00,0.00,29.94,M,6.21,M,FEW,M,M,M,3000.00,M,M,M,M,M,M,M,M,M,M,71.60,VHHH 201400Z 09012KT 9999 FEW030 22/19 Q1014 NOSIG
VHHH,2017-02-20 14:30,113.9219,22.3094,69.80,66.20,88.34,100.00,11.00,0.00,29.97,M,6.21,M,FEW,M,M,M,3000.00,M,M,M,M,M,M,M,M,M,M,69.80,VHHH 201430Z 10011KT 070V130 9999 FEW030 21/19 Q1015 NOSIG
VHHH,2017-02-20 15:00,113.9219,22.3094,71.60,66.20,83.09,80.00,11.00,0.00,29.97,M,6.21,M,FEW,M,M,M,1500.00,M,M,M,M,M,M,M,M,M,M,71.60,VHHH 201500Z 08011KT 9999 FEW015 22/19 Q1015 NOSIG
VHHH,2017-02-20 15:30,113.9219,22.3094,69.80,66.20,88.34,110.00,11.00,0.00,29.97,M,6.21,M,FEW,M,M,M,1500.00,M,M,M,M,M,M,M,M,M,M,69.80,VHHH 201530Z 11011KT 9999 FEW015 21/19 Q1015 NOSIG
VHHH,2017-02-20 16:00,113.9219,22.3094,69.80,66.20,88.34,80.00,10.00,0.00,29.97,M,5.59,M,FEW,M,M,M,1500.00,M,M,M,M,M,M,M,M,M,M,69.80,VHHH 201600Z 08010KT 9000 FEW015 21/19 Q1015 NOSIG
VHHH,2017-02-20 16:30,113.9219,22.3094,71.60,66.20,83.09,90.00,10.00,0.00,29.97,M,6.21,M,FEW,M,M,M,1500.00,M,M,M,M,M,M,M,M,M,M,71.60,VHHH 201630Z 09010KT 9999 FEW015 22/19 Q1015 NOSIG
VHHH,2017-02-20 17:00,113.9219,22.3094,69.80,66.20,88.34,100.00,12.00,0.00,29.97,M,5.59,M,FEW,SCT,M,M,1200.00,1800.00,M,M,M,M,M,M,M,M,M,69.80,VHHH 201700Z 10012KT 9000 FEW012 SCT018 21/19 Q1015 NOSIG
VHHH,2017-02-20 17:30,113.9219,22.3094,69.80,66.20,88.34,90.00,11.00,0.00,29.97,M,5.59,M,FEW,SCT,M,M,1200.00,1800.00,M,M,M,M,M,M,M,M,M,69.80,VHHH 201730Z 09011KT 9000 FEW012 SCT018 21/19 Q1015 NOSIG
VHHH,2017-02-20 18:00,113.9219,22.3094,71.60,66.20,83.09,100.00,11.00,0.00,29.97,M,5.59,M,FEW,SCT,M,M,1500.00,2000.00,M,M,M,M,M,M,M,M,M,71.60,VHHH 201800Z 10011KT 9000 FEW015 SCT020 22/19 Q1015 NOSIG
VHHH,2017-02-20 18:30,113.9219,22.3094,69.80,66.20,88.34,100.00,12.00,0.00,29.97,M,5.59,M,FEW,SCT,M,M,1500.00,2000.00,M,M,M,M,M,M,M,M,M,69.80,VHHH 201830Z 10012KT 040V140 9000 FEW015 SCT020 21/19 Q1015 NOSIG
VHHH,2017-02-20 19:00,113.9219,22.3094,69.80,66.20,88.34,110.00,10.00,0.00,29.97,M,6.21,M,FEW,SCT,M,M,1500.00,2000.00,M,M,M,M,M,M,M,M,M,69.80,VHHH 201900Z 11010KT 9999 FEW015 SCT020 21/19 Q1015 NOSIG
VHHH,2017-02-20 19:30,113.9219,22.3094,69.80,66.20,88.34,110.00,11.00,0.00,29.97,M,5.59,M,FEW,SCT,M,M,1500.00,2000.00,M,M,M,M,M,M,M,M,M,69.80,VHHH 201930Z 11011KT 9000 FEW015 SCT020 21/19 Q1015 NOSIG
VHHH,2017-02-20 20:00,113.9219,22.3094,68.00,66.20,93.97,110.00,10.00,0.00,29.94,M,4.97,M,FEW,SCT,M,M,1500.00,2000.00,M,M,M,M,M,M,M,M,M,68.00,VHHH 202000Z 11010KT 8000 FEW015 SCT020 20/19 Q1014 NOSIG
VHHH,2017-02-20 20:30,113.9219,22.3094,68.00,66.20,93.97,100.00,10.00,0.00,29.94,M,4.97,M,FEW,SCT,M,M,1000.00,2000.00,M,M,M,M,M,M,M,M,M,68.00,VHHH 202030Z 10010KT 8000 FEW010 SCT020 20/19 Q1014 NOSIG
VHHH,2017-02-20 21:00,113.9219,22.3094,69.80,66.20,88.34,100.00,17.00,0.00,29.97,M,5.59,27.00,FEW,SCT,M,M,1000.00,1800.00,M,M,M,M,M,M,M,M,M,69.80,VHHH 202100Z 10017G27KT 070V130 9000 FEW010 SCT018 21/19 Q1015 NOSIG
VHHH,2017-02-20 21:30,113.9219,22.3094,69.80,66.20,88.34,100.00,15.00,0.00,29.97,M,4.97,M,FEW,SCT,M,M,1000.00,1800.00,M,M,M,M,M,M,M,M,M,69.80,VHHH 202130Z 10015KT 8000 FEW010 SCT018 21/19 Q1015 NOSIG
VHHH,2017-02-20 22:00,113.9219,22.3094,69.80,66.20,88.34,100.00,14.00,0.00,29.97,M,5.59,M,FEW,SCT,M,M,800.00,1800.00,M,M,M,M,M,M,M,M,M,69.80,VHHH 202200Z 10014KT 9000 FEW008 SCT018 21/19 Q1015 NOSIG
VHHH,2017-02-20 22:30,113.9219,22.3094,69.80,66.20,88.34,100.00,17.00,0.00,30.00,M,6.21,M,FEW,SCT,M,M,800.00,1800.00,M,M,M,M,M,M,M,M,M,69.80,VHHH 202230Z 10017KT 9999 FEW008 SCT018 21/19 Q1016 NOSIG
VHHH,2017-02-20 23:00,113.9219,22.3094,69.80,64.40,82.98,110.00,17.00,0.00,30.00,M,5.59,M,FEW,SCT,M,M,1000.00,1800.00,M,M,M,M,M,M,M,M,M,69.80,VHHH 202300Z 11017KT 9000 FEW010 SCT018 21/18 Q1016 NOSIG
VHHH,2017-02-20 23:30,113.9219,22.3094,68.00,64.40,88.26,100.00,17.00,0.00,30.03,M,4.35,M,FEW,SCT,M,M,1000.00,1800.00,M,M,M,M,M,M,M,M,M,68.00,VHHH 202330Z 10017KT 7000 FEW010 SCT018 20/18 Q1017 NOSIG
VHHH,2017-02-21 00:00,113.9219,22.3094,69.80,62.60,77.90,100.00,20.00,0.00,30.03,M,4.97,M,FEW,SCT,M,M,1200.00,2000.00,M,M,M,M,M,M,M,M,M,69.80,VHHH 210000Z 10020KT 8000 FEW012 SCT020 21/17 Q1017 NOSIG
VHHH,2017-02-21 00:30,113.9219,22.3094,68.00,62.60,82.86,100.00,20.00,0.00,30.03,M,4.97,M,FEW,SCT,M,M,1200.00,2000.00,M,M,M,M,M,M,M,M,M,68.00,VHHH 210030Z 10020KT 8000 FEW012 SCT020 20/17 Q1017 NOSIG
VHHH,2017-02-21 01:00,113.9219,22.3094,66.20,62.60,88.18,100.00,20.00,0.00,30.03,M,3.73,M,FEW,SCT,M,M,800.00,1600.00,M,M,M,M,M,M,M,M,M,66.20,VHHH 210100Z 10020KT 6000 FEW008 SCT016 19/17 Q1017 NOSIG
VHHH,2017-02-21 01:30,113.9219,22.3094,66.20,60.80,82.74,90.00,24.00,0.00,30.06,M,3.73,M,FEW,SCT,M,M,800.00,1600.00,M,M,M,M,M,M,M,M,M,66.20,VHHH 210130Z 09024KT 6000 FEW008 SCT016 19/16 Q1018 NOSIG
VHHH,2017-02-21 02:00,113.9219,22.3094,66.20,60.80,82.74,100.00,24.00,0.00,30.06,M,4.35,M,FEW,SCT,M,M,800.00,1600.00,M,M,M,M,M,M,M,M,M,66.20,VHHH 210200Z 10024KT 7000 FEW008 SCT016 19/16 Q1018 NOSIG
VHHH,2017-02-21 02:30,113.9219,22.3094,66.20,60.80,82.74,100.00,24.00,0.00,30.06,M,4.97,M,FEW,SCT,M,M,800.00,1600.00,M,M,M,M,M,M,M,M,M,66.20,VHHH 210230Z 10024KT 8000 FEW008 SCT016 19/16 Q1018 NOSIG
VHHH,2017-02-21 03:00,113.9219,22.3094,68.00,60.80,77.75,100.00,21.00,0.00,30.06,M,4.97,M,FEW,SCT,M,M,1000.00,1800.00,M,M,M,M,M,M,M,M,M,68.00,VHHH 210300Z 10021KT 8000 FEW010 SCT018 20/16 Q1018 NOSIG
VHHH,2017-02-21 03:30,113.9219,22.3094,68.00,60.80,77.75,90.00,22.00,0.00,30.06,M,4.97,M,FEW,SCT,M,M,1000.00,1800.00,M,M,M,M,M,M,M,M,M,68.00,VHHH 210330Z 09022KT 8000 FEW010 SCT018 20/16 Q1018 NOSIG
VHHH,2017-02-21 04:00,113.9219,22.3094,68.00,59.00,72.92,90.00,23.00,0.00,30.03,M,5.59,M,FEW,SCT,M,M,1000.00,1800.00,M,M,M,M,M,M,M,M,M,68.00,VHHH 210400Z 09023KT 9000 FEW010 SCT018 20/15 Q1017 NOSIG
VHHH,2017-02-21 04:30,113.9219,22.3094,69.80,59.00,68.55,90.00,22.00,0.00,30.03,M,6.21,M,FEW,SCT,M,M,1000.00,1800.00,M,M,M,M,M,M,M,M,M,69.80,VHHH 210430Z 09022KT 9999 FEW010 SCT018 21/15 Q1017 NOSIG
VHHH,2017-02-21 05:00,113.9219,22.3094,69.80,59.00,68.55,100.00,20.00,0.00,30.03,M,6.21,M,FEW,SCT,M,M,1000.00,1800.00,M,M,M,M,M,M,M,M,M,69.80,VHHH 210500Z 10020KT 9999 FEW010 SCT018 21/15 Q1017 NOSIG
VHHH,2017-02-21 05:30,113.9219,22.3094,69.80,59.00,68.55,100.00,18.00,0.00,30.00,M,6.21,M,FEW,SCT,M,M,1000.00,2200.00,M,M,M,M,M,M,M,M,M,69.80,VHHH 210530Z 10018KT 9999 FEW010 SCT022 21/15 Q1016 NOSIG
VHHH,2017-02-21 06:00,113.9219,22.3094,69.80,59.00,68.55,100.00,22.00,0.00,30.00,M,6.21,M,FEW,SCT,M,M,1200.00,2300.00,M,M,M,M,M,M,M,M,M,69.80,VHHH 210600Z 10022KT 9999 FEW012 SCT023 21/15 Q1016 NOSIG
VHHH,2017-02-21 06:30,113.9219,22.3094,69.80,59.00,68.55,110.00,20.00,0.00,29.97,M,6.21,M,FEW,SCT,BKN,M,1200.00,2300.00,4500.00,M,M,M,M,M,M,M,M,69.80,VHHH 210630Z 11020KT 9999 FEW012 SCT023 BKN045 21/15 Q1015 NOSIG
VHHH,2017-02-21 07:00,113.9219,22.3094,69.80,59.00,68.55,100.00,25.00,0.00,29.97,M,6.21,M,FEW,SCT,BKN,M,1200.00,2800.00,4500.00,M,M,M,M,M,M,M,M,69.80,VHHH 210700Z 10025KT 9999 FEW012 SCT028 BKN045 21/15 Q1015 NOSIG
VHHH,2017-02-21 07:30,113.9219,22.3094,69.80,57.20,64.26,100.00,22.00,0.00,29.97,M,6.21,M,FEW,SCT,BKN,M,1400.00,2800.00,4000.00,M,M,M,M,M,M,M,M,69.80,VHHH 210730Z 10022KT 9999 FEW014 SCT028 BKN040 21/14 Q1015 NOSIG
VHHH,2017-02-21 08:00,113.9219,22.3094,68.00,59.00,72.92,100.00,21.00,0.00,29.94,M,6.21,M,FEW,SCT,BKN,M,1400.00,2800.00,3500.00,M,M,M,M,M,M,M,M,68.00,VHHH 210800Z 10021KT 9999 FEW014 SCT028 BKN035 20/15 Q1014 NOSIG
VHHH,2017-02-21 08:30,113.9219,22.3094,68.00,59.00,72.92,100.00,24.00,0.00,29.97,M,6.21,M,FEW,SCT,BKN,M,1400.00,2800.00,4000.00,M,M,M,M,M,M,M,M,68.00,VHHH 210830Z 10024KT 9999 FEW014 SCT028 BKN040 20/15 Q1015 NOSIG
VHHH,2017-02-21 09:00,113.9219,22.3094,66.20,59.00,77.60,100.00,22.00,0.00,29.97,M,6.21,M,FEW,SCT,BKN,M,1300.00,2800.00,4000.00,M,M,M,M,M,M,M,M,66.20,VHHH 210900Z 10022KT 9999 FEW013 SCT028 BKN040 19/15 Q1015 NOSIG
VHHH,2017-02-21 09:30,113.9219,22.3094,66.20,59.00,77.60,90.00,22.00,0.00,29.97,M,6.21,M,FEW,SCT,BKN,M,1300.00,2500.00,3500.00,M,-RA,M,M,M,M,M,M,66.20,VHHH 210930Z 09022KT 9999 -RA FEW013 SCT025 BKN035 19/15 Q1015 NOSIG
VHHH,2017-02-21 10:00,113.9219,22.3094,66.20,59.00,77.60,90.00,22.00,0.00,29.97,M,6.21,M,FEW,SCT,BKN,M,1300.00,2500.00,4000.00,M,-RA,M,M,M,M,M,M,66.20,VHHH 211000Z 09022KT 9999 -RA FEW013 SCT025 BKN040 19/15 Q1015 NOSIG
VHHH,2017-02-21 10:30,113.9219,22.3094,66.20,60.80,82.74,90.00,20.00,0.00,29.97,M,6.21,M,FEW,SCT,M,M,1000.00,2500.00,M,M,M,M,M,M,M,M,M,66.20,VHHH 211030Z 09020KT 9999 FEW010 SCT025 19/16 Q1015 NOSIG
VHHH,2017-02-21 11:00,113.9219,22.3094,66.20,60.80,82.74,80.00,19.00,0.00,29.97,M,6.21,M,FEW,SCT,M,M,1000.00,2500.00,M,M,M,M,M,M,M,M,M,66.20,VHHH 211100Z 08019KT 9999 FEW010 SCT025 19/16 Q1015 NOSIG
VHHH,2017-02-21 11:30,113.9219,22.3094,66.20,60.80,82.74,90.00,22.00,0.00,29.97,M,6.21,M,FEW,SCT,M,M,1000.00,2500.00,M,M,-RA,M,M,M,M,M,M,66.20,VHHH 211130Z 09022KT 9999 -RA FEW010 SCT025 19/16 Q1015 NOSIG
VHHH,2017-02-21 12:00,113.9219,22.3094,64.40,60.80,88.09,90.00,23.00,0.00,30.00,M,5.59,M,FEW,SCT,M,M,900.00,2500.00,M,M,-RA,M,M,M,M,M,M,64.40,VHHH 211200Z 09023KT 9000 -RA FEW009 SCT025 18/16 Q1016 NOSIG
VHHH,2017-02-21 12:30,113.9219,22.3094,64.40,60.80,88.09,90.00,21.00,0.00,30.00,M,5.59,M,FEW,SCT,M,M,900.00,2500.00,M,M,-RA,M,M,M,M,M,M,64.40,VHHH 211230Z 09021KT 9000 -RA FEW009 SCT025 18/16 Q1016 NOSIG
VHHH,2017-02-21 13:00,113.9219,22.3094,64.40,60.80,88.09,90.00,24.00,0.00,30.00,M,6.21,M,FEW,SCT,M,M,900.00,2500.00,M,M,-RA,M,M,M,M,M,M,64.40,VHHH 211300Z 09024KT 9999 -RA FEW009 SCT025 18/16 Q1016 NOSIG
VHHH,2017-02-21 13:30,113.9219,22.3094,64.40,60.80,88.09,90.00,24.00,0.00,30.00,M,4.97,M,FEW,SCT,M,M,900.00,2500.00,M,M,-RA,M,M,M,M,M,M,64.40,VHHH 211330Z 09024KT 8000 -RA FEW009 SCT025 18/16 Q1016 NOSIG
VHHH,2017-02-21 14:00,113.9219,22.3094,64.40,60.80,88.09,90.00,20.00,0.00,30.03,M,6.21,M,FEW,SCT,M,M,900.00,2000.00,M,M,-RA,M,M,M,M,M,M,64.40,VHHH 211400Z 09020KT 9999 -RA FEW009 SCT020 18/16 Q1017 NOSIG
VHHH,2017-02-21 14:30,113.9219,22.3094,64.40,62.60,93.88,90.00,21.00,0.00,30.03,M,6.21,M,FEW,SCT,M,M,900.00,2000.00,M,M,-RA,M,M,M,M,M,M,64.40,VHHH 211430Z 09021KT 9999 -RA FEW009 SCT020 18/17 Q1017 NOSIG
VHHH,2017-02-21 15:00,113.9219,22.3094,64.40,60.80,88.09,90.00,16.00,0.00,30.03,M,6.21,M,FEW,SCT,M,M,900.00,2000.00,M,M,-RA,M,M,M,M,M,M,64.40,VHHH 211500Z 09016KT 9999 -RA FEW009 SCT020 18/16 Q1017 NOSIG
VHHH,2017-02-21 15:15,113.9219,22.3094,64.40,62.60,93.88,80.00,12.00,0.00,30.03,M,3.73,M,FEW,SCT,M,M,900.00,2000.00,M,M,RA,M,M,M,M,M,M,64.40,VHHH 211515Z 08012KT 6000 RA FEW009 SCT020 18/17 Q1017 TEMPO 4000 RA
VHHH,2017-02-21 15:30,113.9219,22.3094,64.40,60.80,88.09,80.00,14.00,0.00,30.03,M,4.35,M,FEW,SCT,M,M,900.00,2000.00,M,M,RA,M,M,M,M,M,M,64.40,VHHH 211530Z 08014KT 7000 RA FEW009 SCT020 18/16 Q1017 TEMPO 4000 RA
VHHH,2017-02-21 15:49,113.9219,22.3094,64.40,60.80,88.09,80.00,12.00,0.00,30.03,M,2.61,M,FEW,SCT,M,M,900.00,2000.00,M,M,RA,M,M,M,M,M,M,64.40,VHHH 211549Z 08012KT 4200 RA FEW009 SCT020 18/16 Q1017 NOSIG
VHHH,2017-02-21 16:00,113.9219,22.3094,64.40,62.60,93.88,90.00,14.00,0.00,30.03,M,4.97,M,FEW,SCT,M,M,900.00,2000.00,M,M,RA,M,M,M,M,M,M,64.40,VHHH 211600Z 09014KT 8000 RA FEW009 SCT020 18/17 Q1017 NOSIG
VHHH,2017-02-21 16:15,113.9219,22.3094,64.40,60.80,88.09,90.00,11.00,0.00,30.00,M,6.21,M,FEW,SCT,M,M,900.00,2000.00,M,M,-RA,M,M,M,M,M,M,64.40,VHHH 211615Z 09011KT 9999 -RA FEW009 SCT020 18/16 Q1016 RERA TEMPO 4000 RA
VHHH,2017-02-21 16:30,113.9219,22.3094,64.40,60.80,88.09,90.00,13.00,0.00,30.00,M,4.35,M,FEW,SCT,M,M,800.00,1800.00,M,M,RA,M,M,M,M,M,M,64.40,VHHH 211630Z 09013KT 7000 RA FEW008 SCT018 18/16 Q1016 TEMPO 4000 RA
VHHH,2017-02-21 16:40,113.9219,22.3094,64.40,60.80,88.09,80.00,15.00,0.00,30.00,M,5.59,M,FEW,SCT,M,M,800.00,1800.00,M,M,-RA,M,M,M,M,M,M,64.40,VHHH 211640Z 08015KT 9000 -RA FEW008 SCT018 18/16 Q1016 RERA TEMPO 4000 RA
VHHH,2017-02-21 17:00,113.9219,22.3094,64.40,60.80,88.09,90.00,14.00,0.00,30.00,M,6.21,M,FEW,SCT,M,M,800.00,1800.00,M,M,-SHRA,M,M,M,M,M,M,64.40,VHHH 211700Z 09014KT 9999 -SHRA FEW008 SCT018 18/16 Q1016 TEMPO 10020G30KT 3000 SHRA FEW008CB SCT020
VHHH,2017-02-21 17:30,113.9219,22.3094,64.40,60.80,88.09,90.00,15.00,0.00,29.97,M,6.21,M,FEW,SCT,M,M,800.00,1800.00,M,M,-SHRA,M,M,M,M,M,M,64.40,VHHH 211730Z 09015KT 9999 -SHRA FEW008CB SCT018 18/16 Q1015 TEMPO 10020G30KT 3000 SHRA FEW008CB SCT020
VHHH,2017-02-21 17:40,113.9219,22.3094,64.40,60.80,88.09,80.00,17.00,0.00,29.97,M,6.21,M,FEW,SCT,M,M,800.00,1800.00,M,M,VCTS -SHRA,M,M,M,M,M,M,64.40,VHHH 211740Z 08017KT 9999 VCTS -SHRA FEW008CB SCT018 18/16 Q1015 TEMPO 10020G30KT 3000 SHRA FEW008CB SCT020
VHHH,2017-02-21 17:52,113.9219,22.3094,64.40,60.80,88.09,80.00,16.00,0.00,29.97,M,4.35,M,FEW,SCT,M,M,800.00,1800.00,M,M,TSRA,M,M,M,M,M,M,64.40,VHHH 211752Z 08016KT 7000 TSRA FEW008CB SCT018 18/16 Q1015 TEMPO VRB25G35KT 2000 TSRA FEW008CB SCT020
VHHH,2017-02-21 18:00,113.9219,22.3094,64.40,60.80,88.09,80.00,14.00,0.00,29.97,M,4.35,M,FEW,SCT,M,M,800.00,1800.00,M,M,TSRA,M,M,M,M,M,M,64.40,VHHH 211800Z 08014KT 7000 TSRA FEW008CB SCT018 18/16 Q1015 TEMPO VRB25G35KT 2000 TSRA FEW008CB SCT020
VHHH,2017-02-21 18:04,113.9219,22.3094,62.60,60.80,93.83,80.00,11.00,0.00,29.97,M,1.86,M,FEW,SCT,M,M,800.00,1800.00,M,M,TSRA,M,M,M,M,M,M,62.60,VHHH 211804Z 08011KT 3000 TSRA FEW008CB SCT018 17/16 Q1015 TEMPO VRB25G35KT 2000 TSRA FEW008CB SCT020
VHHH,2017-02-21 18:06,113.9219,22.3094,62.60,60.80,93.83,80.00,10.00,0.00,29.97,M,1.43,M,FEW,SCT,M,M,800.00,1800.00,M,M,+TSRA,M,M,M,M,M,M,62.60,VHHH 211806Z 08010KT 2300 1200W R07R/1800D R25L/P2000D R07L/P2000N R25R/P2000N +TSRA FEW008CB SCT018 17/16 Q1015 TEMPO VRB25G35KT 2000 TSRA FEW008CB SCT020
VHHH,2017-02-21 18:19,113.9219,22.3094,62.60,62.60,100.00,40.00,13.00,0.00,30.00,M,1.99,M,FEW,SCT,M,M,800.00,1800.00,M,M,SHRA,M,M,M,M,M,M,62.60,VHHH 211819Z 04013KT 340V070 3200 1400E R07R/2000U R25L/P2000U R07L/P2000U R25R/P2000N SHRA FEW008CB SCT018 17/17 Q1016 RETS RERA TEMPO VRB25G35KT 2000 TSRA FEW008CB SCT020
VHHH,2017-02-21 18:25,113.9219,22.3094,62.60,62.60,100.00,360.00,9.00,0.00,30.00,M,0.81,M,FEW,SCT,M,M,800.00,1800.00,M,M,+SHRA VCTS,M,M,M,M,M,M,62.60,VHHH 211825Z 36009KT 300V060 1300 0800N R07R/P2000D R25L/P2000N R07L/P2000D R25R/P2000U +SHRA VCTS FEW008CB SCT018 17/17 Q1016 TEMPO VRB25G35KT 2000 TSRA FEW008CB SCT020
VHHH,2017-02-21 18:30,113.9219,22.3094,62.60,62.60,100.00,70.00,8.00,0.00,30.00,M,2.17,M,FEW,SCT,M,M,800.00,1800.00,M,M,SHRA VCTS,M,M,M,M,M,M,62.60,VHHH 211830Z 07008KT 050V170 3500 SHRA VCTS FEW008CB SCT018 17/17 Q1016 RERA TEMPO VRB25G35KT 2000 TSRA FEW008CB SCT020
VHHH,2017-02-21 18:40,113.9219,22.3094,62.60,62.60,100.00,110.00,12.00,0.00,29.97,M,4.35,M,FEW,SCT,M,M,800.00,2500.00,M,M,-SHRA,M,M,M,M,M,M,62.60,VHHH 211840Z 11012KT 100V240 7000 -SHRA FEW008CB SCT025 17/17 Q1015 RERA RETS TEMPO 4000 SHRA
VHHH,2017-02-21 19:00,113.9219,22.3094,64.40,62.60,93.88,90.00,13.00,0.00,29.97,M,6.21,M,FEW,SCT,M,M,1000.00,2500.00,M,M,-SHRA,M,M,M,M,M,M,64.40,VHHH 211900Z 09013KT 9999 -SHRA FEW010 SCT025 18/17 Q1015 NOSIG
VHHH,2017-02-21 19:30,113.9219,22.3094,64.40,62.60,93.88,90.00,10.00,0.00,29.97,M,6.21,M,FEW,SCT,M,M,1000.00,2500.00,M,M,M,M,M,M,M,M,M,64.40,VHHH 211930Z 09010KT 9999 FEW010 SCT025 18/17 Q1015 NOSIG
VHHH,2017-02-21 20:00,113.9219,22.3094,64.40,62.60,93.88,100.00,12.00,0.00,29.94,M,6.21,M,FEW,SCT,M,M,1000.00,3500.00,M,M,M,M,M,M,M,M,M,64.40,VHHH 212000Z 10012KT 9999 FEW010 SCT035 18/17 Q1014 NOSIG
VHHH,2017-02-21 20:30,113.9219,22.3094,66.20,60.80,82.74,80.00,12.00,0.00,29.94,M,6.21,M,FEW,SCT,M,M,1000.00,3500.00,M,M,M,M,M,M,M,M,M,66.20,VHHH 212030Z 08012KT 9999 FEW010 SCT035 19/16 Q1014 NOSIG
VHHH,2017-02-21 21:00,113.9219,22.3094,66.20,60.80,82.74,80.00,12.00,0.00,29.94,M,6.21,M,FEW,SCT,M,M,1000.00,3500.00,M,M,M,M,M,M,M,M,M,66.20,VHHH 212100Z 08012KT 9999 FEW010 SCT035 19/16 Q1014 NOSIG
VHHH,2017-02-21 21:30,113.9219,22.3094,66.20,62.60,88.18,100.00,10.00,0.00,29.94,M,6.21,M,FEW,SCT,M,M,1200.00,3000.00,M,M,M,M,M,M,M,M,M,66.20,VHHH 212130Z 10010KT 9999 FEW012 SCT030 19/17 Q1014 NOSIG
VHHH,2017-02-21 22:00,113.9219,22.3094,66.20,62.60,88.18,80.00,9.00,0.00,29.97,M,6.21,M,FEW,SCT,M,M,1200.00,2500.00,M,M,M,M,M,M,M,M,M,66.20,VHHH 212200Z 08009KT 9999 FEW012 SCT025 19/17 Q1015 NOSIG
VHHH,2017-02-21 22:30,113.9219,22.3094,66.20,62.60,88.18,70.00,8.00,0.00,29.97,M,6.21,M,FEW,SCT,M,M,1200.00,2500.00,M,M,M,M,M,M,M,M,M,66.20,VHHH 212230Z 07008KT 9999 FEW012 SCT025 19/17 Q1015 NOSIG
VHHH,2017-02-21 23:00,113.9219,22.3094,66.20,62.60,88.18,110.00,10.00,0.00,29.97,M,6.21,M,FEW,SCT,M,M,1200.00,2500.00,M,M,M,M,M,M,M,M,M,66.20,VHHH 212300Z 11010KT 9999 FEW012 SCT025 19/17 Q1015 NOSIG
VHHH,2017-02-21 23:30,113.9219,22.3094,66.20,62.60,88.18,100.00,10.00,0.00,29.97,M,6.21,M,FEW,SCT,M,M,1200.00,2200.00,M,M,M,M,M,M,M,M,M,66.20,VHHH 212330Z 10010KT 9999 FEW012 SCT022 19/17 Q1015 NOSIG
VHHH,2017-02-22 00:00,113.9219,22.3094,68.00,62.60,82.86,90.00,11.00,0.00,29.97,M,6.21,M,FEW,SCT,M,M,1200.00,2200.00,M,M,M,M,M,M,M,M,M,68.00,VHHH 220000Z 09011KT 9999 FEW012 SCT022 20/17 Q1015 NOSIG
VHHH,2017-02-22 00:30,113.9219,22.3094,68.00,62.60,82.86,M,4.00,0.00,30.00,M,6.21,M,FEW,SCT,M,M,1200.00,2200.00,M,M,M,M,M,M,M,M,M,68.00,VHHH 220030Z VRB04KT 9999 FEW012 SCT022 20/17 Q1016 NOSIG
VHHH,2017-02-22 01:00,113.9219,22.3094,68.00,62.60,82.86,70.00,8.00,0.00,30.03,M,6.21,M,FEW,SCT,M,M,1200.00,2200.00,M,M,M,M,M,M,M,M,M,68.00,VHHH 220100Z 07008KT 050V120 9999 FEW012 SCT022 20/17 Q1017 NOSIG
VHHH,2017-02-22 01:30,113.9219,22.3094,69.80,64.40,82.98,90.00,11.00,0.00,30.00,M,6.21,M,FEW,SCT,M,M,1200.00,2200.00,M,M,M,M,M,M,M,M,M,69.80,VHHH 220130Z 09011KT 9999 FEW012 SCT022 21/18 Q1016 NOSIG
VHHH,2017-02-22 02:00,113.9219,22.3094,71.60,64.40,78.04,90.00,11.00,0.00,30.00,M,6.21,M,FEW,SCT,M,M,1400.00,2200.00,M,M,M,M,M,M,M,M,M,71.60,VHHH 220200Z 09011KT 070V130 9999 FEW014 SCT022 22/18 Q1016 NOSIG
VHHH,2017-02-22 02:30,113.9219,22.3094,71.60,64.40,78.04,M,6.00,0.00,30.00,M,6.21,M,FEW,SCT,M,M,1400.00,2500.00,M,M,M,M,M,M,M,M,M,71.60,VHHH 220230Z VRB06KT 9999 FEW014 SCT025 22/18 Q1016 NOSIG
VHHH,2017-02-22 03:00,113.9219,22.3094,71.60,64.40,78.04,290.00,4.00,0.00,30.00,M,6.21,M,FEW,SCT,M,M,1400.00,2500.00,M,M,M,M,M,M,M,M,M,71.60,VHHH 220300Z 29004KT 260V340 9999 FEW014 SCT025 22/18 Q1016 NOSIG
VHHH,2017-02-22 03:13,113.9219,22.3094,73.40,64.40,73.44,60.00,10.00,0.00,30.00,M,6.21,M,FEW,SCT,M,M,1400.00,2500.00,M,M,M,M,M,M,M,M,M,73.40,VHHH 220313Z 06010KT 9999 FEW014 SCT025 23/18 Q1016 NOSIG
VHHH,2017-02-22 03:30,113.9219,22.3094,73.40,64.40,73.44,60.00,11.00,0.00,29.97,M,6.21,M,FEW,SCT,M,M,1300.00,2500.00,M,M,M,M,M,M,M,M,M,73.40,VHHH 220330Z 06011KT 9999 FEW013 SCT025 23/18 Q1015 NOSIG
VHHH,2017-02-22 04:00,113.9219,22.3094,75.20,64.40,69.14,70.00,10.00,0.00,29.97,M,6.21,M,FEW,SCT,M,M,1300.00,2500.00,M,M,M,M,M,M,M,M,M,75.20,VHHH 220400Z 07010KT 050V160 9999 FEW013 SCT025 24/18 Q1015 NOSIG
VHHH,2017-02-22 04:30,113.9219,22.3094,73.40,66.20,78.19,60.00,10.00,0.00,29.97,M,6.21,M,FEW,SCT,M,M,1300.00,2800.00,M,M,M,M,M,M,M,M,M,73.40,VHHH 220430Z 06010KT 9999 FEW013 SCT028 23/19 Q1015 NOSIG
VHHH,2017-02-22 05:00,113.9219,22.3094,77.00,66.20,69.33,60.00,10.00,0.00,29.94,M,6.21,M,FEW,SCT,M,M,1300.00,2800.00,M,M,M,M,M,M,M,M,M,77.00,VHHH 220500Z 06010KT 9999 FEW013 SCT028 25/19 Q1014 NOSIG
VHHH,2017-02-22 05:30,113.9219,22.3094,77.00,66.20,69.33,60.00,11.00,0.00,29.91,M,6.21,M,FEW,SCT,M,M,1300.00,2800.00,M,M,M,M,M,M,M,M,M,77.00,VHHH 220530Z 06011KT 9999 FEW013 SCT028 25/19 Q1013 NOSIG
VHHH,2017-02-22 06:00,113.9219,22.3094,75.20,66.20,73.61,M,7.00,0.00,29.91,M,6.21,M,FEW,SCT,M,M,1500.00,3000.00,M,M,M,M,M,M,M,M,M,75.20,VHHH 220600Z VRB07KT 9999 FEW015 SCT030 24/19 Q1013 NOSIG
VHHH,2017-02-22 06:30,113.9219,22.3094,75.20,66.20,73.61,M,4.00,0.00,29.91,M,6.21,M,FEW,SCT,M,M,1500.00,3000.00,M,M,M,M,M,M,M,M,M,75.20,VHHH 220630Z VRB04KT 9999 FEW015 SCT030 24/19 Q1013 NOSIG
VHHH,2017-02-22 07:00,113.9219,22.3094,75.20,66.20,73.61,M,3.00,0.00,29.88,M,6.21,M,FEW,SCT,M,M,1500.00,3000.00,M,M,M,M,M,M,M,M,M,75.20,VHHH 220700Z VRB03KT 9999 FEW015 SCT030 24/19 Q1012 NOSIG
VHHH,2017-02-22 07:30,113.9219,22.3094,75.20,66.20,73.61,60.00,10.00,0.00,29.88,M,6.21,M,FEW,SCT,M,M,1500.00,3000.00,M,M,M,M,M,M,M,M,M,75.20,VHHH 220730Z 06010KT 9999 FEW015 SCT030 24/19 Q1012 NOSIG
VHHH,2017-02-22 08:00,113.9219,22.3094,75.20,66.20,73.61,60.00,11.00,0.00,29.88,M,6.21,M,FEW,SCT,M,M,2000.00,3500.00,M,M,M,M,M,M,M,M,M,75.20,VHHH 220800Z 06011KT 9999 FEW020 SCT035 24/19 Q1012 NOSIG
VHHH,2017-02-22 08:30,113.9219,22.3094,73.40,66.20,78.19,70.00,7.00,0.00,29.88,M,6.21,M,FEW,SCT,M,M,1600.00,3500.00,M,M,M,M,M,M,M,M,M,73.40,VHHH 220830Z 07007KT 9999 FEW016 SCT035 23/19 Q1012 NOSIG
VHHH,2017-02-22 09:00,113.9219,22.3094,75.20,66.20,73.61,60.00,8.00,0.00,29.88,M,6.21,M,FEW,SCT,M,M,1600.00,3500.00,M,M,M,M,M,M,M,M,M,75.20,VHHH 220900Z 06008KT 9999 FEW016 SCT035 24/19 Q1012 NOSIG
VHHH,2017-02-22 09:30,113.9219,22.3094,73.40,66.20,78.19,20.00,8.00,0.00,29.91,M,6.21,M,FEW,SCT,M,M,1800.00,3500.00,M,M,M,M,M,M,M,M,M,73.40,VHHH 220930Z 02008KT 9999 FEW018 SCT035 23/19 Q1013 NOSIG
VHHH,2017-02-22 10:00,113.9219,22.3094,73.40,66.20,78.19,70.00,7.00,0.00,29.91,M,6.21,M,FEW,SCT,M,M,1800.00,3500.00,M,M,M,M,M,M,M,M,M,73.40,VHHH 221000Z 07007KT 9999 FEW018 SCT035 23/19 Q1013 NOSIG
VHHH,2017-02-22 10:30,113.9219,22.3094,73.40,66.20,78.19,M,4.00,0.00,29.91,M,6.21,M,FEW,SCT,M,M,1800.00,3500.00,M,M,M,M,M,M,M,M,M,73.40,VHHH 221030Z VRB04KT 9999 FEW018 SCT035 23/19 Q1013 NOSIG
VHHH,2017-02-22 11:00,113.9219,22.3094,73.40,66.20,78.19,90.00,6.00,0.00,29.91,M,6.21,M,FEW,M,M,M,3500.00,M,M,M,M,M,M,M,M,M,M,73.40,VHHH 221100Z 09006KT 050V130 9999 FEW035 23/19 Q1013 NOSIG
VHHH,2017-02-22 11:30,113.9219,22.3094,71.60,66.20,83.09,60.00,10.00,0.00,29.91,M,5.59,M,FEW,M,M,M,3500.00,M,M,M,M,M,M,M,M,M,M,71.60,VHHH 221130Z 06010KT 9000 FEW035 22/19 Q1013 NOSIG
VHHH,2017-02-22 12:00,113.9219,22.3094,71.60,64.40,78.04,70.00,10.00,0.00,29.91,M,6.21,M,FEW,M,M,M,4500.00,M,M,M,M,M,M,M,M,M,M,71.60,VHHH 221200Z 07010KT 9999 FEW045 22/18 Q1013 NOSIG
VHHH,2017-02-22 12:30,113.9219,22.3094,69.80,66.20,88.34,80.00,8.00,0.00,29.94,M,6.21,M,FEW,M,M,M,1500.00,M,M,M,M,M,M,M,M,M,M,69.80,VHHH 221230Z 08008KT 9999 FEW015 21/19 Q1014 NOSIG
VHHH,2017-02-22 13:00,113.9219,22.3094,69.80,64.40,82.98,90.00,10.00,0.00,29.94,M,5.59,M,FEW,SCT,M,M,1500.00,3000.00,M,M,M,M,M,M,M,M,M,69.80,VHHH 221300Z 09010KT 9000 FEW015 SCT030 21/18 Q1014 NOSIG
VHHH,2017-02-22 13:30,113.9219,22.3094,71.60,66.20,83.09,70.00,8.00,0.00,29.94,M,4.97,M,FEW,SCT,M,M,1500.00,3000.00,M,M,M,M,M,M,M,M,M,71.60,VHHH 221330Z 07008KT 8000 FEW015 SCT030 22/19 Q1014 NOSIG
VHHH,2017-02-22 14:00,113.9219,22.3094,71.60,66.20,83.09,70.00,10.00,0.00,29.94,M,4.35,M,FEW,M,M,M,1500.00,M,M,M,M,M,M,M,M,M,M,71.60,VHHH 221400Z 07010KT 7000 FEW015 22/19 Q1014 NOSIG
VHHH,2017-02-22 14:30,113.9219,22.3094,69.80,66.20,88.34,80.00,11.00,0.00,29.97,M,4.35,M,FEW,SCT,M,M,1500.00,3000.00,M,M,M,M,M,M,M,M,M,69.80,VHHH 221430Z 08011KT 7000 FEW015 SCT030 21/19 Q1015 NOSIG
VHHH,2017-02-22 15:00,113.9219,22.3094,69.80,66.20,88.34,80.00,9.00,0.00,29.97,M,4.35,M,FEW,SCT,M,M,1500.00,3000.00,M,M,M,M,M,M,M,M,M,69.80,VHHH 221500Z 08009KT 7000 FEW015 SCT030 21/19 Q1015 NOSIG
VHHH,2017-02-22 15:30,113.9219,22.3094,69.80,66.20,88.34,80.00,10.00,0.00,29.97,M,4.97,M,FEW,SCT,M,M,1500.00,3000.00,M,M,M,M,M,M,M,M,M,69.80,VHHH 221530Z 08010KT 8000 FEW015 SCT030 21/19 Q1015 NOSIG
VHHH,2017-02-22 16:00,113.9219,22.3094,69.80,66.20,88.34,70.00,8.00,0.00,29.97,M,4.35,M,FEW,SCT,M,M,1500.00,3000.00,M,M,M,M,M,M,M,M,M,69.80,VHHH 221600Z 07008KT 7000 FEW015 SCT030 21/19 Q1015 BECMG 36010KT
VHHH,2017-02-22 19:30,113.9219,22.3094,69.80,66.20,88.34,340.00,4.00,0.00,29.97,M,3.11,M,FEW,SCT,M,M,800.00,1800.00,M,M,-RA,M,M,M,M,M,M,69.80,VHHH 221930Z 34004KT 5000 -RA FEW008 SCT018 21/19 Q1015 TEMPO 3000 BR -RA
VHHH,2017-02-22 19:45,113.9219,22.3094,69.80,66.20,88.34,340.00,8.00,0.00,29.97,M,2.92,M,FEW,SCT,M,M,800.00,1800.00,M,M,-RA BR,M,M,M,M,M,M,69.80,VHHH 221945Z 34008KT 4700 -RA BR FEW008 SCT018 21/19 Q1015 TEMPO 3000 BR -RA
VHHH,2017-02-22 19:48,113.9219,22.3094,68.00,66.20,93.97,340.00,10.00,0.00,29.97,M,1.49,M,FEW,SCT,M,M,800.00,1800.00,M,M,-RA BR,M,M,M,M,M,M,68.00,VHHH 221948Z 34010KT 2400 -RA BR FEW008 SCT018 20/19 Q1015 TEMPO 3000 BR -RA
VHHH,2017-02-22 20:00,113.9219,22.3094,68.00,66.20,93.97,340.00,12.00,0.00,29.97,M,1.49,M,FEW,SCT,M,M,600.00,1800.00,M,M,-DZ BR,M,M,M,M,M,M,68.00,VHHH 222000Z 34012KT 2400 -DZ BR FEW006 SCT018 20/19 Q1015 NOSIG
VHHH,2017-02-22 20:30,113.9219,22.3094,66.20,64.40,93.92,330.00,13.00,0.00,29.97,M,1.37,M,FEW,SCT,M,M,600.00,1800.00,M,M,-DZ BR,M,M,M,M,M,M,66.20,VHHH 222030Z 33013KT 2200 -DZ BR FEW006 SCT018 19/18 Q1015 NOSIG
VHHH,2017-02-22 21:00,113.9219,22.3094,64.40,64.40,100.00,320.00,12.00,0.00,29.97,M,1.30,M,FEW,SCT,M,M,500.00,1500.00,M,M,-DZ BR,M,M,M,M,M,M,64.40,VHHH 222100Z 32012KT 2100 -DZ BR FEW005 SCT015 18/18 Q1015 NOSIG
VHHH,2017-02-22 21:30,113.9219,22.3094,64.40,62.60,93.88,320.00,13.00,0.00,30.00,M,1.49,M,FEW,SCT,M,M,500.00,1500.00,M,M,-DZ BR,M,M,M,M,M,M,64.40,VHHH 222130Z 32013KT 2400 -DZ BR FEW005 SCT015 18/17 Q1016 NOSIG
VHHH,2017-02-22 21:50,113.9219,22.3094,64.40,62.60,93.88,320.00,9.00,0.00,30.00,M,1.93,M,FEW,SCT,M,M,500.00,1500.00,M,M,-DZ BR,M,M,M,M,M,M,64.40,VHHH 222150Z 32009KT 3100 -DZ BR FEW005 SCT015 18/17 Q1016 TEMPO 2000 -RA BR
VHHH,2017-02-22 22:00,113.9219,22.3094,64.40,62.60,93.88,320.00,8.00,0.00,30.00,M,1.99,M,FEW,SCT,M,M,500.00,1500.00,M,M,-DZ BR,M,M,M,M,M,M,64.40,VHHH 222200Z 32008KT 3200 -DZ BR FEW005 SCT015 18/17 Q1016 TEMPO 2000 -RA BR
VHHH,2017-02-22 22:30,113.9219,22.3094,64.40,60.80,88.09,320.00,8.00,0.00,30.00,M,2.86,M,FEW,SCT,M,M,600.00,1800.00,M,M,-DZ BR,M,M,M,M,M,M,64.40,VHHH 222230Z 32008KT 4600 -DZ BR FEW006 SCT018 18/16 Q1016 TEMPO 2000 -RA BR
VHHH,2017-02-22 23:00,113.9219,22.3094,62.60,60.80,93.83,320.00,12.00,0.00,30.03,M,2.42,M,FEW,SCT,M,M,600.00,1800.00,M,M,BR,M,M,M,M,M,M,62.60,VHHH 222300Z 32012KT 3900 BR FEW006 SCT018 17/16 Q1017 TEMPO 2000 -RA BR
VHHH,2017-02-22 23:30,113.9219,22.3094,62.60,60.80,93.83,320.00,11.00,0.00,30.03,M,1.86,M,FEW,SCT,M,M,600.00,1800.00,M,M,BR,M,M,M,M,M,M,62.60,VHHH 222330Z 32011KT 3000 BR FEW006 SCT018 17/16 Q1017 TEMPO 2000 -RA BR
VHHH,2017-02-22 23:33,113.9219,22.3094,62.60,60.80,93.83,330.00,11.00,0.00,30.03,M,1.80,M,FEW,SCT,M,M,600.00,1800.00,M,M,BR,M,M,M,M,M,M,62.60,VHHH 222333Z 33011KT 2900 BR FEW006 SCT018 17/16 Q1017 TEMPO 2000 -RA BR
VHHH,2017-02-23 00:00,113.9219,22.3094,62.60,60.80,93.83,330.00,10.00,0.00,30.03,M,1.37,M,FEW,SCT,M,M,600.00,1800.00,M,M,BR,M,M,M,M,M,M,62.60,VHHH 230000Z 33010KT 2200 BR FEW006 SCT018 17/16 Q1017 NOSIG
VHHH,2017-02-23 00:30,113.9219,22.3094,62.60,60.80,93.83,320.00,12.00,0.00,30.06,M,1.37,M,FEW,SCT,M,M,600.00,1800.00,M,M,BR,M,M,M,M,M,M,62.60,VHHH 230030Z 32012KT 2200 BR FEW006 SCT018 17/16 Q1018 NOSIG
VHHH,2017-02-23 01:00,113.9219,22.3094,62.60,60.80,93.83,320.00,15.00,0.00,30.09,M,1.37,M,FEW,SCT,M,M,600.00,1800.00,M,M,BR -DZ,M,M,M,M,M,M,62.60,VHHH 230100Z 32015KT 2200 BR -DZ FEW006 SCT018 17/16 Q1019 NOSIG
VHHH,2017-02-23 01:30,113.9219,22.3094,62.60,60.80,93.83,320.00,12.00,0.00,30.09,M,1.06,M,FEW,SCT,M,M,600.00,1800.00,M,M,BR,M,M,M,M,M,M,62.60,VHHH 230130Z 32012KT 1700 BR FEW006 SCT018 17/16 Q1019 NOSIG
VHHH,2017-02-23 02:00,113.9219,22.3094,62.60,60.80,93.83,320.00,15.00,0.00,30.09,M,1.12,M,FEW,SCT,M,M,600.00,1800.00,M,M,BR -RA,M,M,M,M,M,M,62.60,VHHH 230200Z 32015KT 1800 R07R/1400N R25L/1700N R07L/1900N R25R/P2000N BR -RA FEW006 SCT018 17/16 Q1019 NOSIG
VHHH,2017-02-23 02:30,113.9219,22.3094,60.80,59.00,93.79,320.00,17.00,0.00,30.09,M,1.12,M,FEW,SCT,M,M,600.00,1800.00,M,M,BR -RA,M,M,M,M,M,M,60.80,VHHH 230230Z 32017KT 1800 BR -RA FEW006 SCT018 16/15 Q1019 NOSIG
VHHH,2017-02-23 03:00,113.9219,22.3094,60.80,59.00,93.79,330.00,15.00,0.00,30.09,M,1.06,M,FEW,SCT,M,M,600.00,1800.00,M,M,BR -RA,M,M,M,M,M,M,60.80,VHHH 230300Z 33015KT 1700 1400E R07R/1400N R25L/1500N R07L/1800N R25R/1900N BR -RA FEW006 SCT018 16/15 Q1019 NOSIG
VHHH,2017-02-23 03:30,113.9219,22.3094,60.80,59.00,93.79,330.00,19.00,0.00,30.09,M,1.12,M,FEW,SCT,M,M,600.00,1800.00,M,M,-RA BR,M,M,M,M,M,M,60.80,VHHH 230330Z 33019KT 1800 -RA BR FEW006 SCT018 16/15 Q1019 NOSIG
VHHH,2017-02-23 03:54,113.9219,22.3094,60.80,59.00,93.79,330.00,20.00,0.00,30.09,M,1.18,M,FEW,SCT,M,M,600.00,1800.00,M,M,-RA BR,M,M,M,M,M,M,60.80,VHHH 230354Z 33020KT 1900 R07R/1300N R25L/1600N R07L/1900U R25R/P2000U -RA BR FEW006 SCT018 16/15 Q1019 NOSIG
VHHH,2017-02-23 04:00,113.9219,22.3094,59.00,59.00,100.00,330.00,20.00,0.00,30.09,M,1.30,M,FEW,SCT,M,M,600.00,1800.00,M,M,-RA BR,M,M,M,M,M,M,59.00,VHHH 230400Z 33020KT 2100 R07R/1400N R25L/1700N R07L/P2000U R25R/P2000N -RA BR FEW006 SCT018 15/15 Q1019 NOSIG
VHHH,2017-02-23 04:30,113.9219,22.3094,59.00,57.20,93.74,330.00,20.00,0.00,30.09,M,1.68,M,FEW,SCT,M,M,600.00,1800.00,M,M,-RA BR,M,M,M,M,M,M,59.00,VHHH 230430Z 33020KT 2700 -RA BR FEW006 SCT018 15/14 Q1019 NOSIG
VHHH,2017-02-23 04:50,113.9219,22.3094,59.00,57.20,93.74,330.00,21.00,0.00,30.06,M,2.30,M,FEW,SCT,M,M,600.00,1800.00,M,M,BR,M,M,M,M,M,M,59.00,VHHH 230450Z 33021KT 3700 BR FEW006 SCT018 15/14 Q1018 NOSIG
VHHH,2017-02-23 05:00,113.9219,22.3094,60.80,57.20,87.92,340.00,20.00,0.00,30.06,M,2.73,M,FEW,SCT,M,M,800.00,2000.00,M,M,BR,M,M,M,M,M,M,60.80,VHHH 230500Z 34020KT 4400 BR FEW008 SCT020 16/14 Q1018 NOSIG
VHHH,2017-02-23 05:30,113.9219,22.3094,60.80,57.20,87.92,330.00,18.00,0.00,30.06,M,3.11,M,FEW,SCT,M,M,800.00,2000.00,M,M,M,M,M,M,M,M,M,60.80,VHHH 230530Z 33018KT 5000 FEW008 SCT020 16/14 Q1018 NOSIG
VHHH,2017-02-23 06:00,113.9219,22.3094,60.80,55.40,82.37,330.00,17.00,0.00,30.06,M,3.11,M,FEW,SCT,M,M,800.00,2000.00,M,M,-RA,M,M,M,M,M,M,60.80,VHHH 230600Z 33017KT 5000 -RA FEW008 SCT020 16/13 Q1018 NOSIG
VHHH,2017-02-23 06:30,113.9219,22.3094,59.00,55.40,87.83,330.00,20.00,0.00,30.03,M,3.11,M,FEW,SCT,M,M,800.00,2000.00,M,M,M,M,M,M,M,M,M,59.00,VHHH 230630Z 33020KT 5000 FEW008 SCT020 15/13 Q1017 NOSIG
VHHH,2017-02-23 06:45,113.9219,22.3094,59.00,55.40,87.83,330.00,20.00,0.00,30.03,M,3.73,M,FEW,SCT,M,M,800.00,2000.00,M,M,M,M,M,M,M,M,M,59.00,VHHH 230645Z 33020KT 6000 FEW008 SCT020 15/13 Q1017 NOSIG
VHHH,2017-02-23 07:00,113.9219,22.3094,60.80,55.40,82.37,330.00,20.00,0.00,30.03,M,3.73,M,FEW,SCT,M,M,1000.00,2000.00,M,M,M,M,M,M,M,M,M,60.80,VHHH 230700Z 33020KT 6000 FEW010 SCT020 16/13 Q1017 NOSIG
VHHH,2017-02-23 07:30,113.9219,22.3094,60.80,55.40,82.37,340.00,15.00,0.00,30.03,M,3.73,M,FEW,SCT,M,M,1000.00,2000.00,M,M,M,M,M,M,M,M,M,60.80,VHHH 230730Z 34015KT 6000 FEW010 SCT020 16/13 Q1017 NOSIG
VHHH,2017-02-23 08:00,113.9219,22.3094,60.80,55.40,82.37,340.00,14.00,0.00,30.03,M,3.73,M,FEW,SCT,M,M,1000.00,2000.00,M,M,M,M,M,M,M,M,M,60.80,VHHH 230800Z 34014KT 6000 FEW010 SCT020 16/13 Q1017 NOSIG
VHHH,2017-02-23 08:30,113.9219,22.3094,60.80,53.60,77.14,330.00,18.00,0.00,30.03,M,4.97,M,FEW,SCT,M,M,1000.00,2000.00,M,M,M,M,M,M,M,M,M,60.80,VHHH 230830Z 33018KT 8000 FEW010 SCT020 16/12 Q1017 NOSIG
VHHH,2017-02-23 09:00,113.9219,22.3094,60.80,53.60,77.14,350.00,16.00,0.00,30.06,M,4.97,M,FEW,SCT,M,M,1000.00,2000.00,M,M,M,M,M,M,M,M,M,60.80,VHHH 230900Z 35016KT 8000 FEW010 SCT020 16/12 Q1018 NOSIG
VHHH,2017-02-23 09:30,113.9219,22.3094,60.80,53.60,77.14,350.00,13.00,0.00,30.06,M,4.97,M,FEW,SCT,M,M,1000.00,2000.00,M,M,M,M,M,M,M,M,M,60.80,VHHH 230930Z 35013KT 8000 FEW010 SCT020 16/12 Q1018 NOSIG
VHHH,2017-02-23 10:00,113.9219,22.3094,60.80,53.60,77.14,350.00,15.00,0.00,30.06,M,5.59,M,FEW,SCT,M,M,1000.00,2000.00,M,M,M,M,M,M,M,M,M,60.80,VHHH 231000Z 35015KT 9000 FEW010 SCT020 16/12 Q1018 NOSIG
VHHH,2017-02-23 10:30,113.9219,22.3094,60.80,51.80,72.20,350.00,14.00,0.00,30.06,M,5.59,M,FEW,SCT,M,M,1000.00,2000.00,M,M,M,M,M,M,M,M,M,60.80,VHHH 231030Z 35014KT 9000 FEW010 SCT020 16/11 Q1018 NOSIG
VHHH,2017-02-23 11:00,113.9219,22.3094,59.00,51.80,76.98,360.00,13.00,0.00,30.09,M,6.21,M,FEW,SCT,M,M,1000.00,2000.00,M,M,M,M,M,M,M,M,M,59.00,VHHH 231100Z 36013KT 9999 FEW010 SCT020 15/11 Q1019 NOSIG
VHHH,2017-02-23 11:30,113.9219,22.3094,59.00,51.80,76.98,20.00,13.00,0.00,30.09,M,6.21,M,FEW,SCT,M,M,1000.00,2000.00,M,M,M,M,M,M,M,M,M,59.00,VHHH 231130Z 02013KT 9999 FEW010 SCT020 15/11 Q1019 NOSIG
VHHH,2017-02-23 12:00,113.9219,22.3094,59.00,51.80,76.98,10.00,11.00,0.00,30.09,M,5.59,M,FEW,SCT,M,M,1000.00,2000.00,M,M,M,M,M,M,M,M,M,59.00,VHHH 231200Z 01011KT 9000 FEW010 SCT020 15/11 Q1019 NOSIG
VHHH,2017-02-23 12:30,113.9219,22.3094,57.20,53.60,87.74,10.00,10.00,0.00,30.12,M,5.59,M,FEW,SCT,M,M,1000.00,2000.00,M,M,-RA,M,M,M,M,M,M,57.20,VHHH 231230Z 01010KT 9000 -RA FEW010 SCT020 14/12 Q1020 NOSIG
VHHH,2017-02-23 13:00,113.9219,22.3094,57.20,51.80,82.12,10.00,8.00,0.00,30.12,M,5.59,M,FEW,SCT,M,M,1000.00,2000.00,M,M,M,M,M,M,M,M,M,57.20,VHHH 231300Z 01008KT 9000 FEW010 SCT020 14/11 Q1020 NOSIG
VHHH,2017-02-23 13:30,113.9219,22.3094,57.20,50.00,76.82,30.00,9.00,0.00,30.12,M,6.21,M,FEW,SCT,M,M,1000.00,2000.00,M,M,M,M,M,M,M,M,M,57.20,VHHH 231330Z 03009KT 350V050 9999 FEW010 SCT020 14/10 Q1020 NOSIG
VHHH,2017-02-23 14:00,113.9219,22.3094,57.20,50.00,76.82,360.00,9.00,0.00,30.15,M,4.97,M,FEW,SCT,M,M,1000.00,2000.00,M,M,-RA,M,M,M,M,M,M,57.20,VHHH 231400Z 36009KT 330V030 8000 -RA FEW010 SCT020 14/10 Q1021 NOSIG
VHHH,2017-02-23 14:30,113.9219,22.3094,55.40,50.00,81.99,50.00,4.00,0.00,30.15,M,5.59,M,FEW,SCT,M,M,1000.00,2000.00,M,M,-RA,M,M,M,M,M,M,55.40,VHHH 231430Z 05004KT 360V100 9000 -RA FEW010 SCT020 13/10 Q1021 NOSIG
VHHH,2017-02-23 15:00,113.9219,22.3094,55.40,50.00,81.99,10.00,7.00,0.00,30.15,M,5.59,M,FEW,SCT,M,M,1000.00,2000.00,M,M,-RA,M,M,M,M,M,M,55.40,VHHH 231500Z 01007KT 330V050 9000 -RA FEW010 SCT020 13/10 Q1021 NOSIG
VHHH,2017-02-23 15:30,113.9219,22.3094,55.40,50.00,81.99,30.00,5.00,0.00,30.15,M,5.59,M,FEW,SCT,M,M,1000.00,2000.00,M,M,-RA,M,M,M,M,M,M,55.40,VHHH 231530Z 03005KT 310V090 9000 -RA FEW010 SCT020 13/10 Q1021 NOSIG
VHHH,2017-02-23 16:00,113.9219,22.3094,55.40,48.20,76.66,360.00,4.00,0.00,30.15,M,6.21,M,FEW,SCT,M,M,1000.00,2000.00,M,M,M,M,M,M,M,M,M,55.40,VHHH 231600Z 36004KT 290V090 9999 FEW010 SCT020 13/09 Q1021 NOSIG
VHHH,2017-02-23 16:30,113.9219,22.3094,55.40,48.20,76.66,350.00,6.00,0.00,30.15,M,6.21,M,FEW,SCT,M,M,1000.00,2000.00,M,M,M,M,M,M,M,M,M,55.40,VHHH 231630Z 35006KT 310V060 9999 FEW010 SCT020 13/09 Q1021 NOSIG
VHHH,2017-02-23 17:00,113.9219,22.3094,55.40,48.20,76.66,340.00,10.00,0.00,30.18,M,6.21,M,FEW,SCT,M,M,1400.00,2500.00,M,M,M,M,M,M,M,M,M,55.40,VHHH 231700Z 34010KT 9999 FEW014 SCT025 13/09 Q1022 NOSIG
VHHH,2017-02-23 17:30,113.9219,22.3094,55.40,50.00,81.99,340.00,13.00,0.00,30.18,M,3.11,M,FEW,SCT,M,M,800.00,2500.00,M,M,M,M,M,M,M,M,M,55.40,VHHH 231730Z 34013KT 5000 FEW008 SCT025 13/10 Q1022 NOSIG
VHHH,2017-02-23 18:00,113.9219,22.3094,53.60,50.00,87.56,10.00,11.00,0.00,30.18,M,3.73,M,FEW,SCT,M,M,800.00,2000.00,M,M,M,M,M,M,M,M,M,53.60,VHHH 231800Z 01011KT 6000 FEW008 SCT020 12/10 Q1022 NOSIG
VHHH,2017-02-23 18:30,113.9219,22.3094,53.60,50.00,87.56,360.00,9.00,0.00,30.15,M,3.11,M,FEW,SCT,M,M,800.00,2000.00,M,M,M,M,M,M,M,M,M,53.60,VHHH 231830Z 36009KT 5000 FEW008 SCT020 12/10 Q1021 TEMPO 4000 BR
VHHH,2017-02-23 19:00,113.9219,22.3094,53.60,48.20,81.87,360.00,8.00,0.00,30.15,M,3.73,M,FEW,SCT,M,M,800.00,2000.00,M,M,M,M,M,M,M,M,M,53.60,VHHH 231900Z 36008KT 320V030 6000 FEW008 SCT020 12/09 Q1021 TEMPO 4000 BR
VHHH,2017-02-23 19:30,113.9219,22.3094,53.60,48.20,81.87,360.00,10.00,0.00,30.18,M,3.73,M,FEW,SCT,M,M,800.00,2000.00,M,M,M,M,M,M,M,M,M,53.60,VHHH 231930Z 36010KT 6000 FEW008 SCT020 12/09 Q1022 NOSIG
VHHH,2017-02-23 20:00,113.9219,22.3094,51.80,50.00,93.55,40.00,5.00,0.00,30.15,M,3.11,M,FEW,SCT,M,M,800.00,2000.00,M,M,M,M,M,M,M,M,M,51.80,VHHH 232000Z 04005KT 010V070 5000 FEW008 SCT020 11/10 Q1021 NOSIG
VHHH,2017-02-23 20:30,113.9219,22.3094,51.80,48.20,87.47,20.00,7.00,0.00,30.15,M,3.73,M,FEW,SCT,M,M,800.00,2000.00,M,M,M,M,M,M,M,M,M,51.80,VHHH 232030Z 02007KT 6000 FEW008 SCT020 11/09 Q1021 NOSIG
VHHH,2017-02-23 21:00,113.9219,22.3094,53.60,48.20,81.87,10.00,6.00,0.00,30.15,M,4.97,M,FEW,SCT,M,M,800.00,2000.00,M,M,M,M,M,M,M,M,M,53.60,VHHH 232100Z 01006KT 340V040 8000 FEW008 SCT020 12/09 Q1021 NOSIG
VHHH,2017-02-23 21:30,113.9219,22.3094,51.80,48.20,87.47,60.00,8.00,0.00,30.15,M,4.97,M,FEW,SCT,M,M,800.00,2000.00,M,M,M,M,M,M,M,M,M,51.80,VHHH 232130Z 06008KT 020V080 8000 FEW008 SCT020 11/09 Q1021 NOSIG
VHHH,2017-02-23 22:00,113.9219,22.3094,53.60,48.20,81.87,10.00,8.00,0.00,30.18,M,5.59,M,FEW,SCT,M,M,1000.00,2000.00,M,M,M,M,M,M,M,M,M,53.60,VHHH 232200Z 01008KT 9000 FEW010 SCT020 12/09 Q1022 NOSIG
VHHH,2017-02-23 22:30,113.9219,22.3094,53.60,48.20,81.87,10.00,8.00,0.00,30.18,M,5.59,M,FEW,SCT,M,M,1000.00,2000.00,M,M,M,M,M,M,M,M,M,53.60,VHHH 232230Z 01008KT 340V050 9000 FEW010 SCT020 12/09 Q1022 NOSIG
VHHH,2017-02-23 23:00,113.9219,22.3094,53.60,46.40,76.50,60.00,6.00,0.00,30.18,M,5.59,M,FEW,SCT,M,M,1000.00,2000.00,M,M,-RA,M,M,M,M,M,M,53.60,VHHH 232300Z 06006KT 360V090 9000 -RA FEW010 SCT020 12/08 Q1022 NOSIG
VHHH,2017-02-23 23:30,113.9219,22.3094,53.60,46.40,76.50,50.00,10.00,0.00,30.21,M,5.59,M,FEW,SCT,M,M,1000.00,2000.00,M,M,M,M,M,M,M,M,M,53.60,VHHH 232330Z 05010KT 9000 FEW010 SCT020 12/08 Q1023 NOSIG
VHHH,2017-02-24 00:00,113.9219,22.3094,53.60,46.40,76.50,10.00,7.00,0.00,30.21,M,6.21,M,FEW,SCT,M,M,1000.00,2000.00,M,M,-RA,M,M,M,M,M,M,53.60,VHHH 240000Z 01007KT 340V060 9999 -RA FEW010 SCT020 12/08 Q1023 NOSIG
VHHH,2017-02-24 00:30,113.9219,22.3094,53.60,48.20,81.87,360.00,11.00,0.00,30.21,M,6.21,M,FEW,SCT,M,M,1000.00,2000.00,M,M,-RA,M,M,M,M,M,M,53.60,VHHH 240030Z 36011KT 9999 -RA FEW010 SCT020 12/09 Q1023 NOSIG
VHHH,2017-02-24 01:00,113.9219,22.3094,53.60,48.20,81.87,20.00,10.00,0.00,30.24,M,3.73,M,FEW,SCT,M,M,500.00,1800.00,M,M,-RA,M,M,M,M,M,M,53.60,VHHH 240100Z 02010KT 6000 -RA FEW005 SCT018 12/09 Q1024 NOSIG
VHHH,2017-02-24 01:30,113.9219,22.3094,53.60,48.20,81.87,M,8.00,0.00,30.24,M,3.73,M,FEW,SCT,M,M,500.00,1800.00,M,M,M,M,M,M,M,M,M,53.60,VHHH 240130Z VRB08KT 6000 FEW005 SCT018 12/09 Q1024 NOSIG
VHHH,2017-02-24 02:00,113.9219,22.3094,53.60,48.20,81.87,360.00,12.00,0.00,30.24,M,3.11,M,FEW,SCT,M,M,500.00,1800.00,M,M,M,M,M,M,M,M,M,53.60,VHHH 240200Z 36012KT 5000 FEW005 SCT018 12/09 Q1024 NOSIG
VHHH,2017-02-24 02:08,113.9219,22.3094,51.80,48.20,87.47,10.00,13.00,0.00,30.24,M,3.04,M,FEW,SCT,M,M,500.00,1800.00,M,M,-RA BR,M,M,M,M,M,M,51.80,VHHH 240208Z 01013KT 4900 -RA BR FEW005 SCT018 11/09 Q1024 NOSIG
VHHH,2017-02-24 02:30,113.9219,22.3094,51.80,50.00,93.55,350.00,15.00,0.00,30.27,M,1.86,M,FEW,SCT,M,M,500.00,1800.00,M,M,-RA BR,M,M,M,M,M,M,51.80,VHHH 240230Z 35015KT 3000 -RA BR FEW005 SCT018 11/10 Q1025 TEMPO 2500 -RA BR
VHHH,2017-02-24 02:35,113.9219,22.3094,51.80,48.20,87.47,350.00,15.00,0.00,30.27,M,1.80,M,FEW,SCT,M,M,500.00,1800.00,M,M,-RA BR,M,M,M,M,M,M,51.80,VHHH 240235Z 35015KT 2900 -RA BR FEW005 SCT018 11/09 Q1025 NOSIG
VHHH,2017-02-24 03:00,113.9219,22.3094,51.80,48.20,87.47,20.00,10.00,0.00,30.24,M,3.73,M,FEW,SCT,M,M,500.00,1500.00,M,M,-RA,M,M,M,M,M,M,51.80,VHHH 240300Z 02010KT 6000 -RA FEW005 SCT015 11/09 Q1024 NOSIG
VHHH,2017-02-24 03:30,113.9219,22.3094,51.80,48.20,87.47,360.00,14.00,0.00,30.24,M,5.59,M,FEW,SCT,M,M,800.00,1500.00,M,M,M,M,M,M,M,M,M,51.80,VHHH 240330Z 36014KT 9000 FEW008 SCT015 11/09 Q1024 NOSIG
VHHH,2017-02-24 04:00,113.9219,22.3094,51.80,48.20,87.47,10.00,14.00,0.00,30.24,M,3.73,M,FEW,SCT,M,M,800.00,1500.00,M,M,-RA,M,M,M,M,M,M,51.80,VHHH 240400Z 01014KT 6000 -RA FEW008 SCT015 11/09 Q1024 NOSIG
VHHH,2017-02-24 04:30,113.9219,22.3094,51.80,46.40,81.74,360.00,13.00,0.00,30.21,M,6.21,M,FEW,SCT,M,M,1000.00,1500.00,M,M,M,M,M,M,M,M,M,51.80,VHHH 240430Z 36013KT 9999 FEW010 SCT015 11/08 Q1023 NOSIG
VHHH,2017-02-24 05:00,113.9219,22.3094,51.80,46.40,81.74,10.00,12.00,0.00,30.21,M,6.21,M,FEW,SCT,M,M,1000.00,1800.00,M,M,M,M,M,M,M,M,M,51.80,VHHH 240500Z 01012KT 9999 FEW010 SCT018 11/08 Q1023 NOSIG
VHHH,2017-02-24 05:30,113.9219,22.3094,51.80,46.40,81.74,10.00,11.00,0.00,30.21,M,6.21,M,FEW,SCT,M,M,1000.00,1800.00,M,M,M,M,M,M,M,M,M,51.80,VHHH 240530Z 01011KT 9999 FEW010 SCT018 11/08 Q1023 NOSIG
VHHH,2017-02-24 06:00,113.9219,22.3094,51.80,46.40,81.74,360.00,15.00,0.00,30.18,M,6.21,M,FEW,SCT,M,M,1000.00,1800.00,M,M,M,M,M,M,M,M,M,51.80,VHHH 240600Z 36015KT 9999 FEW010 SCT018 11/08 Q1022 NOSIG
VHHH,2017-02-24 06:30,113.9219,22.3094,51.80,46.40,81.74,10.00,12.00,0.00,30.18,M,6.21,M,FEW,SCT,M,M,1000.00,1800.00,M,M,M,M,M,M,M,M,M,51.80,VHHH 240630Z 01012KT 9999 FEW010 SCT018 11/08 Q1022 NOSIG
VHHH,2017-02-24 07:00,113.9219,22.3094,51.80,46.40,81.74,20.00,10.00,0.00,30.18,M,6.21,M,FEW,SCT,M,M,1000.00,1800.00,M,M,M,M,M,M,M,M,M,51.80,VHHH 240700Z 02010KT 9999 FEW010 SCT018 11/08 Q1022 NOSIG
VHHH,2017-02-24 07:30,113.9219,22.3094,51.80,46.40,81.74,10.00,10.00,0.00,30.15,M,6.21,M,FEW,SCT,M,M,1200.00,2000.00,M,M,M,M,M,M,M,M,M,51.80,VHHH 240730Z 01010KT 9999 FEW012 SCT020 11/08 Q1021 NOSIG
VHHH,2017-02-24 08:00,113.9219,22.3094,51.80,46.40,81.74,50.00,6.00,0.00,30.15,M,6.21,M,FEW,SCT,M,M,1200.00,2000.00,M,M,M,M,M,M,M,M,M,51.80,VHHH 240800Z 05006KT 020V090 9999 FEW012 SCT020 11/08 Q1021 NOSIG
VHHH,2017-02-24 08:30,113.9219,22.3094,51.80,46.40,81.74,20.00,5.00,0.00,30.15,M,6.21,M,FEW,SCT,M,M,1200.00,2500.00,M,M,M,M,M,M,M,M,M,51.80,VHHH 240830Z 02005KT 310V070 9999 FEW012 SCT025 11/08 Q1021 NOSIG
VHHH,2017-02-24 09:00,113.9219,22.3094,53.60,44.60,71.45,50.00,6.00,0.00,30.15,M,6.21,M,FEW,SCT,M,M,1200.00,2500.00,M,M,M,M,M,M,M,M,M,53.60,VHHH 240900Z 05006KT 360V100 9999 FEW012 SCT025 12/07 Q1021 NOSIG
VHHH,2017-02-24 09:30,113.9219,22.3094,53.60,44.60,71.45,20.00,6.00,0.00,30.15,M,6.21,M,FEW,SCT,M,M,1200.00,2500.00,M,M,M,M,M,M,M,M,M,53.60,VHHH 240930Z 02006KT 340V060 9999 FEW012 SCT025 12/07 Q1021 NOSIG
VHHH,2017-02-24 10:00,113.9219,22.3094,53.60,44.60,71.45,30.00,6.00,0.00,30.15,M,6.21,M,FEW,SCT,M,M,1500.00,2500.00,M,M,M,M,M,M,M,M,M,53.60,VHHH 241000Z 03006KT 350V060 9999 FEW015 SCT025 12/07 Q1021 NOSIG
VHHH,2017-02-24 10:30,113.9219,22.3094,53.60,44.60,71.45,360.00,12.00,0.00,30.18,M,6.21,M,FEW,SCT,M,M,1500.00,2500.00,M,M,M,M,M,M,M,M,M,53.60,VHHH 241030Z 36012KT 9999 FEW015 SCT025 12/07 Q1022 NOSIG
VHHH,2017-02-24 11:00,113.9219,22.3094,53.60,44.60,71.45,20.00,8.00,0.00,30.18,M,6.21,M,FEW,SCT,M,M,1200.00,2200.00,M,M,M,M,M,M,M,M,M,53.60,VHHH 241100Z 02008KT 9999 FEW012 SCT022 12/07 Q1022 NOSIG
VHHH,2017-02-24 11:30,113.9219,22.3094,53.60,44.60,71.45,360.00,11.00,0.00,30.18,M,6.21,M,FEW,SCT,M,M,1200.00,2200.00,M,M,M,M,M,M,M,M,M,53.60,VHHH 241130Z 36011KT 340V040 9999 FEW012 SCT022 12/07 Q1022 NOSIG
VHHH,2017-02-24 12:00,113.9219,22.3094,53.60,44.60,71.45,20.00,8.00,0.00,30.21,M,6.21,M,FEW,SCT,M,M,1200.00,2200.00,M,M,M,M,M,M,M,M,M,53.60,VHHH 241200Z 02008KT 9999 FEW012 SCT022 12/07 Q1023 NOSIG
VHHH,2017-02-24 12:30,113.9219,22.3094,53.60,44.60,71.45,30.00,7.00,0.00,30.21,M,6.21,M,FEW,SCT,M,M,1200.00,2200.00,M,M,M,M,M,M,M,M,M,53.60,VHHH 241230Z 03007KT 360V060 9999 FEW012 SCT022 12/07 Q1023 NOSIG
VHHH,2017-02-24 13:00,113.9219,22.3094,53.60,44.60,71.45,30.00,6.00,0.00,30.21,M,6.21,M,FEW,SCT,M,M,1200.00,2200.00,M,M,M,M,M,M,M,M,M,53.60,VHHH 241300Z 03006KT 9999 FEW012 SCT022 12/07 Q1023 NOSIG
VHHH,2017-02-24 13:30,113.9219,22.3094,53.60,44.60,71.45,40.00,8.00,0.00,30.21,M,6.21,M,FEW,SCT,M,M,1200.00,2200.00,M,M,M,M,M,M,M,M,M,53.60,VHHH 241330Z 04008KT 9999 FEW012 SCT022 12/07 Q1023 NOSIG
VHHH,2017-02-24 14:00,113.9219,22.3094,53.60,44.60,71.45,40.00,9.00,0.00,30.21,M,6.21,M,FEW,SCT,M,M,1200.00,2200.00,M,M,M,M,M,M,M,M,M,53.60,VHHH 241400Z 04009KT 9999 FEW012 SCT022 12/07 Q1023 NOSIG
VHHH,2017-02-24 14:30,113.9219,22.3094,53.60,44.60,71.45,40.00,10.00,0.00,30.21,M,6.21,M,FEW,SCT,M,M,1200.00,2200.00,M,M,M,M,M,M,M,M,M,53.60,VHHH 241430Z 04010KT 9999 FEW012 SCT022 12/07 Q1023 NOSIG
VHHH,2017-02-24 15:00,113.9219,22.3094,53.60,44.60,71.45,30.00,10.00,0.00,30.21,M,6.21,M,FEW,SCT,M,M,1200.00,2200.00,M,M,M,M,M,M,M,M,M,53.60,VHHH 241500Z 03010KT 9999 FEW012 SCT022 12/07 Q1023 NOSIG
VHHH,2017-02-24 15:30,113.9219,22.3094,53.60,44.60,71.45,30.00,11.00,0.00,30.21,M,6.21,M,FEW,SCT,M,M,1200.00,2200.00,M,M,M,M,M,M,M,M,M,53.60,VHHH 241530Z 03011KT 9999 FEW012 SCT022 12/07 Q1023 NOSIG
VHHH,2017-02-24 16:00,113.9219,22.3094,53.60,42.80,66.70,20.00,5.00,0.00,30.21,M,6.21,M,FEW,SCT,M,M,1200.00,2200.00,M,M,M,M,M,M,M,M,M,53.60,VHHH 241600Z 02005KT 330V060 9999 FEW012 SCT022 12/06 Q1023 NOSIG
VHHH,2017-02-24 16:30,113.9219,22.3094,53.60,42.80,66.70,20.00,4.00,0.00,30.21,M,6.21,M,FEW,SCT,M,M,1200.00,2200.00,M,M,M,M,M,M,M,M,M,53.60,VHHH 241630Z 02004KT 320V080 9999 FEW012 SCT022 12/06 Q1023 NOSIG
VHHH,2017-02-24 17:00,113.9219,22.3094,53.60,44.60,71.45,10.00,7.00,0.00,30.21,M,6.21,M,FEW,SCT,M,M,1200.00,2200.00,M,M,M,M,M,M,M,M,M,53.60,VHHH 241700Z 01007KT 340V050 9999 FEW012 SCT022 12/07 Q1023 NOSIG
VHHH,2017-02-24 17:30,113.9219,22.3094,53.60,42.80,66.70,360.00,11.00,0.00,30.21,M,6.21,M,FEW,SCT,M,M,1200.00,2200.00,M,M,M,M,M,M,M,M,M,53.60,VHHH 241730Z 36011KT 9999 FEW012 SCT022 12/06 Q1023 NOSIG
VHHH,2017-02-24 18:00,113.9219,22.3094,53.60,42.80,66.70,20.00,6.00,0.00,30.18,M,6.21,M,FEW,SCT,M,M,1200.00,2200.00,M,M,M,M,M,M,M,M,M,53.60,VHHH 241800Z 02006KT 340V070 9999 FEW012 SCT022 12/06 Q1022 NOSIG
VHHH,2017-02-24 18:30,113.9219,22.3094,53.60,44.60,71.45,10.00,9.00,0.00,30.18,M,6.21,M,FEW,SCT,M,M,1200.00,2200.00,M,M,M,M,M,M,M,M,M,53.60,VHHH 241830Z 01009KT 9999 FEW012 SCT022 12/07 Q1022 NOSIG
VHHH,2017-02-24 19:00,113.9219,22.3094,53.60,44.60,71.45,10.00,6.00,0.00,30.18,M,6.21,M,FEW,SCT,M,M,1200.00,2200.00,M,M,M,M,M,M,M,M,M,53.60,VHHH 241900Z 01006KT 320V060 9999 FEW012 SCT022 12/07 Q1022 NOSIG
VHHH,2017-02-24 19:30,113.9219,22.3094,51.80,44.60,76.34,10.00,8.00,0.00,30.15,M,6.21,M,FEW,SCT,M,M,1200.00,2000.00,M,M,M,M,M,M,M,M,M,51.80,VHHH 241930Z 01008KT 350V050 9999 FEW012 SCT020 11/07 Q1021 NOSIG
VHHH,2017-02-24 20:00,113.9219,22.3094,51.80,44.60,76.34,20.00,7.00,0.00,30.15,M,6.21,M,FEW,SCT,M,M,1000.00,2000.00,M,M,M,M,M,M,M,M,M,51.80,VHHH 242000Z 02007KT 330V050 9999 FEW010 SCT020 11/07 Q1021 NOSIG
VHHH,2017-02-24 20:30,113.9219,22.3094,50.00,46.40,87.37,20.00,6.00,0.00,30.15,M,6.21,M,FEW,SCT,M,M,1000.00,2000.00,M,M,M,M,M,M,M,M,M,47.21,VHHH 242030Z 02006KT 340V080 9999 FEW010 SCT020 10/08 Q1021 NOSIG
VHHH,2017-02-24 21:00,113.9219,22.3094,50.00,46.40,87.37,360.00,9.00,0.00,30.15,M,3.11,M,FEW,SCT,M,M,1000.00,2000.00,M,M,-RA,M,M,M,M,M,M,45.90,VHHH 242100Z 36009KT 5000 -RA FEW010 SCT020 10/08 Q1021 NOSIG
VHHH,2017-02-24 21:30,113.9219,22.3094,50.00,48.20,93.50,10.00,9.00,0.00,30.15,M,3.73,M,FEW,SCT,M,M,1000.00,2000.00,M,M,-RA,M,M,M,M,M,M,45.90,VHHH 242130Z 01009KT 6000 -RA FEW010 SCT020 10/09 Q1021 TEMPO 4000 -RA BR
VHHH,2017-02-24 22:00,113.9219,22.3094,50.00,48.20,93.50,360.00,10.00,0.00,30.18,M,3.73,M,FEW,SCT,M,M,500.00,1500.00,M,M,-RA,M,M,M,M,M,M,45.54,VHHH 242200Z 36010KT 6000 -RA FEW005 SCT015 10/09 Q1022 TEMPO 4000 -RA BR
VHHH,2017-02-24 22:30,113.9219,22.3094,50.00,48.20,93.50,40.00,7.00,0.00,30.18,M,4.35,M,FEW,SCT,M,M,500.00,1500.00,M,M,-RA,M,M,M,M,M,M,46.72,VHHH 242230Z 04007KT 360V070 7000 -RA FEW005 SCT015 10/09 Q1022 TEMPO 4000 -RA BR
VHHH,2017-02-24 22:53,113.9219,22.3094,50.00,48.20,93.50,360.00,9.00,0.00,30.18,M,2.98,M,FEW,SCT,M,M,500.00,1500.00,M,M,-RA BR,M,M,M,M,M,M,45.90,VHHH 242253Z 36009KT 4800 -RA BR FEW005 SCT015 10/09 Q1022 NOSIG
VHHH,2017-02-24 23:00,113.9219,22.3094,50.00,48.20,93.50,10.00,10.00,0.00,30.18,M,2.67,M,FEW,SCT,M,M,500.00,1500.00,M,M,-RA BR,M,M,M,M,M,M,45.54,VHHH 242300Z 01010KT 4300 -RA BR FEW005 SCT015 10/09 Q1022 NOSIG
VHHH,2017-02-24 23:30,113.9219,22.3094,50.00,48.20,93.50,30.00,7.00,0.00,30.18,M,3.11,M,FEW,SCT,M,M,500.00,1500.00,M,M,-RA,M,M,M,M,M,M,46.72,VHHH 242330Z 03007KT 360V060 5000 -RA FEW005 SCT015 10/09 Q1022 TEMPO 4000 -RA BR
VHHH,2017-02-25 00:00,113.9219,22.3094,50.00,48.20,93.50,30.00,10.00,0.00,30.21,M,2.98,M,FEW,SCT,M,M,800.00,1500.00,M,M,-RA BR,M,M,M,M,M,M,45.54,VHHH 250000Z 03010KT 4800 -RA BR FEW008 SCT015 10/09 Q1023 NOSIG
VHHH,2017-02-25 00:13,113.9219,22.3094,50.00,48.20,93.50,20.00,9.00,0.00,30.21,M,4.35,M,FEW,SCT,M,M,800.00,1500.00,M,M,-RA,M,M,M,M,M,M,45.90,VHHH 250013Z 02009KT 7000 -RA FEW008 SCT015 10/09 Q1023 TEMPO 4000 -RA BR
VHHH,2017-02-25 00:30,113.9219,22.3094,50.00,48.20,93.50,20.00,7.00,0.00,30.21,M,3.73,M,FEW,SCT,M,M,800.00,1500.00,M,M,-RA,M,M,M,M,M,M,46.72,VHHH 250030Z 02007KT 340V060 6000 -RA FEW008 SCT015 10/09 Q1023 TEMPO 4000 -RA BR
VHHH,2017-02-25 01:00,113.9219,22.3094,50.00,48.20,93.50,360.00,10.00,0.00,30.24,M,4.35,M,FEW,SCT,M,M,800.00,1500.00,M,M,-RA,M,M,M,M,M,M,45.54,VHHH 250100Z 36010KT 7000 -RA FEW008 SCT015 10/09 Q1024 TEMPO 4000 -RA BR
VHHH,2017-02-25 01:15,113.9219,22.3094,50.00,48.20,93.50,350.00,13.00,0.00,30.24,M,2.24,M,FEW,SCT,M,M,800.00,1500.00,M,M,-RA -BR,M,M,M,M,M,M,44.63,VHHH 250115Z 35013KT 3600 -RA -BR FEW008 SCT015 10/09 Q1024 NOSIG
VHHH,2017-02-25 01:30,113.9219,22.3094,50.00,48.20,93.50,360.00,12.00,0.00,30.21,M,2.05,M,FEW,SCT,M,M,600.00,1200.00,M,M,-RA BR,M,M,M,M,M,M,44.91,VHHH 250130Z 36012KT 3300 -RA BR FEW006 SCT012 10/09 Q1023 NOSIG
VHHH,2017-02-25 02:00,113.9219,22.3094,50.00,48.20,93.50,10.00,10.00,0.00,30.24,M,2.55,M,FEW,SCT,M,M,600.00,1200.00,M,M,-RA BR,M,M,M,M,M,M,45.54,VHHH 250200Z 01010KT 4100 -RA BR FEW006 SCT012 10/09 Q1024 NOSIG
VHHH,2017-02-25 02:18,113.9219,22.3094,50.00,46.40,87.37,20.00,10.00,0.00,30.21,M,4.35,M,FEW,SCT,M,M,600.00,1200.00,M,M,-RA,M,M,M,M,M,M,45.54,VHHH 250218Z 02010KT 7000 -RA FEW006 SCT012 10/08 Q1023 TEMPO 4000 -RA BR
VHHH,2017-02-25 02:30,113.9219,22.3094,50.00,48.20,93.50,10.00,11.00,0.00,30.24,M,2.55,M,FEW,SCT,M,M,600.00,1200.00,M,M,-RA BR,M,M,M,M,M,M,45.21,VHHH 250230Z 01011KT 4100 -RA BR FEW006 SCT012 10/09 Q1024 NOSIG
VHHH,2017-02-25 03:00,113.9219,22.3094,50.00,48.20,93.50,20.00,9.00,0.00,30.21,M,3.11,M,FEW,SCT,M,M,600.00,1200.00,M,M,-RA,M,M,M,M,M,M,45.90,VHHH 250300Z 02009KT 5000 -RA FEW006 SCT012 10/09 Q1023 TEMPO 4000 -RA BR
VHHH,2017-02-25 03:30,113.9219,22.3094,50.00,48.20,93.50,10.00,13.00,0.00,30.21,M,3.11,M,FEW,SCT,M,M,600.00,1200.00,M,M,-RA,M,M,M,M,M,M,44.63,VHHH 250330Z 01013KT 5000 -RA FEW006 SCT012 10/09 Q1023 TEMPO 4000 -RA BR
VHHH,2017-02-25 03:34,113.9219,22.3094,50.00,48.20,93.50,20.00,12.00,0.00,30.21,M,3.04,M,FEW,SCT,M,M,600.00,1200.00,M,M,-RA BR,M,M,M,M,M,M,44.91,VHHH 250334Z 02012KT 4900 -RA BR FEW006 SCT012 10/09 Q1023 NOSIG
VHHH,2017-02-25 04:00,113.9219,22.3094,50.00,48.20,93.50,10.00,12.00,0.00,30.18,M,2.73,M,FEW,SCT,M,M,600.00,1200.00,M,M,-RA BR,M,M,M,M,M,M,44.91,VHHH 250400Z 01012KT 4400 -RA BR FEW006 SCT012 10/09 Q1022 NOSIG
VHHH,2017-02-25 04:26,113.9219,22.3094,50.00,48.20,93.50,20.00,10.00,0.00,30.18,M,3.73,M,FEW,SCT,M,M,600.00,1200.00,M,M,-RA,M,M,M,M,M,M,45.54,VHHH 250426Z 02010KT 6000 -RA FEW006 SCT012 10/09 Q1022 TEMPO 4000 -RA BR
VHHH,2017-02-25 04:30,113.9219,22.3094,50.00,48.20,93.50,20.00,9.00,0.00,30.18,M,4.35,M,FEW,SCT,M,M,600.00,1200.00,M,M,-RA,M,M,M,M,M,M,45.90,VHHH 250430Z 02009KT 7000 -RA FEW006 SCT012 10/09 Q1022 TEMPO 4000 -RA BR
VHHH,2017-02-25 05:00,113.9219,22.3094,51.80,48.20,87.47,80.00,4.00,0.00,30.15,M,5.59,M,FEW,SCT,M,M,800.00,1800.00,M,M,-RA,M,M,M,M,M,M,51.80,VHHH 250500Z 08004KT 030V140 9000 -RA FEW008 SCT018 11/09 Q1021 TEMPO 4000 -RA BR
VHHH,2017-02-25 05:30,113.9219,22.3094,53.60,48.20,81.87,70.00,6.00,0.00,30.12,M,6.21,M,FEW,SCT,M,M,800.00,1800.00,M,M,-RA,M,M,M,M,M,M,53.60,VHHH 250530Z 07006KT 9999 -RA FEW008 SCT018 12/09 Q1020 TEMPO 4000 -RA BR
VHHH,2017-02-25 06:00,113.9219,22.3094,51.80,48.20,87.47,20.00,6.00,0.00,30.12,M,6.21,M,FEW,SCT,M,M,1000.00,2000.00,M,M,-RA,M,M,M,M,M,M,51.80,VHHH 250600Z 02006KT 330V050 9999 -RA FEW010 SCT020 11/09 Q1020 TEMPO 4000 -RA BR
VHHH,2017-02-25 06:30,113.9219,22.3094,51.80,48.20,87.47,360.00,13.00,0.00,30.09,M,6.21,M,FEW,SCT,M,M,1200.00,2200.00,M,M,M,M,M,M,M,M,M,51.80,VHHH 250630Z 36013KT 9999 FEW012 SCT022 11/09 Q1019 NOSIG
VHHH,2017-02-25 07:00,113.9219,22.3094,53.60,48.20,81.87,360.00,9.00,0.00,30.09,M,6.21,M,FEW,SCT,M,M,1000.00,2200.00,M,M,M,M,M,M,M,M,M,53.60,VHHH 250700Z 36009KT 9999 FEW010 SCT022 12/09 Q1019 NOSIG
VHHH,2017-02-25 07:30,113.9219,22.3094,53.60,48.20,81.87,350.00,9.00,0.00,30.06,M,6.21,M,FEW,SCT,M,M,1000.00,2200.00,M,M,M,M,M,M,M,M,M,53.60,VHHH 250730Z 35009KT 9999 FEW010 SCT022 12/09 Q1018 NOSIG
VHHH,2017-02-25 08:00,113.9219,22.3094,53.60,48.20,81.87,10.00,8.00,0.00,30.06,M,6.21,M,FEW,SCT,M,M,1000.00,2200.00,M,M,M,M,M,M,M,M,M,53.60,VHHH 250800Z 01008KT 9999 FEW010 SCT022 12/09 Q1018 NOSIG
VHHH,2017-02-25 08:30,113.9219,22.3094,53.60,48.20,81.87,360.00,8.00,0.00,30.06,M,6.21,M,FEW,SCT,M,M,1000.00,2200.00,M,M,M,M,M,M,M,M,M,53.60,VHHH 250830Z 36008KT 9999 FEW010 SCT022 12/09 Q1018 NOSIG
VHHH,2017-02-25 09:00,113.9219,22.3094,53.60,48.20,81.87,360.00,7.00,0.00,30.06,M,6.21,M,FEW,SCT,M,M,1000.00,2200.00,M,M,M,M,M,M,M,M,M,53.60,VHHH 250900Z 36007KT 9999 FEW010 SCT022 12/09 Q1018 NOSIG
VHHH,2017-02-25 09:30,113.9219,22.3094,53.60,48.20,81.87,340.00,8.00,0.00,30.09,M,6.21,M,FEW,SCT,M,M,1000.00,2200.00,M,M,M,M,M,M,M,M,M,53.60,VHHH 250930Z 34008KT 300V020 9999 FEW010 SCT022 12/09 Q1019 NOSIG
VHHH,2017-02-25 10:00,113.9219,22.3094,53.60,46.40,76.50,350.00,10.00,0.00,30.09,M,6.21,M,FEW,SCT,M,M,1000.00,2200.00,M,M,M,M,M,M,M,M,M,53.60,VHHH 251000Z 35010KT 9999 FEW010 SCT022 12/08 Q1019 NOSIG
VHHH,2017-02-25 10:30,113.9219,22.3094,53.60,48.20,81.87,340.00,11.00,0.00,30.09,M,4.97,M,FEW,SCT,M,M,1000.00,2200.00,M,M,M,M,M,M,M,M,M,53.60,VHHH 251030Z 34011KT 8000 FEW010 SCT022 12/09 Q1019 NOSIG
VHHH,2017-02-25 11:00,113.9219,22.3094,53.60,46.40,76.50,360.00,10.00,0.00,30.09,M,5.59,M,FEW,SCT,M,M,1000.00,2200.00,M,M,M,M,M,M,M,M,M,53.60,VHHH 251100Z 36010KT 9000 FEW010 SCT022 12/08 Q1019 NOSIG
VHHH,2017-02-25 11:30,113.9219,22.3094,51.80,48.20,87.47,360.00,12.00,0.00,30.12,M,4.35,M,FEW,SCT,M,M,1000.00,2200.00,M,M,-DZ,M,M,M,M,M,M,51.80,VHHH 251130Z 36012KT 7000 -DZ FEW010 SCT022 11/09 Q1020 NOSIG
VHHH,2017-02-25 12:00,113.9219,22.3094,51.80,48.20,87.47,10.00,11.00,0.00,30.12,M,4.35,M,FEW,SCT,M,M,900.00,2200.00,M,M,-DZ,M,M,M,M,M,M,51.80,VHHH 251200Z 01011KT 7000 -DZ FEW009 SCT022 11/09 Q1020 NOSIG
VHHH,2017-02-25 12:30,113.9219,22.3094,51.80,48.20,87.47,360.00,12.00,0.00,30.15,M,4.35,M,FEW,SCT,M,M,1000.00,1800.00,M,M,-RA,M,M,M,M,M,M,51.80,VHHH 251230Z 36012KT 7000 -RA FEW010 SCT018 11/09 Q1021 NOSIG
VHHH,2017-02-25 13:00,113.9219,22.3094,51.80,48.20,87.47,10.00,12.00,0.00,30.15,M,3.73,M,FEW,SCT,M,M,800.00,1500.00,M,M,-RA,M,M,M,M,M,M,51.80,VHHH 251300Z 01012KT 6000 -RA FEW008 SCT015 11/09 Q1021 NOSIG
VHHH,2017-02-25 13:30,113.9219,22.3094,51.80,48.20,87.47,10.00,8.00,0.00,30.15,M,3.73,M,FEW,SCT,M,M,800.00,1500.00,M,M,-RA,M,M,M,M,M,M,51.80,VHHH 251330Z 01008KT 6000 -RA FEW008 SCT015 11/09 Q1021 NOSIG
VHHH,2017-02-25 14:00,113.9219,22.3094,51.80,48.20,87.47,360.00,11.00,0.00,30.18,M,3.11,M,FEW,SCT,M,M,800.00,1500.00,M,M,-RA,M,M,M,M,M,M,51.80,VHHH 251400Z 36011KT 5000 -RA FEW008 SCT015 11/09 Q1022 NOSIG
VHHH,2017-02-25 14:30,113.9219,22.3094,51.80,48.20,87.47,10.00,11.00,0.00,30.18,M,3.11,M,FEW,SCT,M,M,600.00,1500.00,M,M,-RA,M,M,M,M,M,M,51.80,VHHH 251430Z 01011KT 5000 -RA FEW006 SCT015 11/09 Q1022 TEMPO 4000 -RA BR
VHHH,2017-02-25 15:00,113.9219,22.3094,51.80,48.20,87.47,360.00,11.00,0.00,30.18,M,4.35,M,FEW,SCT,M,M,800.00,1500.00,M,M,-RA,M,M,M,M,M,M,51.80,VHHH 251500Z 36011KT 7000 -RA FEW008 SCT015 11/09 Q1022 NOSIG
VHHH,2017-02-25 15:30,113.9219,22.3094,51.80,48.20,87.47,360.00,11.00,0.00,30.18,M,5.59,M,FEW,SCT,M,M,800.00,1500.00,M,M,-RA,M,M,M,M,M,M,51.80,VHHH 251530Z 36011KT 9000 -RA FEW008 SCT015 11/09 Q1022 NOSIG
VHHH,2017-02-25 16:00,113.9219,22.3094,51.80,48.20,87.47,10.00,9.00,0.00,30.18,M,3.73,M,FEW,SCT,M,M,800.00,1500.00,M,M,-RA,M,M,M,M,M,M,51.80,VHHH 251600Z 01009KT 6000 -RA FEW008 SCT015 11/09 Q1022 TEMPO 4000 -RA BR
VHHH,2017-02-25 16:30,113.9219,22.3094,51.80,48.20,87.47,360.00,11.00,0.00,30.18,M,3.73,M,FEW,SCT,M,M,800.00,1500.00,M,M,-RA,M,M,M,M,M,M,51.80,VHHH 251630Z 36011KT 6000 -RA FEW008 SCT015 11/09 Q1022 TEMPO 4000 -RA BR
VHHH,2017-02-25 17:00,113.9219,22.3094,51.80,48.20,87.47,360.00,10.00,0.00,30.21,M,4.35,M,FEW,SCT,M,M,800.00,1300.00,M,M,-RA,M,M,M,M,M,M,51.80,VHHH 251700Z 36010KT 7000 -RA FEW008 SCT013 11/09 Q1023 TEMPO 4000 -RA BR
VHHH,2017-02-25 17:30,113.9219,22.3094,51.80,48.20,87.47,350.00,10.00,0.00,30.18,M,5.59,M,FEW,SCT,M,M,800.00,1300.00,M,M,-RA,M,M,M,M,M,M,51.80,VHHH 251730Z 35010KT 9000 -RA FEW008 SCT013 11/09 Q1022 NOSIG
VHHH,2017-02-25 18:00,113.9219,22.3094,51.80,48.20,87.47,350.00,11.00,0.00,30.18,M,4.35,M,FEW,SCT,M,M,800.00,1300.00,M,M,-RA,M,M,M,M,M,M,51.80,VHHH 251800Z 35011KT 7000 -RA FEW008 SCT013 11/09 Q1022 NOSIG
VHHH,2017-02-25 18:30,113.9219,22.3094,51.80,48.20,87.47,350.00,12.00,0.00,30.18,M,6.21,M,FEW,SCT,M,M,800.00,1300.00,M,M,-RA,M,M,M,M,M,M,51.80,VHHH 251830Z 35012KT 9999 -RA FEW008 SCT013 11/09 Q1022 NOSIG
VHHH,2017-02-25 19:00,113.9219,22.3094,51.80,48.20,87.47,350.00,9.00,0.00,30.18,M,6.21,M,FEW,SCT,M,M,1000.00,1500.00,M,M,-RA,M,M,M,M,M,M,51.80,VHHH 251900Z 35009KT 9999 -RA FEW010 SCT015 11/09 Q1022 NOSIG
VHHH,2017-02-25 19:30,113.9219,22.3094,51.80,48.20,87.47,350.00,10.00,0.00,30.18,M,6.21,M,FEW,SCT,M,M,1000.00,1500.00,M,M,-RA,M,M,M,M,M,M,51.80,VHHH 251930Z 35010KT 9999 -RA FEW010 SCT015 11/09 Q1022 NOSIG
VHHH,2017-02-25 20:00,113.9219,22.3094,51.80,48.20,87.47,350.00,15.00,0.00,30.18,M,3.73,M,FEW,SCT,M,M,600.00,1300.00,M,M,-RA,M,M,M,M,M,M,51.80,VHHH 252000Z 35015KT 6000 -RA FEW006 SCT013 11/09 Q1022 NOSIG
VHHH,2017-02-25 20:30,113.9219,22.3094,51.80,48.20,87.47,10.00,11.00,0.00,30.15,M,6.21,M,FEW,SCT,M,M,600.00,1300.00,M,M,M,M,M,M,M,M,M,51.80,VHHH 252030Z 01011KT 9999 FEW006 SCT013 11/09 Q1021 NOSIG
VHHH,2017-02-25 21:00,113.9219,22.3094,51.80,46.40,81.74,20.00,9.00,0.00,30.15,M,6.21,M,FEW,SCT,M,M,600.00,1300.00,M,M,M,M,M,M,M,M,M,51.80,VHHH 252100Z 02009KT 9999 FEW006 SCT013 11/08 Q1021 NOSIG
VHHH,2017-02-25 21:30,113.9219,22.3094,51.80,48.20,87.47,10.00,10.00,0.00,30.15,M,6.21,M,FEW,SCT,M,M,1000.00,2000.00,M,M,M,M,M,M,M,M,M,51.80,VHHH 252130Z 01010KT 340V040 9999 FEW010 SCT020 11/09 Q1021 NOSIG
VHHH,2017-02-25 22:00,113.9219,22.3094,51.80,46.40,81.74,60.00,6.00,0.00,30.15,M,5.59,M,FEW,SCT,M,M,1000.00,2000.00,M,M,M,M,M,M,M,M,M,51.80,VHHH 252200Z 06006KT 010V090 9000 FEW010 SCT020 11/08 Q1021 NOSIG
VHHH,2017-02-25 22:30,113.9219,22.3094,51.80,46.40,81.74,20.00,7.00,0.00,30.15,M,6.21,M,FEW,SCT,M,M,1000.00,2000.00,M,M,M,M,M,M,M,M,M,51.80,VHHH 252230Z 02007KT 9999 FEW010 SCT020 11/08 Q1021 NOSIG
VHHH,2017-02-25 23:00,113.9219,22.3094,51.80,46.40,81.74,20.00,7.00,0.00,30.15,M,6.21,M,FEW,SCT,M,M,1000.00,3500.00,M,M,M,M,M,M,M,M,M,51.80,VHHH 252300Z 02007KT 9999 FEW010 SCT035 11/08 Q1021 NOSIG
VHHH,2017-02-25 23:30,113.9219,22.3094,51.80,44.60,76.34,40.00,8.00,0.00,30.15,M,6.21,M,FEW,SCT,M,M,1000.00,3500.00,M,M,M,M,M,M,M,M,M,51.80,VHHH 252330Z 04008KT 9999 FEW010 SCT035 11/07 Q1021 NOSIG
VHHH,2017-02-26 00:00,113.9219,22.3094,51.80,46.40,81.74,360.00,11.00,0.00,30.18,M,6.21,M,FEW,SCT,M,M,1200.00,1800.00,M,M,M,M,M,M,M,M,M,51.80,VHHH 260000Z 36011KT 330V030 9999 FEW012 SCT018 11/08 Q1022 NOSIG
VHHH,2017-02-26 00:30,113.9219,22.3094,53.60,44.60,71.45,40.00,8.00,0.00,30.18,M,6.21,M,FEW,SCT,M,M,1200.00,1800.00,M,M,M,M,M,M,M,M,M,53.60,VHHH 260030Z 04008KT 360V060 9999 FEW012 SCT018 12/07 Q1022 NOSIG
VHHH,2017-02-26 01:00,113.9219,22.3094,51.80,44.60,76.34,30.00,8.00,0.00,30.21,M,6.21,M,FEW,SCT,M,M,1200.00,1800.00,M,M,M,M,M,M,M,M,M,51.80,VHHH 260100Z 03008KT 360V060 9999 FEW012 SCT018 11/07 Q1023 NOSIG
VHHH,2017-02-26 01:30,113.9219,22.3094,53.60,44.60,71.45,20.00,7.00,0.00,30.21,M,6.21,M,FEW,SCT,M,M,1200.00,2200.00,M,M,M,M,M,M,M,M,M,53.60,VHHH 260130Z 02007KT 350V050 9999 FEW012 SCT022 12/07 Q1023 NOSIG
VHHH,2017-02-26 02:00,113.9219,22.3094,53.60,46.40,76.50,360.00,9.00,0.00,30.21,M,6.21,M,FEW,SCT,M,M,1200.00,2200.00,M,M,M,M,M,M,M,M,M,53.60,VHHH 260200Z 36009KT 9999 FEW012 SCT022 12/08 Q1023 NOSIG
VHHH,2017-02-26 02:30,113.9219,22.3094,55.40,44.60,66.91,30.00,7.00,0.00,30.21,M,6.21,M,FEW,SCT,M,M,1500.00,3000.00,M,M,M,M,M,M,M,M,M,55.40,VHHH 260230Z 03007KT 9999 FEW015 SCT030 13/07 Q1023 NOSIG
VHHH,2017-02-26 03:00,113.9219,22.3094,55.40,44.60,66.91,40.00,6.00,0.00,30.21,M,6.21,M,FEW,SCT,M,M,1500.00,4500.00,M,M,M,M,M,M,M,M,M,55.40,VHHH 260300Z 04006KT 020V080 9999 FEW015 SCT045 13/07 Q1023 NOSIG
VHHH,2017-02-26 03:30,113.9219,22.3094,55.40,46.40,71.64,360.00,10.00,0.00,30.18,M,6.21,M,FEW,SCT,M,M,1500.00,4500.00,M,M,M,M,M,M,M,M,M,55.40,VHHH 260330Z 36010KT 9999 FEW015 SCT045 13/08 Q1022 NOSIG
VHHH,2017-02-26 04:00,113.9219,22.3094,57.20,46.40,67.12,340.00,10.00,0.00,30.18,M,6.21,M,FEW,SCT,M,M,1500.00,4500.00,M,M,M,M,M,M,M,M,M,57.20,VHHH 260400Z 34010KT 9999 FEW015 SCT045 14/08 Q1022 NOSIG
VHHH,2017-02-26 04:30,113.9219,22.3094,57.20,46.40,67.12,340.00,7.00,0.00,30.15,M,6.21,M,FEW,SCT,M,M,1500.00,4500.00,M,M,M,M,M,M,M,M,M,57.20,VHHH 260430Z 34007KT 9999 FEW015 SCT045 14/08 Q1021 NOSIG
VHHH,2017-02-26 05:00,113.9219,22.3094,57.20,46.40,67.12,320.00,7.00,0.00,30.15,M,6.21,M,FEW,SCT,M,M,1500.00,4500.00,M,M,M,M,M,M,M,M,M,57.20,VHHH 260500Z 32007KT 9999 FEW015 SCT045 14/08 Q1021 NOSIG
VHHH,2017-02-26 05:30,113.9219,22.3094,59.00,46.40,62.92,330.00,8.00,0.00,30.15,M,6.21,M,FEW,SCT,M,M,1500.00,4500.00,M,M,M,M,M,M,M,M,M,59.00,VHHH 260530Z 33008KT 300V360 9999 FEW015 SCT045 15/08 Q1021 NOSIG
VHHH,2017-02-26 06:00,113.9219,22.3094,60.80,46.40,59.01,320.00,8.00,0.00,30.12,M,6.21,M,FEW,SCT,M,M,2500.00,4500.00,M,M,M,M,M,M,M,M,M,60.80,VHHH 260600Z 32008KT 9999 FEW025 SCT045 16/08 Q1020 NOSIG
VHHH,2017-02-26 06:30,113.9219,22.3094,59.00,46.40,62.92,320.00,5.00,0.00,30.12,M,6.21,M,FEW,SCT,M,M,2500.00,4500.00,M,M,M,M,M,M,M,M,M,59.00,VHHH 260630Z 32005KT 280V340 9999 FEW025 SCT045 15/08 Q1020 NOSIG
VHHH,2017-02-26 07:00,113.9219,22.3094,59.00,48.20,67.33,290.00,5.00,0.00,30.12,M,5.59,M,FEW,SCT,M,M,3000.00,4500.00,M,M,M,M,M,M,M,M,M,59.00,VHHH 260700Z 29005KT 9000 FEW030 SCT045 15/09 Q1020 NOSIG
VHHH,2017-02-26 07:30,113.9219,22.3094,60.80,48.20,63.15,280.00,5.00,0.00,30.12,M,5.59,M,FEW,SCT,M,M,3000.00,4500.00,M,M,M,M,M,M,M,M,M,60.80,VHHH 260730Z 28005KT 250V310 9000 FEW030 SCT045 16/09 Q1020 NOSIG
VHHH,2017-02-26 08:00,113.9219,22.3094,60.80,48.20,63.15,300.00,5.00,0.00,30.09,M,5.59,M,FEW,SCT,M,M,3000.00,4500.00,M,M,M,M,M,M,M,M,M,60.80,VHHH 260800Z 30005KT 9000 FEW030 SCT045 16/09 Q1019 NOSIG
VHHH,2017-02-26 08:30,113.9219,22.3094,60.80,48.20,63.15,310.00,4.00,0.00,30.09,M,4.97,M,FEW,SCT,M,M,3000.00,4500.00,M,M,M,M,M,M,M,M,M,60.80,VHHH 260830Z 31004KT 8000 FEW030 SCT045 16/09 Q1019 NOSIG
VHHH,2017-02-26 09:00,113.9219,22.3094,60.80,50.00,67.54,320.00,5.00,0.00,30.12,M,4.97,M,FEW,SCT,M,M,3000.00,4500.00,M,M,M,M,M,M,M,M,M,60.80,VHHH 260900Z 32005KT 8000 FEW030 SCT045 16/10 Q1020 NOSIG
VHHH,2017-02-26 09:30,113.9219,22.3094,60.80,48.20,63.15,310.00,3.00,0.00,30.12,M,4.97,M,FEW,SCT,M,M,3000.00,4500.00,M,M,M,M,M,M,M,M,M,60.80,VHHH 260930Z 31003KT 250V340 8000 FEW030 SCT045 16/09 Q1020 NOSIG
VHHH,2017-02-26 10:00,113.9219,22.3094,60.80,48.20,63.15,330.00,3.00,0.00,30.12,M,5.59,M,FEW,SCT,M,M,3000.00,4500.00,M,M,M,M,M,M,M,M,M,60.80,VHHH 261000Z 33003KT 290V020 9000 FEW030 SCT045 16/09 Q1020 NOSIG
VHHH,2017-02-26 10:30,113.9219,22.3094,60.80,48.20,63.15,30.00,3.00,0.00,30.12,M,4.97,M,FEW,SCT,M,M,3000.00,4500.00,M,M,M,M,M,M,M,M,M,60.80,VHHH 261030Z 03003KT 8000 FEW030 SCT045 16/09 Q1020 NOSIG
VHHH,2017-02-26 11:00,113.9219,22.3094,60.80,50.00,67.54,M,3.00,0.00,30.15,M,5.59,M,FEW,SCT,M,M,3000.00,4500.00,M,M,M,M,M,M,M,M,M,60.80,VHHH 261100Z VRB03KT 9000 FEW030 SCT045 16/10 Q1021 NOSIG
VHHH,2017-02-26 11:30,113.9219,22.3094,60.80,48.20,63.15,M,3.00,0.00,30.15,M,6.21,M,FEW,SCT,M,M,3000.00,4500.00,M,M,M,M,M,M,M,M,M,60.80,VHHH 261130Z VRB03KT 9999 FEW030 SCT045 16/09 Q1021 NOSIG
VHHH,2017-02-26 12:00,113.9219,22.3094,60.80,50.00,67.54,200.00,4.00,0.00,30.15,M,5.59,M,FEW,SCT,M,M,3500.00,4500.00,M,M,M,M,M,M,M,M,M,60.80,VHHH 261200Z 20004KT 170V240 9000 FEW035 SCT045 16/10 Q1021 NOSIG
VHHH,2017-02-26 12:30,113.9219,22.3094,60.80,50.00,67.54,190.00,3.00,0.00,30.15,M,6.21,M,FEW,M,M,M,3500.00,M,M,M,M,M,M,M,M,M,M,60.80,VHHH 261230Z 19003KT 140V230 9999 FEW035 16/10 Q1021 NOSIG
VHHH,2017-02-26 13:00,113.9219,22.3094,62.60,50.00,63.38,100.00,5.00,0.00,30.15,M,6.21,M,FEW,M,M,M,3500.00,M,M,M,M,M,M,M,M,M,M,62.60,VHHH 261300Z 10005KT 070V140 9999 FEW035 17/10 Q1021 NOSIG
VHHH,2017-02-26 13:30,113.9219,22.3094,62.60,50.00,63.38,90.00,7.00,0.00,30.15,M,6.21,M,FEW,M,M,M,3500.00,M,M,M,M,M,M,M,M,M,M,62.60,VHHH 261330Z 09007KT 9999 FEW035 17/10 Q1021 NOSIG
VHHH,2017-02-26 14:00,113.9219,22.3094,60.80,50.00,67.54,100.00,4.00,0.00,30.18,M,6.21,M,FEW,M,M,M,3500.00,M,M,M,M,M,M,M,M,M,M,60.80,VHHH 261400Z 10004KT 070V140 9999 FEW035 16/10 Q1022 NOSIG
VHHH,2017-02-26 14:30,113.9219,22.3094,60.80,50.00,67.54,70.00,4.00,0.00,30.18,M,6.21,M,FEW,M,M,M,3500.00,M,M,M,M,M,M,M,M,M,M,60.80,VHHH 261430Z 07004KT 9999 FEW035 16/10 Q1022 NOSIG
VHHH,2017-02-26 15:00,113.9219,22.3094,62.60,50.00,63.38,M,3.00,0.00,30.18,M,6.21,M,FEW,M,M,M,3500.00,M,M,M,M,M,M,M,M,M,M,62.60,VHHH 261500Z VRB03KT 040V150 9999 FEW035 17/10 Q1022 NOSIG
VHHH,2017-02-26 15:30,113.9219,22.3094,62.60,50.00,63.38,50.00,4.00,0.00,30.18,M,6.21,M,FEW,M,M,M,3500.00,M,M,M,M,M,M,M,M,M,M,62.60,VHHH 261530Z 05004KT 9999 FEW035 17/10 Q1022 NOSIG
VHHH,2017-02-26 16:00,113.9219,22.3094,62.60,50.00,63.38,70.00,4.00,0.00,30.18,M,6.21,M,FEW,M,M,M,3500.00,M,M,M,M,M,M,M,M,M,M,62.60,VHHH 261600Z 07004KT 9999 FEW035 17/10 Q1022 NOSIG
VHHH,2017-02-26 16:30,113.9219,22.3094,62.60,50.00,63.38,60.00,3.00,0.00,30.18,M,6.21,M,FEW,M,M,M,3500.00,M,M,M,M,M,M,M,M,M,M,62.60,VHHH 261630Z 06003KT 9999 FEW035 17/10 Q1022 NOSIG
VHHH,2017-02-26 17:00,113.9219,22.3094,62.60,51.80,67.75,80.00,6.00,0.00,30.18,M,6.21,M,FEW,M,M,M,3500.00,M,M,M,M,M,M,M,M,M,M,62.60,VHHH 261700Z 08006KT 9999 FEW035 17/11 Q1022 NOSIG
VHHH,2017-02-26 17:30,113.9219,22.3094,60.80,51.80,72.20,90.00,4.00,0.00,30.18,M,6.21,M,FEW,M,M,M,3500.00,M,M,M,M,M,M,M,M,M,M,60.80,VHHH 261730Z 09004KT 060V140 9999 FEW035 16/11 Q1022 NOSIG
VHHH,2017-02-26 18:00,113.9219,22.3094,60.80,51.80,72.20,100.00,7.00,0.00,30.18,M,6.21,M,FEW,M,M,M,3500.00,M,M,M,M,M,M,M,M,M,M,60.80,VHHH 261800Z 10007KT 070V130 9999 FEW035 16/11 Q1022 NOSIG
VHHH,2017-02-26 18:30,113.9219,22.3094,60.80,53.60,77.14,90.00,5.00,0.00,30.18,M,6.21,M,FEW,M,M,M,3500.00,M,M,M,M,M,M,M,M,M,M,60.80,VHHH 261830Z 09005KT 050V140 9999 FEW035 16/12 Q1022 NOSIG
VHHH,2017-02-26 19:00,113.9219,22.3094,60.80,51.80,72.20,80.00,4.00,0.00,30.18,M,6.21,M,FEW,M,M,M,3500.00,M,M,M,M,M,M,M,M,M,M,60.80,VHHH 261900Z 08004KT 9999 FEW035 16/11 Q1022 NOSIG
VHHH,2017-02-26 19:30,113.9219,22.3094,60.80,51.80,72.20,90.00,6.00,0.00,30.18,M,6.21,M,FEW,M,M,M,3500.00,M,M,M,M,M,M,M,M,M,M,60.80,VHHH 261930Z 09006KT 9999 FEW035 16/11 Q1022 NOSIG
VHHH,2017-02-26 20:00,113.9219,22.3094,60.80,53.60,77.14,90.00,4.00,0.00,30.18,M,6.21,M,FEW,M,M,M,3500.00,M,M,M,M,M,M,M,M,M,M,60.80,VHHH 262000Z 09004KT 050V120 9999 FEW035 16/12 Q1022 NOSIG
VHHH,2017-02-26 20:30,113.9219,22.3094,60.80,53.60,77.14,110.00,5.00,0.00,30.15,M,6.21,M,FEW,M,M,M,3500.00,M,M,M,M,M,M,M,M,M,M,60.80,VHHH 262030Z 11005KT 090V150 9999 FEW035 16/12 Q1021 NOSIG
VHHH,2017-02-26 21:00,113.9219,22.3094,60.80,53.60,77.14,80.00,4.00,0.00,30.18,M,6.21,M,FEW,M,M,M,3500.00,M,M,M,M,M,M,M,M,M,M,60.80,VHHH 262100Z 08004KT 9999 FEW035 16/12 Q1022 NOSIG
VHHH,2017-02-26 21:30,113.9219,22.3094,60.80,53.60,77.14,70.00,4.00,0.00,30.18,M,6.21,M,FEW,M,M,M,3500.00,M,M,M,M,M,M,M,M,M,M,60.80,VHHH 262130Z 07004KT 9999 FEW035 16/12 Q1022 NOSIG
VHHH,2017-02-26 22:00,113.9219,22.3094,60.80,53.60,77.14,40.00,6.00,0.00,30.18,M,6.21,M,FEW,M,M,M,3500.00,M,M,M,M,M,M,M,M,M,M,60.80,VHHH 262200Z 04006KT 9999 FEW035 16/12 Q1022 NOSIG
VHHH,2017-02-26 22:30,113.9219,22.3094,60.80,51.80,72.20,40.00,7.00,0.00,30.18,M,6.21,M,FEW,M,M,M,3000.00,M,M,M,M,M,M,M,M,M,M,60.80,VHHH 262230Z 04007KT 9999 FEW030 16/11 Q1022 NOSIG
VHHH,2017-02-26 23:00,113.9219,22.3094,60.80,53.60,77.14,50.00,9.00,0.00,30.21,M,6.21,M,FEW,M,M,M,3000.00,M,M,M,M,M,M,M,M,M,M,60.80,VHHH 262300Z 05009KT 9999 FEW030 16/12 Q1023 NOSIG
VHHH,2017-02-26 23:30,113.9219,22.3094,60.80,53.60,77.14,40.00,9.00,0.00,30.21,M,6.21,M,FEW,M,M,M,2000.00,M,M,M,M,M,M,M,M,M,M,60.80,VHHH 262330Z 04009KT 9999 FEW020 16/12 Q1023 NOSIG
VHHH,2017-02-27 00:00,113.9219,22.3094,60.80,53.60,77.14,40.00,10.00,0.00,30.21,M,6.21,M,FEW,M,M,M,2000.00,M,M,M,M,M,M,M,M,M,M,60.80,VHHH 270000Z 04010KT 9999 FEW020 16/12 Q1023 NOSIG
VHHH,2017-02-27 00:30,113.9219,22.3094,60.80,53.60,77.14,40.00,8.00,0.00,30.24,M,6.21,M,FEW,M,M,M,2600.00,M,M,M,M,M,M,M,M,M,M,60.80,VHHH 270030Z 04008KT 9999 FEW026 16/12 Q1024 NOSIG
VHHH,2017-02-27 01:00,113.9219,22.3094,62.60,53.60,72.38,60.00,6.00,0.00,30.24,M,6.21,M,FEW,M,M,M,1800.00,M,M,M,M,M,M,M,M,M,M,62.60,VHHH 270100Z 06006KT 9999 FEW018 17/12 Q1024 NOSIG
VHHH,2017-02-27 01:30,113.9219,22.3094,62.60,51.80,67.75,50.00,7.00,0.00,30.24,M,6.21,M,M,M,M,M,M,M,M,M,M,M,M,M,M,M,M,62.60,VHHH 270130Z 05007KT CAVOK 17/11 Q1024 NOSIG
VHHH,2017-02-27 02:00,113.9219,22.3094,64.40,37.40,36.74,90.00,15.00,0.00,30.24,M,6.21,M,M,M,M,M,M,M,M,M,M,M,M,M,M,M,M,64.40,VHHH 270200Z 09015KT CAVOK 18/03 Q1024 NOSIG
VHHH,2017-02-27 02:30,113.9219,22.3094,64.40,37.40,36.74,80.00,14.00,0.00,30.24,M,6.21,M,M,M,M,M,M,M,M,M,M,M,M,M,M,M,M,64.40,VHHH 270230Z 08014KT CAVOK 18/03 Q1024 NOSIG
VHHH,2017-02-27 03:00,113.9219,22.3094,66.20,39.20,37.03,80.00,16.00,0.00,30.24,M,6.21,M,M,M,M,M,M,M,M,M,M,M,M,M,M,M,M,66.20,VHHH 270300Z 08016KT CAVOK 19/04 Q1024 NOSIG
VHHH,2017-02-27 03:30,113.9219,22.3094,68.00,37.40,32.43,80.00,15.00,0.00,30.21,M,6.21,M,M,M,M,M,M,M,M,M,M,M,M,M,M,M,M,68.00,VHHH 270330Z 08015KT CAVOK 20/03 Q1023 NOSIG
VHHH,2017-02-27 04:00,113.9219,22.3094,68.00,41.00,37.32,90.00,13.00,0.00,30.21,M,6.21,M,M,M,M,M,M,M,M,M,M,M,M,M,M,M,M,68.00,VHHH 270400Z 09013KT 060V120 CAVOK 20/05 Q1023 NOSIG
VHHH,2017-02-27 04:30,113.9219,22.3094,68.00,35.60,30.20,120.00,13.00,0.00,30.21,M,6.21,M,M,M,M,M,M,M,M,M,M,M,M,M,M,M,M,68.00,VHHH 270430Z 12013KT 090V170 CAVOK 20/02 Q1023 NOSIG
VHHH,2017-02-27 05:00,113.9219,22.3094,68.00,37.40,32.43,120.00,14.00,0.00,30.18,M,6.21,M,M,M,M,M,M,M,M,M,M,M,M,M,M,M,M,68.00,VHHH 270500Z 12014KT 100V160 CAVOK 20/03 Q1022 NOSIG
VHHH,2017-02-27 05:30,113.9219,22.3094,69.80,37.40,30.49,120.00,15.00,0.00,30.15,M,6.21,M,M,M,M,M,M,M,M,M,M,M,M,M,M,M,M,69.80,VHHH 270530Z 12015KT CAVOK 21/03 Q1021 NOSIG
VHHH,2017-02-27 06:00,113.9219,22.3094,68.00,35.60,30.20,120.00,16.00,0.00,30.15,M,6.21,M,M,M,M,M,M,M,M,M,M,M,M,M,M,M,M,68.00,VHHH 270600Z 12016KT CAVOK 20/02 Q1021 NOSIG
VHHH,2017-02-27 06:30,113.9219,22.3094,68.00,37.40,32.43,120.00,15.00,0.00,30.15,M,6.21,M,M,M,M,M,M,M,M,M,M,M,M,M,M,M,M,68.00,VHHH 270630Z 12015KT CAVOK 20/03 Q1021 NOSIG
VHHH,2017-02-27 07:00,113.9219,22.3094,69.80,35.60,28.39,110.00,14.00,0.00,30.15,M,6.21,M,FEW,M,M,M,4500.00,M,M,M,M,M,M,M,M,M,M,69.80,VHHH 270700Z 11014KT 9999 FEW045 21/02 Q1021 NOSIG
VHHH,2017-02-27 07:30,113.9219,22.3094,68.00,35.60,30.20,110.00,14.00,0.00,30.15,M,6.21,M,FEW,M,M,M,4500.00,M,M,M,M,M,M,M,M,M,M,68.00,VHHH 270730Z 11014KT 9999 FEW045 20/02 Q1021 NOSIG
VHHH,2017-02-27 08:00,113.9219,22.3094,68.00,35.60,30.20,110.00,12.00,0.00,30.12,M,6.21,M,FEW,M,M,M,4500.00,M,M,M,M,M,M,M,M,M,M,68.00,VHHH 270800Z 11012KT 9999 FEW045 20/02 Q1020 NOSIG
VHHH,2017-02-27 08:30,113.9219,22.3094,68.00,37.40,32.43,130.00,10.00,0.00,30.12,M,6.21,M,FEW,M,M,M,4500.00,M,M,M,M,M,M,M,M,M,M,68.00,VHHH 270830Z 13010KT 100V180 9999 FEW045 20/03 Q1020 NOSIG
VHHH,2017-02-27 09:00,113.9219,22.3094,68.00,39.20,34.80,110.00,9.00,0.00,30.15,M,6.21,M,FEW,M,M,M,4500.00,M,M,M,M,M,M,M,M,M,M,68.00,VHHH 270900Z 11009KT 070V160 9999 FEW045 20/04 Q1021 NOSIG
VHHH,2017-02-27 09:30,113.9219,22.3094,66.20,42.80,42.57,100.00,11.00,0.00,30.15,M,6.21,M,M,M,M,M,M,M,M,M,M,M,M,M,M,M,M,66.20,VHHH 270930Z 10011KT CAVOK 19/06 Q1021 NOSIG
VHHH,2017-02-27 10:00,113.9219,22.3094,66.20,42.80,42.57,110.00,10.00,0.00,30.15,M,6.21,M,FEW,M,M,M,4500.00,M,M,M,M,M,M,M,M,M,M,66.20,VHHH 271000Z 11010KT 090V150 9999 FEW045 19/06 Q1021 NOSIG
VHHH,2017-02-27 10:30,113.9219,22.3094,64.40,44.60,48.55,100.00,11.00,0.00,30.15,M,6.21,M,FEW,M,M,M,4500.00,M,M,M,M,M,M,M,M,M,M,64.40,VHHH 271030Z 10011KT 9999 FEW045 18/07 Q1021 NOSIG
VHHH,2017-02-27 11:00,113.9219,22.3094,64.40,46.40,51.98,110.00,10.00,0.00,30.15,M,6.21,M,FEW,M,M,M,4500.00,M,M,M,M,M,M,M,M,M,M,64.40,VHHH 271100Z 11010KT 9999 FEW045 18/08 Q1021 NOSIG
VHHH,2017-02-27 11:30,113.9219,22.3094,64.40,46.40,51.98,120.00,9.00,0.00,30.15,M,6.21,M,FEW,M,M,M,4500.00,M,M,M,M,M,M,M,M,M,M,64.40,VHHH 271130Z 12009KT 090V160 9999 FEW045 18/08 Q1021 NOSIG
VHHH,2017-02-27 12:00,113.9219,22.3094,64.40,46.40,51.98,100.00,8.00,0.00,30.18,M,6.21,M,FEW,M,M,M,4500.00,M,M,M,M,M,M,M,M,M,M,64.40,VHHH 271200Z 10008KT 080V140 9999 FEW045 18/08 Q1022 NOSIG
VHHH,2017-02-27 12:30,113.9219,22.3094,66.20,46.40,48.83,80.00,9.00,0.00,30.18,M,6.21,M,FEW,M,M,M,4500.00,M,M,M,M,M,M,M,M,M,M,66.20,VHHH 271230Z 08009KT 9999 FEW045 19/08 Q1022 NOSIG
VHHH,2017-02-27 13:00,113.9219,22.3094,64.40,48.20,55.63,100.00,8.00,0.00,30.18,M,6.21,M,FEW,M,M,M,4500.00,M,M,M,M,M,M,M,M,M,M,64.40,VHHH 271300Z 10008KT 070V130 9999 FEW045 18/09 Q1022 NOSIG
VHHH,2017-02-27 13:30,113.9219,22.3094,64.40,50.00,59.50,110.00,13.00,0.00,30.18,M,6.21,M,FEW,M,M,M,4500.00,M,M,M,M,M,M,M,M,M,M,64.40,VHHH 271330Z 11013KT 090V150 9999 FEW045 18/10 Q1022 NOSIG
VHHH,2017-02-27 14:00,113.9219,22.3094,64.40,51.80,63.60,100.00,15.00,0.00,30.18,M,6.21,M,FEW,M,M,M,4500.00,M,M,M,M,M,M,M,M,M,M,64.40,VHHH 271400Z 10015KT 9999 FEW045 18/11 Q1022 NOSIG
VHHH,2017-02-27 14:30,113.9219,22.3094,64.40,51.80,63.60,90.00,15.00,0.00,30.18,M,6.21,M,FEW,M,M,M,4500.00,M,M,M,M,M,M,M,M,M,M,64.40,VHHH 271430Z 09015KT 9999 FEW045 18/11 Q1022 NOSIG
VHHH,2017-02-27 15:00,113.9219,22.3094,64.40,51.80,63.60,90.00,15.00,0.00,30.18,M,6.21,M,FEW,M,M,M,4500.00,M,M,M,M,M,M,M,M,M,M,64.40,VHHH 271500Z 09015KT 9999 FEW045 18/11 Q1022 NOSIG
VHHH,2017-02-27 15:30,113.9219,22.3094,64.40,50.00,59.50,90.00,13.00,0.00,30.18,M,6.21,M,FEW,M,M,M,4000.00,M,M,M,M,M,M,M,M,M,M,64.40,VHHH 271530Z 09013KT 9999 FEW040 18/10 Q1022 NOSIG
VHHH,2017-02-27 16:00,113.9219,22.3094,64.40,50.00,59.50,100.00,12.00,0.00,30.18,M,6.21,M,FEW,M,M,M,4000.00,M,M,M,M,M,M,M,M,M,M,64.40,VHHH 271600Z 10012KT 9999 FEW040 18/10 Q1022 NOSIG
VHHH,2017-02-27 16:30,113.9219,22.3094,64.40,50.00,59.50,110.00,11.00,0.00,30.18,M,6.21,M,FEW,M,M,M,4000.00,M,M,M,M,M,M,M,M,M,M,64.40,VHHH 271630Z 11011KT 090V160 9999 FEW040 18/10 Q1022 NOSIG
VHHH,2017-02-27 17:00,113.9219,22.3094,62.60,50.00,63.38,120.00,10.00,0.00,30.18,M,6.21,M,FEW,M,M,M,4000.00,M,M,M,M,M,M,M,M,M,M,62.60,VHHH 271700Z 12010KT 080V150 9999 FEW040 17/10 Q1022 NOSIG
VHHH,2017-02-27 17:30,113.9219,22.3094,62.60,50.00,63.38,110.00,10.00,0.00,30.18,M,6.21,M,M,M,M,M,M,M,M,M,M,M,M,M,M,M,M,62.60,VHHH 271730Z 11010KT 090V170 CAVOK 17/10 Q1022 NOSIG
VHHH,2017-02-27 18:00,113.9219,22.3094,62.60,50.00,63.38,110.00,14.00,0.00,30.18,M,6.21,M,M,M,M,M,M,M,M,M,M,M,M,M,M,M,M,62.60,VHHH 271800Z 11014KT CAVOK 17/10 Q1022 NOSIG
VHHH,2017-02-27 18:30,113.9219,22.3094,62.60,48.20,59.26,110.00,14.00,0.00,30.15,M,6.21,M,M,M,M,M,M,M,M,M,M,M,M,M,M,M,M,62.60,VHHH 271830Z 11014KT CAVOK 17/09 Q1021 NOSIG
VHHH,2017-02-27 19:00,113.9219,22.3094,60.80,48.20,63.15,110.00,15.00,0.00,30.15,M,6.21,M,M,M,M,M,M,M,M,M,M,M,M,M,M,M,M,60.80,VHHH 271900Z 11015KT CAVOK 16/09 Q1021 NOSIG
VHHH,2017-02-27 19:30,113.9219,22.3094,60.80,46.40,59.01,110.00,13.00,0.00,30.15,M,6.21,M,M,M,M,M,M,M,M,M,M,M,M,M,M,M,M,60.80,VHHH 271930Z 11013KT CAVOK 16/08 Q1021 NOSIG
VHHH,2017-02-27 20:00,113.9219,22.3094,60.80,46.40,59.01,110.00,17.00,0.00,30.12,M,6.21,M,FEW,M,M,M,4000.00,M,M,M,M,M,M,M,M,M,M,60.80,VHHH 272000Z 11017KT 9999 FEW040 16/08 Q1020 NOSIG
VHHH,2017-02-27 20:30,113.9219,22.3094,60.80,46.40,59.01,90.00,15.00,0.00,30.12,M,6.21,M,FEW,M,M,M,4000.00,M,M,M,M,M,M,M,M,M,M,60.80,VHHH 272030Z 09015KT 9999 FEW040 16/08 Q1020 NOSIG
VHHH,2017-02-27 21:00,113.9219,22.3094,60.80,42.80,51.45,110.00,14.00,0.00,30.12,M,6.21,M,FEW,M,M,M,4000.00,M,M,M,M,M,M,M,M,M,M,60.80,VHHH 272100Z 11014KT 9999 FEW040 16/06 Q1020 NOSIG
VHHH,2017-02-27 21:30,113.9219,22.3094,60.80,42.80,51.45,90.00,12.00,0.00,30.15,M,6.21,M,FEW,M,M,M,4000.00,M,M,M,M,M,M,M,M,M,M,60.80,VHHH 272130Z 09012KT 9999 FEW040 16/06 Q1021 NOSIG
VHHH,2017-02-27 22:00,113.9219,22.3094,60.80,44.60,55.12,70.00,11.00,0.00,30.15,M,6.21,M,FEW,M,M,M,4000.00,M,M,M,M,M,M,M,M,M,M,60.80,VHHH 272200Z 07011KT 9999 FEW040 16/07 Q1021 NOSIG
VHHH,2017-02-27 22:30,113.9219,22.3094,60.80,42.80,51.45,90.00,7.00,0.00,30.18,M,6.21,M,FEW,M,M,M,4500.00,M,M,M,M,M,M,M,M,M,M,60.80,VHHH 272230Z 09007KT 9999 FEW045 16/06 Q1022 NOSIG
VHHH,2017-02-27 23:00,113.9219,22.3094,60.80,44.60,55.12,80.00,8.00,0.00,30.18,M,6.21,M,FEW,M,M,M,4500.00,M,M,M,M,M,M,M,M,M,M,60.80,VHHH 272300Z 08008KT 9999 FEW045 16/07 Q1022 NOSIG
VHHH,2017-02-27 23:30,113.9219,22.3094,60.80,42.80,51.45,100.00,9.00,0.00,30.18,M,6.21,M,FEW,M,M,M,4500.00,M,M,M,M,M,M,M,M,M,M,60.80,VHHH 272330Z 10009KT 9999 FEW045 16/06 Q1022 NOSIG
